{"type": "FeatureCollection", "features": [{"type": "Feature", "geometry": {"type": "Polygon", "coordinates": [[[-130.1517, 59.9914], [-130.1517, 59.9873], [-130.1017, 59.9873], [-130.1017, 59.9998], [-130.1517, 59.9998], [-130.1517, 59.9914]]]}, "properties": {"company_id": "agnico-eagle", "jurisdiction": "British Columbia", "claim_id": 513792, "claim_name": "TOOTZ1", "holder": "AGNICO EAGLE MINES LIMITED/MINES AGNICO EAGLE LIMITEE", "status": "Mineral", "recorded_date": "2005-06-02", "anniversary_or_expiry": "2025-01-22", "area_ha": 388.618, "tenure_type": "Mineral", "source": "BC MTA Mineral, Placer and Coal Tenure Spatial View (BCGW). Open Government Licence - British Columbia. Not legal title.", "as_of": "2026-09-20", "role": "focus", "color": "#e8b040"}}, {"type": "Feature", "geometry": {"type": "Polygon", "coordinates": [[[-130.1017, 59.9914], [-130.1017, 59.9873], [-130.0517, 59.9873], [-130.0517, 59.9998], [-130.1017, 59.9998], [-130.1017, 59.9914]]]}, "properties": {"company_id": "agnico-eagle", "jurisdiction": "British Columbia", "claim_id": 513793, "claim_name": "TOOTZ2", "holder": "AGNICO EAGLE MINES LIMITED/MINES AGNICO EAGLE LIMITEE", "status": "Mineral", "recorded_date": "2005-06-02", "anniversary_or_expiry": "2025-01-22", "area_ha": 388.61400000000003, "tenure_type": "Mineral", "source": "BC MTA Mineral, Placer and Coal Tenure Spatial View (BCGW). Open Government Licence - British Columbia. Not legal title.", "as_of": "2026-09-20", "role": "focus", "color": "#e8b040"}}, {"type": "Feature", "geometry": {"type": "Polygon", "coordinates": [[[-130.1517, 59.9789], [-130.1517, 59.9748], [-130.1017, 59.9748], [-130.1017, 59.9873], [-130.1517, 59.9873], [-130.1517, 59.9789]]]}, "properties": {"company_id": "agnico-eagle", "jurisdiction": "British Columbia", "claim_id": 515237, "claim_name": "TOOTZ3", "holder": "AGNICO EAGLE MINES LIMITED/MINES AGNICO EAGLE LIMITEE", "status": "Mineral", "recorded_date": "2005-06-24", "anniversary_or_expiry": "2025-01-22", "area_ha": 388.76500000000004, "tenure_type": "Mineral", "source": "BC MTA Mineral, Placer and Coal Tenure Spatial View (BCGW). Open Government Licence - British Columbia. Not legal title.", "as_of": "2026-09-20", "role": "focus", "color": "#e8b040"}}, {"type": "Feature", "geometry": {"type": "Polygon", "coordinates": [[[-130.1517, 59.9664], [-130.1517, 59.9623], [-130.1017, 59.9623], [-130.1017, 59.9748], [-130.1517, 59.9748], [-130.1517, 59.9664]]]}, "properties": {"company_id": "agnico-eagle", "jurisdiction": "British Columbia", "claim_id": 515238, "claim_name": "TOOTZ4", "holder": "AGNICO EAGLE MINES LIMITED/MINES AGNICO EAGLE LIMITEE", "status": "Mineral", "recorded_date": "2005-06-24", "anniversary_or_expiry": "2025-01-22", "area_ha": 388.91200000000003, "tenure_type": "Mineral", "source": "BC MTA Mineral, Placer and Coal Tenure Spatial View (BCGW). Open Government Licence - British Columbia. Not legal title.", "as_of": "2026-09-20", "role": "focus", "color": "#e8b040"}}, {"type": "Feature", "geometry": {"type": "Polygon", "coordinates": [[[-130.1017, 59.9748], [-130.1017, 59.9706], [-130.0642, 59.9706], [-130.0642, 59.9873], [-130.1017, 59.9873], [-130.1017, 59.9748]]]}, "properties": {"company_id": "agnico-eagle", "jurisdiction": "British Columbia", "claim_id": 515241, "claim_name": "TOOTZ5", "holder": "AGNICO EAGLE MINES LIMITED/MINES AGNICO EAGLE LIMITEE", "status": "Mineral", "recorded_date": "2005-06-24", "anniversary_or_expiry": "2025-01-22", "area_ha": 388.786, "tenure_type": "Mineral", "source": "BC MTA Mineral, Placer and Coal Tenure Spatial View (BCGW). Open Government Licence - British Columbia. Not legal title.", "as_of": "2026-09-20", "role": "focus", "color": "#e8b040"}}, {"type": "Feature", "geometry": {"type": "Polygon", "coordinates": [[[-130.1017, 59.9581], [-130.1017, 59.9539], [-130.0642, 59.9539], [-130.0642, 59.9706], [-130.1017, 59.9706], [-130.1017, 59.9581]]]}, "properties": {"company_id": "agnico-eagle", "jurisdiction": "British Columbia", "claim_id": 515242, "claim_name": null, "holder": "AGNICO EAGLE MINES LIMITED/MINES AGNICO EAGLE LIMITEE", "status": "Mineral", "recorded_date": "2005-06-24", "anniversary_or_expiry": "2025-01-22", "area_ha": 388.982, "tenure_type": "Mineral", "source": "BC MTA Mineral, Placer and Coal Tenure Spatial View (BCGW). Open Government Licence - British Columbia. Not legal title.", "as_of": "2026-09-20", "role": "focus", "color": "#e8b040"}}, {"type": "Feature", "geometry": {"type": "Polygon", "coordinates": [[[-130.1517, 59.9539], [-130.1517, 59.9498], [-130.1017, 59.9498], [-130.1017, 59.9623], [-130.1517, 59.9623], [-130.1517, 59.9539]]]}, "properties": {"company_id": "agnico-eagle", "jurisdiction": "British Columbia", "claim_id": 515243, "claim_name": "TOOTZ6", "holder": "AGNICO EAGLE MINES LIMITED/MINES AGNICO EAGLE LIMITEE", "status": "Mineral", "recorded_date": "2005-06-24", "anniversary_or_expiry": "2025-01-22", "area_ha": 389.058, "tenure_type": "Mineral", "source": "BC MTA Mineral, Placer and Coal Tenure Spatial View (BCGW). Open Government Licence - British Columbia. Not legal title.", "as_of": "2026-09-20", "role": "focus", "color": "#e8b040"}}, {"type": "Feature", "geometry": {"type": "Polygon", "coordinates": [[[-130.0642, 59.9789], [-130.0642, 59.9748], [-130.0517, 59.9748], [-130.0517, 59.9789], [-130.0392, 59.9789], [-130.0392, 59.9831], [-130.0267, 59.9831], [-130.0267, 59.9998], [-130.0517, 59.9998], [-130.0517, 59.9873], [-130.0642, 59.9873], [-130.0642, 59.9789]]]}, "properties": {"company_id": "agnico-eagle", "jurisdiction": "British Columbia", "claim_id": 515245, "claim_name": "TOOTZ7", "holder": "AGNICO EAGLE MINES LIMITED/MINES AGNICO EAGLE LIMITEE", "status": "Mineral", "recorded_date": "2005-06-24", "anniversary_or_expiry": "2025-01-22", "area_ha": 388.678, "tenure_type": "Mineral", "source": "BC MTA Mineral, Placer and Coal Tenure Spatial View (BCGW). Open Government Licence - British Columbia. Not legal title.", "as_of": "2026-09-20", "role": "focus", "color": "#e8b040"}}]}