{"type": "FeatureCollection", "features": [{"type": "Feature", "geometry": {"type": "Polygon", "coordinates": [[[-121.37, 50.2124], [-121.37, 50.1999], [-121.3513, 50.1999], [-121.3513, 50.1832], [-121.3325, 50.1832], [-121.3325, 50.1916], [-121.3388, 50.1916], [-121.3388, 50.2041], [-121.3513, 50.2041], [-121.3513, 50.2166], [-121.37, 50.2166], [-121.37, 50.2124]]]}, "properties": {"company_id": "almadex-minerals", "jurisdiction": "British Columbia", "claim_id": 508830, "claim_name": "ZAK4", "holder": "ALMADEX MINERALS LTD.", "status": "Mineral", "recorded_date": "2005-03-11", "anniversary_or_expiry": "2028-07-08", "area_ha": 496.391, "tenure_type": "Mineral", "source": "BC MTA Mineral, Placer and Coal Tenure Spatial View (BCGW). Open Government Licence - British Columbia. Not legal title.", "as_of": "2026-09-20", "role": "focus", "color": "#e8b040"}}, {"type": "Feature", "geometry": {"type": "Polygon", "coordinates": [[[-121.37, 50.1749], [-121.37, 50.1582], [-121.345, 50.1582], [-121.345, 50.1791], [-121.37, 50.1791], [-121.37, 50.1749]]]}, "properties": {"company_id": "almadex-minerals", "jurisdiction": "British Columbia", "claim_id": 511667, "claim_name": null, "holder": "ALMADEX MINERALS LTD.", "status": "Mineral", "recorded_date": "2005-04-26", "anniversary_or_expiry": "2027-01-01", "area_ha": 413.932, "tenure_type": "Mineral", "source": "BC MTA Mineral, Placer and Coal Tenure Spatial View (BCGW). Open Government Licence - British Columbia. Not legal title.", "as_of": "2026-09-20", "role": "focus", "color": "#e8b040"}}, {"type": "Feature", "geometry": {"type": "Polygon", "coordinates": [[[-121.345, 50.1749], [-121.345, 50.1582], [-121.3138, 50.1582], [-121.3138, 50.1791], [-121.345, 50.1791], [-121.345, 50.1749]]]}, "properties": {"company_id": "almadex-minerals", "jurisdiction": "British Columbia", "claim_id": 511671, "claim_name": null, "holder": "ALMADEX MINERALS LTD.", "status": "Mineral", "recorded_date": "2005-04-26", "anniversary_or_expiry": "2027-01-01", "area_ha": 517.418, "tenure_type": "Mineral", "source": "BC MTA Mineral, Placer and Coal Tenure Spatial View (BCGW). Open Government Licence - British Columbia. Not legal title.", "as_of": "2026-09-20", "role": "focus", "color": "#e8b040"}}, {"type": "Feature", "geometry": {"type": "Polygon", "coordinates": [[[-121.1013, 50.0999], [-121.1013, 50.0832], [-121.07, 50.0832], [-121.07, 50.104], [-121.1013, 50.104], [-121.1013, 50.0999]]]}, "properties": {"company_id": "almadex-minerals", "jurisdiction": "British Columbia", "claim_id": 511682, "claim_name": null, "holder": "ALMADEX MINERALS LTD.", "status": "Mineral", "recorded_date": "2005-04-26", "anniversary_or_expiry": "2027-12-31", "area_ha": 518.272, "tenure_type": "Mineral", "source": "BC MTA Mineral, Placer and Coal Tenure Spatial View (BCGW). Open Government Licence - British Columbia. Not legal title.", "as_of": "2026-09-20", "role": "focus", "color": "#e8b040"}}, {"type": "Feature", "geometry": {"type": "Polygon", "coordinates": [[[-121.1013, 50.129], [-121.1013, 50.104], [-121.07, 50.104], [-121.07, 50.1165], [-121.0638, 50.1165], [-121.0638, 50.1332], [-121.1013, 50.1332], [-121.1013, 50.129]]]}, "properties": {"company_id": "almadex-minerals", "jurisdiction": "British Columbia", "claim_id": 511707, "claim_name": null, "holder": "ALMADEX MINERALS LTD.", "status": "Mineral", "recorded_date": "2005-04-26", "anniversary_or_expiry": "2027-12-31", "area_ha": 808.071, "tenure_type": "Mineral", "source": "BC MTA Mineral, Placer and Coal Tenure Spatial View (BCGW). Open Government Licence - British Columbia. Not legal title.", "as_of": "2026-09-20", "role": "focus", "color": "#e8b040"}}, {"type": "Feature", "geometry": {"type": "Polygon", "coordinates": [[[-121.1075, 50.1374], [-121.1075, 50.0832], [-121.1013, 50.0832], [-121.1013, 50.1332], [-121.0825, 50.1332], [-121.0825, 50.1415], [-121.1075, 50.1415], [-121.1075, 50.1374]]]}, "properties": {"company_id": "almadex-minerals", "jurisdiction": "British Columbia", "claim_id": 506068, "claim_name": "MRT1", "holder": "ALMADEX MINERALS LTD.", "status": "Mineral", "recorded_date": "2005-02-07", "anniversary_or_expiry": "2027-08-30", "area_ha": 414.386, "tenure_type": "Mineral", "source": "BC MTA Mineral, Placer and Coal Tenure Spatial View (BCGW). Open Government Licence - British Columbia. Not legal title.", "as_of": "2026-09-20", "role": "focus", "color": "#e8b040"}}, {"type": "Feature", "geometry": {"type": "Polygon", "coordinates": [[[-121.3638, 50.1832], [-121.37, 50.1832], [-121.37, 50.1791], [-121.3138, 50.1791], [-121.3138, 50.1582], [-121.37, 50.1582], [-121.37, 50.1541], [-121.3075, 50.1541], [-121.3075, 50.1832], [-121.3638, 50.1832]]]}, "properties": {"company_id": "almadex-minerals", "jurisdiction": "British Columbia", "claim_id": 506513, "claim_name": "ZAK3", "holder": "ALMADEX MINERALS LTD.", "status": "Mineral", "recorded_date": "2005-02-10", "anniversary_or_expiry": "2028-07-08", "area_ha": 517.419, "tenure_type": "Mineral", "source": "BC MTA Mineral, Placer and Coal Tenure Spatial View (BCGW). Open Government Licence - British Columbia. Not legal title.", "as_of": "2026-09-20", "role": "focus", "color": "#e8b040"}}, {"type": "Feature", "geometry": {"type": "Polygon", "coordinates": [[[-121.07, 50.1124], [-121.07, 50.0832], [-121.0638, 50.0832], [-121.0638, 50.1165], [-121.07, 50.1165], [-121.07, 50.1124]]]}, "properties": {"company_id": "almadex-minerals", "jurisdiction": "British Columbia", "claim_id": 518712, "claim_name": "MRT2", "holder": "ALMADEX MINERALS LTD.", "status": "Mineral", "recorded_date": "2005-08-04", "anniversary_or_expiry": "2027-10-01", "area_ha": 165.828, "tenure_type": "Mineral", "source": "BC MTA Mineral, Placer and Coal Tenure Spatial View (BCGW). Open Government Licence - British Columbia. Not legal title.", "as_of": "2026-09-20", "role": "focus", "color": "#e8b040"}}, {"type": "Feature", "geometry": {"type": "Polygon", "coordinates": [[[-121.37, 50.1499], [-121.37, 50.1457], [-121.32, 50.1457], [-121.32, 50.1541], [-121.37, 50.1541], [-121.37, 50.1499]]]}, "properties": {"company_id": "almadex-minerals", "jurisdiction": "British Columbia", "claim_id": 528760, "claim_name": "ZAK 5", "holder": "ALMADEX MINERALS LTD.", "status": "Mineral", "recorded_date": "2006-02-22", "anniversary_or_expiry": "2028-07-08", "area_ha": 331.28200000000004, "tenure_type": "Mineral", "source": "BC MTA Mineral, Placer and Coal Tenure Spatial View (BCGW). Open Government Licence - British Columbia. Not legal title.", "as_of": "2026-09-20", "role": "focus", "color": "#e8b040"}}, {"type": "Feature", "geometry": {"type": "Polygon", "coordinates": [[[-121.3825, 50.1749], [-121.3825, 50.1457], [-121.37, 50.1457], [-121.37, 50.1791], [-121.3825, 50.1791], [-121.3825, 50.1749]]]}, "properties": {"company_id": "almadex-minerals", "jurisdiction": "British Columbia", "claim_id": 528761, "claim_name": "ZAK 6", "holder": "ALMADEX MINERALS LTD.", "status": "Mineral", "recorded_date": "2006-02-22", "anniversary_or_expiry": "2028-07-08", "area_ha": 331.19100000000003, "tenure_type": "Mineral", "source": "BC MTA Mineral, Placer and Coal Tenure Spatial View (BCGW). Open Government Licence - British Columbia. Not legal title.", "as_of": "2026-09-20", "role": "focus", "color": "#e8b040"}}]}