{"type": "FeatureCollection", "features": [{"type": "Feature", "geometry": {"type": "Polygon", "coordinates": [[[-120.9851, 50.4285], [-120.987, 50.4299], [-120.9967, 50.4245], [-120.9926, 50.4215], [-120.9936, 50.4204], [-120.9836, 50.4173], [-120.9836, 50.4282], [-120.9851, 50.4285]]]}, "properties": {"company_id": "almonty-industries", "jurisdiction": "British Columbia", "claim_id": 216683, "claim_name": "GNAWED OREBODY", "holder": "ROBAK INDUSTRIES LTD", "status": "Mineral", "recorded_date": "1836864000", "anniversary_or_expiry": "2025-12-01", "area_ha": 150, "tenure_type": "Mineral", "source": "BC MTA Mineral, Placer and Coal Tenure Spatial View (BCGW). Open Government Licence - British Columbia. Not legal title.", "as_of": "2026-09-20", "role": "focus", "color": "#e8b040"}}, {"type": "Feature", "geometry": {"type": "Polygon", "coordinates": [[[-120.9726, 50.4258], [-120.9813, 50.4271], [-120.9836, 50.4282], [-120.9836, 50.4173], [-120.9813, 50.4167], [-120.9695, 50.4167], [-120.9695, 50.4174], [-120.9717, 50.4181], [-120.9695, 50.4228], [-120.9695, 50.4249], [-120.9726, 50.4258]]]}, "properties": {"company_id": "almonty-industries", "jurisdiction": "British Columbia", "claim_id": 216684, "claim_name": "GNAWED BRECCIA", "holder": "ROBAK INDUSTRIES LTD", "status": "Mineral", "recorded_date": "1836864000", "anniversary_or_expiry": "2025-12-01", "area_ha": 150, "tenure_type": "Mineral", "source": "BC MTA Mineral, Placer and Coal Tenure Spatial View (BCGW). Open Government Licence - British Columbia. Not legal title.", "as_of": "2026-09-20", "role": "focus", "color": "#e8b040"}}, {"type": "Feature", "geometry": {"type": "Polygon", "coordinates": [[[-120.2535, 51.1821], [-120.2321, 51.1821], [-120.2321, 51.209], [-120.2535, 51.209], [-120.2535, 51.1821]]]}, "properties": {"company_id": "almonty-industries", "jurisdiction": "British Columbia", "claim_id": 357946, "claim_name": null, "holder": "KANSPAR INDUSTRIES INC", "status": "Mineral", "recorded_date": "8769600000", "anniversary_or_expiry": "2025-10-16", "area_ha": 450, "tenure_type": "Mineral", "source": "BC MTA Mineral, Placer and Coal Tenure Spatial View (BCGW). Open Government Licence - British Columbia. Not legal title.", "as_of": "2026-09-20", "role": "focus", "color": "#e8b040"}}, {"type": "Feature", "geometry": {"type": "Polygon", "coordinates": [[[-122.1951, 49.7665], [-122.2013, 49.7665], [-122.2013, 49.7623], [-122.1951, 49.7623], [-122.1951, 49.7665]]]}, "properties": {"company_id": "almonty-industries", "jurisdiction": "British Columbia", "claim_id": 513284, "claim_name": null, "holder": "PLATINATE MINERALS & INDUSTRIES LTD", "status": "Placer", "recorded_date": "2005-05-25", "anniversary_or_expiry": "2026-03-16", "area_ha": 20.869, "tenure_type": "Placer", "source": "BC MTA Mineral, Placer and Coal Tenure Spatial View (BCGW). Open Government Licence - British Columbia. Not legal title.", "as_of": "2026-09-20", "role": "focus", "color": "#e8b040"}}, {"type": "Feature", "geometry": {"type": "Polygon", "coordinates": [[[-122.2076, 49.754], [-122.2076, 49.7498], [-122.1888, 49.7498], [-122.1888, 49.7582], [-122.2076, 49.7582], [-122.2076, 49.754]]]}, "properties": {"company_id": "almonty-industries", "jurisdiction": "British Columbia", "claim_id": 505294, "claim_name": null, "holder": "PLATINATE MINERALS & INDUSTRIES LTD", "status": "Placer", "recorded_date": "2005-01-31", "anniversary_or_expiry": "2026-03-16", "area_ha": 125.239, "tenure_type": "Placer", "source": "BC MTA Mineral, Placer and Coal Tenure Spatial View (BCGW). Open Government Licence - British Columbia. Not legal title.", "as_of": "2026-09-20", "role": "focus", "color": "#e8b040"}}, {"type": "Feature", "geometry": {"type": "Polygon", "coordinates": [[[-122.1763, 49.7707], [-122.1763, 49.7665], [-122.1638, 49.7665], [-122.1638, 49.7748], [-122.1763, 49.7748], [-122.1763, 49.7707]]]}, "properties": {"company_id": "almonty-industries", "jurisdiction": "British Columbia", "claim_id": 505300, "claim_name": null, "holder": "PLATINATE MINERALS & INDUSTRIES LTD", "status": "Placer", "recorded_date": "2005-01-31", "anniversary_or_expiry": "2026-03-16", "area_ha": 83.464, "tenure_type": "Placer", "source": "BC MTA Mineral, Placer and Coal Tenure Spatial View (BCGW). Open Government Licence - British Columbia. Not legal title.", "as_of": "2026-09-20", "role": "focus", "color": "#e8b040"}}, {"type": "Feature", "geometry": {"type": "Polygon", "coordinates": [[[-122.2263, 49.7832], [-122.2263, 49.7748], [-122.2201, 49.7748], [-122.2201, 49.779], [-122.2138, 49.779], [-122.2138, 49.7873], [-122.2263, 49.7873], [-122.2263, 49.7832]]]}, "properties": {"company_id": "almonty-industries", "jurisdiction": "British Columbia", "claim_id": 519490, "claim_name": null, "holder": "PLATINATE MINERALS & INDUSTRIES LTD", "status": "Placer", "recorded_date": "2005-08-29", "anniversary_or_expiry": "2026-03-16", "area_ha": 104.30600000000001, "tenure_type": "Placer", "source": "BC MTA Mineral, Placer and Coal Tenure Spatial View (BCGW). Open Government Licence - British Columbia. Not legal title.", "as_of": "2026-09-20", "role": "focus", "color": "#e8b040"}}, {"type": "Feature", "geometry": {"type": "Polygon", "coordinates": [[[-122.2138, 49.779], [-122.2138, 49.7748], [-122.2013, 49.7748], [-122.2013, 49.779], [-122.2076, 49.779], [-122.2076, 49.7832], [-122.2138, 49.7832], [-122.2138, 49.779]]]}, "properties": {"company_id": "almonty-industries", "jurisdiction": "British Columbia", "claim_id": 516931, "claim_name": null, "holder": "PLATINATE MINERALS & INDUSTRIES LTD", "status": "Placer", "recorded_date": "2005-07-11", "anniversary_or_expiry": "2026-03-16", "area_ha": 62.588, "tenure_type": "Placer", "source": "BC MTA Mineral, Placer and Coal Tenure Spatial View (BCGW). Open Government Licence - British Columbia. Not legal title.", "as_of": "2026-09-20", "role": "focus", "color": "#e8b040"}}, {"type": "Feature", "geometry": {"type": "Polygon", "coordinates": [[[-122.2138, 49.779], [-122.2201, 49.779], [-122.2201, 49.7748], [-122.2138, 49.7748], [-122.2138, 49.779]]]}, "properties": {"company_id": "almonty-industries", "jurisdiction": "British Columbia", "claim_id": 516932, "claim_name": null, "holder": "PLATINATE MINERALS & INDUSTRIES LTD", "status": "Placer", "recorded_date": "2005-07-11", "anniversary_or_expiry": "2026-03-16", "area_ha": 20.863, "tenure_type": "Placer", "source": "BC MTA Mineral, Placer and Coal Tenure Spatial View (BCGW). Open Government Licence - British Columbia. Not legal title.", "as_of": "2026-09-20", "role": "focus", "color": "#e8b040"}}, {"type": "Feature", "geometry": {"type": "Polygon", "coordinates": [[[-122.2013, 49.7707], [-122.2013, 49.7665], [-122.1951, 49.7665], [-122.1951, 49.7748], [-122.2013, 49.7748], [-122.2013, 49.7707]]]}, "properties": {"company_id": "almonty-industries", "jurisdiction": "British Columbia", "claim_id": 516933, "claim_name": null, "holder": "PLATINATE MINERALS & INDUSTRIES LTD", "status": "Placer", "recorded_date": "2005-07-11", "anniversary_or_expiry": "2026-03-16", "area_ha": 41.732, "tenure_type": "Placer", "source": "BC MTA Mineral, Placer and Coal Tenure Spatial View (BCGW). Open Government Licence - British Columbia. Not legal title.", "as_of": "2026-09-20", "role": "focus", "color": "#e8b040"}}, {"type": "Feature", "geometry": {"type": "Polygon", "coordinates": [[[-122.2451, 49.7915], [-122.2451, 49.7873], [-122.2326, 49.7873], [-122.2326, 49.7832], [-122.2263, 49.7832], [-122.2263, 49.7915], [-122.2388, 49.7915], [-122.2388, 49.7957], [-122.2451, 49.7957], [-122.2451, 49.7915]]]}, "properties": {"company_id": "almonty-industries", "jurisdiction": "British Columbia", "claim_id": 516937, "claim_name": null, "holder": "PLATINATE MINERALS & INDUSTRIES LTD", "status": "Placer", "recorded_date": "2005-07-11", "anniversary_or_expiry": "2026-03-16", "area_ha": 104.29, "tenure_type": "Placer", "source": "BC MTA Mineral, Placer and Coal Tenure Spatial View (BCGW). Open Government Licence - British Columbia. Not legal title.", "as_of": "2026-09-20", "role": "focus", "color": "#e8b040"}}, {"type": "Feature", "geometry": {"type": "Polygon", "coordinates": [[[-122.2451, 49.7873], [-122.2513, 49.7873], [-122.2513, 49.7832], [-122.2451, 49.7832], [-122.2451, 49.779], [-122.2326, 49.779], [-122.2326, 49.7873], [-122.2451, 49.7873]]]}, "properties": {"company_id": "almonty-industries", "jurisdiction": "British Columbia", "claim_id": 516938, "claim_name": null, "holder": "PLATINATE MINERALS & INDUSTRIES LTD", "status": "Placer", "recorded_date": "2005-07-11", "anniversary_or_expiry": "2026-03-16", "area_ha": 104.30300000000001, "tenure_type": "Placer", "source": "BC MTA Mineral, Placer and Coal Tenure Spatial View (BCGW). Open Government Licence - British Columbia. Not legal title.", "as_of": "2026-09-20", "role": "focus", "color": "#e8b040"}}, {"type": "Feature", "geometry": {"type": "Polygon", "coordinates": [[[-122.1888, 49.7748], [-122.1888, 49.7707], [-122.1763, 49.7707], [-122.1763, 49.7748], [-122.1701, 49.7748], [-122.1701, 49.779], [-122.1888, 49.779], [-122.1888, 49.7748]]]}, "properties": {"company_id": "almonty-industries", "jurisdiction": "British Columbia", "claim_id": 516939, "claim_name": null, "holder": "PLATINATE MINERALS & INDUSTRIES LTD", "status": "Placer", "recorded_date": "2005-07-11", "anniversary_or_expiry": "2026-03-16", "area_ha": 104.321, "tenure_type": "Placer", "source": "BC MTA Mineral, Placer and Coal Tenure Spatial View (BCGW). Open Government Licence - British Columbia. Not legal title.", "as_of": "2026-09-20", "role": "focus", "color": "#e8b040"}}, {"type": "Feature", "geometry": {"type": "Polygon", "coordinates": [[[-122.2013, 49.779], [-122.2013, 49.7748], [-122.1888, 49.7748], [-122.1888, 49.779], [-122.1826, 49.779], [-122.1826, 49.7832], [-122.2013, 49.7832], [-122.2013, 49.779]]]}, "properties": {"company_id": "almonty-industries", "jurisdiction": "British Columbia", "claim_id": 516940, "claim_name": null, "holder": "PLATINATE MINERALS & INDUSTRIES LTD", "status": "Placer", "recorded_date": "2005-07-11", "anniversary_or_expiry": "2026-03-16", "area_ha": 104.31200000000001, "tenure_type": "Placer", "source": "BC MTA Mineral, Placer and Coal Tenure Spatial View (BCGW). Open Government Licence - British Columbia. Not legal title.", "as_of": "2026-09-20", "role": "focus", "color": "#e8b040"}}, {"type": "Feature", "geometry": {"type": "Polygon", "coordinates": [[[-122.2076, 49.7873], [-122.2138, 49.7873], [-122.2138, 49.7832], [-122.2076, 49.7832], [-122.2076, 49.779], [-122.2013, 49.779], [-122.2013, 49.7832], [-122.1951, 49.7832], [-122.1951, 49.7873], [-122.2013, 49.7873], [-122.2013, 49.7915], [-122.2076, 49.7915], [-122.2076, 49.7873]]]}, "properties": {"company_id": "almonty-industries", "jurisdiction": "British Columbia", "claim_id": 516941, "claim_name": null, "holder": "PLATINATE MINERALS & INDUSTRIES LTD", "status": "Placer", "recorded_date": "2005-07-11", "anniversary_or_expiry": "2026-03-16", "area_ha": 104.299, "tenure_type": "Placer", "source": "BC MTA Mineral, Placer and Coal Tenure Spatial View (BCGW). Open Government Licence - British Columbia. Not legal title.", "as_of": "2026-09-20", "role": "focus", "color": "#e8b040"}}, {"type": "Feature", "geometry": {"type": "Polygon", "coordinates": [[[-122.2201, 49.7915], [-122.2263, 49.7915], [-122.2263, 49.7873], [-122.2076, 49.7873], [-122.2076, 49.7957], [-122.2201, 49.7957], [-122.2201, 49.7915]]]}, "properties": {"company_id": "almonty-industries", "jurisdiction": "British Columbia", "claim_id": 516942, "claim_name": null, "holder": "PLATINATE MINERALS & INDUSTRIES LTD", "status": "Placer", "recorded_date": "2005-07-11", "anniversary_or_expiry": "2026-03-16", "area_ha": 104.287, "tenure_type": "Placer", "source": "BC MTA Mineral, Placer and Coal Tenure Spatial View (BCGW). Open Government Licence - British Columbia. Not legal title.", "as_of": "2026-09-20", "role": "focus", "color": "#e8b040"}}, {"type": "Feature", "geometry": {"type": "Polygon", "coordinates": [[[-122.1576, 49.7748], [-122.1638, 49.7748], [-122.1638, 49.7707], [-122.1576, 49.7707], [-122.1576, 49.7748]]]}, "properties": {"company_id": "almonty-industries", "jurisdiction": "British Columbia", "claim_id": 516945, "claim_name": null, "holder": "PLATINATE MINERALS & INDUSTRIES LTD", "status": "Placer", "recorded_date": "2005-07-11", "anniversary_or_expiry": "2026-03-16", "area_ha": 20.865000000000002, "tenure_type": "Placer", "source": "BC MTA Mineral, Placer and Coal Tenure Spatial View (BCGW). Open Government Licence - British Columbia. Not legal title.", "as_of": "2026-09-20", "role": "focus", "color": "#e8b040"}}, {"type": "Feature", "geometry": {"type": "Polygon", "coordinates": [[[-122.2326, 49.779], [-122.2326, 49.7748], [-122.2263, 49.7748], [-122.2263, 49.7832], [-122.2326, 49.7832], [-122.2326, 49.779]]]}, "properties": {"company_id": "almonty-industries", "jurisdiction": "British Columbia", "claim_id": 516946, "claim_name": null, "holder": "PLATINATE MINERALS & INDUSTRIES LTD", "status": "Placer", "recorded_date": "2005-07-11", "anniversary_or_expiry": "2026-03-16", "area_ha": 41.725, "tenure_type": "Placer", "source": "BC MTA Mineral, Placer and Coal Tenure Spatial View (BCGW). Open Government Licence - British Columbia. Not legal title.", "as_of": "2026-09-20", "role": "focus", "color": "#e8b040"}}, {"type": "Feature", "geometry": {"type": "Polygon", "coordinates": [[[-122.2263, 49.7748], [-122.2326, 49.7748], [-122.2326, 49.7707], [-122.2263, 49.7707], [-122.2263, 49.7665], [-122.2201, 49.7665], [-122.2201, 49.7748], [-122.2263, 49.7748]]]}, "properties": {"company_id": "almonty-industries", "jurisdiction": "British Columbia", "claim_id": 516947, "claim_name": null, "holder": "PLATINATE MINERALS & INDUSTRIES LTD", "status": "Placer", "recorded_date": "2005-07-11", "anniversary_or_expiry": "2026-03-16", "area_ha": 62.597, "tenure_type": "Placer", "source": "BC MTA Mineral, Placer and Coal Tenure Spatial View (BCGW). Open Government Licence - British Columbia. Not legal title.", "as_of": "2026-09-20", "role": "focus", "color": "#e8b040"}}, {"type": "Feature", "geometry": {"type": "Polygon", "coordinates": [[[-122.2138, 49.7665], [-122.2201, 49.7665], [-122.2201, 49.7623], [-122.2138, 49.7623], [-122.2138, 49.7665]]]}, "properties": {"company_id": "almonty-industries", "jurisdiction": "British Columbia", "claim_id": 516948, "claim_name": null, "holder": "PLATINATE MINERALS & INDUSTRIES LTD", "status": "Placer", "recorded_date": "2005-07-11", "anniversary_or_expiry": "2026-03-16", "area_ha": 20.869, "tenure_type": "Placer", "source": "BC MTA Mineral, Placer and Coal Tenure Spatial View (BCGW). Open Government Licence - British Columbia. Not legal title.", "as_of": "2026-09-20", "role": "focus", "color": "#e8b040"}}, {"type": "Feature", "geometry": {"type": "Polygon", "coordinates": [[[-122.2138, 49.7582], [-122.2138, 49.754], [-122.2076, 49.754], [-122.2076, 49.7582], [-122.2013, 49.7582], [-122.2013, 49.7623], [-122.2138, 49.7623], [-122.2138, 49.7582]]]}, "properties": {"company_id": "almonty-industries", "jurisdiction": "British Columbia", "claim_id": 516949, "claim_name": null, "holder": "PLATINATE MINERALS & INDUSTRIES LTD", "status": "Placer", "recorded_date": "2005-07-11", "anniversary_or_expiry": "2026-03-16", "area_ha": 62.613, "tenure_type": "Placer", "source": "BC MTA Mineral, Placer and Coal Tenure Spatial View (BCGW). Open Government Licence - British Columbia. Not legal title.", "as_of": "2026-09-20", "role": "focus", "color": "#e8b040"}}, {"type": "Feature", "geometry": {"type": "Polygon", "coordinates": [[[-122.2326, 49.7623], [-122.2326, 49.7582], [-122.2138, 49.7582], [-122.2138, 49.7623], [-122.2201, 49.7623], [-122.2201, 49.7665], [-122.2326, 49.7665], [-122.2326, 49.7623]]]}, "properties": {"company_id": "almonty-industries", "jurisdiction": "British Columbia", "claim_id": 516950, "claim_name": null, "holder": "PLATINATE MINERALS & INDUSTRIES LTD", "status": "Placer", "recorded_date": "2005-07-11", "anniversary_or_expiry": "2026-03-16", "area_ha": 104.349, "tenure_type": "Placer", "source": "BC MTA Mineral, Placer and Coal Tenure Spatial View (BCGW). Open Government Licence - British Columbia. Not legal title.", "as_of": "2026-09-20", "role": "focus", "color": "#e8b040"}}, {"type": "Feature", "geometry": {"type": "Polygon", "coordinates": [[[-122.1451, 49.754], [-122.1513, 49.754], [-122.1513, 49.7498], [-122.1388, 49.7498], [-122.1388, 49.754], [-122.1326, 49.754], [-122.1326, 49.7582], [-122.1451, 49.7582], [-122.1451, 49.754]]]}, "properties": {"company_id": "almonty-industries", "jurisdiction": "British Columbia", "claim_id": 516955, "claim_name": null, "holder": "PLATINATE MINERALS & INDUSTRIES LTD", "status": "Placer", "recorded_date": "2005-07-11", "anniversary_or_expiry": "2026-03-16", "area_ha": 83.492, "tenure_type": "Placer", "source": "BC MTA Mineral, Placer and Coal Tenure Spatial View (BCGW). Open Government Licence - British Columbia. Not legal title.", "as_of": "2026-09-20", "role": "focus", "color": "#e8b040"}}, {"type": "Feature", "geometry": {"type": "Polygon", "coordinates": [[[-122.1388, 49.7498], [-122.1451, 49.7498], [-122.1451, 49.7457], [-122.1326, 49.7457], [-122.1326, 49.754], [-122.1388, 49.754], [-122.1388, 49.7498]]]}, "properties": {"company_id": "almonty-industries", "jurisdiction": "British Columbia", "claim_id": 516956, "claim_name": null, "holder": "PLATINATE MINERALS & INDUSTRIES LTD", "status": "Placer", "recorded_date": "2005-07-11", "anniversary_or_expiry": "2026-03-16", "area_ha": 62.626000000000005, "tenure_type": "Placer", "source": "BC MTA Mineral, Placer and Coal Tenure Spatial View (BCGW). Open Government Licence - British Columbia. Not legal title.", "as_of": "2026-09-20", "role": "focus", "color": "#e8b040"}}, {"type": "Feature", "geometry": {"type": "Polygon", "coordinates": [[[-122.1576, 49.7498], [-122.1638, 49.7498], [-122.1638, 49.7457], [-122.1513, 49.7457], [-122.1513, 49.754], [-122.1576, 49.754], [-122.1576, 49.7498]]]}, "properties": {"company_id": "almonty-industries", "jurisdiction": "British Columbia", "claim_id": 516958, "claim_name": null, "holder": "PLATINATE MINERALS & INDUSTRIES LTD", "status": "Placer", "recorded_date": "2005-07-11", "anniversary_or_expiry": "2026-03-16", "area_ha": 62.626000000000005, "tenure_type": "Placer", "source": "BC MTA Mineral, Placer and Coal Tenure Spatial View (BCGW). Open Government Licence - British Columbia. Not legal title.", "as_of": "2026-09-20", "role": "focus", "color": "#e8b040"}}, {"type": "Feature", "geometry": {"type": "Polygon", "coordinates": [[[-122.1576, 49.7415], [-122.1576, 49.7373], [-122.1451, 49.7373], [-122.1451, 49.7415], [-122.1388, 49.7415], [-122.1388, 49.7457], [-122.1451, 49.7457], [-122.1451, 49.7498], [-122.1513, 49.7498], [-122.1513, 49.7457], [-122.1576, 49.7457], [-122.1576, 49.7415]]]}, "properties": {"company_id": "almonty-industries", "jurisdiction": "British Columbia", "claim_id": 516959, "claim_name": null, "holder": "PLATINATE MINERALS & INDUSTRIES LTD", "status": "Placer", "recorded_date": "2005-07-11", "anniversary_or_expiry": "2026-03-16", "area_ha": 125.26700000000001, "tenure_type": "Placer", "source": "BC MTA Mineral, Placer and Coal Tenure Spatial View (BCGW). Open Government Licence - British Columbia. Not legal title.", "as_of": "2026-09-20", "role": "focus", "color": "#e8b040"}}, {"type": "Feature", "geometry": {"type": "Polygon", "coordinates": [[[-122.1951, 49.7457], [-122.1951, 49.7415], [-122.1763, 49.7415], [-122.1763, 49.7457], [-122.1888, 49.7457], [-122.1888, 49.7498], [-122.1951, 49.7498], [-122.1951, 49.7457]]]}, "properties": {"company_id": "almonty-industries", "jurisdiction": "British Columbia", "claim_id": 516961, "claim_name": null, "holder": "PLATINATE MINERALS & INDUSTRIES LTD", "status": "Placer", "recorded_date": "2005-07-11", "anniversary_or_expiry": "2026-03-16", "area_ha": 83.509, "tenure_type": "Placer", "source": "BC MTA Mineral, Placer and Coal Tenure Spatial View (BCGW). Open Government Licence - British Columbia. Not legal title.", "as_of": "2026-09-20", "role": "focus", "color": "#e8b040"}}, {"type": "Feature", "geometry": {"type": "Polygon", "coordinates": [[[-122.1763, 49.7498], [-122.1826, 49.7498], [-122.1826, 49.7457], [-122.1763, 49.7457], [-122.1763, 49.7415], [-122.1638, 49.7415], [-122.1638, 49.7457], [-122.1701, 49.7457], [-122.1701, 49.7498], [-122.1638, 49.7498], [-122.1638, 49.754], [-122.1763, 49.754], [-122.1763, 49.7498]]]}, "properties": {"company_id": "almonty-industries", "jurisdiction": "British Columbia", "claim_id": 516962, "claim_name": null, "holder": "PLATINATE MINERALS & INDUSTRIES LTD", "status": "Placer", "recorded_date": "2005-07-11", "anniversary_or_expiry": "2026-03-16", "area_ha": 125.25500000000001, "tenure_type": "Placer", "source": "BC MTA Mineral, Placer and Coal Tenure Spatial View (BCGW). Open Government Licence - British Columbia. Not legal title.", "as_of": "2026-09-20", "role": "focus", "color": "#e8b040"}}, {"type": "Feature", "geometry": {"type": "Polygon", "coordinates": [[[-122.1638, 49.7498], [-122.1701, 49.7498], [-122.1701, 49.7457], [-122.1638, 49.7457], [-122.1638, 49.7498]]]}, "properties": {"company_id": "almonty-industries", "jurisdiction": "British Columbia", "claim_id": 516964, "claim_name": null, "holder": "PLATINATE MINERALS & INDUSTRIES LTD", "status": "Placer", "recorded_date": "2005-07-11", "anniversary_or_expiry": "2026-03-16", "area_ha": 20.876, "tenure_type": "Placer", "source": "BC MTA Mineral, Placer and Coal Tenure Spatial View (BCGW). Open Government Licence - British Columbia. Not legal title.", "as_of": "2026-09-20", "role": "focus", "color": "#e8b040"}}, {"type": "Feature", "geometry": {"type": "Polygon", "coordinates": [[[-122.1638, 49.7665], [-122.1638, 49.7623], [-122.1513, 49.7623], [-122.1513, 49.7665], [-122.1576, 49.7665], [-122.1576, 49.7707], [-122.1638, 49.7707], [-122.1638, 49.7665]]]}, "properties": {"company_id": "almonty-industries", "jurisdiction": "British Columbia", "claim_id": 516965, "claim_name": null, "holder": "PLATINATE MINERALS & INDUSTRIES LTD", "status": "Placer", "recorded_date": "2005-07-11", "anniversary_or_expiry": "2026-03-16", "area_ha": 62.604000000000006, "tenure_type": "Placer", "source": "BC MTA Mineral, Placer and Coal Tenure Spatial View (BCGW). Open Government Licence - British Columbia. Not legal title.", "as_of": "2026-09-20", "role": "focus", "color": "#e8b040"}}, {"type": "Feature", "geometry": {"type": "Polygon", "coordinates": [[[-122.1638, 49.7582], [-122.1638, 49.754], [-122.1513, 49.754], [-122.1513, 49.7623], [-122.1638, 49.7623], [-122.1638, 49.7582]]]}, "properties": {"company_id": "almonty-industries", "jurisdiction": "British Columbia", "claim_id": 516966, "claim_name": null, "holder": "PLATINATE MINERALS & INDUSTRIES LTD", "status": "Placer", "recorded_date": "2005-07-11", "anniversary_or_expiry": "2026-03-16", "area_ha": 83.485, "tenure_type": "Placer", "source": "BC MTA Mineral, Placer and Coal Tenure Spatial View (BCGW). Open Government Licence - British Columbia. Not legal title.", "as_of": "2026-09-20", "role": "focus", "color": "#e8b040"}}, {"type": "Feature", "geometry": {"type": "Polygon", "coordinates": [[[-122.1888, 49.7665], [-122.1888, 49.7582], [-122.1763, 49.7582], [-122.1763, 49.7707], [-122.1888, 49.7707], [-122.1888, 49.7665]]]}, "properties": {"company_id": "almonty-industries", "jurisdiction": "British Columbia", "claim_id": 516967, "claim_name": null, "holder": "PLATINATE MINERALS & INDUSTRIES LTD", "status": "Placer", "recorded_date": "2005-07-11", "anniversary_or_expiry": "2026-03-16", "area_ha": 125.212, "tenure_type": "Placer", "source": "BC MTA Mineral, Placer and Coal Tenure Spatial View (BCGW). Open Government Licence - British Columbia. Not legal title.", "as_of": "2026-09-20", "role": "focus", "color": "#e8b040"}}, {"type": "Feature", "geometry": {"type": "Polygon", "coordinates": [[[-122.1638, 49.7665], [-122.1701, 49.7665], [-122.1701, 49.7623], [-122.1638, 49.7623], [-122.1638, 49.7665]]]}, "properties": {"company_id": "almonty-industries", "jurisdiction": "British Columbia", "claim_id": 516969, "claim_name": null, "holder": "PLATINATE MINERALS & INDUSTRIES LTD", "status": "Placer", "recorded_date": "2005-07-11", "anniversary_or_expiry": "2026-03-16", "area_ha": 20.869, "tenure_type": "Placer", "source": "BC MTA Mineral, Placer and Coal Tenure Spatial View (BCGW). Open Government Licence - British Columbia. Not legal title.", "as_of": "2026-09-20", "role": "focus", "color": "#e8b040"}}, {"type": "Feature", "geometry": {"type": "Polygon", "coordinates": [[[-122.1763, 49.7582], [-122.1763, 49.754], [-122.1638, 49.754], [-122.1638, 49.7582], [-122.1701, 49.7582], [-122.1701, 49.7623], [-122.1763, 49.7623], [-122.1763, 49.7582]]]}, "properties": {"company_id": "almonty-industries", "jurisdiction": "British Columbia", "claim_id": 516971, "claim_name": null, "holder": "PLATINATE MINERALS & INDUSTRIES LTD", "status": "Placer", "recorded_date": "2005-07-11", "anniversary_or_expiry": "2026-03-16", "area_ha": 62.615, "tenure_type": "Placer", "source": "BC MTA Mineral, Placer and Coal Tenure Spatial View (BCGW). Open Government Licence - British Columbia. Not legal title.", "as_of": "2026-09-20", "role": "focus", "color": "#e8b040"}}, {"type": "Feature", "geometry": {"type": "Polygon", "coordinates": [[[-122.1951, 49.7707], [-122.1951, 49.7623], [-122.2013, 49.7623], [-122.2013, 49.7582], [-122.1888, 49.7582], [-122.1888, 49.7748], [-122.1951, 49.7748], [-122.1951, 49.7707]]]}, "properties": {"company_id": "almonty-industries", "jurisdiction": "British Columbia", "claim_id": 517494, "claim_name": "HARRISON 1", "holder": "PLATINATE MINERALS & INDUSTRIES LTD", "status": "Placer", "recorded_date": "2005-07-12", "anniversary_or_expiry": "2026-03-16", "area_ha": 104.342, "tenure_type": "Placer", "source": "BC MTA Mineral, Placer and Coal Tenure Spatial View (BCGW). Open Government Licence - British Columbia. Not legal title.", "as_of": "2026-09-20", "role": "focus", "color": "#e8b040"}}, {"type": "Feature", "geometry": {"type": "Polygon", "coordinates": [[[-122.1638, 49.7415], [-122.1638, 49.7373], [-122.1576, 49.7373], [-122.1576, 49.7457], [-122.1638, 49.7457], [-122.1638, 49.7415]]]}, "properties": {"company_id": "almonty-industries", "jurisdiction": "British Columbia", "claim_id": 517496, "claim_name": "HARRISON 2", "holder": "PLATINATE MINERALS & INDUSTRIES LTD", "status": "Placer", "recorded_date": "2005-07-12", "anniversary_or_expiry": "2026-03-16", "area_ha": 41.757000000000005, "tenure_type": "Placer", "source": "BC MTA Mineral, Placer and Coal Tenure Spatial View (BCGW). Open Government Licence - British Columbia. Not legal title.", "as_of": "2026-09-20", "role": "focus", "color": "#e8b040"}}, {"type": "Feature", "geometry": {"type": "Polygon", "coordinates": [[[-122.1826, 49.7582], [-122.1888, 49.7582], [-122.1888, 49.754], [-122.1826, 49.754], [-122.1826, 49.7498], [-122.1763, 49.7498], [-122.1763, 49.7582], [-122.1826, 49.7582]]]}, "properties": {"company_id": "almonty-industries", "jurisdiction": "British Columbia", "claim_id": 523037, "claim_name": null, "holder": "PLATINATE MINERALS & INDUSTRIES LTD", "status": "Placer", "recorded_date": "2005-11-30", "anniversary_or_expiry": "2026-03-16", "area_ha": 62.619, "tenure_type": "Placer", "source": "BC MTA Mineral, Placer and Coal Tenure Spatial View (BCGW). Open Government Licence - British Columbia. Not legal title.", "as_of": "2026-09-20", "role": "focus", "color": "#e8b040"}}, {"type": "Feature", "geometry": {"type": "Polygon", "coordinates": [[[-122.1576, 49.754], [-122.1638, 49.754], [-122.1638, 49.7498], [-122.1576, 49.7498], [-122.1576, 49.754]]]}, "properties": {"company_id": "almonty-industries", "jurisdiction": "British Columbia", "claim_id": 523041, "claim_name": "DELTA 1", "holder": "PLATINATE MINERALS & INDUSTRIES LTD", "status": "Placer", "recorded_date": "2005-11-30", "anniversary_or_expiry": "2026-03-16", "area_ha": 20.874000000000002, "tenure_type": "Placer", "source": "BC MTA Mineral, Placer and Coal Tenure Spatial View (BCGW). Open Government Licence - British Columbia. Not legal title.", "as_of": "2026-09-20", "role": "focus", "color": "#e8b040"}}, {"type": "Feature", "geometry": {"type": "Polygon", "coordinates": [[[-122.1701, 49.7665], [-122.1763, 49.7665], [-122.1763, 49.7623], [-122.1701, 49.7623], [-122.1701, 49.7665]]]}, "properties": {"company_id": "almonty-industries", "jurisdiction": "British Columbia", "claim_id": 523047, "claim_name": "HARRISON 3", "holder": "PLATINATE MINERALS & INDUSTRIES LTD", "status": "Placer", "recorded_date": "2005-11-30", "anniversary_or_expiry": "2026-03-16", "area_ha": 20.869, "tenure_type": "Placer", "source": "BC MTA Mineral, Placer and Coal Tenure Spatial View (BCGW). Open Government Licence - British Columbia. Not legal title.", "as_of": "2026-09-20", "role": "focus", "color": "#e8b040"}}, {"type": "Feature", "geometry": {"type": "Polygon", "coordinates": [[[-122.1638, 49.7623], [-122.1701, 49.7623], [-122.1701, 49.7582], [-122.1638, 49.7582], [-122.1638, 49.7623]]]}, "properties": {"company_id": "almonty-industries", "jurisdiction": "British Columbia", "claim_id": 523050, "claim_name": "HARRISON 4", "holder": "PLATINATE MINERALS & INDUSTRIES LTD", "status": "Placer", "recorded_date": "2005-11-30", "anniversary_or_expiry": "2026-03-16", "area_ha": 20.87, "tenure_type": "Placer", "source": "BC MTA Mineral, Placer and Coal Tenure Spatial View (BCGW). Open Government Licence - British Columbia. Not legal title.", "as_of": "2026-09-20", "role": "focus", "color": "#e8b040"}}, {"type": "Feature", "geometry": {"type": "Polygon", "coordinates": [[[-122.1888, 49.7498], [-122.1888, 49.7457], [-122.1826, 49.7457], [-122.1826, 49.754], [-122.1888, 49.754], [-122.1888, 49.7498]]]}, "properties": {"company_id": "almonty-industries", "jurisdiction": "British Columbia", "claim_id": 523054, "claim_name": "HARRISON 5", "holder": "PLATINATE MINERALS & INDUSTRIES LTD", "status": "Placer", "recorded_date": "2005-11-30", "anniversary_or_expiry": "2026-03-16", "area_ha": 41.75, "tenure_type": "Placer", "source": "BC MTA Mineral, Placer and Coal Tenure Spatial View (BCGW). Open Government Licence - British Columbia. Not legal title.", "as_of": "2026-09-20", "role": "focus", "color": "#e8b040"}}, {"type": "Feature", "geometry": {"type": "Polygon", "coordinates": [[[-122.2201, 49.7707], [-122.2201, 49.7665], [-122.2138, 49.7665], [-122.2138, 49.7623], [-122.2013, 49.7623], [-122.2013, 49.7748], [-122.2201, 49.7748], [-122.2201, 49.7707]]]}, "properties": {"company_id": "almonty-industries", "jurisdiction": "British Columbia", "claim_id": 513289, "claim_name": null, "holder": "PLATINATE MINERALS & INDUSTRIES LTD", "status": "Placer", "recorded_date": "2005-05-25", "anniversary_or_expiry": "2026-03-16", "area_ha": 166.934, "tenure_type": "Placer", "source": "BC MTA Mineral, Placer and Coal Tenure Spatial View (BCGW). Open Government Licence - British Columbia. Not legal title.", "as_of": "2026-09-20", "role": "focus", "color": "#e8b040"}}]}