{"type": "FeatureCollection", "features": [{"type": "Feature", "geometry": {"type": "Polygon", "coordinates": [[[-84.7125, 48.0208], [-84.7125, 48.025], [-84.7188, 48.025], [-84.7188, 48.0208], [-84.7125, 48.0208]]]}, "properties": {"company_id": "almonty-industries", "jurisdiction": "Ontario", "claim_id": "918768", "claim_name": null, "holder": "(100) Algoma Ferrous Industries Inc.", "status": "Active", "recorded_date": "2024-12-24", "anniversary_or_expiry": "2026-12-24", "area_ha": null, "tenure_type": "Single Cell Mining Claim", "source": "Ontario MLAS operational claims (OGSEarth / LIO MapServer). Unofficial viewing data, not legal title.", "as_of": "2026-09-20", "role": "focus", "color": "#e8b040"}}, {"type": "Feature", "geometry": {"type": "Polygon", "coordinates": [[[-84.7063, 48.0208], [-84.7063, 48.025], [-84.7125, 48.025], [-84.7125, 48.0208], [-84.7063, 48.0208]]]}, "properties": {"company_id": "almonty-industries", "jurisdiction": "Ontario", "claim_id": "918769", "claim_name": null, "holder": "(100) Algoma Ferrous Industries Inc.", "status": "Active", "recorded_date": "2024-12-24", "anniversary_or_expiry": "2026-12-24", "area_ha": null, "tenure_type": "Single Cell Mining Claim", "source": "Ontario MLAS operational claims (OGSEarth / LIO MapServer). Unofficial viewing data, not legal title.", "as_of": "2026-09-20", "role": "focus", "color": "#e8b040"}}, {"type": "Feature", "geometry": {"type": "Polygon", "coordinates": [[[-84.7125, 48.0167], [-84.7125, 48.0208], [-84.7188, 48.0208], [-84.7188, 48.0167], [-84.7125, 48.0167]]]}, "properties": {"company_id": "almonty-industries", "jurisdiction": "Ontario", "claim_id": "918770", "claim_name": null, "holder": "(100) Algoma Ferrous Industries Inc.", "status": "Active", "recorded_date": "2024-12-24", "anniversary_or_expiry": "2026-12-24", "area_ha": null, "tenure_type": "Single Cell Mining Claim", "source": "Ontario MLAS operational claims (OGSEarth / LIO MapServer). Unofficial viewing data, not legal title.", "as_of": "2026-09-20", "role": "focus", "color": "#e8b040"}}, {"type": "Feature", "geometry": {"type": "Polygon", "coordinates": [[[-84.7063, 48.0167], [-84.7063, 48.0208], [-84.7125, 48.0208], [-84.7125, 48.0167], [-84.7063, 48.0167]]]}, "properties": {"company_id": "almonty-industries", "jurisdiction": "Ontario", "claim_id": "918771", "claim_name": null, "holder": "(100) Algoma Ferrous Industries Inc.", "status": "Active", "recorded_date": "2024-12-24", "anniversary_or_expiry": "2026-12-24", "area_ha": null, "tenure_type": "Single Cell Mining Claim", "source": "Ontario MLAS operational claims (OGSEarth / LIO MapServer). Unofficial viewing data, not legal title.", "as_of": "2026-09-20", "role": "focus", "color": "#e8b040"}}, {"type": "Feature", "geometry": {"type": "Polygon", "coordinates": [[[-84.725, 48.0125], [-84.725, 48.0167], [-84.7313, 48.0167], [-84.7313, 48.0125], [-84.725, 48.0125]]]}, "properties": {"company_id": "almonty-industries", "jurisdiction": "Ontario", "claim_id": "918772", "claim_name": null, "holder": "(100) Algoma Ferrous Industries Inc.", "status": "Active", "recorded_date": "2024-12-24", "anniversary_or_expiry": "2026-12-24", "area_ha": null, "tenure_type": "Single Cell Mining Claim", "source": "Ontario MLAS operational claims (OGSEarth / LIO MapServer). Unofficial viewing data, not legal title.", "as_of": "2026-09-20", "role": "focus", "color": "#e8b040"}}, {"type": "Feature", "geometry": {"type": "Polygon", "coordinates": [[[-84.7188, 48.0125], [-84.7188, 48.0167], [-84.725, 48.0167], [-84.725, 48.0125], [-84.7188, 48.0125]]]}, "properties": {"company_id": "almonty-industries", "jurisdiction": "Ontario", "claim_id": "918773", "claim_name": null, "holder": "(100) Algoma Ferrous Industries Inc.", "status": "Active", "recorded_date": "2024-12-24", "anniversary_or_expiry": "2026-12-24", "area_ha": null, "tenure_type": "Single Cell Mining Claim", "source": "Ontario MLAS operational claims (OGSEarth / LIO MapServer). Unofficial viewing data, not legal title.", "as_of": "2026-09-20", "role": "focus", "color": "#e8b040"}}, {"type": "Feature", "geometry": {"type": "Polygon", "coordinates": [[[-84.7125, 48.0125], [-84.7125, 48.0167], [-84.7188, 48.0167], [-84.7188, 48.0125], [-84.7125, 48.0125]]]}, "properties": {"company_id": "almonty-industries", "jurisdiction": "Ontario", "claim_id": "918774", "claim_name": null, "holder": "(100) Algoma Ferrous Industries Inc.", "status": "Active", "recorded_date": "2024-12-24", "anniversary_or_expiry": "2026-12-24", "area_ha": null, "tenure_type": "Single Cell Mining Claim", "source": "Ontario MLAS operational claims (OGSEarth / LIO MapServer). Unofficial viewing data, not legal title.", "as_of": "2026-09-20", "role": "focus", "color": "#e8b040"}}, {"type": "Feature", "geometry": {"type": "Polygon", "coordinates": [[[-84.7063, 48.0125], [-84.7063, 48.0167], [-84.7125, 48.0167], [-84.7125, 48.0125], [-84.7063, 48.0125]]]}, "properties": {"company_id": "almonty-industries", "jurisdiction": "Ontario", "claim_id": "918775", "claim_name": null, "holder": "(100) Algoma Ferrous Industries Inc.", "status": "Active", "recorded_date": "2024-12-24", "anniversary_or_expiry": "2026-12-24", "area_ha": null, "tenure_type": "Single Cell Mining Claim", "source": "Ontario MLAS operational claims (OGSEarth / LIO MapServer). Unofficial viewing data, not legal title.", "as_of": "2026-09-20", "role": "focus", "color": "#e8b040"}}, {"type": "Feature", "geometry": {"type": "Polygon", "coordinates": [[[-84.7, 48.0125], [-84.7, 48.0167], [-84.7063, 48.0167], [-84.7063, 48.0125], [-84.7, 48.0125]]]}, "properties": {"company_id": "almonty-industries", "jurisdiction": "Ontario", "claim_id": "918776", "claim_name": null, "holder": "(100) Algoma Ferrous Industries Inc.", "status": "Active", "recorded_date": "2024-12-24", "anniversary_or_expiry": "2026-12-24", "area_ha": null, "tenure_type": "Single Cell Mining Claim", "source": "Ontario MLAS operational claims (OGSEarth / LIO MapServer). Unofficial viewing data, not legal title.", "as_of": "2026-09-20", "role": "focus", "color": "#e8b040"}}, {"type": "Feature", "geometry": {"type": "Polygon", "coordinates": [[[-84.7375, 48.0083], [-84.7375, 48.0125], [-84.7438, 48.0125], [-84.7438, 48.0083], [-84.7375, 48.0083]]]}, "properties": {"company_id": "almonty-industries", "jurisdiction": "Ontario", "claim_id": "918777", "claim_name": null, "holder": "(100) Algoma Ferrous Industries Inc.", "status": "Active", "recorded_date": "2024-12-24", "anniversary_or_expiry": "2026-12-24", "area_ha": null, "tenure_type": "Single Cell Mining Claim", "source": "Ontario MLAS operational claims (OGSEarth / LIO MapServer). Unofficial viewing data, not legal title.", "as_of": "2026-09-20", "role": "focus", "color": "#e8b040"}}, {"type": "Feature", "geometry": {"type": "Polygon", "coordinates": [[[-84.7369, 48.0083], [-84.7313, 48.0083], [-84.7313, 48.0125], [-84.7375, 48.0125], [-84.7375, 48.0083], [-84.7369, 48.0083]]]}, "properties": {"company_id": "almonty-industries", "jurisdiction": "Ontario", "claim_id": "918778", "claim_name": null, "holder": "(100) Algoma Ferrous Industries Inc.", "status": "Active", "recorded_date": "2024-12-24", "anniversary_or_expiry": "2026-12-24", "area_ha": null, "tenure_type": "Single Cell Mining Claim", "source": "Ontario MLAS operational claims (OGSEarth / LIO MapServer). Unofficial viewing data, not legal title.", "as_of": "2026-09-20", "role": "focus", "color": "#e8b040"}}, {"type": "Feature", "geometry": {"type": "Polygon", "coordinates": [[[-84.725, 48.0083], [-84.725, 48.0125], [-84.7313, 48.0125], [-84.7313, 48.0083], [-84.725, 48.0083]]]}, "properties": {"company_id": "almonty-industries", "jurisdiction": "Ontario", "claim_id": "918779", "claim_name": null, "holder": "(100) Algoma Ferrous Industries Inc.", "status": "Active", "recorded_date": "2024-12-24", "anniversary_or_expiry": "2026-12-24", "area_ha": null, "tenure_type": "Single Cell Mining Claim", "source": "Ontario MLAS operational claims (OGSEarth / LIO MapServer). Unofficial viewing data, not legal title.", "as_of": "2026-09-20", "role": "focus", "color": "#e8b040"}}, {"type": "Feature", "geometry": {"type": "Polygon", "coordinates": [[[-84.7438, 48.0042], [-84.7438, 48.0083], [-84.75, 48.0083], [-84.75, 48.0042], [-84.7438, 48.0042]]]}, "properties": {"company_id": "almonty-industries", "jurisdiction": "Ontario", "claim_id": "918780", "claim_name": null, "holder": "(100) Algoma Ferrous Industries Inc.", "status": "Active", "recorded_date": "2024-12-24", "anniversary_or_expiry": "2026-12-24", "area_ha": null, "tenure_type": "Single Cell Mining Claim", "source": "Ontario MLAS operational claims (OGSEarth / LIO MapServer). Unofficial viewing data, not legal title.", "as_of": "2026-09-20", "role": "focus", "color": "#e8b040"}}, {"type": "Feature", "geometry": {"type": "Polygon", "coordinates": [[[-84.7375, 48.0042], [-84.7375, 48.0083], [-84.7438, 48.0083], [-84.7438, 48.0042], [-84.7375, 48.0042]]]}, "properties": {"company_id": "almonty-industries", "jurisdiction": "Ontario", "claim_id": "918781", "claim_name": null, "holder": "(100) Algoma Ferrous Industries Inc.", "status": "Active", "recorded_date": "2024-12-24", "anniversary_or_expiry": "2026-12-24", "area_ha": null, "tenure_type": "Single Cell Mining Claim", "source": "Ontario MLAS operational claims (OGSEarth / LIO MapServer). Unofficial viewing data, not legal title.", "as_of": "2026-09-20", "role": "focus", "color": "#e8b040"}}, {"type": "Feature", "geometry": {"type": "Polygon", "coordinates": [[[-84.7369, 48.0042], [-84.7313, 48.0042], [-84.7313, 48.0083], [-84.7375, 48.0083], [-84.7375, 48.0042], [-84.7369, 48.0042]]]}, "properties": {"company_id": "almonty-industries", "jurisdiction": "Ontario", "claim_id": "918782", "claim_name": null, "holder": "(100) Algoma Ferrous Industries Inc.", "status": "Active", "recorded_date": "2024-12-24", "anniversary_or_expiry": "2026-12-24", "area_ha": null, "tenure_type": "Single Cell Mining Claim", "source": "Ontario MLAS operational claims (OGSEarth / LIO MapServer). Unofficial viewing data, not legal title.", "as_of": "2026-09-20", "role": "focus", "color": "#e8b040"}}, {"type": "Feature", "geometry": {"type": "Polygon", "coordinates": [[[-84.725, 48.0042], [-84.725, 48.0083], [-84.7313, 48.0083], [-84.7313, 48.0042], [-84.725, 48.0042]]]}, "properties": {"company_id": "almonty-industries", "jurisdiction": "Ontario", "claim_id": "918783", "claim_name": null, "holder": "(100) Algoma Ferrous Industries Inc.", "status": "Active", "recorded_date": "2024-12-24", "anniversary_or_expiry": "2026-12-24", "area_ha": null, "tenure_type": "Single Cell Mining Claim", "source": "Ontario MLAS operational claims (OGSEarth / LIO MapServer). Unofficial viewing data, not legal title.", "as_of": "2026-09-20", "role": "focus", "color": "#e8b040"}}, {"type": "Feature", "geometry": {"type": "Polygon", "coordinates": [[[-84.75, 48.0042], [-84.75, 48.0083], [-84.7563, 48.0083], [-84.7563, 48.0042], [-84.75, 48.0042]]]}, "properties": {"company_id": "almonty-industries", "jurisdiction": "Ontario", "claim_id": "918784", "claim_name": null, "holder": "(100) Algoma Ferrous Industries Inc.", "status": "Active", "recorded_date": "2024-12-24", "anniversary_or_expiry": "2026-12-24", "area_ha": null, "tenure_type": "Single Cell Mining Claim", "source": "Ontario MLAS operational claims (OGSEarth / LIO MapServer). Unofficial viewing data, not legal title.", "as_of": "2026-09-20", "role": "focus", "color": "#e8b040"}}, {"type": "Feature", "geometry": {"type": "Polygon", "coordinates": [[[-84.675, 47.9958], [-84.675, 48.0], [-84.6813, 48.0], [-84.6813, 47.9958], [-84.675, 47.9958]]]}, "properties": {"company_id": "almonty-industries", "jurisdiction": "Ontario", "claim_id": "918806", "claim_name": null, "holder": "(100) WHSH INDUSTRIES LIMITED", "status": "Active", "recorded_date": "2024-12-24", "anniversary_or_expiry": "2026-12-24", "area_ha": null, "tenure_type": "Single Cell Mining Claim", "source": "Ontario MLAS operational claims (OGSEarth / LIO MapServer). Unofficial viewing data, not legal title.", "as_of": "2026-09-20", "role": "focus", "color": "#e8b040"}}, {"type": "Feature", "geometry": {"type": "Polygon", "coordinates": [[[-84.6688, 48.0], [-84.6688, 48.0042], [-84.675, 48.0042], [-84.675, 48.0], [-84.6688, 48.0]]]}, "properties": {"company_id": "almonty-industries", "jurisdiction": "Ontario", "claim_id": "918847", "claim_name": null, "holder": "(100) WHSH INDUSTRIES LIMITED", "status": "Active", "recorded_date": "2024-12-24", "anniversary_or_expiry": "2026-12-24", "area_ha": null, "tenure_type": "Single Cell Mining Claim", "source": "Ontario MLAS operational claims (OGSEarth / LIO MapServer). Unofficial viewing data, not legal title.", "as_of": "2026-09-20", "role": "focus", "color": "#e8b040"}}, {"type": "Feature", "geometry": {"type": "Polygon", "coordinates": [[[-84.6875, 47.9917], [-84.6875, 47.9958], [-84.6938, 47.9958], [-84.6938, 47.9917], [-84.6875, 47.9917]]]}, "properties": {"company_id": "almonty-industries", "jurisdiction": "Ontario", "claim_id": "918848", "claim_name": null, "holder": "(100) WHSH INDUSTRIES LIMITED", "status": "Active", "recorded_date": "2024-12-24", "anniversary_or_expiry": "2026-12-24", "area_ha": null, "tenure_type": "Single Cell Mining Claim", "source": "Ontario MLAS operational claims (OGSEarth / LIO MapServer). Unofficial viewing data, not legal title.", "as_of": "2026-09-20", "role": "focus", "color": "#e8b040"}}, {"type": "Feature", "geometry": {"type": "Polygon", "coordinates": [[[-84.6813, 47.9917], [-84.6813, 47.9958], [-84.6875, 47.9958], [-84.6875, 47.9917], [-84.6813, 47.9917]]]}, "properties": {"company_id": "almonty-industries", "jurisdiction": "Ontario", "claim_id": "918849", "claim_name": null, "holder": "(100) WHSH INDUSTRIES LIMITED", "status": "Active", "recorded_date": "2024-12-24", "anniversary_or_expiry": "2026-12-24", "area_ha": null, "tenure_type": "Single Cell Mining Claim", "source": "Ontario MLAS operational claims (OGSEarth / LIO MapServer). Unofficial viewing data, not legal title.", "as_of": "2026-09-20", "role": "focus", "color": "#e8b040"}}, {"type": "Feature", "geometry": {"type": "Polygon", "coordinates": [[[-84.6625, 47.9917], [-84.6625, 47.9958], [-84.6688, 47.9958], [-84.6688, 47.9917], [-84.6625, 47.9917]]]}, "properties": {"company_id": "almonty-industries", "jurisdiction": "Ontario", "claim_id": "918850", "claim_name": null, "holder": "(100) WHSH INDUSTRIES LIMITED", "status": "Active", "recorded_date": "2024-12-24", "anniversary_or_expiry": "2026-12-24", "area_ha": null, "tenure_type": "Single Cell Mining Claim", "source": "Ontario MLAS operational claims (OGSEarth / LIO MapServer). Unofficial viewing data, not legal title.", "as_of": "2026-09-20", "role": "focus", "color": "#e8b040"}}, {"type": "Feature", "geometry": {"type": "Polygon", "coordinates": [[[-84.6625, 47.9875], [-84.6625, 47.9917], [-84.6688, 47.9917], [-84.6688, 47.9875], [-84.6625, 47.9875]]]}, "properties": {"company_id": "almonty-industries", "jurisdiction": "Ontario", "claim_id": "918851", "claim_name": null, "holder": "(100) WHSH INDUSTRIES LIMITED", "status": "Active", "recorded_date": "2024-12-24", "anniversary_or_expiry": "2026-12-24", "area_ha": null, "tenure_type": "Single Cell Mining Claim", "source": "Ontario MLAS operational claims (OGSEarth / LIO MapServer). Unofficial viewing data, not legal title.", "as_of": "2026-09-20", "role": "focus", "color": "#e8b040"}}, {"type": "Feature", "geometry": {"type": "Polygon", "coordinates": [[[-84.6625, 47.9833], [-84.6625, 47.9875], [-84.6688, 47.9875], [-84.6688, 47.9833], [-84.6625, 47.9833]]]}, "properties": {"company_id": "almonty-industries", "jurisdiction": "Ontario", "claim_id": "918852", "claim_name": null, "holder": "(100) WHSH INDUSTRIES LIMITED", "status": "Active", "recorded_date": "2024-12-24", "anniversary_or_expiry": "2026-12-24", "area_ha": null, "tenure_type": "Single Cell Mining Claim", "source": "Ontario MLAS operational claims (OGSEarth / LIO MapServer). Unofficial viewing data, not legal title.", "as_of": "2026-09-20", "role": "focus", "color": "#e8b040"}}, {"type": "Feature", "geometry": {"type": "Polygon", "coordinates": [[[-84.6563, 48.0], [-84.6563, 48.0042], [-84.6625, 48.0042], [-84.6625, 48.0], [-84.6563, 48.0]]]}, "properties": {"company_id": "almonty-industries", "jurisdiction": "Ontario", "claim_id": "918853", "claim_name": null, "holder": "(100) WHSH INDUSTRIES LIMITED", "status": "Active", "recorded_date": "2024-12-24", "anniversary_or_expiry": "2026-12-24", "area_ha": null, "tenure_type": "Single Cell Mining Claim", "source": "Ontario MLAS operational claims (OGSEarth / LIO MapServer). Unofficial viewing data, not legal title.", "as_of": "2026-09-20", "role": "focus", "color": "#e8b040"}}, {"type": "Feature", "geometry": {"type": "Polygon", "coordinates": [[[-84.6563, 47.9958], [-84.6563, 48.0], [-84.6625, 48.0], [-84.6625, 47.9958], [-84.6563, 47.9958]]]}, "properties": {"company_id": "almonty-industries", "jurisdiction": "Ontario", "claim_id": "918854", "claim_name": null, "holder": "(100) WHSH INDUSTRIES LIMITED", "status": "Active", "recorded_date": "2024-12-24", "anniversary_or_expiry": "2026-12-24", "area_ha": null, "tenure_type": "Single Cell Mining Claim", "source": "Ontario MLAS operational claims (OGSEarth / LIO MapServer). Unofficial viewing data, not legal title.", "as_of": "2026-09-20", "role": "focus", "color": "#e8b040"}}, {"type": "Feature", "geometry": {"type": "Polygon", "coordinates": [[[-84.65, 47.9958], [-84.65, 48.0], [-84.6563, 48.0], [-84.6563, 47.9958], [-84.65, 47.9958]]]}, "properties": {"company_id": "almonty-industries", "jurisdiction": "Ontario", "claim_id": "918855", "claim_name": null, "holder": "(100) WHSH INDUSTRIES LIMITED", "status": "Active", "recorded_date": "2024-12-24", "anniversary_or_expiry": "2026-12-24", "area_ha": null, "tenure_type": "Single Cell Mining Claim", "source": "Ontario MLAS operational claims (OGSEarth / LIO MapServer). Unofficial viewing data, not legal title.", "as_of": "2026-09-20", "role": "focus", "color": "#e8b040"}}, {"type": "Feature", "geometry": {"type": "Polygon", "coordinates": [[[-84.7813, 48.0167], [-84.7813, 48.0208], [-84.7875, 48.0208], [-84.7875, 48.0167], [-84.7813, 48.0167]]]}, "properties": {"company_id": "almonty-industries", "jurisdiction": "Ontario", "claim_id": "978928", "claim_name": null, "holder": "(100) Algoma Ferrous Industries Inc.", "status": "Active", "recorded_date": "2025-10-22", "anniversary_or_expiry": "2027-10-22", "area_ha": null, "tenure_type": "Single Cell Mining Claim", "source": "Ontario MLAS operational claims (OGSEarth / LIO MapServer). Unofficial viewing data, not legal title.", "as_of": "2026-09-20", "role": "focus", "color": "#e8b040"}}, {"type": "Feature", "geometry": {"type": "Polygon", "coordinates": [[[-84.775, 48.0167], [-84.775, 48.0208], [-84.7813, 48.0208], [-84.7813, 48.0167], [-84.775, 48.0167]]]}, "properties": {"company_id": "almonty-industries", "jurisdiction": "Ontario", "claim_id": "978929", "claim_name": null, "holder": "(100) Algoma Ferrous Industries Inc.", "status": "Active", "recorded_date": "2025-10-22", "anniversary_or_expiry": "2027-10-22", "area_ha": null, "tenure_type": "Single Cell Mining Claim", "source": "Ontario MLAS operational claims (OGSEarth / LIO MapServer). Unofficial viewing data, not legal title.", "as_of": "2026-09-20", "role": "focus", "color": "#e8b040"}}, {"type": "Feature", "geometry": {"type": "Polygon", "coordinates": [[[-84.7688, 48.0167], [-84.7688, 48.0208], [-84.775, 48.0208], [-84.775, 48.0167], [-84.7688, 48.0167]]]}, "properties": {"company_id": "almonty-industries", "jurisdiction": "Ontario", "claim_id": "978930", "claim_name": null, "holder": "(100) Algoma Ferrous Industries Inc.", "status": "Active", "recorded_date": "2025-10-22", "anniversary_or_expiry": "2027-10-22", "area_ha": null, "tenure_type": "Single Cell Mining Claim", "source": "Ontario MLAS operational claims (OGSEarth / LIO MapServer). Unofficial viewing data, not legal title.", "as_of": "2026-09-20", "role": "focus", "color": "#e8b040"}}, {"type": "Feature", "geometry": {"type": "Polygon", "coordinates": [[[-84.7688, 48.025], [-84.7688, 48.0292], [-84.775, 48.0292], [-84.775, 48.025], [-84.7688, 48.025]]]}, "properties": {"company_id": "almonty-industries", "jurisdiction": "Ontario", "claim_id": "978931", "claim_name": null, "holder": "(100) Algoma Ferrous Industries Inc.", "status": "Active", "recorded_date": "2025-10-22", "anniversary_or_expiry": "2027-10-22", "area_ha": null, "tenure_type": "Single Cell Mining Claim", "source": "Ontario MLAS operational claims (OGSEarth / LIO MapServer). Unofficial viewing data, not legal title.", "as_of": "2026-09-20", "role": "focus", "color": "#e8b040"}}, {"type": "Feature", "geometry": {"type": "Polygon", "coordinates": [[[-84.7625, 48.025], [-84.7625, 48.0292], [-84.7688, 48.0292], [-84.7688, 48.025], [-84.7625, 48.025]]]}, "properties": {"company_id": "almonty-industries", "jurisdiction": "Ontario", "claim_id": "978932", "claim_name": null, "holder": "(100) Algoma Ferrous Industries Inc.", "status": "Active", "recorded_date": "2025-10-22", "anniversary_or_expiry": "2027-10-22", "area_ha": null, "tenure_type": "Single Cell Mining Claim", "source": "Ontario MLAS operational claims (OGSEarth / LIO MapServer). Unofficial viewing data, not legal title.", "as_of": "2026-09-20", "role": "focus", "color": "#e8b040"}}, {"type": "Feature", "geometry": {"type": "Polygon", "coordinates": [[[-84.7563, 48.025], [-84.7563, 48.0292], [-84.7625, 48.0292], [-84.7625, 48.025], [-84.7563, 48.025]]]}, "properties": {"company_id": "almonty-industries", "jurisdiction": "Ontario", "claim_id": "978933", "claim_name": null, "holder": "(100) Algoma Ferrous Industries Inc.", "status": "Active", "recorded_date": "2025-10-22", "anniversary_or_expiry": "2027-10-22", "area_ha": null, "tenure_type": "Single Cell Mining Claim", "source": "Ontario MLAS operational claims (OGSEarth / LIO MapServer). Unofficial viewing data, not legal title.", "as_of": "2026-09-20", "role": "focus", "color": "#e8b040"}}, {"type": "Feature", "geometry": {"type": "Polygon", "coordinates": [[[-84.7813, 48.0208], [-84.7813, 48.025], [-84.7875, 48.025], [-84.7875, 48.0208], [-84.7813, 48.0208]]]}, "properties": {"company_id": "almonty-industries", "jurisdiction": "Ontario", "claim_id": "978935", "claim_name": null, "holder": "(100) Algoma Ferrous Industries Inc.", "status": "Active", "recorded_date": "2025-10-22", "anniversary_or_expiry": "2027-10-22", "area_ha": null, "tenure_type": "Single Cell Mining Claim", "source": "Ontario MLAS operational claims (OGSEarth / LIO MapServer). Unofficial viewing data, not legal title.", "as_of": "2026-09-20", "role": "focus", "color": "#e8b040"}}, {"type": "Feature", "geometry": {"type": "Polygon", "coordinates": [[[-84.775, 48.0208], [-84.775, 48.025], [-84.7813, 48.025], [-84.7813, 48.0208], [-84.775, 48.0208]]]}, "properties": {"company_id": "almonty-industries", "jurisdiction": "Ontario", "claim_id": "978936", "claim_name": null, "holder": "(100) Algoma Ferrous Industries Inc.", "status": "Active", "recorded_date": "2025-10-22", "anniversary_or_expiry": "2027-10-22", "area_ha": null, "tenure_type": "Single Cell Mining Claim", "source": "Ontario MLAS operational claims (OGSEarth / LIO MapServer). Unofficial viewing data, not legal title.", "as_of": "2026-09-20", "role": "focus", "color": "#e8b040"}}, {"type": "Feature", "geometry": {"type": "Polygon", "coordinates": [[[-84.7688, 48.0208], [-84.7688, 48.025], [-84.775, 48.025], [-84.775, 48.0208], [-84.7688, 48.0208]]]}, "properties": {"company_id": "almonty-industries", "jurisdiction": "Ontario", "claim_id": "978937", "claim_name": null, "holder": "(100) Algoma Ferrous Industries Inc.", "status": "Active", "recorded_date": "2025-10-22", "anniversary_or_expiry": "2027-10-22", "area_ha": null, "tenure_type": "Single Cell Mining Claim", "source": "Ontario MLAS operational claims (OGSEarth / LIO MapServer). Unofficial viewing data, not legal title.", "as_of": "2026-09-20", "role": "focus", "color": "#e8b040"}}, {"type": "Feature", "geometry": {"type": "Polygon", "coordinates": [[[-84.7625, 48.0208], [-84.7625, 48.025], [-84.7688, 48.025], [-84.7688, 48.0208], [-84.7625, 48.0208]]]}, "properties": {"company_id": "almonty-industries", "jurisdiction": "Ontario", "claim_id": "978938", "claim_name": null, "holder": "(100) Algoma Ferrous Industries Inc.", "status": "Active", "recorded_date": "2025-10-22", "anniversary_or_expiry": "2027-10-22", "area_ha": null, "tenure_type": "Single Cell Mining Claim", "source": "Ontario MLAS operational claims (OGSEarth / LIO MapServer). Unofficial viewing data, not legal title.", "as_of": "2026-09-20", "role": "focus", "color": "#e8b040"}}]}