{"type": "FeatureCollection", "features": [{"type": "Feature", "geometry": {"type": "Polygon", "coordinates": [[[-69.43333333944483, 47.35000000646821], [-69.43333332760898, 47.358333335380046], [-69.42500000562747, 47.358333339482336], [-69.42500000524377, 47.35000000235103], [-69.43333333944483, 47.35000000646821]]]}, "properties": {"company_id": "alpha-metallurgical-resources", "jurisdiction": "Quebec", "claim_id": "", "claim_name": null, "holder": "Explorations Alpha inc.", "status": "Active", "recorded_date": null, "anniversary_or_expiry": null, "area_ha": null, "tenure_type": null, "source": "GESTIM active titles (MRNF digital data dump). Not legal title.", "as_of": "2026-09-20", "role": "focus", "color": "#e8b040"}}, {"type": "Feature", "geometry": {"type": "Polygon", "coordinates": [[[-69.42500000524377, 47.35000000235103], [-69.42500000562747, 47.358333339482336], [-69.41666667103519, 47.358333331651046], [-69.41666667181535, 47.35000000423204], [-69.42500000524377, 47.35000000235103]]]}, "properties": {"company_id": "alpha-metallurgical-resources", "jurisdiction": "Quebec", "claim_id": "", "claim_name": null, "holder": "Explorations Alpha inc.", "status": "Active", "recorded_date": null, "anniversary_or_expiry": null, "area_ha": null, "tenure_type": null, "source": "GESTIM active titles (MRNF digital data dump). Not legal title.", "as_of": "2026-09-20", "role": "focus", "color": "#e8b040"}}, {"type": "Feature", "geometry": {"type": "Polygon", "coordinates": [[[-69.43333332760898, 47.358333335380046], [-69.43333333830051, 47.36666667009887], [-69.42500000180362, 47.366666673520506], [-69.42500000562747, 47.358333339482336], [-69.43333332760898, 47.358333335380046]]]}, "properties": {"company_id": "alpha-metallurgical-resources", "jurisdiction": "Quebec", "claim_id": "", "claim_name": null, "holder": "Explorations Alpha inc.", "status": "Active", "recorded_date": null, "anniversary_or_expiry": null, "area_ha": null, "tenure_type": null, "source": "GESTIM active titles (MRNF digital data dump). Not legal title.", "as_of": "2026-09-20", "role": "focus", "color": "#e8b040"}}, {"type": "Feature", "geometry": {"type": "Polygon", "coordinates": [[[-69.42500000562747, 47.358333339482336], [-69.42500000180362, 47.366666673520506], [-69.41666666594075, 47.36666666497263], [-69.41666667103519, 47.358333331651046], [-69.42500000562747, 47.358333339482336]]]}, "properties": {"company_id": "alpha-metallurgical-resources", "jurisdiction": "Quebec", "claim_id": "", "claim_name": null, "holder": "Explorations Alpha inc.", "status": "Active", "recorded_date": null, "anniversary_or_expiry": null, "area_ha": null, "tenure_type": null, "source": "GESTIM active titles (MRNF digital data dump). Not legal title.", "as_of": "2026-09-20", "role": "focus", "color": "#e8b040"}}]}