{"type": "FeatureCollection", "features": [{"type": "Feature", "geometry": {"type": "Polygon", "coordinates": [[[-124.6525, 50.0325], [-124.6525, 50.055], [-124.6805, 50.055], [-124.6805, 50.0325], [-124.6525, 50.0325]]]}, "properties": {"company_id": "alpha-metallurgical-resources", "jurisdiction": "British Columbia", "claim_id": 258171, "claim_name": "OK A", "holder": "ALPHA COPPER CORP.", "status": "Mineral", "recorded_date": "3615840000", "anniversary_or_expiry": "2028-11-25", "area_ha": 500, "tenure_type": "Mineral", "source": "BC MTA Mineral, Placer and Coal Tenure Spatial View (BCGW). Open Government Licence - British Columbia. Not legal title.", "as_of": "2026-09-20", "role": "focus", "color": "#e8b040"}}, {"type": "Feature", "geometry": {"type": "Polygon", "coordinates": [[[-124.6246, 50.0325], [-124.6246, 50.055], [-124.6525, 50.055], [-124.6525, 50.0325], [-124.6246, 50.0325]]]}, "properties": {"company_id": "alpha-metallurgical-resources", "jurisdiction": "British Columbia", "claim_id": 258172, "claim_name": "OK B", "holder": "ALPHA COPPER CORP.", "status": "Mineral", "recorded_date": "3615840000", "anniversary_or_expiry": "2028-11-25", "area_ha": 500, "tenure_type": "Mineral", "source": "BC MTA Mineral, Placer and Coal Tenure Spatial View (BCGW). Open Government Licence - British Columbia. Not legal title.", "as_of": "2026-09-20", "role": "focus", "color": "#e8b040"}}, {"type": "Feature", "geometry": {"type": "Polygon", "coordinates": [[[-124.6176, 50.0146], [-124.6178, 50.0201], [-124.6216, 50.0249], [-124.6176, 50.0263], [-124.6176, 50.0325], [-124.6525, 50.0325], [-124.6525, 50.0146], [-124.6176, 50.0146]]]}, "properties": {"company_id": "alpha-metallurgical-resources", "jurisdiction": "British Columbia", "claim_id": 258173, "claim_name": "OK C", "holder": "ALPHA COPPER CORP.", "status": "Mineral", "recorded_date": "3615840000", "anniversary_or_expiry": "2028-11-25", "area_ha": 500, "tenure_type": "Mineral", "source": "BC MTA Mineral, Placer and Coal Tenure Spatial View (BCGW). Open Government Licence - British Columbia. Not legal title.", "as_of": "2026-09-20", "role": "focus", "color": "#e8b040"}}, {"type": "Feature", "geometry": {"type": "Polygon", "coordinates": [[[-124.6702, 49.9998], [-124.6702, 49.9957], [-124.6577, 49.9957], [-124.6577, 49.9915], [-124.6139, 49.9915], [-124.6139, 50.004], [-124.6702, 50.004], [-124.6702, 49.9998]]]}, "properties": {"company_id": "alpha-metallurgical-resources", "jurisdiction": "British Columbia", "claim_id": 504530, "claim_name": "OK H", "holder": "ALPHA COPPER CORP.", "status": "Mineral", "recorded_date": "2005-01-21", "anniversary_or_expiry": "2028-11-25", "area_ha": 519.2280000000001, "tenure_type": "Mineral", "source": "BC MTA Mineral, Placer and Coal Tenure Spatial View (BCGW). Open Government Licence - British Columbia. Not legal title.", "as_of": "2026-09-20", "role": "focus", "color": "#e8b040"}}, {"type": "Feature", "geometry": {"type": "Polygon", "coordinates": [[[-124.6639, 50.0082], [-124.6702, 50.0082], [-124.6702, 50.004], [-124.6202, 50.004], [-124.6202, 50.0082], [-124.6639, 50.0082]]]}, "properties": {"company_id": "alpha-metallurgical-resources", "jurisdiction": "British Columbia", "claim_id": 519763, "claim_name": "OK CONNECTOR", "holder": "ALPHA COPPER CORP.", "status": "Mineral", "recorded_date": "2005-09-07", "anniversary_or_expiry": "2028-11-25", "area_ha": 166.125, "tenure_type": "Mineral", "source": "BC MTA Mineral, Placer and Coal Tenure Spatial View (BCGW). Open Government Licence - British Columbia. Not legal title.", "as_of": "2026-09-20", "role": "focus", "color": "#e8b040"}}, {"type": "Feature", "geometry": {"type": "Polygon", "coordinates": [[[-124.6889, 50.054], [-124.6889, 50.0332], [-124.6764, 50.0332], [-124.6764, 50.054], [-124.6702, 50.054], [-124.6702, 50.0623], [-124.6764, 50.0623], [-124.6764, 50.0582], [-124.6889, 50.0582], [-124.6889, 50.054]]]}, "properties": {"company_id": "alpha-metallurgical-resources", "jurisdiction": "British Columbia", "claim_id": 533994, "claim_name": "OK WEST", "holder": "ALPHA COPPER CORP.", "status": "Mineral", "recorded_date": "2006-05-12", "anniversary_or_expiry": "2028-11-25", "area_ha": 290.47200000000004, "tenure_type": "Mineral", "source": "BC MTA Mineral, Placer and Coal Tenure Spatial View (BCGW). Open Government Licence - British Columbia. Not legal title.", "as_of": "2026-09-20", "role": "focus", "color": "#e8b040"}}, {"type": "Feature", "geometry": {"type": "Polygon", "coordinates": [[[-124.6827, 50.0665], [-124.6827, 50.0623], [-124.6702, 50.0623], [-124.6702, 50.0707], [-124.6827, 50.0707], [-124.6827, 50.0665]]]}, "properties": {"company_id": "alpha-metallurgical-resources", "jurisdiction": "British Columbia", "claim_id": 539544, "claim_name": "OK NORTHWEST", "holder": "ALPHA COPPER CORP.", "status": "Mineral", "recorded_date": "2006-08-17", "anniversary_or_expiry": "2028-11-25", "area_ha": 82.9595, "tenure_type": "Mineral", "source": "BC MTA Mineral, Placer and Coal Tenure Spatial View (BCGW). Open Government Licence - British Columbia. Not legal title.", "as_of": "2026-09-20", "role": "focus", "color": "#e8b040"}}]}