{"type": "FeatureCollection", "features": [{"type": "Feature", "geometry": {"type": "Polygon", "coordinates": [[[-123.3998, 51.0817], [-123.4283, 51.0816], [-123.4283, 51.0637], [-123.3998, 51.0637], [-123.3998, 51.0817]]]}, "properties": {"company_id": "amarc-resources", "jurisdiction": "British Columbia", "claim_id": 208791, "claim_name": "ROW", "holder": "AMARC RESOURCES LTD.", "status": "Mineral", "recorded_date": "6190560000", "anniversary_or_expiry": "2029-11-21", "area_ha": 400, "tenure_type": "Mineral", "source": "BC MTA Mineral, Placer and Coal Tenure Spatial View (BCGW). Open Government Licence - British Columbia. Not legal title.", "as_of": "2026-09-20", "role": "focus", "color": "#e8b040"}}, {"type": "Feature", "geometry": {"type": "Polygon", "coordinates": [[[-123.4396, 51.1008], [-123.4317, 51.1008], [-123.4317, 51.1027], [-123.4042, 51.1027], [-123.4042, 51.1098], [-123.4318, 51.1098], [-123.4318, 51.1064], [-123.4433, 51.1064], [-123.4433, 51.103], [-123.4471, 51.103], [-123.4471, 51.1008], [-123.4451, 51.1008], [-123.4434, 51.1024], [-123.4396, 51.1008]]]}, "properties": {"company_id": "amarc-resources", "jurisdiction": "British Columbia", "claim_id": 208502, "claim_name": "NEW GOLD 3", "holder": "AMARC RESOURCES LTD.", "status": "Mineral", "recorded_date": "5900256000", "anniversary_or_expiry": "2029-11-21", "area_ha": 300, "tenure_type": "Mineral", "source": "BC MTA Mineral, Placer and Coal Tenure Spatial View (BCGW). Open Government Licence - British Columbia. Not legal title.", "as_of": "2026-09-20", "role": "focus", "color": "#e8b040"}}, {"type": "Feature", "geometry": {"type": "MultiPolygon", "coordinates": [[[[-123.3685, 51.1098], [-123.4042, 51.1098], [-123.4042, 51.1072], [-123.3971, 51.1072], [-123.3971, 51.1027], [-123.4029, 51.1027], [-123.4029, 51.1008], [-123.3912, 51.1008], [-123.3912, 51.1027], [-123.3685, 51.1027], [-123.3685, 51.1098]]], [[[-123.3835, 51.1008], [-123.3817, 51.1008], [-123.3846, 51.1022], [-123.3863, 51.1008], [-123.3835, 51.1008]]]]}, "properties": {"company_id": "amarc-resources", "jurisdiction": "British Columbia", "claim_id": 208503, "claim_name": "NEW GOLD 2", "holder": "AMARC RESOURCES LTD.", "status": "Mineral", "recorded_date": "5889024000", "anniversary_or_expiry": "2029-11-21", "area_ha": 250, "tenure_type": "Mineral", "source": "BC MTA Mineral, Placer and Coal Tenure Spatial View (BCGW). Open Government Licence - British Columbia. Not legal title.", "as_of": "2026-09-20", "role": "focus", "color": "#e8b040"}}, {"type": "Feature", "geometry": {"type": "Polygon", "coordinates": [[[-123.372, 51.0927], [-123.3639, 51.0914], [-123.3414, 51.0914], [-123.3413, 51.0966], [-123.3429, 51.0966], [-123.3413, 51.0999], [-123.3413, 51.1027], [-123.3479, 51.1038], [-123.348, 51.1049], [-123.3685, 51.1049], [-123.3685, 51.1027], [-123.3699, 51.1027], [-123.3741, 51.0931], [-123.372, 51.0927]]]}, "properties": {"company_id": "amarc-resources", "jurisdiction": "British Columbia", "claim_id": 208505, "claim_name": "NEW BUZZ", "holder": "AMARC RESOURCES LTD.", "status": "Mineral", "recorded_date": "5912352000", "anniversary_or_expiry": "2029-11-21", "area_ha": 375, "tenure_type": "Mineral", "source": "BC MTA Mineral, Placer and Coal Tenure Spatial View (BCGW). Open Government Licence - British Columbia. Not legal title.", "as_of": "2026-09-20", "role": "focus", "color": "#e8b040"}}, {"type": "Feature", "geometry": {"type": "Polygon", "coordinates": [[[-123.3853, 51.1098], [-123.3853, 51.1174], [-123.4042, 51.1174], [-123.4042, 51.1098], [-123.3853, 51.1098]]]}, "properties": {"company_id": "amarc-resources", "jurisdiction": "British Columbia", "claim_id": 208506, "claim_name": "NEW GOLD 1", "holder": "AMARC RESOURCES LTD.", "status": "Mineral", "recorded_date": "5910624000", "anniversary_or_expiry": "2029-11-21", "area_ha": 150, "tenure_type": "Mineral", "source": "BC MTA Mineral, Placer and Coal Tenure Spatial View (BCGW). Open Government Licence - British Columbia. Not legal title.", "as_of": "2026-09-20", "role": "focus", "color": "#e8b040"}}, {"type": "Feature", "geometry": {"type": "Polygon", "coordinates": [[[-123.4042, 51.1174], [-123.4042, 51.1188], [-123.4314, 51.1188], [-123.4314, 51.1098], [-123.4042, 51.1098], [-123.4042, 51.1174]]]}, "properties": {"company_id": "amarc-resources", "jurisdiction": "British Columbia", "claim_id": 208507, "claim_name": "NEW GOLD 4", "holder": "AMARC RESOURCES LTD.", "status": "Mineral", "recorded_date": "5910624000", "anniversary_or_expiry": "2029-11-21", "area_ha": 200, "tenure_type": "Mineral", "source": "BC MTA Mineral, Placer and Coal Tenure Spatial View (BCGW). Open Government Licence - British Columbia. Not legal title.", "as_of": "2026-09-20", "role": "focus", "color": "#e8b040"}}, {"type": "Feature", "geometry": {"type": "Polygon", "coordinates": [[[-123.3978, 51.1008], [-123.4029, 51.1008], [-123.4029, 51.0994], [-123.3998, 51.0994], [-123.3998, 51.0981], [-123.3978, 51.0981], [-123.3978, 51.1008]]]}, "properties": {"company_id": "amarc-resources", "jurisdiction": "British Columbia", "claim_id": 208579, "claim_name": "MARS 1", "holder": "AMARC RESOURCES LTD.", "status": "Mineral", "recorded_date": "5933952000", "anniversary_or_expiry": "2029-11-21", "area_ha": 25, "tenure_type": "Mineral", "source": "BC MTA Mineral, Placer and Coal Tenure Spatial View (BCGW). Open Government Licence - British Columbia. Not legal title.", "as_of": "2026-09-20", "role": "focus", "color": "#e8b040"}}, {"type": "Feature", "geometry": {"type": "Polygon", "coordinates": [[[-123.3978, 51.0981], [-123.3998, 51.0981], [-123.3998, 51.0951], [-123.3978, 51.0951], [-123.3978, 51.0981]]]}, "properties": {"company_id": "amarc-resources", "jurisdiction": "British Columbia", "claim_id": 208580, "claim_name": "MARS 2", "holder": "AMARC RESOURCES LTD.", "status": "Mineral", "recorded_date": "5933952000", "anniversary_or_expiry": "2029-11-21", "area_ha": 25, "tenure_type": "Mineral", "source": "BC MTA Mineral, Placer and Coal Tenure Spatial View (BCGW). Open Government Licence - British Columbia. Not legal title.", "as_of": "2026-09-20", "role": "focus", "color": "#e8b040"}}, {"type": "Feature", "geometry": {"type": "Polygon", "coordinates": [[[-123.3912, 51.1026], [-123.3912, 51.1008], [-123.3978, 51.1008], [-123.3978, 51.0981], [-123.3907, 51.0981], [-123.3907, 51.1026], [-123.3912, 51.1026]]]}, "properties": {"company_id": "amarc-resources", "jurisdiction": "British Columbia", "claim_id": 208581, "claim_name": "MARS 3", "holder": "AMARC RESOURCES LTD.", "status": "Mineral", "recorded_date": "5933952000", "anniversary_or_expiry": "2029-11-21", "area_ha": 25, "tenure_type": "Mineral", "source": "BC MTA Mineral, Placer and Coal Tenure Spatial View (BCGW). Open Government Licence - British Columbia. Not legal title.", "as_of": "2026-09-20", "role": "focus", "color": "#e8b040"}}, {"type": "Feature", "geometry": {"type": "Polygon", "coordinates": [[[-123.3907, 51.0981], [-123.3978, 51.0981], [-123.3978, 51.0951], [-123.3907, 51.0951], [-123.3907, 51.0981]]]}, "properties": {"company_id": "amarc-resources", "jurisdiction": "British Columbia", "claim_id": 208582, "claim_name": "MARS 4", "holder": "AMARC RESOURCES LTD.", "status": "Mineral", "recorded_date": "5933952000", "anniversary_or_expiry": "2029-11-21", "area_ha": 25, "tenure_type": "Mineral", "source": "BC MTA Mineral, Placer and Coal Tenure Spatial View (BCGW). Open Government Licence - British Columbia. Not legal title.", "as_of": "2026-09-20", "role": "focus", "color": "#e8b040"}}, {"type": "Feature", "geometry": {"type": "Polygon", "coordinates": [[[-123.3835, 51.1026], [-123.3907, 51.1026], [-123.3907, 51.0981], [-123.3835, 51.0981], [-123.3835, 51.1008], [-123.3863, 51.1008], [-123.3846, 51.1022], [-123.3835, 51.1017], [-123.3835, 51.1026]]]}, "properties": {"company_id": "amarc-resources", "jurisdiction": "British Columbia", "claim_id": 208583, "claim_name": "MARS 5", "holder": "AMARC RESOURCES LTD.", "status": "Mineral", "recorded_date": "5933952000", "anniversary_or_expiry": "2029-11-21", "area_ha": 25, "tenure_type": "Mineral", "source": "BC MTA Mineral, Placer and Coal Tenure Spatial View (BCGW). Open Government Licence - British Columbia. Not legal title.", "as_of": "2026-09-20", "role": "focus", "color": "#e8b040"}}, {"type": "Feature", "geometry": {"type": "Polygon", "coordinates": [[[-123.3835, 51.0951], [-123.3835, 51.0981], [-123.3907, 51.0981], [-123.3907, 51.0951], [-123.3835, 51.0951]]]}, "properties": {"company_id": "amarc-resources", "jurisdiction": "British Columbia", "claim_id": 208584, "claim_name": "MARS 6", "holder": "AMARC RESOURCES LTD.", "status": "Mineral", "recorded_date": "5933952000", "anniversary_or_expiry": "2029-11-21", "area_ha": 25, "tenure_type": "Mineral", "source": "BC MTA Mineral, Placer and Coal Tenure Spatial View (BCGW). Open Government Licence - British Columbia. Not legal title.", "as_of": "2026-09-20", "role": "focus", "color": "#e8b040"}}, {"type": "Feature", "geometry": {"type": "Polygon", "coordinates": [[[-123.3764, 51.0981], [-123.3764, 51.1026], [-123.3835, 51.1026], [-123.3835, 51.1017], [-123.3817, 51.1008], [-123.3835, 51.1008], [-123.3835, 51.0981], [-123.3764, 51.0981]]]}, "properties": {"company_id": "amarc-resources", "jurisdiction": "British Columbia", "claim_id": 208585, "claim_name": "MARS 7", "holder": "AMARC RESOURCES LTD.", "status": "Mineral", "recorded_date": "5933952000", "anniversary_or_expiry": "2029-11-21", "area_ha": 25, "tenure_type": "Mineral", "source": "BC MTA Mineral, Placer and Coal Tenure Spatial View (BCGW). Open Government Licence - British Columbia. Not legal title.", "as_of": "2026-09-20", "role": "focus", "color": "#e8b040"}}, {"type": "Feature", "geometry": {"type": "Polygon", "coordinates": [[[-123.3764, 51.0957], [-123.3764, 51.0981], [-123.3835, 51.0981], [-123.3835, 51.0951], [-123.3764, 51.0951], [-123.3764, 51.0957]]]}, "properties": {"company_id": "amarc-resources", "jurisdiction": "British Columbia", "claim_id": 208586, "claim_name": "MARS 8", "holder": "AMARC RESOURCES LTD.", "status": "Mineral", "recorded_date": "5933952000", "anniversary_or_expiry": "2029-11-21", "area_ha": 25, "tenure_type": "Mineral", "source": "BC MTA Mineral, Placer and Coal Tenure Spatial View (BCGW). Open Government Licence - British Columbia. Not legal title.", "as_of": "2026-09-20", "role": "focus", "color": "#e8b040"}}, {"type": "Feature", "geometry": {"type": "Polygon", "coordinates": [[[-123.3719, 51.0981], [-123.3699, 51.1026], [-123.3764, 51.1026], [-123.3764, 51.0981], [-123.3719, 51.0981]]]}, "properties": {"company_id": "amarc-resources", "jurisdiction": "British Columbia", "claim_id": 208587, "claim_name": "MARS 9", "holder": "AMARC RESOURCES LTD.", "status": "Mineral", "recorded_date": "5933952000", "anniversary_or_expiry": "2029-11-21", "area_ha": 25, "tenure_type": "Mineral", "source": "BC MTA Mineral, Placer and Coal Tenure Spatial View (BCGW). Open Government Licence - British Columbia. Not legal title.", "as_of": "2026-09-20", "role": "focus", "color": "#e8b040"}}, {"type": "Feature", "geometry": {"type": "Polygon", "coordinates": [[[-123.3732, 51.0951], [-123.3719, 51.0981], [-123.3764, 51.0981], [-123.3764, 51.0951], [-123.3732, 51.0951]]]}, "properties": {"company_id": "amarc-resources", "jurisdiction": "British Columbia", "claim_id": 208588, "claim_name": "MARS 10", "holder": "AMARC RESOURCES LTD.", "status": "Mineral", "recorded_date": "5933952000", "anniversary_or_expiry": "2029-11-21", "area_ha": 25, "tenure_type": "Mineral", "source": "BC MTA Mineral, Placer and Coal Tenure Spatial View (BCGW). Open Government Licence - British Columbia. Not legal title.", "as_of": "2026-09-20", "role": "focus", "color": "#e8b040"}}, {"type": "Feature", "geometry": {"type": "Polygon", "coordinates": [[[-123.4029, 51.1027], [-123.3971, 51.1027], [-123.3971, 51.1072], [-123.4042, 51.1072], [-123.4042, 51.1027], [-123.4029, 51.1027]]]}, "properties": {"company_id": "amarc-resources", "jurisdiction": "British Columbia", "claim_id": 208590, "claim_name": "MARS 19", "holder": "AMARC RESOURCES LTD.", "status": "Mineral", "recorded_date": "5933952000", "anniversary_or_expiry": "2029-11-21", "area_ha": 25, "tenure_type": "Mineral", "source": "BC MTA Mineral, Placer and Coal Tenure Spatial View (BCGW). Open Government Licence - British Columbia. Not legal title.", "as_of": "2026-09-20", "role": "focus", "color": "#e8b040"}}, {"type": "Feature", "geometry": {"type": "Polygon", "coordinates": [[[-123.3732, 51.0951], [-123.3764, 51.0951], [-123.3764, 51.0957], [-123.3764, 51.0951], [-123.3857, 51.0951], [-123.3857, 51.0906], [-123.3928, 51.0906], [-123.3928, 51.0951], [-123.3998, 51.0951], [-123.3998, 51.0957], [-123.3998, 51.0732], [-123.372, 51.0732], [-123.372, 51.0927], [-123.3741, 51.0931], [-123.3732, 51.0951]]]}, "properties": {"company_id": "amarc-resources", "jurisdiction": "British Columbia", "claim_id": 209156, "claim_name": "ODIN", "holder": "AMARC RESOURCES LTD.", "status": "Mineral", "recorded_date": "6478272000", "anniversary_or_expiry": "2029-11-21", "area_ha": 500, "tenure_type": "Mineral", "source": "BC MTA Mineral, Placer and Coal Tenure Spatial View (BCGW). Open Government Licence - British Columbia. Not legal title.", "as_of": "2026-09-20", "role": "focus", "color": "#e8b040"}}, {"type": "Feature", "geometry": {"type": "Polygon", "coordinates": [[[-123.6792, 51.1846], [-123.6754, 51.1848], [-123.6724, 51.1868], [-123.6631, 51.1809], [-123.6675, 51.1782], [-123.6647, 51.1745], [-123.6707, 51.1728], [-123.6734, 51.1765], [-123.6724, 51.1768], [-123.6784, 51.1763], [-123.6792, 51.1806], [-123.6792, 51.1734], [-123.6787, 51.1734], [-123.6787, 51.1724], [-123.6506, 51.1724], [-123.6506, 51.1949], [-123.6792, 51.1949], [-123.6792, 51.1846]]]}, "properties": {"company_id": "amarc-resources", "jurisdiction": "British Columbia", "claim_id": 354051, "claim_name": "COUGAR", "holder": "AMARC RESOURCES LTD.", "status": "Mineral", "recorded_date": "8572608000", "anniversary_or_expiry": "2029-11-21", "area_ha": 500, "tenure_type": "Mineral", "source": "BC MTA Mineral, Placer and Coal Tenure Spatial View (BCGW). Open Government Licence - British Columbia. Not legal title.", "as_of": "2026-09-20", "role": "focus", "color": "#e8b040"}}, {"type": "Feature", "geometry": {"type": "Polygon", "coordinates": [[[-123.6358, 51.1599], [-123.6358, 51.1734], [-123.6506, 51.1734], [-123.6506, 51.1724], [-123.6787, 51.1724], [-123.6787, 51.1599], [-123.6358, 51.1599]]]}, "properties": {"company_id": "amarc-resources", "jurisdiction": "British Columbia", "claim_id": 354057, "claim_name": "COUGAR #7", "holder": "AMARC RESOURCES LTD.", "status": "Mineral", "recorded_date": "8572608000", "anniversary_or_expiry": "2029-11-21", "area_ha": 450, "tenure_type": "Mineral", "source": "BC MTA Mineral, Placer and Coal Tenure Spatial View (BCGW). Open Government Licence - British Columbia. Not legal title.", "as_of": "2026-09-20", "role": "focus", "color": "#e8b040"}}, {"type": "Feature", "geometry": {"type": "Polygon", "coordinates": [[[-123.622, 51.1949], [-123.6506, 51.1949], [-123.6506, 51.1734], [-123.6361, 51.1734], [-123.6361, 51.1749], [-123.622, 51.1749], [-123.622, 51.1949]]]}, "properties": {"company_id": "amarc-resources", "jurisdiction": "British Columbia", "claim_id": 358599, "claim_name": "LISA #1", "holder": "AMARC RESOURCES LTD.", "status": "Mineral", "recorded_date": "8715168000", "anniversary_or_expiry": "2029-11-21", "area_ha": 500, "tenure_type": "Mineral", "source": "BC MTA Mineral, Placer and Coal Tenure Spatial View (BCGW). Open Government Licence - British Columbia. Not legal title.", "as_of": "2026-09-20", "role": "focus", "color": "#e8b040"}}, {"type": "Feature", "geometry": {"type": "Polygon", "coordinates": [[[-123.622, 51.1749], [-123.6361, 51.1749], [-123.6358, 51.1479], [-123.6146, 51.1479], [-123.6146, 51.1749], [-123.622, 51.1749]]]}, "properties": {"company_id": "amarc-resources", "jurisdiction": "British Columbia", "claim_id": 358602, "claim_name": "JANICE", "holder": "AMARC RESOURCES LTD.", "status": "Mineral", "recorded_date": "8714304000", "anniversary_or_expiry": "2029-11-21", "area_ha": 450, "tenure_type": "Mineral", "source": "BC MTA Mineral, Placer and Coal Tenure Spatial View (BCGW). Open Government Licence - British Columbia. Not legal title.", "as_of": "2026-09-20", "role": "focus", "color": "#e8b040"}}, {"type": "Feature", "geometry": {"type": "Polygon", "coordinates": [[[-123.5932, 51.1479], [-123.5932, 51.1749], [-123.6146, 51.1749], [-123.6146, 51.1479], [-123.5932, 51.1479]]]}, "properties": {"company_id": "amarc-resources", "jurisdiction": "British Columbia", "claim_id": 358603, "claim_name": "JANICE #2", "holder": "AMARC RESOURCES LTD.", "status": "Mineral", "recorded_date": "8714304000", "anniversary_or_expiry": "2029-11-21", "area_ha": 450, "tenure_type": "Mineral", "source": "BC MTA Mineral, Placer and Coal Tenure Spatial View (BCGW). Open Government Licence - British Columbia. Not legal title.", "as_of": "2026-09-20", "role": "focus", "color": "#e8b040"}}, {"type": "Feature", "geometry": {"type": "Polygon", "coordinates": [[[-123.6506, 51.2174], [-123.6506, 51.2219], [-123.6577, 51.2219], [-123.6577, 51.2174], [-123.6506, 51.2174]]]}, "properties": {"company_id": "amarc-resources", "jurisdiction": "British Columbia", "claim_id": 358607, "claim_name": "HW #3", "holder": "AMARC RESOURCES LTD.", "status": "Mineral", "recorded_date": "8714304000", "anniversary_or_expiry": "2029-11-21", "area_ha": 25, "tenure_type": "Mineral", "source": "BC MTA Mineral, Placer and Coal Tenure Spatial View (BCGW). Open Government Licence - British Columbia. Not legal title.", "as_of": "2026-09-20", "role": "focus", "color": "#e8b040"}}, {"type": "Feature", "geometry": {"type": "Polygon", "coordinates": [[[-123.6219, 51.1145], [-123.6279, 51.1145], [-123.6279, 51.1102], [-123.6219, 51.1102], [-123.6219, 51.1145]]]}, "properties": {"company_id": "amarc-resources", "jurisdiction": "British Columbia", "claim_id": 358613, "claim_name": "P #1", "holder": "AMARC RESOURCES LTD.", "status": "Mineral", "recorded_date": "8717760000", "anniversary_or_expiry": "2029-11-21", "area_ha": 25, "tenure_type": "Mineral", "source": "BC MTA Mineral, Placer and Coal Tenure Spatial View (BCGW). Open Government Licence - British Columbia. Not legal title.", "as_of": "2026-09-20", "role": "focus", "color": "#e8b040"}}, {"type": "Feature", "geometry": {"type": "Polygon", "coordinates": [[[-123.6279, 51.1102], [-123.6279, 51.1145], [-123.6351, 51.1145], [-123.6351, 51.1102], [-123.6279, 51.1102]]]}, "properties": {"company_id": "amarc-resources", "jurisdiction": "British Columbia", "claim_id": 358614, "claim_name": "P #2", "holder": "AMARC RESOURCES LTD.", "status": "Mineral", "recorded_date": "8717760000", "anniversary_or_expiry": "2029-11-21", "area_ha": 25, "tenure_type": "Mineral", "source": "BC MTA Mineral, Placer and Coal Tenure Spatial View (BCGW). Open Government Licence - British Columbia. Not legal title.", "as_of": "2026-09-20", "role": "focus", "color": "#e8b040"}}, {"type": "Feature", "geometry": {"type": "Polygon", "coordinates": [[[-123.5149, 51.1497], [-123.5507, 51.1497], [-123.5506, 51.1317], [-123.5149, 51.1317], [-123.5149, 51.1497]]]}, "properties": {"company_id": "amarc-resources", "jurisdiction": "British Columbia", "claim_id": 375960, "claim_name": "DISCOVERY", "holder": "AMARC RESOURCES LTD.", "status": "Mineral", "recorded_date": "9559296000", "anniversary_or_expiry": "2029-11-21", "area_ha": 500, "tenure_type": "Mineral", "source": "BC MTA Mineral, Placer and Coal Tenure Spatial View (BCGW). Open Government Licence - British Columbia. Not legal title.", "as_of": "2026-09-20", "role": "focus", "color": "#e8b040"}}, {"type": "Feature", "geometry": {"type": "Polygon", "coordinates": [[[-123.472, 51.1182], [-123.4935, 51.1182], [-123.4911, 51.1181], [-123.4912, 51.0957], [-123.472, 51.0957], [-123.472, 51.1182]]]}, "properties": {"company_id": "amarc-resources", "jurisdiction": "British Columbia", "claim_id": 375964, "claim_name": "MAGIC #2", "holder": "AMARC RESOURCES LTD.", "status": "Mineral", "recorded_date": "9559296000", "anniversary_or_expiry": "2029-11-21", "area_ha": 375, "tenure_type": "Mineral", "source": "BC MTA Mineral, Placer and Coal Tenure Spatial View (BCGW). Open Government Licence - British Columbia. Not legal title.", "as_of": "2026-09-20", "role": "focus", "color": "#e8b040"}}, {"type": "Feature", "geometry": {"type": "Polygon", "coordinates": [[[-123.4935, 51.1181], [-123.5269, 51.1181], [-123.5269, 51.1001], [-123.4911, 51.1001], [-123.4911, 51.1181], [-123.4935, 51.1181]]]}, "properties": {"company_id": "amarc-resources", "jurisdiction": "British Columbia", "claim_id": 376123, "claim_name": "DIS #8", "holder": "AMARC RESOURCES LTD.", "status": "Mineral", "recorded_date": "9559296000", "anniversary_or_expiry": "2029-11-21", "area_ha": 500, "tenure_type": "Mineral", "source": "BC MTA Mineral, Placer and Coal Tenure Spatial View (BCGW). Open Government Licence - British Columbia. Not legal title.", "as_of": "2026-09-20", "role": "focus", "color": "#e8b040"}}, {"type": "Feature", "geometry": {"type": "Polygon", "coordinates": [[[-123.3414, 51.0736], [-123.3414, 51.0914], [-123.3699, 51.0914], [-123.3699, 51.0734], [-123.3414, 51.0736]]]}, "properties": {"company_id": "amarc-resources", "jurisdiction": "British Columbia", "claim_id": 416508, "claim_name": "TAS #5", "holder": "AMARC RESOURCES LTD.", "status": "Mineral", "recorded_date": "2004-11-28", "anniversary_or_expiry": "2029-11-21", "area_ha": 400, "tenure_type": "Mineral", "source": "BC MTA Mineral, Placer and Coal Tenure Spatial View (BCGW). Open Government Licence - British Columbia. Not legal title.", "as_of": "2026-09-20", "role": "focus", "color": "#e8b040"}}, {"type": "Feature", "geometry": {"type": "Polygon", "coordinates": [[[-123.3414, 51.1049], [-123.3414, 51.0914], [-123.2985, 51.0914], [-123.2985, 51.1048], [-123.3414, 51.1049]]]}, "properties": {"company_id": "amarc-resources", "jurisdiction": "British Columbia", "claim_id": 415582, "claim_name": "BAT #3", "holder": "AMARC RESOURCES LTD.", "status": "Mineral", "recorded_date": "2004-10-27", "anniversary_or_expiry": "2029-11-21", "area_ha": 450, "tenure_type": "Mineral", "source": "BC MTA Mineral, Placer and Coal Tenure Spatial View (BCGW). Open Government Licence - British Columbia. Not legal title.", "as_of": "2026-09-20", "role": "focus", "color": "#e8b040"}}, {"type": "Feature", "geometry": {"type": "Polygon", "coordinates": [[[-123.6601, 51.1401], [-123.6075, 51.1401], [-123.6075, 51.1479], [-123.6358, 51.1479], [-123.6358, 51.1491], [-123.6639, 51.149], [-123.6639, 51.1479], [-123.6601, 51.1479], [-123.6601, 51.1401]]]}, "properties": {"company_id": "amarc-resources", "jurisdiction": "British Columbia", "claim_id": 415583, "claim_name": "ZC #1", "holder": "AMARC RESOURCES LTD.", "status": "Mineral", "recorded_date": "2004-10-27", "anniversary_or_expiry": "2029-11-21", "area_ha": 400, "tenure_type": "Mineral", "source": "BC MTA Mineral, Placer and Coal Tenure Spatial View (BCGW). Open Government Licence - British Columbia. Not legal title.", "as_of": "2026-09-20", "role": "focus", "color": "#e8b040"}}, {"type": "Feature", "geometry": {"type": "Polygon", "coordinates": [[[-123.6075, 51.1401], [-123.6601, 51.1401], [-123.6601, 51.1311], [-123.6075, 51.1311], [-123.6075, 51.1401]]]}, "properties": {"company_id": "amarc-resources", "jurisdiction": "British Columbia", "claim_id": 415584, "claim_name": "ZC #2", "holder": "AMARC RESOURCES LTD.", "status": "Mineral", "recorded_date": "2004-10-27", "anniversary_or_expiry": "2029-11-21", "area_ha": 400, "tenure_type": "Mineral", "source": "BC MTA Mineral, Placer and Coal Tenure Spatial View (BCGW). Open Government Licence - British Columbia. Not legal title.", "as_of": "2026-09-20", "role": "focus", "color": "#e8b040"}}, {"type": "Feature", "geometry": {"type": "Polygon", "coordinates": [[[-123.6075, 51.1311], [-123.6601, 51.1311], [-123.6601, 51.1233], [-123.6082, 51.1233], [-123.6081, 51.13], [-123.6075, 51.13], [-123.6075, 51.1311]]]}, "properties": {"company_id": "amarc-resources", "jurisdiction": "British Columbia", "claim_id": 415586, "claim_name": "ZC #4", "holder": "AMARC RESOURCES LTD.", "status": "Mineral", "recorded_date": "2004-10-27", "anniversary_or_expiry": "2029-11-21", "area_ha": 400, "tenure_type": "Mineral", "source": "BC MTA Mineral, Placer and Coal Tenure Spatial View (BCGW). Open Government Licence - British Columbia. Not legal title.", "as_of": "2026-09-20", "role": "focus", "color": "#e8b040"}}, {"type": "Feature", "geometry": {"type": "Polygon", "coordinates": [[[-123.4912, 51.0957], [-123.4912, 51.0832], [-123.4709, 51.0832], [-123.4709, 51.096], [-123.4912, 51.0957]]]}, "properties": {"company_id": "amarc-resources", "jurisdiction": "British Columbia", "claim_id": 416348, "claim_name": "MOLY #3", "holder": "AMARC RESOURCES LTD.", "status": "Mineral", "recorded_date": "2004-11-28", "anniversary_or_expiry": "2029-11-21", "area_ha": 225, "tenure_type": "Mineral", "source": "BC MTA Mineral, Placer and Coal Tenure Spatial View (BCGW). Open Government Licence - British Columbia. Not legal title.", "as_of": "2026-09-20", "role": "focus", "color": "#e8b040"}}, {"type": "Feature", "geometry": {"type": "Polygon", "coordinates": [[[-123.4709, 51.096], [-123.4709, 51.1047], [-123.472, 51.1047], [-123.472, 51.096], [-123.4709, 51.096]]]}, "properties": {"company_id": "amarc-resources", "jurisdiction": "British Columbia", "claim_id": 416349, "claim_name": "MOLY #4", "holder": "AMARC RESOURCES LTD.", "status": "Mineral", "recorded_date": "2004-11-28", "anniversary_or_expiry": "2029-11-21", "area_ha": 50, "tenure_type": "Mineral", "source": "BC MTA Mineral, Placer and Coal Tenure Spatial View (BCGW). Open Government Licence - British Columbia. Not legal title.", "as_of": "2026-09-20", "role": "focus", "color": "#e8b040"}}, {"type": "Feature", "geometry": {"type": "Polygon", "coordinates": [[[-123.5651, 51.1696], [-123.5651, 51.1875], [-123.5934, 51.1875], [-123.5932, 51.1696], [-123.5651, 51.1696]]]}, "properties": {"company_id": "amarc-resources", "jurisdiction": "British Columbia", "claim_id": 416351, "claim_name": "LISA #5", "holder": "AMARC RESOURCES LTD.", "status": "Mineral", "recorded_date": "2004-11-28", "anniversary_or_expiry": "2029-11-21", "area_ha": 400, "tenure_type": "Mineral", "source": "BC MTA Mineral, Placer and Coal Tenure Spatial View (BCGW). Open Government Licence - British Columbia. Not legal title.", "as_of": "2026-09-20", "role": "focus", "color": "#e8b040"}}, {"type": "Feature", "geometry": {"type": "Polygon", "coordinates": [[[-123.6358, 51.1491], [-123.6358, 51.1599], [-123.6787, 51.1599], [-123.6787, 51.1479], [-123.6639, 51.1479], [-123.6639, 51.149], [-123.6358, 51.1491]]]}, "properties": {"company_id": "amarc-resources", "jurisdiction": "British Columbia", "claim_id": 416352, "claim_name": "MICE #5", "holder": "AMARC RESOURCES LTD.", "status": "Mineral", "recorded_date": "2004-11-28", "anniversary_or_expiry": "2029-11-21", "area_ha": 450, "tenure_type": "Mineral", "source": "BC MTA Mineral, Placer and Coal Tenure Spatial View (BCGW). Open Government Licence - British Columbia. Not legal title.", "as_of": "2026-09-20", "role": "focus", "color": "#e8b040"}}, {"type": "Feature", "geometry": {"type": "Polygon", "coordinates": [[[-123.5577, 51.154], [-123.564, 51.154], [-123.564, 51.1499], [-123.5015, 51.1499], [-123.5015, 51.154], [-123.5577, 51.154]]]}, "properties": {"company_id": "amarc-resources", "jurisdiction": "British Columbia", "claim_id": 510762, "claim_name": "SWAMP", "holder": "AMARC RESOURCES LTD.", "status": "Mineral", "recorded_date": "2005-04-14", "anniversary_or_expiry": "2029-11-21", "area_ha": 202.738, "tenure_type": "Mineral", "source": "BC MTA Mineral, Placer and Coal Tenure Spatial View (BCGW). Open Government Licence - British Columbia. Not legal title.", "as_of": "2026-09-20", "role": "focus", "color": "#e8b040"}}, {"type": "Feature", "geometry": {"type": "Polygon", "coordinates": [[[-123.5952, 51.1665], [-123.5952, 51.1457], [-123.5827, 51.1457], [-123.5827, 51.1499], [-123.564, 51.1499], [-123.564, 51.1707], [-123.5952, 51.1707], [-123.5952, 51.1665]]]}, "properties": {"company_id": "amarc-resources", "jurisdiction": "British Columbia", "claim_id": 510764, "claim_name": null, "holder": "AMARC RESOURCES LTD.", "status": "Mineral", "recorded_date": "2005-04-14", "anniversary_or_expiry": "2029-11-21", "area_ha": 547.304, "tenure_type": "Mineral", "source": "BC MTA Mineral, Placer and Coal Tenure Spatial View (BCGW). Open Government Licence - British Columbia. Not legal title.", "as_of": "2026-09-20", "role": "focus", "color": "#e8b040"}}, {"type": "Feature", "geometry": {"type": "Polygon", "coordinates": [[[-123.6265, 51.1915], [-123.6265, 51.1749], [-123.589, 51.1749], [-123.589, 51.1957], [-123.6265, 51.1957], [-123.6265, 51.1915]]]}, "properties": {"company_id": "amarc-resources", "jurisdiction": "British Columbia", "claim_id": 510765, "claim_name": null, "holder": "AMARC RESOURCES LTD.", "status": "Mineral", "recorded_date": "2005-04-14", "anniversary_or_expiry": "2029-11-21", "area_ha": 607.778, "tenure_type": "Mineral", "source": "BC MTA Mineral, Placer and Coal Tenure Spatial View (BCGW). Open Government Licence - British Columbia. Not legal title.", "as_of": "2026-09-20", "role": "focus", "color": "#e8b040"}}, {"type": "Feature", "geometry": {"type": "Polygon", "coordinates": [[[-123.6515, 51.2124], [-123.6515, 51.1915], [-123.6265, 51.1915], [-123.6265, 51.1957], [-123.6202, 51.1957], [-123.6202, 51.2207], [-123.6327, 51.2207], [-123.6327, 51.2165], [-123.6515, 51.2165], [-123.6515, 51.2124]]]}, "properties": {"company_id": "amarc-resources", "jurisdiction": "British Columbia", "claim_id": 510767, "claim_name": null, "holder": "AMARC RESOURCES LTD.", "status": "Mineral", "recorded_date": "2005-04-14", "anniversary_or_expiry": "2029-11-21", "area_ha": 627.7620000000001, "tenure_type": "Mineral", "source": "BC MTA Mineral, Placer and Coal Tenure Spatial View (BCGW). Open Government Licence - British Columbia. Not legal title.", "as_of": "2026-09-20", "role": "focus", "color": "#e8b040"}}, {"type": "Feature", "geometry": {"type": "Polygon", "coordinates": [[[-123.4702, 51.129], [-123.4702, 51.1207], [-123.4265, 51.1207], [-123.4265, 51.1332], [-123.4702, 51.1332], [-123.4702, 51.129]]]}, "properties": {"company_id": "amarc-resources", "jurisdiction": "British Columbia", "claim_id": 510971, "claim_name": "TASMAGIC", "holder": "AMARC RESOURCES LTD.", "status": "Mineral", "recorded_date": "2005-04-18", "anniversary_or_expiry": "2029-11-21", "area_ha": 426.021, "tenure_type": "Mineral", "source": "BC MTA Mineral, Placer and Coal Tenure Spatial View (BCGW). Open Government Licence - British Columbia. Not legal title.", "as_of": "2026-09-20", "role": "focus", "color": "#e8b040"}}, {"type": "Feature", "geometry": {"type": "Polygon", "coordinates": [[[-123.4765, 51.1374], [-123.4765, 51.1332], [-123.4265, 51.1332], [-123.4265, 51.1415], [-123.4765, 51.1415], [-123.4765, 51.1374]]]}, "properties": {"company_id": "amarc-resources", "jurisdiction": "British Columbia", "claim_id": 510972, "claim_name": "TAS2MAGIC", "holder": "AMARC RESOURCES LTD.", "status": "Mineral", "recorded_date": "2005-04-18", "anniversary_or_expiry": "2029-11-21", "area_ha": 324.517, "tenure_type": "Mineral", "source": "BC MTA Mineral, Placer and Coal Tenure Spatial View (BCGW). Open Government Licence - British Columbia. Not legal title.", "as_of": "2026-09-20", "role": "focus", "color": "#e8b040"}}, {"type": "Feature", "geometry": {"type": "Polygon", "coordinates": [[[-123.4265, 51.129], [-123.4265, 51.1207], [-123.4015, 51.1207], [-123.4015, 51.1332], [-123.4265, 51.1332], [-123.4265, 51.129]]]}, "properties": {"company_id": "amarc-resources", "jurisdiction": "British Columbia", "claim_id": 510973, "claim_name": "TAS3MAGIC", "holder": "AMARC RESOURCES LTD.", "status": "Mineral", "recorded_date": "2005-04-18", "anniversary_or_expiry": "2029-11-21", "area_ha": 243.43, "tenure_type": "Mineral", "source": "BC MTA Mineral, Placer and Coal Tenure Spatial View (BCGW). Open Government Licence - British Columbia. Not legal title.", "as_of": "2026-09-20", "role": "focus", "color": "#e8b040"}}, {"type": "Feature", "geometry": {"type": "Polygon", "coordinates": [[[-123.2827, 51.0665], [-123.2827, 51.054], [-123.2452, 51.054], [-123.2452, 51.0707], [-123.2827, 51.0707], [-123.2827, 51.0665]]]}, "properties": {"company_id": "amarc-resources", "jurisdiction": "British Columbia", "claim_id": 510975, "claim_name": "GRIS", "holder": "AMARC RESOURCES LTD.", "status": "Mineral", "recorded_date": "2005-04-18", "anniversary_or_expiry": "2029-11-21", "area_ha": 487.458, "tenure_type": "Mineral", "source": "BC MTA Mineral, Placer and Coal Tenure Spatial View (BCGW). Open Government Licence - British Columbia. Not legal title.", "as_of": "2026-09-20", "role": "focus", "color": "#e8b040"}}, {"type": "Feature", "geometry": {"type": "Polygon", "coordinates": [[[-123.3327, 51.0582], [-123.3327, 51.0457], [-123.3015, 51.0457], [-123.3015, 51.0624], [-123.3327, 51.0624], [-123.3327, 51.0582]]]}, "properties": {"company_id": "amarc-resources", "jurisdiction": "British Columbia", "claim_id": 510976, "claim_name": "GRISW2", "holder": "AMARC RESOURCES LTD.", "status": "Mineral", "recorded_date": "2005-04-18", "anniversary_or_expiry": "2029-11-21", "area_ha": 406.288, "tenure_type": "Mineral", "source": "BC MTA Mineral, Placer and Coal Tenure Spatial View (BCGW). Open Government Licence - British Columbia. Not legal title.", "as_of": "2026-09-20", "role": "focus", "color": "#e8b040"}}, {"type": "Feature", "geometry": {"type": "Polygon", "coordinates": [[[-123.3015, 51.0499], [-123.3015, 51.0415], [-123.2577, 51.0415], [-123.2577, 51.054], [-123.3015, 51.054], [-123.3015, 51.0499]]]}, "properties": {"company_id": "amarc-resources", "jurisdiction": "British Columbia", "claim_id": 510979, "claim_name": "GRISWORLD", "holder": "AMARC RESOURCES LTD.", "status": "Mineral", "recorded_date": "2005-04-18", "anniversary_or_expiry": "2029-11-21", "area_ha": 426.658, "tenure_type": "Mineral", "source": "BC MTA Mineral, Placer and Coal Tenure Spatial View (BCGW). Open Government Licence - British Columbia. Not legal title.", "as_of": "2026-09-20", "role": "focus", "color": "#e8b040"}}, {"type": "Feature", "geometry": {"type": "Polygon", "coordinates": [[[-123.3327, 51.1332], [-123.339, 51.1332], [-123.339, 51.129], [-123.3265, 51.129], [-123.3265, 51.1207], [-123.3015, 51.1207], [-123.3015, 51.129], [-123.2952, 51.129], [-123.2827, 51.129], [-123.2827, 51.1207], [-123.2765, 51.1207], [-123.2765, 51.1332], [-123.3327, 51.1332]]]}, "properties": {"company_id": "amarc-resources", "jurisdiction": "British Columbia", "claim_id": 511134, "claim_name": "RIDGE", "holder": "AMARC RESOURCES LTD.", "status": "Mineral", "recorded_date": "2005-04-20", "anniversary_or_expiry": "2029-11-21", "area_ha": 405.646, "tenure_type": "Mineral", "source": "BC MTA Mineral, Placer and Coal Tenure Spatial View (BCGW). Open Government Licence - British Columbia. Not legal title.", "as_of": "2026-09-20", "role": "focus", "color": "#e8b040"}}, {"type": "Feature", "geometry": {"type": "Polygon", "coordinates": [[[-123.3265, 51.029], [-123.3327, 51.029], [-123.3327, 51.0249], [-123.2702, 51.0249], [-123.2702, 51.0415], [-123.3015, 51.0415], [-123.3014, 51.029], [-123.3265, 51.029]]]}, "properties": {"company_id": "amarc-resources", "jurisdiction": "British Columbia", "claim_id": 511138, "claim_name": "CAT2", "holder": "AMARC RESOURCES LTD.", "status": "Mineral", "recorded_date": "2005-04-20", "anniversary_or_expiry": "2029-11-21", "area_ha": 508.098, "tenure_type": "Mineral", "source": "BC MTA Mineral, Placer and Coal Tenure Spatial View (BCGW). Open Government Licence - British Columbia. Not legal title.", "as_of": "2026-09-20", "role": "focus", "color": "#e8b040"}}, {"type": "Feature", "geometry": {"type": "Polygon", "coordinates": [[[-123.4265, 51.054], [-123.4265, 51.0499], [-123.4202, 51.0499], [-123.4202, 51.0457], [-123.414, 51.0457], [-123.414, 51.0582], [-123.4265, 51.0582], [-123.4265, 51.054]]]}, "properties": {"company_id": "amarc-resources", "jurisdiction": "British Columbia", "claim_id": 511139, "claim_name": "EXTAS", "holder": "AMARC RESOURCES LTD.", "status": "Mineral", "recorded_date": "2005-04-20", "anniversary_or_expiry": "2029-11-21", "area_ha": 101.578, "tenure_type": "Mineral", "source": "BC MTA Mineral, Placer and Coal Tenure Spatial View (BCGW). Open Government Licence - British Columbia. Not legal title.", "as_of": "2026-09-20", "role": "focus", "color": "#e8b040"}}, {"type": "Feature", "geometry": {"type": "Polygon", "coordinates": [[[-123.4077, 51.0624], [-123.4077, 51.0499], [-123.3327, 51.0499], [-123.3327, 51.0749], [-123.3702, 51.0749], [-123.3702, 51.0707], [-123.4015, 51.0707], [-123.4015, 51.0665], [-123.4077, 51.0665], [-123.4077, 51.0624]]]}, "properties": {"company_id": "amarc-resources", "jurisdiction": "British Columbia", "claim_id": 507495, "claim_name": null, "holder": "AMARC RESOURCES LTD.", "status": "Mineral", "recorded_date": "2005-02-18", "anniversary_or_expiry": "2029-03-28", "area_ha": 1320.2830000000001, "tenure_type": "Mineral", "source": "BC MTA Mineral, Placer and Coal Tenure Spatial View (BCGW). Open Government Licence - British Columbia. Not legal title.", "as_of": "2026-09-20", "role": "focus", "color": "#e8b040"}}, {"type": "Feature", "geometry": {"type": "Polygon", "coordinates": [[[-123.4077, 51.0457], [-123.4077, 51.029], [-123.3702, 51.029], [-123.3702, 51.0249], [-123.3327, 51.0249], [-123.3327, 51.0499], [-123.4077, 51.0499], [-123.4077, 51.0457]]]}, "properties": {"company_id": "amarc-resources", "jurisdiction": "British Columbia", "claim_id": 507507, "claim_name": null, "holder": "AMARC RESOURCES LTD.", "status": "Mineral", "recorded_date": "2005-02-18", "anniversary_or_expiry": "2029-03-28", "area_ha": 1341.2240000000002, "tenure_type": "Mineral", "source": "BC MTA Mineral, Placer and Coal Tenure Spatial View (BCGW). Open Government Licence - British Columbia. Not legal title.", "as_of": "2026-09-20", "role": "focus", "color": "#e8b040"}}, {"type": "Feature", "geometry": {"type": "Polygon", "coordinates": [[[-123.4452, 51.0415], [-123.4452, 51.0374], [-123.4077, 51.0374], [-123.4077, 51.0499], [-123.414, 51.0499], [-123.414, 51.0457], [-123.4202, 51.0457], [-123.4202, 51.0499], [-123.4265, 51.0499], [-123.4265, 51.0457], [-123.4452, 51.0457], [-123.4452, 51.0415]]]}, "properties": {"company_id": "amarc-resources", "jurisdiction": "British Columbia", "claim_id": 511307, "claim_name": "GOLD", "holder": "AMARC RESOURCES LTD.", "status": "Mineral", "recorded_date": "2005-04-21", "anniversary_or_expiry": "2029-11-21", "area_ha": 284.48400000000004, "tenure_type": "Mineral", "source": "BC MTA Mineral, Placer and Coal Tenure Spatial View (BCGW). Open Government Licence - British Columbia. Not legal title.", "as_of": "2026-09-20", "role": "focus", "color": "#e8b040"}}, {"type": "Feature", "geometry": {"type": "Polygon", "coordinates": [[[-123.3077, 51.0207], [-123.3077, 51.0165], [-123.2577, 51.0165], [-123.2577, 51.0415], [-123.2702, 51.0415], [-123.2702, 51.0249], [-123.3077, 51.0249], [-123.3077, 51.0207]]]}, "properties": {"company_id": "amarc-resources", "jurisdiction": "British Columbia", "claim_id": 511418, "claim_name": "PORT", "holder": "AMARC RESOURCES LTD.", "status": "Mineral", "recorded_date": "2005-04-22", "anniversary_or_expiry": "2029-11-21", "area_ha": 487.84700000000004, "tenure_type": "Mineral", "source": "BC MTA Mineral, Placer and Coal Tenure Spatial View (BCGW). Open Government Licence - British Columbia. Not legal title.", "as_of": "2026-09-20", "role": "focus", "color": "#e8b040"}}, {"type": "Feature", "geometry": {"type": "Polygon", "coordinates": [[[-123.7327, 51.1582], [-123.7327, 51.154], [-123.7202, 51.154], [-123.7202, 51.1457], [-123.7077, 51.1457], [-123.7077, 51.1499], [-123.7015, 51.1499], [-123.7015, 51.1624], [-123.7327, 51.1624], [-123.7327, 51.1582]]]}, "properties": {"company_id": "amarc-resources", "jurisdiction": "British Columbia", "claim_id": 511775, "claim_name": "RIVER", "holder": "AMARC RESOURCES LTD.", "status": "Mineral", "recorded_date": "2005-04-27", "anniversary_or_expiry": "2029-11-21", "area_ha": 304.087, "tenure_type": "Mineral", "source": "BC MTA Mineral, Placer and Coal Tenure Spatial View (BCGW). Open Government Licence - British Columbia. Not legal title.", "as_of": "2026-09-20", "role": "focus", "color": "#e8b040"}}, {"type": "Feature", "geometry": {"type": "Polygon", "coordinates": [[[-123.7077, 51.1457], [-123.7077, 51.1249], [-123.7015, 51.1249], [-123.7015, 51.1499], [-123.7077, 51.1499], [-123.7077, 51.1457]]]}, "properties": {"company_id": "amarc-resources", "jurisdiction": "British Columbia", "claim_id": 511777, "claim_name": null, "holder": "AMARC RESOURCES LTD.", "status": "Mineral", "recorded_date": "2005-04-27", "anniversary_or_expiry": "2029-11-21", "area_ha": 121.68900000000001, "tenure_type": "Mineral", "source": "BC MTA Mineral, Placer and Coal Tenure Spatial View (BCGW). Open Government Licence - British Columbia. Not legal title.", "as_of": "2026-09-20", "role": "focus", "color": "#e8b040"}}, {"type": "Feature", "geometry": {"type": "Polygon", "coordinates": [[[-123.7015, 51.1707], [-123.7015, 51.1457], [-123.6765, 51.1457], [-123.6765, 51.1749], [-123.7015, 51.1749], [-123.7015, 51.1707]]]}, "properties": {"company_id": "amarc-resources", "jurisdiction": "British Columbia", "claim_id": 511778, "claim_name": null, "holder": "AMARC RESOURCES LTD.", "status": "Mineral", "recorded_date": "2005-04-27", "anniversary_or_expiry": "2029-11-21", "area_ha": 567.5740000000001, "tenure_type": "Mineral", "source": "BC MTA Mineral, Placer and Coal Tenure Spatial View (BCGW). Open Government Licence - British Columbia. Not legal title.", "as_of": "2026-09-20", "role": "focus", "color": "#e8b040"}}, {"type": "Feature", "geometry": {"type": "Polygon", "coordinates": [[[-123.7015, 51.1165], [-123.7015, 51.0832], [-123.6765, 51.0832], [-123.6765, 51.0915], [-123.6827, 51.0915], [-123.6827, 51.1207], [-123.7015, 51.1207], [-123.7015, 51.1165]]]}, "properties": {"company_id": "amarc-resources", "jurisdiction": "British Columbia", "claim_id": 511779, "claim_name": null, "holder": "AMARC RESOURCES LTD.", "status": "Mineral", "recorded_date": "2005-04-27", "anniversary_or_expiry": "2029-11-21", "area_ha": 588.681, "tenure_type": "Mineral", "source": "BC MTA Mineral, Placer and Coal Tenure Spatial View (BCGW). Open Government Licence - British Columbia. Not legal title.", "as_of": "2026-09-20", "role": "focus", "color": "#e8b040"}}, {"type": "Feature", "geometry": {"type": "Polygon", "coordinates": [[[-123.7015, 51.1415], [-123.7015, 51.1207], [-123.6827, 51.1207], [-123.6827, 51.1457], [-123.7015, 51.1457], [-123.7015, 51.1415]]]}, "properties": {"company_id": "amarc-resources", "jurisdiction": "British Columbia", "claim_id": 511780, "claim_name": "RAT", "holder": "AMARC RESOURCES LTD.", "status": "Mineral", "recorded_date": "2005-04-27", "anniversary_or_expiry": "2029-11-21", "area_ha": 365.105, "tenure_type": "Mineral", "source": "BC MTA Mineral, Placer and Coal Tenure Spatial View (BCGW). Open Government Licence - British Columbia. Not legal title.", "as_of": "2026-09-20", "role": "focus", "color": "#e8b040"}}, {"type": "Feature", "geometry": {"type": "Polygon", "coordinates": [[[-126.7643, 57.2332], [-126.7643, 57.229], [-126.7268, 57.229], [-126.7268, 57.254], [-126.7643, 57.254], [-126.7643, 57.2332]]]}, "properties": {"company_id": "amarc-resources", "jurisdiction": "British Columbia", "claim_id": 522028, "claim_name": null, "holder": "AMARC RESOURCES LTD.", "status": "Mineral", "recorded_date": "2005-11-06", "anniversary_or_expiry": "2034-01-01", "area_ha": 630.416, "tenure_type": "Mineral", "source": "BC MTA Mineral, Placer and Coal Tenure Spatial View (BCGW). Open Government Licence - British Columbia. Not legal title.", "as_of": "2026-09-20", "role": "focus", "color": "#e8b040"}}, {"type": "Feature", "geometry": {"type": "Polygon", "coordinates": [[[-126.8018, 57.229], [-126.8018, 57.2248], [-126.758, 57.2248], [-126.758, 57.229], [-126.7643, 57.229], [-126.7643, 57.2415], [-126.8018, 57.2415], [-126.8018, 57.229]]]}, "properties": {"company_id": "amarc-resources", "jurisdiction": "British Columbia", "claim_id": 522029, "claim_name": null, "holder": "AMARC RESOURCES LTD.", "status": "Mineral", "recorded_date": "2005-11-06", "anniversary_or_expiry": "2034-01-01", "area_ha": 437.90000000000003, "tenure_type": "Mineral", "source": "BC MTA Mineral, Placer and Coal Tenure Spatial View (BCGW). Open Government Licence - British Columbia. Not legal title.", "as_of": "2026-09-20", "role": "focus", "color": "#e8b040"}}, {"type": "Feature", "geometry": {"type": "Polygon", "coordinates": [[[-126.7643, 57.2582], [-126.7643, 57.254], [-126.7268, 57.254], [-126.7268, 57.2748], [-126.7643, 57.2748], [-126.7643, 57.2582]]]}, "properties": {"company_id": "amarc-resources", "jurisdiction": "British Columbia", "claim_id": 522030, "claim_name": null, "holder": "AMARC RESOURCES LTD.", "status": "Mineral", "recorded_date": "2005-11-06", "anniversary_or_expiry": "2034-01-01", "area_ha": 525.013, "tenure_type": "Mineral", "source": "BC MTA Mineral, Placer and Coal Tenure Spatial View (BCGW). Open Government Licence - British Columbia. Not legal title.", "as_of": "2026-09-20", "role": "focus", "color": "#e8b040"}}, {"type": "Feature", "geometry": {"type": "Polygon", "coordinates": [[[-126.7643, 57.279], [-126.7643, 57.2748], [-126.7393, 57.2748], [-126.7392, 57.2915], [-126.7643, 57.2915], [-126.7643, 57.279]]]}, "properties": {"company_id": "amarc-resources", "jurisdiction": "British Columbia", "claim_id": 522031, "claim_name": null, "holder": "AMARC RESOURCES LTD.", "status": "Mineral", "recorded_date": "2005-11-06", "anniversary_or_expiry": "2034-01-01", "area_ha": 279.869, "tenure_type": "Mineral", "source": "BC MTA Mineral, Placer and Coal Tenure Spatial View (BCGW). Open Government Licence - British Columbia. Not legal title.", "as_of": "2026-09-20", "role": "focus", "color": "#e8b040"}}, {"type": "Feature", "geometry": {"type": "Polygon", "coordinates": [[[-126.8018, 57.2748], [-126.8018, 57.2707], [-126.7955, 57.2707], [-126.7955, 57.2665], [-126.7643, 57.2665], [-126.7643, 57.279], [-126.8018, 57.279], [-126.8018, 57.2748]]]}, "properties": {"company_id": "amarc-resources", "jurisdiction": "British Columbia", "claim_id": 522032, "claim_name": null, "holder": "AMARC RESOURCES LTD.", "status": "Mineral", "recorded_date": "2005-11-06", "anniversary_or_expiry": "2034-01-01", "area_ha": 297.449, "tenure_type": "Mineral", "source": "BC MTA Mineral, Placer and Coal Tenure Spatial View (BCGW). Open Government Licence - British Columbia. Not legal title.", "as_of": "2026-09-20", "role": "focus", "color": "#e8b040"}}, {"type": "Feature", "geometry": {"type": "Polygon", "coordinates": [[[-126.8018, 57.2832], [-126.8018, 57.279], [-126.7643, 57.279], [-126.7642, 57.2957], [-126.7955, 57.2957], [-126.7955, 57.2915], [-126.8018, 57.2915], [-126.8018, 57.2832]]]}, "properties": {"company_id": "amarc-resources", "jurisdiction": "British Columbia", "claim_id": 522033, "claim_name": null, "holder": "AMARC RESOURCES LTD.", "status": "Mineral", "recorded_date": "2005-11-06", "anniversary_or_expiry": "2034-01-01", "area_ha": 402.281, "tenure_type": "Mineral", "source": "BC MTA Mineral, Placer and Coal Tenure Spatial View (BCGW). Open Government Licence - British Columbia. Not legal title.", "as_of": "2026-09-20", "role": "focus", "color": "#e8b040"}}, {"type": "Feature", "geometry": {"type": "Polygon", "coordinates": [[[-126.8268, 57.2748], [-126.8268, 57.2707], [-126.8205, 57.2707], [-126.8205, 57.2665], [-126.7955, 57.2665], [-126.7955, 57.2707], [-126.8018, 57.2707], [-126.8018, 57.2915], [-126.8268, 57.2915], [-126.8268, 57.2748]]]}, "properties": {"company_id": "amarc-resources", "jurisdiction": "British Columbia", "claim_id": 522034, "claim_name": null, "holder": "AMARC RESOURCES LTD.", "status": "Mineral", "recorded_date": "2005-11-06", "anniversary_or_expiry": "2034-01-01", "area_ha": 419.86400000000003, "tenure_type": "Mineral", "source": "BC MTA Mineral, Placer and Coal Tenure Spatial View (BCGW). Open Government Licence - British Columbia. Not legal title.", "as_of": "2026-09-20", "role": "focus", "color": "#e8b040"}}, {"type": "Feature", "geometry": {"type": "Polygon", "coordinates": [[[-126.858, 57.279], [-126.858, 57.2748], [-126.8518, 57.2748], [-126.8518, 57.2665], [-126.8205, 57.2665], [-126.8205, 57.2707], [-126.8268, 57.2707], [-126.8268, 57.2915], [-126.8643, 57.2915], [-126.8643, 57.2873], [-126.858, 57.2873], [-126.858, 57.279]]]}, "properties": {"company_id": "amarc-resources", "jurisdiction": "British Columbia", "claim_id": 522035, "claim_name": null, "holder": "AMARC RESOURCES LTD.", "status": "Mineral", "recorded_date": "2005-11-06", "anniversary_or_expiry": "2034-01-01", "area_ha": 524.832, "tenure_type": "Mineral", "source": "BC MTA Mineral, Placer and Coal Tenure Spatial View (BCGW). Open Government Licence - British Columbia. Not legal title.", "as_of": "2026-09-20", "role": "focus", "color": "#e8b040"}}, {"type": "Feature", "geometry": {"type": "Polygon", "coordinates": [[[-126.8643, 57.2957], [-126.8643, 57.2915], [-126.8518, 57.2915], [-126.8518, 57.3082], [-126.8643, 57.3082], [-126.8643, 57.2957]]]}, "properties": {"company_id": "amarc-resources", "jurisdiction": "British Columbia", "claim_id": 522036, "claim_name": null, "holder": "AMARC RESOURCES LTD.", "status": "Mineral", "recorded_date": "2005-11-06", "anniversary_or_expiry": "2034-01-01", "area_ha": 139.87800000000001, "tenure_type": "Mineral", "source": "BC MTA Mineral, Placer and Coal Tenure Spatial View (BCGW). Open Government Licence - British Columbia. Not legal title.", "as_of": "2026-09-20", "role": "focus", "color": "#e8b040"}}, {"type": "Feature", "geometry": {"type": "Polygon", "coordinates": [[[-126.8518, 57.2957], [-126.8518, 57.2915], [-126.8143, 57.2915], [-126.8142, 57.3082], [-126.8518, 57.3082], [-126.8518, 57.2957]]]}, "properties": {"company_id": "amarc-resources", "jurisdiction": "British Columbia", "claim_id": 522037, "claim_name": null, "holder": "AMARC RESOURCES LTD.", "status": "Mineral", "recorded_date": "2005-11-06", "anniversary_or_expiry": "2034-01-01", "area_ha": 419.63500000000005, "tenure_type": "Mineral", "source": "BC MTA Mineral, Placer and Coal Tenure Spatial View (BCGW). Open Government Licence - British Columbia. Not legal title.", "as_of": "2026-09-20", "role": "focus", "color": "#e8b040"}}, {"type": "Feature", "geometry": {"type": "Polygon", "coordinates": [[[-126.8143, 57.2957], [-126.8143, 57.2915], [-126.8018, 57.2915], [-126.7955, 57.2915], [-126.7955, 57.2957], [-126.7705, 57.2957], [-126.7705, 57.3082], [-126.8142, 57.3082], [-126.8143, 57.2957]]]}, "properties": {"company_id": "amarc-resources", "jurisdiction": "British Columbia", "claim_id": 522038, "claim_name": null, "holder": "AMARC RESOURCES LTD.", "status": "Mineral", "recorded_date": "2005-11-06", "anniversary_or_expiry": "2034-01-01", "area_ha": 419.619, "tenure_type": "Mineral", "source": "BC MTA Mineral, Placer and Coal Tenure Spatial View (BCGW). Open Government Licence - British Columbia. Not legal title.", "as_of": "2026-09-20", "role": "focus", "color": "#e8b040"}}, {"type": "Feature", "geometry": {"type": "Polygon", "coordinates": [[[-126.7767, 57.3123], [-126.7767, 57.3082], [-126.7705, 57.3082], [-126.7705, 57.2957], [-126.7642, 57.2957], [-126.7643, 57.2915], [-126.7392, 57.2915], [-126.7392, 57.3123], [-126.7455, 57.3123], [-126.7455, 57.3165], [-126.7767, 57.3165], [-126.7767, 57.3123]]]}, "properties": {"company_id": "amarc-resources", "jurisdiction": "British Columbia", "claim_id": 522039, "claim_name": null, "holder": "AMARC RESOURCES LTD.", "status": "Mineral", "recorded_date": "2005-11-06", "anniversary_or_expiry": "2034-01-01", "area_ha": 524.458, "tenure_type": "Mineral", "source": "BC MTA Mineral, Placer and Coal Tenure Spatial View (BCGW). Open Government Licence - British Columbia. Not legal title.", "as_of": "2026-09-20", "role": "focus", "color": "#e8b040"}}, {"type": "Feature", "geometry": {"type": "Polygon", "coordinates": [[[-126.7393, 57.279], [-126.7393, 57.2748], [-126.7268, 57.2748], [-126.7268, 57.2707], [-126.708, 57.2707], [-126.708, 57.2915], [-126.7392, 57.2915], [-126.7393, 57.279]]]}, "properties": {"company_id": "amarc-resources", "jurisdiction": "British Columbia", "claim_id": 522040, "claim_name": null, "holder": "AMARC RESOURCES LTD.", "status": "Mineral", "recorded_date": "2005-11-06", "anniversary_or_expiry": "2034-01-01", "area_ha": 402.31600000000003, "tenure_type": "Mineral", "source": "BC MTA Mineral, Placer and Coal Tenure Spatial View (BCGW). Open Government Licence - British Columbia. Not legal title.", "as_of": "2026-09-20", "role": "focus", "color": "#e8b040"}}, {"type": "Feature", "geometry": {"type": "Polygon", "coordinates": [[[-126.7392, 57.2957], [-126.7392, 57.2915], [-126.708, 57.2915], [-126.708, 57.3165], [-126.7392, 57.3165], [-126.7392, 57.2957]]]}, "properties": {"company_id": "amarc-resources", "jurisdiction": "British Columbia", "claim_id": 522043, "claim_name": null, "holder": "AMARC RESOURCES LTD.", "status": "Mineral", "recorded_date": "2005-11-06", "anniversary_or_expiry": "2034-01-01", "area_ha": 524.446, "tenure_type": "Mineral", "source": "BC MTA Mineral, Placer and Coal Tenure Spatial View (BCGW). Open Government Licence - British Columbia. Not legal title.", "as_of": "2026-09-20", "role": "focus", "color": "#e8b040"}}, {"type": "Feature", "geometry": {"type": "Polygon", "coordinates": [[[-126.7455, 57.3165], [-126.7455, 57.3123], [-126.7392, 57.3123], [-126.7392, 57.3165], [-126.708, 57.3165], [-126.708, 57.3332], [-126.7392, 57.3332], [-126.7392, 57.329], [-126.7455, 57.329], [-126.7455, 57.3165]]]}, "properties": {"company_id": "amarc-resources", "jurisdiction": "British Columbia", "claim_id": 522048, "claim_name": null, "holder": "AMARC RESOURCES LTD.", "status": "Mineral", "recorded_date": "2005-11-06", "anniversary_or_expiry": "2034-01-01", "area_ha": 419.33, "tenure_type": "Mineral", "source": "BC MTA Mineral, Placer and Coal Tenure Spatial View (BCGW). Open Government Licence - British Columbia. Not legal title.", "as_of": "2026-09-20", "role": "focus", "color": "#e8b040"}}, {"type": "Feature", "geometry": {"type": "Polygon", "coordinates": [[[-126.8018, 57.2457], [-126.8018, 57.2415], [-126.7643, 57.2415], [-126.7643, 57.254], [-126.8018, 57.254], [-126.8018, 57.2457]]]}, "properties": {"company_id": "amarc-resources", "jurisdiction": "British Columbia", "claim_id": 522118, "claim_name": null, "holder": "AMARC RESOURCES LTD.", "status": "Mineral", "recorded_date": "2005-11-08", "anniversary_or_expiry": "2034-01-01", "area_ha": 315.16, "tenure_type": "Mineral", "source": "BC MTA Mineral, Placer and Coal Tenure Spatial View (BCGW). Open Government Licence - British Columbia. Not legal title.", "as_of": "2026-09-20", "role": "focus", "color": "#e8b040"}}, {"type": "Feature", "geometry": {"type": "Polygon", "coordinates": [[[-126.8018, 57.2582], [-126.8018, 57.254], [-126.7643, 57.254], [-126.7643, 57.2665], [-126.8018, 57.2665], [-126.8018, 57.2582]]]}, "properties": {"company_id": "amarc-resources", "jurisdiction": "British Columbia", "claim_id": 522119, "claim_name": null, "holder": "AMARC RESOURCES LTD.", "status": "Mineral", "recorded_date": "2005-11-08", "anniversary_or_expiry": "2034-01-01", "area_ha": 315.052, "tenure_type": "Mineral", "source": "BC MTA Mineral, Placer and Coal Tenure Spatial View (BCGW). Open Government Licence - British Columbia. Not legal title.", "as_of": "2026-09-20", "role": "focus", "color": "#e8b040"}}, {"type": "Feature", "geometry": {"type": "Polygon", "coordinates": [[[-123.4452, 51.0999], [-123.4452, 51.079], [-123.4015, 51.079], [-123.4015, 51.104], [-123.4452, 51.104], [-123.4452, 51.0999]]]}, "properties": {"company_id": "amarc-resources", "jurisdiction": "British Columbia", "claim_id": 513817, "claim_name": null, "holder": "AMARC RESOURCES LTD.", "status": "Mineral", "recorded_date": "2005-06-02", "anniversary_or_expiry": "2029-11-21", "area_ha": 852.649, "tenure_type": "Mineral", "source": "BC MTA Mineral, Placer and Coal Tenure Spatial View (BCGW). Open Government Licence - British Columbia. Not legal title.", "as_of": "2026-09-20", "role": "focus", "color": "#e8b040"}}, {"type": "Feature", "geometry": {"type": "Polygon", "coordinates": [[[-123.4765, 51.1165], [-123.4765, 51.104], [-123.4265, 51.104], [-123.4265, 51.1207], [-123.4765, 51.1207], [-123.4765, 51.1165]]]}, "properties": {"company_id": "amarc-resources", "jurisdiction": "British Columbia", "claim_id": 513837, "claim_name": null, "holder": "AMARC RESOURCES LTD.", "status": "Mineral", "recorded_date": "2005-06-02", "anniversary_or_expiry": "2029-11-21", "area_ha": 649.371, "tenure_type": "Mineral", "source": "BC MTA Mineral, Placer and Coal Tenure Spatial View (BCGW). Open Government Licence - British Columbia. Not legal title.", "as_of": "2026-09-20", "role": "focus", "color": "#e8b040"}}, {"type": "Feature", "geometry": {"type": "Polygon", "coordinates": [[[-123.389, 51.1165], [-123.389, 51.1082], [-123.3702, 51.1082], [-123.3702, 51.104], [-123.339, 51.104], [-123.339, 51.1207], [-123.389, 51.1207], [-123.389, 51.1165]]]}, "properties": {"company_id": "amarc-resources", "jurisdiction": "British Columbia", "claim_id": 513839, "claim_name": null, "holder": "AMARC RESOURCES LTD.", "status": "Mineral", "recorded_date": "2005-06-02", "anniversary_or_expiry": "2029-11-21", "area_ha": 588.4340000000001, "tenure_type": "Mineral", "source": "BC MTA Mineral, Placer and Coal Tenure Spatial View (BCGW). Open Government Licence - British Columbia. Not legal title.", "as_of": "2026-09-20", "role": "focus", "color": "#e8b040"}}, {"type": "Feature", "geometry": {"type": "Polygon", "coordinates": [[[-123.3015, 51.1249], [-123.3015, 51.0874], [-123.2827, 51.0874], [-123.2827, 51.129], [-123.3015, 51.129], [-123.3015, 51.1249]]]}, "properties": {"company_id": "amarc-resources", "jurisdiction": "British Columbia", "claim_id": 513840, "claim_name": null, "holder": "AMARC RESOURCES LTD.", "status": "Mineral", "recorded_date": "2005-06-02", "anniversary_or_expiry": "2029-11-21", "area_ha": 608.726, "tenure_type": "Mineral", "source": "BC MTA Mineral, Placer and Coal Tenure Spatial View (BCGW). Open Government Licence - British Columbia. Not legal title.", "as_of": "2026-09-20", "role": "focus", "color": "#e8b040"}}, {"type": "Feature", "geometry": {"type": "Polygon", "coordinates": [[[-123.6452, 51.2207], [-123.6452, 51.2165], [-123.6327, 51.2165], [-123.6327, 51.2249], [-123.6452, 51.2249], [-123.6452, 51.2207]]]}, "properties": {"company_id": "amarc-resources", "jurisdiction": "British Columbia", "claim_id": 513841, "claim_name": null, "holder": "AMARC RESOURCES LTD.", "status": "Mineral", "recorded_date": "2005-06-02", "anniversary_or_expiry": "2029-11-21", "area_ha": 80.97500000000001, "tenure_type": "Mineral", "source": "BC MTA Mineral, Placer and Coal Tenure Spatial View (BCGW). Open Government Licence - British Columbia. Not legal title.", "as_of": "2026-09-20", "role": "focus", "color": "#e8b040"}}, {"type": "Feature", "geometry": {"type": "Polygon", "coordinates": [[[-123.6515, 51.2207], [-123.6515, 51.2165], [-123.6452, 51.2165], [-123.6452, 51.2249], [-123.6515, 51.2249], [-123.6515, 51.2207]]]}, "properties": {"company_id": "amarc-resources", "jurisdiction": "British Columbia", "claim_id": 517854, "claim_name": "YO", "holder": "AMARC RESOURCES LTD.", "status": "Mineral", "recorded_date": "2005-07-16", "anniversary_or_expiry": "2029-11-21", "area_ha": 40.487, "tenure_type": "Mineral", "source": "BC MTA Mineral, Placer and Coal Tenure Spatial View (BCGW). Open Government Licence - British Columbia. Not legal title.", "as_of": "2026-09-20", "role": "focus", "color": "#e8b040"}}, {"type": "Feature", "geometry": {"type": "Polygon", "coordinates": [[[-123.3952, 51.0749], [-123.4015, 51.0749], [-123.4015, 51.0707], [-123.3702, 51.0707], [-123.3702, 51.0915], [-123.364, 51.0915], [-123.364, 51.0957], [-123.3765, 51.0957], [-123.3765, 51.0749], [-123.3952, 51.0749]]]}, "properties": {"company_id": "amarc-resources", "jurisdiction": "British Columbia", "claim_id": 517855, "claim_name": "WEDGE", "holder": "AMARC RESOURCES LTD.", "status": "Mineral", "recorded_date": "2005-07-16", "anniversary_or_expiry": "2029-11-21", "area_ha": 223.34900000000002, "tenure_type": "Mineral", "source": "BC MTA Mineral, Placer and Coal Tenure Spatial View (BCGW). Open Government Licence - British Columbia. Not legal title.", "as_of": "2026-09-20", "role": "focus", "color": "#e8b040"}}, {"type": "Feature", "geometry": {"type": "Polygon", "coordinates": [[[-123.4202, 51.1207], [-123.4265, 51.1207], [-123.4265, 51.1165], [-123.389, 51.1165], [-123.389, 51.1207], [-123.4202, 51.1207]]]}, "properties": {"company_id": "amarc-resources", "jurisdiction": "British Columbia", "claim_id": 517856, "claim_name": "AIRPORT", "holder": "AMARC RESOURCES LTD.", "status": "Mineral", "recorded_date": "2005-07-16", "anniversary_or_expiry": "2029-11-21", "area_ha": 121.736, "tenure_type": "Mineral", "source": "BC MTA Mineral, Placer and Coal Tenure Spatial View (BCGW). Open Government Licence - British Columbia. Not legal title.", "as_of": "2026-09-20", "role": "focus", "color": "#e8b040"}}, {"type": "Feature", "geometry": {"type": "Polygon", "coordinates": [[[-123.4015, 51.0957], [-123.4015, 51.079], [-123.3952, 51.079], [-123.3952, 51.0999], [-123.4015, 51.0999], [-123.4015, 51.0957]]]}, "properties": {"company_id": "amarc-resources", "jurisdiction": "British Columbia", "claim_id": 517870, "claim_name": "FRACTBASIN", "holder": "AMARC RESOURCES LTD.", "status": "Mineral", "recorded_date": "2005-07-17", "anniversary_or_expiry": "2029-11-21", "area_ha": 101.50800000000001, "tenure_type": "Mineral", "source": "BC MTA Mineral, Placer and Coal Tenure Spatial View (BCGW). Open Government Licence - British Columbia. Not legal title.", "as_of": "2026-09-20", "role": "focus", "color": "#e8b040"}}, {"type": "Feature", "geometry": {"type": "Polygon", "coordinates": [[[-123.364, 51.0874], [-123.364, 51.0915], [-123.3702, 51.0915], [-123.3702, 51.0874], [-123.364, 51.0874]]]}, "properties": {"company_id": "amarc-resources", "jurisdiction": "British Columbia", "claim_id": 517871, "claim_name": "CORNER", "holder": "AMARC RESOURCES LTD.", "status": "Mineral", "recorded_date": "2005-07-17", "anniversary_or_expiry": "2029-11-21", "area_ha": 20.302, "tenure_type": "Mineral", "source": "BC MTA Mineral, Placer and Coal Tenure Spatial View (BCGW). Open Government Licence - British Columbia. Not legal title.", "as_of": "2026-09-20", "role": "focus", "color": "#e8b040"}}, {"type": "Feature", "geometry": {"type": "Polygon", "coordinates": [[[-123.339, 51.0999], [-123.339, 51.104], [-123.3452, 51.104], [-123.3452, 51.0999], [-123.339, 51.0999]]]}, "properties": {"company_id": "amarc-resources", "jurisdiction": "British Columbia", "claim_id": 517872, "claim_name": "ADJOINT", "holder": "AMARC RESOURCES LTD.", "status": "Mineral", "recorded_date": "2005-07-17", "anniversary_or_expiry": "2029-11-21", "area_ha": 20.295, "tenure_type": "Mineral", "source": "BC MTA Mineral, Placer and Coal Tenure Spatial View (BCGW). Open Government Licence - British Columbia. Not legal title.", "as_of": "2026-09-20", "role": "focus", "color": "#e8b040"}}, {"type": "Feature", "geometry": {"type": "Polygon", "coordinates": [[[-123.339, 51.0957], [-123.339, 51.0999], [-123.3452, 51.0999], [-123.3452, 51.0957], [-123.339, 51.0957]]]}, "properties": {"company_id": "amarc-resources", "jurisdiction": "British Columbia", "claim_id": 517873, "claim_name": "ADDFR", "holder": "AMARC RESOURCES LTD.", "status": "Mineral", "recorded_date": "2005-07-17", "anniversary_or_expiry": "2029-11-21", "area_ha": 20.297, "tenure_type": "Mineral", "source": "BC MTA Mineral, Placer and Coal Tenure Spatial View (BCGW). Open Government Licence - British Columbia. Not legal title.", "as_of": "2026-09-20", "role": "focus", "color": "#e8b040"}}, {"type": "Feature", "geometry": {"type": "Polygon", "coordinates": [[[-123.3202, 51.0874], [-123.3202, 51.0624], [-123.2952, 51.0624], [-123.2952, 51.0874], [-123.3015, 51.0874], [-123.3015, 51.0915], [-123.3077, 51.0915], [-123.3202, 51.0915], [-123.3202, 51.0874]]]}, "properties": {"company_id": "amarc-resources", "jurisdiction": "British Columbia", "claim_id": 514549, "claim_name": null, "holder": "AMARC RESOURCES LTD.", "status": "Mineral", "recorded_date": "2005-06-15", "anniversary_or_expiry": "2029-11-21", "area_ha": 548.225, "tenure_type": "Mineral", "source": "BC MTA Mineral, Placer and Coal Tenure Spatial View (BCGW). Open Government Licence - British Columbia. Not legal title.", "as_of": "2026-09-20", "role": "focus", "color": "#e8b040"}}, {"type": "Feature", "geometry": {"type": "Polygon", "coordinates": [[[-123.3015, 51.0582], [-123.3015, 51.054], [-123.2827, 51.054], [-123.2827, 51.0874], [-123.2952, 51.0874], [-123.2952, 51.0624], [-123.3015, 51.0624], [-123.3015, 51.0582]]]}, "properties": {"company_id": "amarc-resources", "jurisdiction": "British Columbia", "claim_id": 514552, "claim_name": null, "holder": "AMARC RESOURCES LTD.", "status": "Mineral", "recorded_date": "2005-06-15", "anniversary_or_expiry": "2029-11-21", "area_ha": 365.53900000000004, "tenure_type": "Mineral", "source": "BC MTA Mineral, Placer and Coal Tenure Spatial View (BCGW). Open Government Licence - British Columbia. Not legal title.", "as_of": "2026-09-20", "role": "focus", "color": "#e8b040"}}, {"type": "Feature", "geometry": {"type": "Polygon", "coordinates": [[[-123.2827, 51.0874], [-123.2827, 51.0707], [-123.2452, 51.0707], [-123.2452, 51.0915], [-123.2827, 51.0915], [-123.2827, 51.0874]]]}, "properties": {"company_id": "amarc-resources", "jurisdiction": "British Columbia", "claim_id": 514553, "claim_name": null, "holder": "AMARC RESOURCES LTD.", "status": "Mineral", "recorded_date": "2005-06-15", "anniversary_or_expiry": "2029-11-21", "area_ha": 609.078, "tenure_type": "Mineral", "source": "BC MTA Mineral, Placer and Coal Tenure Spatial View (BCGW). Open Government Licence - British Columbia. Not legal title.", "as_of": "2026-09-20", "role": "focus", "color": "#e8b040"}}, {"type": "Feature", "geometry": {"type": "Polygon", "coordinates": [[[-123.2827, 51.1165], [-123.2827, 51.0915], [-123.2577, 51.0915], [-123.2577, 51.1207], [-123.2827, 51.1207], [-123.2827, 51.1165]]]}, "properties": {"company_id": "amarc-resources", "jurisdiction": "British Columbia", "claim_id": 514555, "claim_name": null, "holder": "AMARC RESOURCES LTD.", "status": "Mineral", "recorded_date": "2005-06-15", "anniversary_or_expiry": "2029-11-21", "area_ha": 568.17, "tenure_type": "Mineral", "source": "BC MTA Mineral, Placer and Coal Tenure Spatial View (BCGW). Open Government Licence - British Columbia. Not legal title.", "as_of": "2026-09-20", "role": "focus", "color": "#e8b040"}}, {"type": "Feature", "geometry": {"type": "Polygon", "coordinates": [[[-123.5265, 51.079], [-123.5265, 51.0582], [-123.4952, 51.0582], [-123.4952, 51.0832], [-123.5265, 51.0832], [-123.5265, 51.079]]]}, "properties": {"company_id": "amarc-resources", "jurisdiction": "British Columbia", "claim_id": 514557, "claim_name": null, "holder": "AMARC RESOURCES LTD.", "status": "Mineral", "recorded_date": "2005-06-15", "anniversary_or_expiry": "2029-11-21", "area_ha": 609.27, "tenure_type": "Mineral", "source": "BC MTA Mineral, Placer and Coal Tenure Spatial View (BCGW). Open Government Licence - British Columbia. Not legal title.", "as_of": "2026-09-20", "role": "focus", "color": "#e8b040"}}, {"type": "Feature", "geometry": {"type": "Polygon", "coordinates": [[[-123.339, 51.1165], [-123.339, 51.104], [-123.3015, 51.104], [-123.3015, 51.1207], [-123.339, 51.1207], [-123.339, 51.1165]]]}, "properties": {"company_id": "amarc-resources", "jurisdiction": "British Columbia", "claim_id": 514558, "claim_name": null, "holder": "AMARC RESOURCES LTD.", "status": "Mineral", "recorded_date": "2005-06-15", "anniversary_or_expiry": "2029-11-21", "area_ha": 486.94300000000004, "tenure_type": "Mineral", "source": "BC MTA Mineral, Placer and Coal Tenure Spatial View (BCGW). Open Government Licence - British Columbia. Not legal title.", "as_of": "2026-09-20", "role": "focus", "color": "#e8b040"}}, {"type": "Feature", "geometry": {"type": "Polygon", "coordinates": [[[-123.4452, 51.0749], [-123.4452, 51.0457], [-123.4265, 51.0457], [-123.4265, 51.079], [-123.4452, 51.079], [-123.4452, 51.0749]]]}, "properties": {"company_id": "amarc-resources", "jurisdiction": "British Columbia", "claim_id": 514559, "claim_name": null, "holder": "AMARC RESOURCES LTD.", "status": "Mineral", "recorded_date": "2005-06-15", "anniversary_or_expiry": "2029-11-21", "area_ha": 487.48900000000003, "tenure_type": "Mineral", "source": "BC MTA Mineral, Placer and Coal Tenure Spatial View (BCGW). Open Government Licence - British Columbia. Not legal title.", "as_of": "2026-09-20", "role": "focus", "color": "#e8b040"}}, {"type": "Feature", "geometry": {"type": "Polygon", "coordinates": [[[-123.4952, 51.0749], [-123.4952, 51.0707], [-123.4452, 51.0707], [-123.4452, 51.0832], [-123.4702, 51.0832], [-123.4702, 51.079], [-123.4952, 51.079], [-123.4952, 51.0749]]]}, "properties": {"company_id": "amarc-resources", "jurisdiction": "British Columbia", "claim_id": 514570, "claim_name": null, "holder": "AMARC RESOURCES LTD.", "status": "Mineral", "recorded_date": "2005-06-15", "anniversary_or_expiry": "2029-11-21", "area_ha": 406.129, "tenure_type": "Mineral", "source": "BC MTA Mineral, Placer and Coal Tenure Spatial View (BCGW). Open Government Licence - British Columbia. Not legal title.", "as_of": "2026-09-20", "role": "focus", "color": "#e8b040"}}, {"type": "Feature", "geometry": {"type": "Polygon", "coordinates": [[[-123.5202, 51.1457], [-123.5202, 51.129], [-123.4765, 51.129], [-123.4765, 51.1499], [-123.5202, 51.1499], [-123.5202, 51.1457]]]}, "properties": {"company_id": "amarc-resources", "jurisdiction": "British Columbia", "claim_id": 514571, "claim_name": null, "holder": "AMARC RESOURCES LTD.", "status": "Mineral", "recorded_date": "2005-06-15", "anniversary_or_expiry": "2029-11-21", "area_ha": 709.811, "tenure_type": "Mineral", "source": "BC MTA Mineral, Placer and Coal Tenure Spatial View (BCGW). Open Government Licence - British Columbia. Not legal title.", "as_of": "2026-09-20", "role": "focus", "color": "#e8b040"}}, {"type": "Feature", "geometry": {"type": "Polygon", "coordinates": [[[-123.5202, 51.1249], [-123.5202, 51.1165], [-123.4765, 51.1165], [-123.4765, 51.1207], [-123.4702, 51.1207], [-123.4702, 51.1332], [-123.4765, 51.1332], [-123.4765, 51.129], [-123.5202, 51.129], [-123.5202, 51.1249]]]}, "properties": {"company_id": "amarc-resources", "jurisdiction": "British Columbia", "claim_id": 514572, "claim_name": null, "holder": "AMARC RESOURCES LTD.", "status": "Mineral", "recorded_date": "2005-06-15", "anniversary_or_expiry": "2029-11-21", "area_ha": 486.896, "tenure_type": "Mineral", "source": "BC MTA Mineral, Placer and Coal Tenure Spatial View (BCGW). Open Government Licence - British Columbia. Not legal title.", "as_of": "2026-09-20", "role": "focus", "color": "#e8b040"}}, {"type": "Feature", "geometry": {"type": "Polygon", "coordinates": [[[-123.6827, 51.1415], [-123.6827, 51.1207], [-123.6577, 51.1207], [-123.6577, 51.1499], [-123.6765, 51.1499], [-123.6765, 51.1457], [-123.6827, 51.1457], [-123.6827, 51.1415]]]}, "properties": {"company_id": "amarc-resources", "jurisdiction": "British Columbia", "claim_id": 514685, "claim_name": null, "holder": "AMARC RESOURCES LTD.", "status": "Mineral", "recorded_date": "2005-06-17", "anniversary_or_expiry": "2029-11-21", "area_ha": 547.6170000000001, "tenure_type": "Mineral", "source": "BC MTA Mineral, Placer and Coal Tenure Spatial View (BCGW). Open Government Licence - British Columbia. Not legal title.", "as_of": "2026-09-20", "role": "focus", "color": "#e8b040"}}, {"type": "Feature", "geometry": {"type": "Polygon", "coordinates": [[[-123.6515, 51.1249], [-123.6577, 51.1249], [-123.6577, 51.1207], [-123.639, 51.1207], [-123.639, 51.1124], [-123.6077, 51.1124], [-123.6077, 51.1249], [-123.6515, 51.1249]]]}, "properties": {"company_id": "amarc-resources", "jurisdiction": "British Columbia", "claim_id": 514691, "claim_name": null, "holder": "AMARC RESOURCES LTD.", "status": "Mineral", "recorded_date": "2005-06-17", "anniversary_or_expiry": "2029-11-21", "area_ha": 365.177, "tenure_type": "Mineral", "source": "BC MTA Mineral, Placer and Coal Tenure Spatial View (BCGW). Open Government Licence - British Columbia. Not legal title.", "as_of": "2026-09-20", "role": "focus", "color": "#e8b040"}}, {"type": "Feature", "geometry": {"type": "Polygon", "coordinates": [[[-123.4827, 51.0832], [-123.489, 51.0832], [-123.489, 51.079], [-123.4765, 51.079], [-123.4765, 51.0832], [-123.4827, 51.0832]]]}, "properties": {"company_id": "amarc-resources", "jurisdiction": "British Columbia", "claim_id": 514743, "claim_name": "TOP", "holder": "AMARC RESOURCES LTD.", "status": "Mineral", "recorded_date": "2005-06-18", "anniversary_or_expiry": "2029-11-21", "area_ha": 40.609, "tenure_type": "Mineral", "source": "BC MTA Mineral, Placer and Coal Tenure Spatial View (BCGW). Open Government Licence - British Columbia. Not legal title.", "as_of": "2026-09-20", "role": "focus", "color": "#e8b040"}}, {"type": "Feature", "geometry": {"type": "Polygon", "coordinates": [[[-123.5265, 51.0999], [-123.5265, 51.0832], [-123.4952, 51.0832], [-123.4952, 51.079], [-123.489, 51.079], [-123.489, 51.104], [-123.5265, 51.104], [-123.5265, 51.0999]]]}, "properties": {"company_id": "amarc-resources", "jurisdiction": "British Columbia", "claim_id": 514744, "claim_name": null, "holder": "AMARC RESOURCES LTD.", "status": "Mineral", "recorded_date": "2005-06-18", "anniversary_or_expiry": "2029-11-21", "area_ha": 629.293, "tenure_type": "Mineral", "source": "BC MTA Mineral, Placer and Coal Tenure Spatial View (BCGW). Open Government Licence - British Columbia. Not legal title.", "as_of": "2026-09-20", "role": "focus", "color": "#e8b040"}}, {"type": "Feature", "geometry": {"type": "Polygon", "coordinates": [[[-123.4765, 51.0999], [-123.4765, 51.079], [-123.4702, 51.079], [-123.4702, 51.0832], [-123.4452, 51.0832], [-123.4452, 51.104], [-123.4765, 51.104], [-123.4765, 51.0999]]]}, "properties": {"company_id": "amarc-resources", "jurisdiction": "British Columbia", "claim_id": 514745, "claim_name": null, "holder": "AMARC RESOURCES LTD.", "status": "Mineral", "recorded_date": "2005-06-18", "anniversary_or_expiry": "2029-11-21", "area_ha": 527.822, "tenure_type": "Mineral", "source": "BC MTA Mineral, Placer and Coal Tenure Spatial View (BCGW). Open Government Licence - British Columbia. Not legal title.", "as_of": "2026-09-20", "role": "focus", "color": "#e8b040"}}, {"type": "Feature", "geometry": {"type": "Polygon", "coordinates": [[[-123.7077, 51.1707], [-123.7077, 51.1624], [-123.7015, 51.1624], [-123.7015, 51.1749], [-123.7077, 51.1749], [-123.7077, 51.1707]]]}, "properties": {"company_id": "amarc-resources", "jurisdiction": "British Columbia", "claim_id": 522692, "claim_name": "BRECCIA", "holder": "AMARC RESOURCES LTD.", "status": "Mineral", "recorded_date": "2005-11-25", "anniversary_or_expiry": "2029-11-21", "area_ha": 60.799, "tenure_type": "Mineral", "source": "BC MTA Mineral, Placer and Coal Tenure Spatial View (BCGW). Open Government Licence - British Columbia. Not legal title.", "as_of": "2026-09-20", "role": "focus", "color": "#e8b040"}}, {"type": "Feature", "geometry": {"type": "Polygon", "coordinates": [[[-123.4265, 51.0624], [-123.4265, 51.0582], [-123.414, 51.0582], [-123.414, 51.0665], [-123.4265, 51.0665], [-123.4265, 51.0624]]]}, "properties": {"company_id": "amarc-resources", "jurisdiction": "British Columbia", "claim_id": 529338, "claim_name": "ROW B", "holder": "AMARC RESOURCES LTD.", "status": "Mineral", "recorded_date": "2006-03-03", "anniversary_or_expiry": "2029-11-21", "area_ha": 81.24600000000001, "tenure_type": "Mineral", "source": "BC MTA Mineral, Placer and Coal Tenure Spatial View (BCGW). Open Government Licence - British Columbia. Not legal title.", "as_of": "2026-09-20", "role": "focus", "color": "#e8b040"}}, {"type": "Feature", "geometry": {"type": "Polygon", "coordinates": [[[-123.5577, 51.1207], [-123.5577, 51.1124], [-123.5265, 51.1124], [-123.5265, 51.1165], [-123.5202, 51.1165], [-123.5202, 51.1332], [-123.5452, 51.1332], [-123.5452, 51.1249], [-123.5577, 51.1249], [-123.5577, 51.1207]]]}, "properties": {"company_id": "amarc-resources", "jurisdiction": "British Columbia", "claim_id": 532241, "claim_name": "DISCOVERY2", "holder": "AMARC RESOURCES LTD.", "status": "Mineral", "recorded_date": "2006-04-17", "anniversary_or_expiry": "2029-11-21", "area_ha": 507.17, "tenure_type": "Mineral", "source": "BC MTA Mineral, Placer and Coal Tenure Spatial View (BCGW). Open Government Licence - British Columbia. Not legal title.", "as_of": "2026-09-20", "role": "focus", "color": "#e8b040"}}, {"type": "Feature", "geometry": {"type": "Polygon", "coordinates": [[[-123.5577, 51.1082], [-123.5577, 51.104], [-123.5265, 51.104], [-123.5265, 51.1124], [-123.5577, 51.1124], [-123.5577, 51.1082]]]}, "properties": {"company_id": "amarc-resources", "jurisdiction": "British Columbia", "claim_id": 532242, "claim_name": "DISCOVERY5", "holder": "AMARC RESOURCES LTD.", "status": "Mineral", "recorded_date": "2006-04-17", "anniversary_or_expiry": "2029-11-21", "area_ha": 202.928, "tenure_type": "Mineral", "source": "BC MTA Mineral, Placer and Coal Tenure Spatial View (BCGW). Open Government Licence - British Columbia. Not legal title.", "as_of": "2026-09-20", "role": "focus", "color": "#e8b040"}}, {"type": "Feature", "geometry": {"type": "Polygon", "coordinates": [[[-123.4015, 51.1249], [-123.4015, 51.1207], [-123.3265, 51.1207], [-123.3265, 51.129], [-123.4015, 51.129], [-123.4015, 51.1249]]]}, "properties": {"company_id": "amarc-resources", "jurisdiction": "British Columbia", "claim_id": 510974, "claim_name": "TAS4MAGIC", "holder": "AMARC RESOURCES LTD.", "status": "Mineral", "recorded_date": "2005-04-18", "anniversary_or_expiry": "2029-11-21", "area_ha": 486.84900000000005, "tenure_type": "Mineral", "source": "BC MTA Mineral, Placer and Coal Tenure Spatial View (BCGW). Open Government Licence - British Columbia. Not legal title.", "as_of": "2026-09-20", "role": "focus", "color": "#e8b040"}}, {"type": "Feature", "geometry": {"type": "Polygon", "coordinates": [[[-123.3327, 51.0415], [-123.3327, 51.029], [-123.3014, 51.029], [-123.3015, 51.0457], [-123.3327, 51.0457], [-123.3327, 51.0415]]]}, "properties": {"company_id": "amarc-resources", "jurisdiction": "British Columbia", "claim_id": 511136, "claim_name": "CAT", "holder": "AMARC RESOURCES LTD.", "status": "Mineral", "recorded_date": "2005-04-20", "anniversary_or_expiry": "2029-11-21", "area_ha": 406.432, "tenure_type": "Mineral", "source": "BC MTA Mineral, Placer and Coal Tenure Spatial View (BCGW). Open Government Licence - British Columbia. Not legal title.", "as_of": "2026-09-20", "role": "focus", "color": "#e8b040"}}, {"type": "Feature", "geometry": {"type": "Polygon", "coordinates": [[[-123.3452, 51.0874], [-123.3452, 51.0749], [-123.3327, 51.0749], [-123.3327, 51.0624], [-123.3202, 51.0624], [-123.3202, 51.0915], [-123.3452, 51.0915], [-123.3452, 51.0874]]]}, "properties": {"company_id": "amarc-resources", "jurisdiction": "British Columbia", "claim_id": 514550, "claim_name": null, "holder": "AMARC RESOURCES LTD.", "status": "Mineral", "recorded_date": "2005-06-15", "anniversary_or_expiry": "2029-11-21", "area_ha": 446.69, "tenure_type": "Mineral", "source": "BC MTA Mineral, Placer and Coal Tenure Spatial View (BCGW). Open Government Licence - British Columbia. Not legal title.", "as_of": "2026-09-20", "role": "focus", "color": "#e8b040"}}, {"type": "Feature", "geometry": {"type": "Polygon", "coordinates": [[[-123.564, 51.0999], [-123.564, 51.0874], [-123.5577, 51.0874], [-123.5577, 51.079], [-123.5265, 51.079], [-123.5265, 51.104], [-123.564, 51.104], [-123.564, 51.0999]]]}, "properties": {"company_id": "amarc-resources", "jurisdiction": "British Columbia", "claim_id": 514568, "claim_name": null, "holder": "AMARC RESOURCES LTD.", "status": "Mineral", "recorded_date": "2005-06-15", "anniversary_or_expiry": "2029-11-21", "area_ha": 690.197, "tenure_type": "Mineral", "source": "BC MTA Mineral, Placer and Coal Tenure Spatial View (BCGW). Open Government Licence - British Columbia. Not legal title.", "as_of": "2026-09-20", "role": "focus", "color": "#e8b040"}}, {"type": "Feature", "geometry": {"type": "Polygon", "coordinates": [[[-123.414, 51.0624], [-123.414, 51.0499], [-123.4077, 51.0499], [-123.4077, 51.0665], [-123.414, 51.0665], [-123.414, 51.0624]]]}, "properties": {"company_id": "amarc-resources", "jurisdiction": "British Columbia", "claim_id": 532889, "claim_name": "DIVIDE", "holder": "AMARC RESOURCES LTD.", "status": "Mineral", "recorded_date": "2006-04-22", "anniversary_or_expiry": "2029-11-21", "area_ha": 81.25, "tenure_type": "Mineral", "source": "BC MTA Mineral, Placer and Coal Tenure Spatial View (BCGW). Open Government Licence - British Columbia. Not legal title.", "as_of": "2026-09-20", "role": "focus", "color": "#e8b040"}}]}