{"type": "FeatureCollection", "features": [{"type": "Feature", "geometry": {"type": "Polygon", "coordinates": [[[-80.275, 48.1667], [-80.275, 48.1708], [-80.2813, 48.1708], [-80.2813, 48.1667], [-80.275, 48.1667]]]}, "properties": {"company_id": "anglogold", "jurisdiction": "Ontario", "claim_id": "1049590", "claim_name": null, "holder": "(100) ASHANTI MINERALS GROUP INC.", "status": "Active", "recorded_date": "2026-06-05", "anniversary_or_expiry": "2028-06-05", "area_ha": null, "tenure_type": "Single Cell Mining Claim", "source": "Ontario MLAS operational claims (OGSEarth / LIO MapServer). Unofficial viewing data, not legal title.", "as_of": "2026-09-20", "role": "focus", "color": "#e8b040"}}, {"type": "Feature", "geometry": {"type": "Polygon", "coordinates": [[[-80.2688, 48.1667], [-80.2688, 48.1708], [-80.275, 48.1708], [-80.275, 48.1667], [-80.2688, 48.1667]]]}, "properties": {"company_id": "anglogold", "jurisdiction": "Ontario", "claim_id": "1049591", "claim_name": null, "holder": "(100) ASHANTI MINERALS GROUP INC.", "status": "Active", "recorded_date": "2026-06-05", "anniversary_or_expiry": "2028-06-05", "area_ha": null, "tenure_type": "Single Cell Mining Claim", "source": "Ontario MLAS operational claims (OGSEarth / LIO MapServer). Unofficial viewing data, not legal title.", "as_of": "2026-09-20", "role": "focus", "color": "#e8b040"}}, {"type": "Feature", "geometry": {"type": "Polygon", "coordinates": [[[-80.275, 48.1708], [-80.275, 48.175], [-80.2813, 48.175], [-80.2813, 48.1708], [-80.275, 48.1708]]]}, "properties": {"company_id": "anglogold", "jurisdiction": "Ontario", "claim_id": "1049592", "claim_name": null, "holder": "(100) ASHANTI MINERALS GROUP INC.", "status": "Active", "recorded_date": "2026-06-05", "anniversary_or_expiry": "2028-06-05", "area_ha": null, "tenure_type": "Single Cell Mining Claim", "source": "Ontario MLAS operational claims (OGSEarth / LIO MapServer). Unofficial viewing data, not legal title.", "as_of": "2026-09-20", "role": "focus", "color": "#e8b040"}}, {"type": "Feature", "geometry": {"type": "Polygon", "coordinates": [[[-80.2688, 48.1708], [-80.2688, 48.175], [-80.275, 48.175], [-80.275, 48.1708], [-80.2688, 48.1708]]]}, "properties": {"company_id": "anglogold", "jurisdiction": "Ontario", "claim_id": "1049593", "claim_name": null, "holder": "(100) ASHANTI MINERALS GROUP INC.", "status": "Active", "recorded_date": "2026-06-05", "anniversary_or_expiry": "2028-06-05", "area_ha": null, "tenure_type": "Single Cell Mining Claim", "source": "Ontario MLAS operational claims (OGSEarth / LIO MapServer). Unofficial viewing data, not legal title.", "as_of": "2026-09-20", "role": "focus", "color": "#e8b040"}}, {"type": "Feature", "geometry": {"type": "Polygon", "coordinates": [[[-80.2813, 48.175], [-80.2813, 48.1792], [-80.2875, 48.1792], [-80.2875, 48.175], [-80.2813, 48.175]]]}, "properties": {"company_id": "anglogold", "jurisdiction": "Ontario", "claim_id": "1049594", "claim_name": null, "holder": "(100) ASHANTI MINERALS GROUP INC.", "status": "Active", "recorded_date": "2026-06-05", "anniversary_or_expiry": "2028-06-05", "area_ha": null, "tenure_type": "Single Cell Mining Claim", "source": "Ontario MLAS operational claims (OGSEarth / LIO MapServer). Unofficial viewing data, not legal title.", "as_of": "2026-09-20", "role": "focus", "color": "#e8b040"}}, {"type": "Feature", "geometry": {"type": "Polygon", "coordinates": [[[-80.275, 48.175], [-80.275, 48.1792], [-80.2813, 48.1792], [-80.2813, 48.175], [-80.275, 48.175]]]}, "properties": {"company_id": "anglogold", "jurisdiction": "Ontario", "claim_id": "1049595", "claim_name": null, "holder": "(100) ASHANTI MINERALS GROUP INC.", "status": "Active", "recorded_date": "2026-06-05", "anniversary_or_expiry": "2028-06-05", "area_ha": null, "tenure_type": "Single Cell Mining Claim", "source": "Ontario MLAS operational claims (OGSEarth / LIO MapServer). Unofficial viewing data, not legal title.", "as_of": "2026-09-20", "role": "focus", "color": "#e8b040"}}, {"type": "Feature", "geometry": {"type": "Polygon", "coordinates": [[[-80.2688, 48.175], [-80.2688, 48.1792], [-80.275, 48.1792], [-80.275, 48.175], [-80.2688, 48.175]]]}, "properties": {"company_id": "anglogold", "jurisdiction": "Ontario", "claim_id": "1049596", "claim_name": null, "holder": "(100) ASHANTI MINERALS GROUP INC.", "status": "Active", "recorded_date": "2026-06-05", "anniversary_or_expiry": "2028-06-05", "area_ha": null, "tenure_type": "Single Cell Mining Claim", "source": "Ontario MLAS operational claims (OGSEarth / LIO MapServer). Unofficial viewing data, not legal title.", "as_of": "2026-09-20", "role": "focus", "color": "#e8b040"}}, {"type": "Feature", "geometry": {"type": "Polygon", "coordinates": [[[-80.2688, 48.1792], [-80.2688, 48.1833], [-80.275, 48.1833], [-80.275, 48.1792], [-80.2688, 48.1792]]]}, "properties": {"company_id": "anglogold", "jurisdiction": "Ontario", "claim_id": "1049597", "claim_name": null, "holder": "(100) ASHANTI MINERALS GROUP INC.", "status": "Active", "recorded_date": "2026-06-05", "anniversary_or_expiry": "2028-06-05", "area_ha": null, "tenure_type": "Single Cell Mining Claim", "source": "Ontario MLAS operational claims (OGSEarth / LIO MapServer). Unofficial viewing data, not legal title.", "as_of": "2026-09-20", "role": "focus", "color": "#e8b040"}}, {"type": "Feature", "geometry": {"type": "Polygon", "coordinates": [[[-80.2625, 48.1792], [-80.2625, 48.1833], [-80.2688, 48.1833], [-80.2688, 48.1792], [-80.2625, 48.1792]]]}, "properties": {"company_id": "anglogold", "jurisdiction": "Ontario", "claim_id": "1049598", "claim_name": null, "holder": "(100) ASHANTI MINERALS GROUP INC.", "status": "Active", "recorded_date": "2026-06-05", "anniversary_or_expiry": "2028-06-05", "area_ha": null, "tenure_type": "Single Cell Mining Claim", "source": "Ontario MLAS operational claims (OGSEarth / LIO MapServer). Unofficial viewing data, not legal title.", "as_of": "2026-09-20", "role": "focus", "color": "#e8b040"}}, {"type": "Feature", "geometry": {"type": "Polygon", "coordinates": [[[-80.2625, 48.175], [-80.2625, 48.1792], [-80.2688, 48.1792], [-80.2688, 48.175], [-80.2625, 48.175]]]}, "properties": {"company_id": "anglogold", "jurisdiction": "Ontario", "claim_id": "1049599", "claim_name": null, "holder": "(100) ASHANTI MINERALS GROUP INC.", "status": "Active", "recorded_date": "2026-06-05", "anniversary_or_expiry": "2028-06-05", "area_ha": null, "tenure_type": "Single Cell Mining Claim", "source": "Ontario MLAS operational claims (OGSEarth / LIO MapServer). Unofficial viewing data, not legal title.", "as_of": "2026-09-20", "role": "focus", "color": "#e8b040"}}, {"type": "Feature", "geometry": {"type": "Polygon", "coordinates": [[[-80.2625, 48.1708], [-80.2625, 48.175], [-80.2688, 48.175], [-80.2688, 48.1708], [-80.2625, 48.1708]]]}, "properties": {"company_id": "anglogold", "jurisdiction": "Ontario", "claim_id": "1049600", "claim_name": null, "holder": "(100) ASHANTI MINERALS GROUP INC.", "status": "Active", "recorded_date": "2026-06-05", "anniversary_or_expiry": "2028-06-05", "area_ha": null, "tenure_type": "Single Cell Mining Claim", "source": "Ontario MLAS operational claims (OGSEarth / LIO MapServer). Unofficial viewing data, not legal title.", "as_of": "2026-09-20", "role": "focus", "color": "#e8b040"}}, {"type": "Feature", "geometry": {"type": "Polygon", "coordinates": [[[-80.2625, 48.1667], [-80.2625, 48.1708], [-80.2688, 48.1708], [-80.2688, 48.1667], [-80.2625, 48.1667]]]}, "properties": {"company_id": "anglogold", "jurisdiction": "Ontario", "claim_id": "1049601", "claim_name": null, "holder": "(100) ASHANTI MINERALS GROUP INC.", "status": "Active", "recorded_date": "2026-06-05", "anniversary_or_expiry": "2028-06-05", "area_ha": null, "tenure_type": "Single Cell Mining Claim", "source": "Ontario MLAS operational claims (OGSEarth / LIO MapServer). Unofficial viewing data, not legal title.", "as_of": "2026-09-20", "role": "focus", "color": "#e8b040"}}]}