{"type": "FeatureCollection", "features": [{"type": "Feature", "geometry": {"type": "Polygon", "coordinates": [[[-91.4625, 48.9083], [-91.4625, 48.9125], [-91.4688, 48.9125], [-91.4688, 48.9083], [-91.4625, 48.9083]]]}, "properties": {"company_id": "apollo-silver", "jurisdiction": "Ontario", "claim_id": "587427", "claim_name": null, "holder": "(100) Apollo Exploration Inc.", "status": "Active", "recorded_date": "2020-05-06", "anniversary_or_expiry": "2029-05-06", "area_ha": null, "tenure_type": "Single Cell Mining Claim", "source": "Ontario MLAS operational claims (OGSEarth / LIO MapServer). Unofficial viewing data, not legal title.", "as_of": "2026-09-20", "role": "focus", "color": "#e8b040"}}, {"type": "Feature", "geometry": {"type": "Polygon", "coordinates": [[[-91.4563, 48.9083], [-91.4563, 48.9125], [-91.4625, 48.9125], [-91.4625, 48.9083], [-91.4563, 48.9083]]]}, "properties": {"company_id": "apollo-silver", "jurisdiction": "Ontario", "claim_id": "587428", "claim_name": null, "holder": "(100) Apollo Exploration Inc.", "status": "Active", "recorded_date": "2020-05-06", "anniversary_or_expiry": "2029-05-06", "area_ha": null, "tenure_type": "Single Cell Mining Claim", "source": "Ontario MLAS operational claims (OGSEarth / LIO MapServer). Unofficial viewing data, not legal title.", "as_of": "2026-09-20", "role": "focus", "color": "#e8b040"}}, {"type": "Feature", "geometry": {"type": "Polygon", "coordinates": [[[-91.45, 48.9083], [-91.45, 48.9125], [-91.4563, 48.9125], [-91.4563, 48.9083], [-91.45, 48.9083]]]}, "properties": {"company_id": "apollo-silver", "jurisdiction": "Ontario", "claim_id": "587429", "claim_name": null, "holder": "(100) Apollo Exploration Inc.", "status": "Active", "recorded_date": "2020-05-06", "anniversary_or_expiry": "2029-05-06", "area_ha": null, "tenure_type": "Single Cell Mining Claim", "source": "Ontario MLAS operational claims (OGSEarth / LIO MapServer). Unofficial viewing data, not legal title.", "as_of": "2026-09-20", "role": "focus", "color": "#e8b040"}}, {"type": "Feature", "geometry": {"type": "Polygon", "coordinates": [[[-91.4438, 48.9083], [-91.4438, 48.9125], [-91.45, 48.9125], [-91.45, 48.9083], [-91.4438, 48.9083]]]}, "properties": {"company_id": "apollo-silver", "jurisdiction": "Ontario", "claim_id": "587430", "claim_name": null, "holder": "(100) Apollo Exploration Inc.", "status": "Active", "recorded_date": "2020-05-06", "anniversary_or_expiry": "2029-05-06", "area_ha": null, "tenure_type": "Single Cell Mining Claim", "source": "Ontario MLAS operational claims (OGSEarth / LIO MapServer). Unofficial viewing data, not legal title.", "as_of": "2026-09-20", "role": "focus", "color": "#e8b040"}}, {"type": "Feature", "geometry": {"type": "Polygon", "coordinates": [[[-91.4875, 48.9042], [-91.4875, 48.9083], [-91.4938, 48.9083], [-91.4938, 48.9042], [-91.4875, 48.9042]]]}, "properties": {"company_id": "apollo-silver", "jurisdiction": "Ontario", "claim_id": "587431", "claim_name": null, "holder": "(100) Apollo Exploration Inc.", "status": "Active", "recorded_date": "2020-05-06", "anniversary_or_expiry": "2029-05-06", "area_ha": null, "tenure_type": "Single Cell Mining Claim", "source": "Ontario MLAS operational claims (OGSEarth / LIO MapServer). Unofficial viewing data, not legal title.", "as_of": "2026-09-20", "role": "focus", "color": "#e8b040"}}, {"type": "Feature", "geometry": {"type": "Polygon", "coordinates": [[[-91.4813, 48.9042], [-91.4813, 48.9083], [-91.4875, 48.9083], [-91.4875, 48.9042], [-91.4813, 48.9042]]]}, "properties": {"company_id": "apollo-silver", "jurisdiction": "Ontario", "claim_id": "587432", "claim_name": null, "holder": "(100) Apollo Exploration Inc.", "status": "Active", "recorded_date": "2020-05-06", "anniversary_or_expiry": "2030-05-06", "area_ha": null, "tenure_type": "Single Cell Mining Claim", "source": "Ontario MLAS operational claims (OGSEarth / LIO MapServer). Unofficial viewing data, not legal title.", "as_of": "2026-09-20", "role": "focus", "color": "#e8b040"}}, {"type": "Feature", "geometry": {"type": "Polygon", "coordinates": [[[-91.475, 48.9042], [-91.475, 48.9083], [-91.4813, 48.9083], [-91.4813, 48.9042], [-91.475, 48.9042]]]}, "properties": {"company_id": "apollo-silver", "jurisdiction": "Ontario", "claim_id": "587433", "claim_name": null, "holder": "(100) Apollo Exploration Inc.", "status": "Active", "recorded_date": "2020-05-06", "anniversary_or_expiry": "2029-05-06", "area_ha": null, "tenure_type": "Single Cell Mining Claim", "source": "Ontario MLAS operational claims (OGSEarth / LIO MapServer). Unofficial viewing data, not legal title.", "as_of": "2026-09-20", "role": "focus", "color": "#e8b040"}}, {"type": "Feature", "geometry": {"type": "Polygon", "coordinates": [[[-91.4688, 48.9042], [-91.4688, 48.9083], [-91.475, 48.9083], [-91.475, 48.9042], [-91.4688, 48.9042]]]}, "properties": {"company_id": "apollo-silver", "jurisdiction": "Ontario", "claim_id": "587434", "claim_name": null, "holder": "(100) Apollo Exploration Inc.", "status": "Active", "recorded_date": "2020-05-06", "anniversary_or_expiry": "2029-05-06", "area_ha": null, "tenure_type": "Single Cell Mining Claim", "source": "Ontario MLAS operational claims (OGSEarth / LIO MapServer). Unofficial viewing data, not legal title.", "as_of": "2026-09-20", "role": "focus", "color": "#e8b040"}}, {"type": "Feature", "geometry": {"type": "Polygon", "coordinates": [[[-91.4625, 48.9042], [-91.4625, 48.9083], [-91.4688, 48.9083], [-91.4688, 48.9042], [-91.4625, 48.9042]]]}, "properties": {"company_id": "apollo-silver", "jurisdiction": "Ontario", "claim_id": "587435", "claim_name": null, "holder": "(100) Apollo Exploration Inc.", "status": "Active", "recorded_date": "2020-05-06", "anniversary_or_expiry": "2029-05-06", "area_ha": null, "tenure_type": "Single Cell Mining Claim", "source": "Ontario MLAS operational claims (OGSEarth / LIO MapServer). Unofficial viewing data, not legal title.", "as_of": "2026-09-20", "role": "focus", "color": "#e8b040"}}, {"type": "Feature", "geometry": {"type": "Polygon", "coordinates": [[[-91.4563, 48.9042], [-91.4563, 48.9083], [-91.4625, 48.9083], [-91.4625, 48.9042], [-91.4563, 48.9042]]]}, "properties": {"company_id": "apollo-silver", "jurisdiction": "Ontario", "claim_id": "587436", "claim_name": null, "holder": "(100) Apollo Exploration Inc.", "status": "Active", "recorded_date": "2020-05-06", "anniversary_or_expiry": "2029-05-06", "area_ha": null, "tenure_type": "Single Cell Mining Claim", "source": "Ontario MLAS operational claims (OGSEarth / LIO MapServer). Unofficial viewing data, not legal title.", "as_of": "2026-09-20", "role": "focus", "color": "#e8b040"}}, {"type": "Feature", "geometry": {"type": "Polygon", "coordinates": [[[-91.45, 48.9042], [-91.45, 48.9083], [-91.4563, 48.9083], [-91.4563, 48.9042], [-91.45, 48.9042]]]}, "properties": {"company_id": "apollo-silver", "jurisdiction": "Ontario", "claim_id": "587437", "claim_name": null, "holder": "(100) Apollo Exploration Inc.", "status": "Active", "recorded_date": "2020-05-06", "anniversary_or_expiry": "2029-05-06", "area_ha": null, "tenure_type": "Single Cell Mining Claim", "source": "Ontario MLAS operational claims (OGSEarth / LIO MapServer). Unofficial viewing data, not legal title.", "as_of": "2026-09-20", "role": "focus", "color": "#e8b040"}}, {"type": "Feature", "geometry": {"type": "Polygon", "coordinates": [[[-91.4438, 48.9042], [-91.4438, 48.9083], [-91.45, 48.9083], [-91.45, 48.9042], [-91.4438, 48.9042]]]}, "properties": {"company_id": "apollo-silver", "jurisdiction": "Ontario", "claim_id": "587438", "claim_name": null, "holder": "(100) Apollo Exploration Inc.", "status": "Active", "recorded_date": "2020-05-06", "anniversary_or_expiry": "2029-05-06", "area_ha": null, "tenure_type": "Single Cell Mining Claim", "source": "Ontario MLAS operational claims (OGSEarth / LIO MapServer). Unofficial viewing data, not legal title.", "as_of": "2026-09-20", "role": "focus", "color": "#e8b040"}}, {"type": "Feature", "geometry": {"type": "Polygon", "coordinates": [[[-91.4938, 48.9], [-91.4938, 48.9042], [-91.5, 48.9042], [-91.5, 48.9], [-91.4938, 48.9]]]}, "properties": {"company_id": "apollo-silver", "jurisdiction": "Ontario", "claim_id": "587439", "claim_name": null, "holder": "(100) Apollo Exploration Inc.", "status": "Active", "recorded_date": "2020-05-06", "anniversary_or_expiry": "2029-05-06", "area_ha": null, "tenure_type": "Single Cell Mining Claim", "source": "Ontario MLAS operational claims (OGSEarth / LIO MapServer). Unofficial viewing data, not legal title.", "as_of": "2026-09-20", "role": "focus", "color": "#e8b040"}}, {"type": "Feature", "geometry": {"type": "Polygon", "coordinates": [[[-91.4875, 48.9], [-91.4875, 48.9042], [-91.4938, 48.9042], [-91.4938, 48.9], [-91.4875, 48.9]]]}, "properties": {"company_id": "apollo-silver", "jurisdiction": "Ontario", "claim_id": "587440", "claim_name": null, "holder": "(100) Apollo Exploration Inc.", "status": "Active", "recorded_date": "2020-05-06", "anniversary_or_expiry": "2029-05-06", "area_ha": null, "tenure_type": "Single Cell Mining Claim", "source": "Ontario MLAS operational claims (OGSEarth / LIO MapServer). Unofficial viewing data, not legal title.", "as_of": "2026-09-20", "role": "focus", "color": "#e8b040"}}, {"type": "Feature", "geometry": {"type": "Polygon", "coordinates": [[[-91.4813, 48.9], [-91.4813, 48.9042], [-91.4875, 48.9042], [-91.4875, 48.9], [-91.4813, 48.9]]]}, "properties": {"company_id": "apollo-silver", "jurisdiction": "Ontario", "claim_id": "587441", "claim_name": null, "holder": "(100) Apollo Exploration Inc.", "status": "Active", "recorded_date": "2020-05-06", "anniversary_or_expiry": "2029-05-06", "area_ha": null, "tenure_type": "Single Cell Mining Claim", "source": "Ontario MLAS operational claims (OGSEarth / LIO MapServer). Unofficial viewing data, not legal title.", "as_of": "2026-09-20", "role": "focus", "color": "#e8b040"}}, {"type": "Feature", "geometry": {"type": "Polygon", "coordinates": [[[-91.475, 48.9], [-91.475, 48.9042], [-91.4813, 48.9042], [-91.4813, 48.9], [-91.475, 48.9]]]}, "properties": {"company_id": "apollo-silver", "jurisdiction": "Ontario", "claim_id": "587442", "claim_name": null, "holder": "(100) Apollo Exploration Inc.", "status": "Active", "recorded_date": "2020-05-06", "anniversary_or_expiry": "2029-05-06", "area_ha": null, "tenure_type": "Single Cell Mining Claim", "source": "Ontario MLAS operational claims (OGSEarth / LIO MapServer). Unofficial viewing data, not legal title.", "as_of": "2026-09-20", "role": "focus", "color": "#e8b040"}}, {"type": "Feature", "geometry": {"type": "Polygon", "coordinates": [[[-91.4688, 48.9], [-91.4688, 48.9042], [-91.475, 48.9042], [-91.475, 48.9], [-91.4688, 48.9]]]}, "properties": {"company_id": "apollo-silver", "jurisdiction": "Ontario", "claim_id": "587443", "claim_name": null, "holder": "(100) Apollo Exploration Inc.", "status": "Active", "recorded_date": "2020-05-06", "anniversary_or_expiry": "2029-05-06", "area_ha": null, "tenure_type": "Single Cell Mining Claim", "source": "Ontario MLAS operational claims (OGSEarth / LIO MapServer). Unofficial viewing data, not legal title.", "as_of": "2026-09-20", "role": "focus", "color": "#e8b040"}}, {"type": "Feature", "geometry": {"type": "Polygon", "coordinates": [[[-91.4625, 48.9], [-91.4625, 48.9042], [-91.4688, 48.9042], [-91.4688, 48.9], [-91.4625, 48.9]]]}, "properties": {"company_id": "apollo-silver", "jurisdiction": "Ontario", "claim_id": "587444", "claim_name": null, "holder": "(100) Apollo Exploration Inc.", "status": "Active", "recorded_date": "2020-05-06", "anniversary_or_expiry": "2029-05-06", "area_ha": null, "tenure_type": "Single Cell Mining Claim", "source": "Ontario MLAS operational claims (OGSEarth / LIO MapServer). Unofficial viewing data, not legal title.", "as_of": "2026-09-20", "role": "focus", "color": "#e8b040"}}, {"type": "Feature", "geometry": {"type": "Polygon", "coordinates": [[[-91.4563, 48.9], [-91.4563, 48.9042], [-91.4625, 48.9042], [-91.4625, 48.9], [-91.4563, 48.9]]]}, "properties": {"company_id": "apollo-silver", "jurisdiction": "Ontario", "claim_id": "587445", "claim_name": null, "holder": "(100) Apollo Exploration Inc.", "status": "Active", "recorded_date": "2020-05-06", "anniversary_or_expiry": "2029-05-06", "area_ha": null, "tenure_type": "Single Cell Mining Claim", "source": "Ontario MLAS operational claims (OGSEarth / LIO MapServer). Unofficial viewing data, not legal title.", "as_of": "2026-09-20", "role": "focus", "color": "#e8b040"}}, {"type": "Feature", "geometry": {"type": "Polygon", "coordinates": [[[-91.45, 48.9], [-91.45, 48.9042], [-91.4563, 48.9042], [-91.4563, 48.9], [-91.45, 48.9]]]}, "properties": {"company_id": "apollo-silver", "jurisdiction": "Ontario", "claim_id": "587446", "claim_name": null, "holder": "(100) Apollo Exploration Inc.", "status": "Active", "recorded_date": "2020-05-06", "anniversary_or_expiry": "2029-05-06", "area_ha": null, "tenure_type": "Single Cell Mining Claim", "source": "Ontario MLAS operational claims (OGSEarth / LIO MapServer). Unofficial viewing data, not legal title.", "as_of": "2026-09-20", "role": "focus", "color": "#e8b040"}}, {"type": "Feature", "geometry": {"type": "Polygon", "coordinates": [[[-91.475, 48.8958], [-91.475, 48.9], [-91.4813, 48.9], [-91.4813, 48.8958], [-91.475, 48.8958]]]}, "properties": {"company_id": "apollo-silver", "jurisdiction": "Ontario", "claim_id": "587447", "claim_name": null, "holder": "(100) Apollo Exploration Inc.", "status": "Active", "recorded_date": "2020-05-06", "anniversary_or_expiry": "2029-05-06", "area_ha": null, "tenure_type": "Single Cell Mining Claim", "source": "Ontario MLAS operational claims (OGSEarth / LIO MapServer). Unofficial viewing data, not legal title.", "as_of": "2026-09-20", "role": "focus", "color": "#e8b040"}}, {"type": "Feature", "geometry": {"type": "Polygon", "coordinates": [[[-91.4688, 48.8958], [-91.4688, 48.9], [-91.475, 48.9], [-91.475, 48.8958], [-91.4688, 48.8958]]]}, "properties": {"company_id": "apollo-silver", "jurisdiction": "Ontario", "claim_id": "587448", "claim_name": null, "holder": "(100) Apollo Exploration Inc.", "status": "Active", "recorded_date": "2020-05-06", "anniversary_or_expiry": "2029-05-06", "area_ha": null, "tenure_type": "Single Cell Mining Claim", "source": "Ontario MLAS operational claims (OGSEarth / LIO MapServer). Unofficial viewing data, not legal title.", "as_of": "2026-09-20", "role": "focus", "color": "#e8b040"}}, {"type": "Feature", "geometry": {"type": "Polygon", "coordinates": [[[-91.4625, 48.8958], [-91.4625, 48.9], [-91.4688, 48.9], [-91.4688, 48.8958], [-91.4625, 48.8958]]]}, "properties": {"company_id": "apollo-silver", "jurisdiction": "Ontario", "claim_id": "587449", "claim_name": null, "holder": "(100) Apollo Exploration Inc.", "status": "Active", "recorded_date": "2020-05-06", "anniversary_or_expiry": "2029-05-06", "area_ha": null, "tenure_type": "Single Cell Mining Claim", "source": "Ontario MLAS operational claims (OGSEarth / LIO MapServer). Unofficial viewing data, not legal title.", "as_of": "2026-09-20", "role": "focus", "color": "#e8b040"}}, {"type": "Feature", "geometry": {"type": "Polygon", "coordinates": [[[-91.4563, 48.8958], [-91.4563, 48.9], [-91.4625, 48.9], [-91.4625, 48.8958], [-91.4563, 48.8958]]]}, "properties": {"company_id": "apollo-silver", "jurisdiction": "Ontario", "claim_id": "587450", "claim_name": null, "holder": "(100) Apollo Exploration Inc.", "status": "Active", "recorded_date": "2020-05-06", "anniversary_or_expiry": "2029-05-06", "area_ha": null, "tenure_type": "Single Cell Mining Claim", "source": "Ontario MLAS operational claims (OGSEarth / LIO MapServer). Unofficial viewing data, not legal title.", "as_of": "2026-09-20", "role": "focus", "color": "#e8b040"}}, {"type": "Feature", "geometry": {"type": "Polygon", "coordinates": [[[-91.4875, 48.8917], [-91.4875, 48.8958], [-91.4938, 48.8958], [-91.4938, 48.8917], [-91.4875, 48.8917]]]}, "properties": {"company_id": "apollo-silver", "jurisdiction": "Ontario", "claim_id": "587451", "claim_name": null, "holder": "(100) Apollo Exploration Inc.", "status": "Active", "recorded_date": "2020-05-06", "anniversary_or_expiry": "2029-05-06", "area_ha": null, "tenure_type": "Single Cell Mining Claim", "source": "Ontario MLAS operational claims (OGSEarth / LIO MapServer). Unofficial viewing data, not legal title.", "as_of": "2026-09-20", "role": "focus", "color": "#e8b040"}}, {"type": "Feature", "geometry": {"type": "Polygon", "coordinates": [[[-91.4813, 48.8917], [-91.4813, 48.8958], [-91.4875, 48.8958], [-91.4875, 48.8917], [-91.4813, 48.8917]]]}, "properties": {"company_id": "apollo-silver", "jurisdiction": "Ontario", "claim_id": "587452", "claim_name": null, "holder": "(100) Apollo Exploration Inc.", "status": "Active", "recorded_date": "2020-05-06", "anniversary_or_expiry": "2029-05-06", "area_ha": null, "tenure_type": "Single Cell Mining Claim", "source": "Ontario MLAS operational claims (OGSEarth / LIO MapServer). Unofficial viewing data, not legal title.", "as_of": "2026-09-20", "role": "focus", "color": "#e8b040"}}, {"type": "Feature", "geometry": {"type": "Polygon", "coordinates": [[[-91.475, 48.8917], [-91.475, 48.8958], [-91.4813, 48.8958], [-91.4813, 48.8917], [-91.475, 48.8917]]]}, "properties": {"company_id": "apollo-silver", "jurisdiction": "Ontario", "claim_id": "587453", "claim_name": null, "holder": "(100) Apollo Exploration Inc.", "status": "Active", "recorded_date": "2020-05-06", "anniversary_or_expiry": "2029-05-06", "area_ha": null, "tenure_type": "Single Cell Mining Claim", "source": "Ontario MLAS operational claims (OGSEarth / LIO MapServer). Unofficial viewing data, not legal title.", "as_of": "2026-09-20", "role": "focus", "color": "#e8b040"}}, {"type": "Feature", "geometry": {"type": "Polygon", "coordinates": [[[-91.4688, 48.8917], [-91.4688, 48.8958], [-91.475, 48.8958], [-91.475, 48.8917], [-91.4688, 48.8917]]]}, "properties": {"company_id": "apollo-silver", "jurisdiction": "Ontario", "claim_id": "587454", "claim_name": null, "holder": "(100) Apollo Exploration Inc.", "status": "Active", "recorded_date": "2020-05-06", "anniversary_or_expiry": "2029-05-06", "area_ha": null, "tenure_type": "Single Cell Mining Claim", "source": "Ontario MLAS operational claims (OGSEarth / LIO MapServer). Unofficial viewing data, not legal title.", "as_of": "2026-09-20", "role": "focus", "color": "#e8b040"}}, {"type": "Feature", "geometry": {"type": "Polygon", "coordinates": [[[-91.4625, 48.8917], [-91.4625, 48.8958], [-91.4688, 48.8958], [-91.4688, 48.8917], [-91.4625, 48.8917]]]}, "properties": {"company_id": "apollo-silver", "jurisdiction": "Ontario", "claim_id": "587455", "claim_name": null, "holder": "(100) Apollo Exploration Inc.", "status": "Active", "recorded_date": "2020-05-06", "anniversary_or_expiry": "2029-05-06", "area_ha": null, "tenure_type": "Single Cell Mining Claim", "source": "Ontario MLAS operational claims (OGSEarth / LIO MapServer). Unofficial viewing data, not legal title.", "as_of": "2026-09-20", "role": "focus", "color": "#e8b040"}}, {"type": "Feature", "geometry": {"type": "Polygon", "coordinates": [[[-91.4563, 48.8917], [-91.4563, 48.8958], [-91.4625, 48.8958], [-91.4625, 48.8917], [-91.4563, 48.8917]]]}, "properties": {"company_id": "apollo-silver", "jurisdiction": "Ontario", "claim_id": "587456", "claim_name": null, "holder": "(100) Apollo Exploration Inc.", "status": "Active", "recorded_date": "2020-05-06", "anniversary_or_expiry": "2029-05-06", "area_ha": null, "tenure_type": "Single Cell Mining Claim", "source": "Ontario MLAS operational claims (OGSEarth / LIO MapServer). Unofficial viewing data, not legal title.", "as_of": "2026-09-20", "role": "focus", "color": "#e8b040"}}, {"type": "Feature", "geometry": {"type": "Polygon", "coordinates": [[[-91.4875, 48.8875], [-91.4875, 48.8917], [-91.4938, 48.8917], [-91.4938, 48.8875], [-91.4875, 48.8875]]]}, "properties": {"company_id": "apollo-silver", "jurisdiction": "Ontario", "claim_id": "587457", "claim_name": null, "holder": "(100) Apollo Exploration Inc.", "status": "Active", "recorded_date": "2020-05-06", "anniversary_or_expiry": "2029-05-06", "area_ha": null, "tenure_type": "Single Cell Mining Claim", "source": "Ontario MLAS operational claims (OGSEarth / LIO MapServer). Unofficial viewing data, not legal title.", "as_of": "2026-09-20", "role": "focus", "color": "#e8b040"}}, {"type": "Feature", "geometry": {"type": "Polygon", "coordinates": [[[-91.4813, 48.8875], [-91.4813, 48.8917], [-91.4875, 48.8917], [-91.4875, 48.8875], [-91.4813, 48.8875]]]}, "properties": {"company_id": "apollo-silver", "jurisdiction": "Ontario", "claim_id": "587458", "claim_name": null, "holder": "(100) Apollo Exploration Inc.", "status": "Active", "recorded_date": "2020-05-06", "anniversary_or_expiry": "2029-05-06", "area_ha": null, "tenure_type": "Single Cell Mining Claim", "source": "Ontario MLAS operational claims (OGSEarth / LIO MapServer). Unofficial viewing data, not legal title.", "as_of": "2026-09-20", "role": "focus", "color": "#e8b040"}}, {"type": "Feature", "geometry": {"type": "Polygon", "coordinates": [[[-91.475, 48.8875], [-91.475, 48.8917], [-91.4813, 48.8917], [-91.4813, 48.8875], [-91.475, 48.8875]]]}, "properties": {"company_id": "apollo-silver", "jurisdiction": "Ontario", "claim_id": "587459", "claim_name": null, "holder": "(100) Apollo Exploration Inc.", "status": "Active", "recorded_date": "2020-05-06", "anniversary_or_expiry": "2029-05-06", "area_ha": null, "tenure_type": "Single Cell Mining Claim", "source": "Ontario MLAS operational claims (OGSEarth / LIO MapServer). Unofficial viewing data, not legal title.", "as_of": "2026-09-20", "role": "focus", "color": "#e8b040"}}, {"type": "Feature", "geometry": {"type": "Polygon", "coordinates": [[[-91.4688, 48.8875], [-91.4688, 48.8917], [-91.475, 48.8917], [-91.475, 48.8875], [-91.4688, 48.8875]]]}, "properties": {"company_id": "apollo-silver", "jurisdiction": "Ontario", "claim_id": "587460", "claim_name": null, "holder": "(100) Apollo Exploration Inc.", "status": "Active", "recorded_date": "2020-05-06", "anniversary_or_expiry": "2029-05-06", "area_ha": null, "tenure_type": "Single Cell Mining Claim", "source": "Ontario MLAS operational claims (OGSEarth / LIO MapServer). Unofficial viewing data, not legal title.", "as_of": "2026-09-20", "role": "focus", "color": "#e8b040"}}, {"type": "Feature", "geometry": {"type": "Polygon", "coordinates": [[[-91.4625, 48.8875], [-91.4625, 48.8917], [-91.4688, 48.8917], [-91.4688, 48.8875], [-91.4625, 48.8875]]]}, "properties": {"company_id": "apollo-silver", "jurisdiction": "Ontario", "claim_id": "587461", "claim_name": null, "holder": "(100) Apollo Exploration Inc.", "status": "Active", "recorded_date": "2020-05-06", "anniversary_or_expiry": "2029-05-06", "area_ha": null, "tenure_type": "Single Cell Mining Claim", "source": "Ontario MLAS operational claims (OGSEarth / LIO MapServer). Unofficial viewing data, not legal title.", "as_of": "2026-09-20", "role": "focus", "color": "#e8b040"}}, {"type": "Feature", "geometry": {"type": "Polygon", "coordinates": [[[-91.4875, 48.8833], [-91.4875, 48.8875], [-91.4938, 48.8875], [-91.4938, 48.8833], [-91.4875, 48.8833]]]}, "properties": {"company_id": "apollo-silver", "jurisdiction": "Ontario", "claim_id": "587462", "claim_name": null, "holder": "(100) Apollo Exploration Inc.", "status": "Active", "recorded_date": "2020-05-06", "anniversary_or_expiry": "2029-05-06", "area_ha": null, "tenure_type": "Single Cell Mining Claim", "source": "Ontario MLAS operational claims (OGSEarth / LIO MapServer). Unofficial viewing data, not legal title.", "as_of": "2026-09-20", "role": "focus", "color": "#e8b040"}}, {"type": "Feature", "geometry": {"type": "Polygon", "coordinates": [[[-91.4813, 48.8833], [-91.4813, 48.8875], [-91.4875, 48.8875], [-91.4875, 48.8833], [-91.4813, 48.8833]]]}, "properties": {"company_id": "apollo-silver", "jurisdiction": "Ontario", "claim_id": "587463", "claim_name": null, "holder": "(100) Apollo Exploration Inc.", "status": "Active", "recorded_date": "2020-05-06", "anniversary_or_expiry": "2029-05-06", "area_ha": null, "tenure_type": "Single Cell Mining Claim", "source": "Ontario MLAS operational claims (OGSEarth / LIO MapServer). Unofficial viewing data, not legal title.", "as_of": "2026-09-20", "role": "focus", "color": "#e8b040"}}, {"type": "Feature", "geometry": {"type": "Polygon", "coordinates": [[[-91.4875, 48.8792], [-91.4875, 48.8833], [-91.4938, 48.8833], [-91.4938, 48.8792], [-91.4875, 48.8792]]]}, "properties": {"company_id": "apollo-silver", "jurisdiction": "Ontario", "claim_id": "587464", "claim_name": null, "holder": "(100) Apollo Exploration Inc.", "status": "Active", "recorded_date": "2020-05-06", "anniversary_or_expiry": "2029-05-06", "area_ha": null, "tenure_type": "Single Cell Mining Claim", "source": "Ontario MLAS operational claims (OGSEarth / LIO MapServer). Unofficial viewing data, not legal title.", "as_of": "2026-09-20", "role": "focus", "color": "#e8b040"}}, {"type": "Feature", "geometry": {"type": "Polygon", "coordinates": [[[-91.4813, 48.8792], [-91.4813, 48.8833], [-91.4875, 48.8833], [-91.4875, 48.8792], [-91.4813, 48.8792]]]}, "properties": {"company_id": "apollo-silver", "jurisdiction": "Ontario", "claim_id": "587465", "claim_name": null, "holder": "(100) Apollo Exploration Inc.", "status": "Active", "recorded_date": "2020-05-06", "anniversary_or_expiry": "2029-05-06", "area_ha": null, "tenure_type": "Single Cell Mining Claim", "source": "Ontario MLAS operational claims (OGSEarth / LIO MapServer). Unofficial viewing data, not legal title.", "as_of": "2026-09-20", "role": "focus", "color": "#e8b040"}}, {"type": "Feature", "geometry": {"type": "Polygon", "coordinates": [[[-91.4875, 48.875], [-91.4875, 48.8792], [-91.4938, 48.8792], [-91.4938, 48.875], [-91.4875, 48.875]]]}, "properties": {"company_id": "apollo-silver", "jurisdiction": "Ontario", "claim_id": "587466", "claim_name": null, "holder": "(100) Apollo Exploration Inc.", "status": "Active", "recorded_date": "2020-05-06", "anniversary_or_expiry": "2029-05-06", "area_ha": null, "tenure_type": "Single Cell Mining Claim", "source": "Ontario MLAS operational claims (OGSEarth / LIO MapServer). Unofficial viewing data, not legal title.", "as_of": "2026-09-20", "role": "focus", "color": "#e8b040"}}, {"type": "Feature", "geometry": {"type": "Polygon", "coordinates": [[[-91.4813, 48.875], [-91.4813, 48.8792], [-91.4875, 48.8792], [-91.4875, 48.875], [-91.4813, 48.875]]]}, "properties": {"company_id": "apollo-silver", "jurisdiction": "Ontario", "claim_id": "587467", "claim_name": null, "holder": "(100) Apollo Exploration Inc.", "status": "Active", "recorded_date": "2020-05-06", "anniversary_or_expiry": "2029-05-06", "area_ha": null, "tenure_type": "Single Cell Mining Claim", "source": "Ontario MLAS operational claims (OGSEarth / LIO MapServer). Unofficial viewing data, not legal title.", "as_of": "2026-09-20", "role": "focus", "color": "#e8b040"}}, {"type": "Feature", "geometry": {"type": "Polygon", "coordinates": [[[-91.4938, 48.8917], [-91.4938, 48.8958], [-91.5, 48.8958], [-91.5, 48.8917], [-91.4938, 48.8917]]]}, "properties": {"company_id": "apollo-silver", "jurisdiction": "Ontario", "claim_id": "587468", "claim_name": null, "holder": "(100) Apollo Exploration Inc.", "status": "Active", "recorded_date": "2020-05-06", "anniversary_or_expiry": "2029-05-06", "area_ha": null, "tenure_type": "Single Cell Mining Claim", "source": "Ontario MLAS operational claims (OGSEarth / LIO MapServer). Unofficial viewing data, not legal title.", "as_of": "2026-09-20", "role": "focus", "color": "#e8b040"}}, {"type": "Feature", "geometry": {"type": "Polygon", "coordinates": [[[-91.4938, 48.8958], [-91.4938, 48.9], [-91.5, 48.9], [-91.5, 48.8958], [-91.4938, 48.8958]]]}, "properties": {"company_id": "apollo-silver", "jurisdiction": "Ontario", "claim_id": "587469", "claim_name": null, "holder": "(100) Apollo Exploration Inc.", "status": "Active", "recorded_date": "2020-05-06", "anniversary_or_expiry": "2029-05-06", "area_ha": null, "tenure_type": "Single Cell Mining Claim", "source": "Ontario MLAS operational claims (OGSEarth / LIO MapServer). Unofficial viewing data, not legal title.", "as_of": "2026-09-20", "role": "focus", "color": "#e8b040"}}, {"type": "Feature", "geometry": {"type": "Polygon", "coordinates": [[[-91.4875, 48.8958], [-91.4875, 48.9], [-91.4938, 48.9], [-91.4938, 48.8958], [-91.4875, 48.8958]]]}, "properties": {"company_id": "apollo-silver", "jurisdiction": "Ontario", "claim_id": "587470", "claim_name": null, "holder": "(100) Apollo Exploration Inc.", "status": "Active", "recorded_date": "2020-05-06", "anniversary_or_expiry": "2029-05-06", "area_ha": null, "tenure_type": "Single Cell Mining Claim", "source": "Ontario MLAS operational claims (OGSEarth / LIO MapServer). Unofficial viewing data, not legal title.", "as_of": "2026-09-20", "role": "focus", "color": "#e8b040"}}, {"type": "Feature", "geometry": {"type": "Polygon", "coordinates": [[[-91.4813, 48.8958], [-91.4813, 48.9], [-91.4875, 48.9], [-91.4875, 48.8958], [-91.4813, 48.8958]]]}, "properties": {"company_id": "apollo-silver", "jurisdiction": "Ontario", "claim_id": "587471", "claim_name": null, "holder": "(100) Apollo Exploration Inc.", "status": "Active", "recorded_date": "2020-05-06", "anniversary_or_expiry": "2029-05-06", "area_ha": null, "tenure_type": "Single Cell Mining Claim", "source": "Ontario MLAS operational claims (OGSEarth / LIO MapServer). Unofficial viewing data, not legal title.", "as_of": "2026-09-20", "role": "focus", "color": "#e8b040"}}, {"type": "Feature", "geometry": {"type": "Polygon", "coordinates": [[[-91.5, 48.8875], [-91.5, 48.8917], [-91.5063, 48.8917], [-91.5063, 48.8875], [-91.5, 48.8875]]]}, "properties": {"company_id": "apollo-silver", "jurisdiction": "Ontario", "claim_id": "587472", "claim_name": null, "holder": "(100) Apollo Exploration Inc.", "status": "Active", "recorded_date": "2020-05-06", "anniversary_or_expiry": "2029-05-06", "area_ha": null, "tenure_type": "Single Cell Mining Claim", "source": "Ontario MLAS operational claims (OGSEarth / LIO MapServer). Unofficial viewing data, not legal title.", "as_of": "2026-09-20", "role": "focus", "color": "#e8b040"}}, {"type": "Feature", "geometry": {"type": "Polygon", "coordinates": [[[-91.4938, 48.8875], [-91.4938, 48.8917], [-91.5, 48.8917], [-91.5, 48.8875], [-91.4938, 48.8875]]]}, "properties": {"company_id": "apollo-silver", "jurisdiction": "Ontario", "claim_id": "587473", "claim_name": null, "holder": "(100) Apollo Exploration Inc.", "status": "Active", "recorded_date": "2020-05-06", "anniversary_or_expiry": "2029-05-06", "area_ha": null, "tenure_type": "Single Cell Mining Claim", "source": "Ontario MLAS operational claims (OGSEarth / LIO MapServer). Unofficial viewing data, not legal title.", "as_of": "2026-09-20", "role": "focus", "color": "#e8b040"}}, {"type": "Feature", "geometry": {"type": "Polygon", "coordinates": [[[-91.4375, 48.9208], [-91.4375, 48.9167], [-91.425, 48.9167], [-91.425, 48.925], [-91.4375, 48.925], [-91.4375, 48.9208]]]}, "properties": {"company_id": "apollo-silver", "jurisdiction": "Ontario", "claim_id": "587474", "claim_name": null, "holder": "(100) Apollo Exploration Inc.", "status": "Active", "recorded_date": "2020-05-06", "anniversary_or_expiry": "2029-05-06", "area_ha": null, "tenure_type": "Multi-cell Mining Claim", "source": "Ontario MLAS operational claims (OGSEarth / LIO MapServer). Unofficial viewing data, not legal title.", "as_of": "2026-09-20", "role": "focus", "color": "#e8b040"}}, {"type": "Feature", "geometry": {"type": "Polygon", "coordinates": [[[-91.5063, 48.8792], [-91.5063, 48.875], [-91.5, 48.875], [-91.5, 48.8708], [-91.4813, 48.8708], [-91.4813, 48.875], [-91.4938, 48.875], [-91.4938, 48.8875], [-91.5063, 48.8875], [-91.5063, 48.8792]]]}, "properties": {"company_id": "apollo-silver", "jurisdiction": "Ontario", "claim_id": "587475", "claim_name": null, "holder": "(100) Apollo Exploration Inc.", "status": "Active", "recorded_date": "2020-05-06", "anniversary_or_expiry": "2029-05-06", "area_ha": null, "tenure_type": "Multi-cell Mining Claim", "source": "Ontario MLAS operational claims (OGSEarth / LIO MapServer). Unofficial viewing data, not legal title.", "as_of": "2026-09-20", "role": "focus", "color": "#e8b040"}}, {"type": "Feature", "geometry": {"type": "Polygon", "coordinates": [[[-91.3938, 48.8833], [-91.3938, 48.8875], [-91.4, 48.8875], [-91.4, 48.8833], [-91.3938, 48.8833]]]}, "properties": {"company_id": "apollo-silver", "jurisdiction": "Ontario", "claim_id": "595312", "claim_name": null, "holder": "(100) Apollo Exploration Inc.", "status": "Active", "recorded_date": "2020-06-10", "anniversary_or_expiry": "2027-06-10", "area_ha": null, "tenure_type": "Single Cell Mining Claim", "source": "Ontario MLAS operational claims (OGSEarth / LIO MapServer). Unofficial viewing data, not legal title.", "as_of": "2026-09-20", "role": "focus", "color": "#e8b040"}}, {"type": "Feature", "geometry": {"type": "Polygon", "coordinates": [[[-91.3938, 48.8792], [-91.3938, 48.8833], [-91.4, 48.8833], [-91.4, 48.8792], [-91.3938, 48.8792]]]}, "properties": {"company_id": "apollo-silver", "jurisdiction": "Ontario", "claim_id": "595314", "claim_name": null, "holder": "(100) Apollo Exploration Inc.", "status": "Active", "recorded_date": "2020-06-10", "anniversary_or_expiry": "2027-06-10", "area_ha": null, "tenure_type": "Single Cell Mining Claim", "source": "Ontario MLAS operational claims (OGSEarth / LIO MapServer). Unofficial viewing data, not legal title.", "as_of": "2026-09-20", "role": "focus", "color": "#e8b040"}}, {"type": "Feature", "geometry": {"type": "Polygon", "coordinates": [[[-91.4313, 48.9958], [-91.4313, 49.0], [-91.4375, 49.0], [-91.4375, 48.9958], [-91.4313, 48.9958]]]}, "properties": {"company_id": "apollo-silver", "jurisdiction": "Ontario", "claim_id": "684496", "claim_name": null, "holder": "(100) Apollo Exploration Inc.", "status": "Active", "recorded_date": "2021-11-10", "anniversary_or_expiry": "2027-11-10", "area_ha": null, "tenure_type": "Single Cell Mining Claim", "source": "Ontario MLAS operational claims (OGSEarth / LIO MapServer). Unofficial viewing data, not legal title.", "as_of": "2026-09-20", "role": "focus", "color": "#e8b040"}}, {"type": "Feature", "geometry": {"type": "Polygon", "coordinates": [[[-91.4188, 49.0], [-91.4188, 49.0042], [-91.425, 49.0042], [-91.425, 49.0], [-91.4188, 49.0]]]}, "properties": {"company_id": "apollo-silver", "jurisdiction": "Ontario", "claim_id": "684498", "claim_name": null, "holder": "(100) Apollo Exploration Inc.", "status": "Active", "recorded_date": "2021-11-10", "anniversary_or_expiry": "2027-11-10", "area_ha": null, "tenure_type": "Single Cell Mining Claim", "source": "Ontario MLAS operational claims (OGSEarth / LIO MapServer). Unofficial viewing data, not legal title.", "as_of": "2026-09-20", "role": "focus", "color": "#e8b040"}}, {"type": "Feature", "geometry": {"type": "Polygon", "coordinates": [[[-91.425, 48.9958], [-91.425, 49.0], [-91.4313, 49.0], [-91.4313, 48.9958], [-91.425, 48.9958]]]}, "properties": {"company_id": "apollo-silver", "jurisdiction": "Ontario", "claim_id": "684499", "claim_name": null, "holder": "(100) Apollo Exploration Inc.", "status": "Active", "recorded_date": "2021-11-10", "anniversary_or_expiry": "2027-11-10", "area_ha": null, "tenure_type": "Single Cell Mining Claim", "source": "Ontario MLAS operational claims (OGSEarth / LIO MapServer). Unofficial viewing data, not legal title.", "as_of": "2026-09-20", "role": "focus", "color": "#e8b040"}}, {"type": "Feature", "geometry": {"type": "Polygon", "coordinates": [[[-91.4188, 49.0042], [-91.4188, 49.0083], [-91.425, 49.0083], [-91.425, 49.0042], [-91.4188, 49.0042]]]}, "properties": {"company_id": "apollo-silver", "jurisdiction": "Ontario", "claim_id": "684500", "claim_name": null, "holder": "(100) Apollo Exploration Inc.", "status": "Active", "recorded_date": "2021-11-10", "anniversary_or_expiry": "2027-11-10", "area_ha": null, "tenure_type": "Single Cell Mining Claim", "source": "Ontario MLAS operational claims (OGSEarth / LIO MapServer). Unofficial viewing data, not legal title.", "as_of": "2026-09-20", "role": "focus", "color": "#e8b040"}}, {"type": "Feature", "geometry": {"type": "Polygon", "coordinates": [[[-91.4125, 48.9917], [-91.4125, 48.9958], [-91.4188, 48.9958], [-91.4188, 48.9917], [-91.4125, 48.9917]]]}, "properties": {"company_id": "apollo-silver", "jurisdiction": "Ontario", "claim_id": "684501", "claim_name": null, "holder": "(100) Apollo Exploration Inc.", "status": "Active", "recorded_date": "2021-11-10", "anniversary_or_expiry": "2027-11-10", "area_ha": null, "tenure_type": "Single Cell Mining Claim", "source": "Ontario MLAS operational claims (OGSEarth / LIO MapServer). Unofficial viewing data, not legal title.", "as_of": "2026-09-20", "role": "focus", "color": "#e8b040"}}, {"type": "Feature", "geometry": {"type": "Polygon", "coordinates": [[[-91.4063, 49.0], [-91.4063, 49.0042], [-91.4125, 49.0042], [-91.4125, 49.0], [-91.4063, 49.0]]]}, "properties": {"company_id": "apollo-silver", "jurisdiction": "Ontario", "claim_id": "684502", "claim_name": null, "holder": "(100) Apollo Exploration Inc.", "status": "Active", "recorded_date": "2021-11-10", "anniversary_or_expiry": "2027-11-10", "area_ha": null, "tenure_type": "Single Cell Mining Claim", "source": "Ontario MLAS operational claims (OGSEarth / LIO MapServer). Unofficial viewing data, not legal title.", "as_of": "2026-09-20", "role": "focus", "color": "#e8b040"}}, {"type": "Feature", "geometry": {"type": "Polygon", "coordinates": [[[-91.4313, 49.0], [-91.4313, 49.0042], [-91.4375, 49.0042], [-91.4375, 49.0], [-91.4313, 49.0]]]}, "properties": {"company_id": "apollo-silver", "jurisdiction": "Ontario", "claim_id": "684504", "claim_name": null, "holder": "(100) Apollo Exploration Inc.", "status": "Active", "recorded_date": "2021-11-10", "anniversary_or_expiry": "2027-11-10", "area_ha": null, "tenure_type": "Single Cell Mining Claim", "source": "Ontario MLAS operational claims (OGSEarth / LIO MapServer). Unofficial viewing data, not legal title.", "as_of": "2026-09-20", "role": "focus", "color": "#e8b040"}}, {"type": "Feature", "geometry": {"type": "Polygon", "coordinates": [[[-91.4188, 49.0083], [-91.4188, 49.0125], [-91.425, 49.0125], [-91.425, 49.0083], [-91.4188, 49.0083]]]}, "properties": {"company_id": "apollo-silver", "jurisdiction": "Ontario", "claim_id": "684505", "claim_name": null, "holder": "(100) Apollo Exploration Inc.", "status": "Active", "recorded_date": "2021-11-10", "anniversary_or_expiry": "2027-11-10", "area_ha": null, "tenure_type": "Single Cell Mining Claim", "source": "Ontario MLAS operational claims (OGSEarth / LIO MapServer). Unofficial viewing data, not legal title.", "as_of": "2026-09-20", "role": "focus", "color": "#e8b040"}}, {"type": "Feature", "geometry": {"type": "Polygon", "coordinates": [[[-91.4125, 49.0083], [-91.4125, 49.0125], [-91.4188, 49.0125], [-91.4188, 49.0083], [-91.4125, 49.0083]]]}, "properties": {"company_id": "apollo-silver", "jurisdiction": "Ontario", "claim_id": "684506", "claim_name": null, "holder": "(100) Apollo Exploration Inc.", "status": "Active", "recorded_date": "2021-11-10", "anniversary_or_expiry": "2027-11-10", "area_ha": null, "tenure_type": "Single Cell Mining Claim", "source": "Ontario MLAS operational claims (OGSEarth / LIO MapServer). Unofficial viewing data, not legal title.", "as_of": "2026-09-20", "role": "focus", "color": "#e8b040"}}, {"type": "Feature", "geometry": {"type": "Polygon", "coordinates": [[[-91.4313, 48.9917], [-91.4313, 48.9958], [-91.4375, 48.9958], [-91.4375, 48.9917], [-91.4313, 48.9917]]]}, "properties": {"company_id": "apollo-silver", "jurisdiction": "Ontario", "claim_id": "684510", "claim_name": null, "holder": "(100) Apollo Exploration Inc.", "status": "Active", "recorded_date": "2021-11-10", "anniversary_or_expiry": "2027-11-10", "area_ha": null, "tenure_type": "Single Cell Mining Claim", "source": "Ontario MLAS operational claims (OGSEarth / LIO MapServer). Unofficial viewing data, not legal title.", "as_of": "2026-09-20", "role": "focus", "color": "#e8b040"}}, {"type": "Feature", "geometry": {"type": "Polygon", "coordinates": [[[-91.425, 49.0], [-91.425, 49.0042], [-91.4313, 49.0042], [-91.4313, 49.0], [-91.425, 49.0]]]}, "properties": {"company_id": "apollo-silver", "jurisdiction": "Ontario", "claim_id": "684511", "claim_name": null, "holder": "(100) Apollo Exploration Inc.", "status": "Active", "recorded_date": "2021-11-10", "anniversary_or_expiry": "2027-11-10", "area_ha": null, "tenure_type": "Single Cell Mining Claim", "source": "Ontario MLAS operational claims (OGSEarth / LIO MapServer). Unofficial viewing data, not legal title.", "as_of": "2026-09-20", "role": "focus", "color": "#e8b040"}}, {"type": "Feature", "geometry": {"type": "Polygon", "coordinates": [[[-91.425, 49.0083], [-91.425, 49.0125], [-91.4313, 49.0125], [-91.4313, 49.0083], [-91.425, 49.0083]]]}, "properties": {"company_id": "apollo-silver", "jurisdiction": "Ontario", "claim_id": "684512", "claim_name": null, "holder": "(100) Apollo Exploration Inc.", "status": "Active", "recorded_date": "2021-11-10", "anniversary_or_expiry": "2027-11-10", "area_ha": null, "tenure_type": "Single Cell Mining Claim", "source": "Ontario MLAS operational claims (OGSEarth / LIO MapServer). Unofficial viewing data, not legal title.", "as_of": "2026-09-20", "role": "focus", "color": "#e8b040"}}, {"type": "Feature", "geometry": {"type": "Polygon", "coordinates": [[[-91.4188, 48.9958], [-91.4188, 49.0], [-91.425, 49.0], [-91.425, 48.9958], [-91.4188, 48.9958]]]}, "properties": {"company_id": "apollo-silver", "jurisdiction": "Ontario", "claim_id": "684513", "claim_name": null, "holder": "(100) Apollo Exploration Inc.", "status": "Active", "recorded_date": "2021-11-10", "anniversary_or_expiry": "2027-11-10", "area_ha": null, "tenure_type": "Single Cell Mining Claim", "source": "Ontario MLAS operational claims (OGSEarth / LIO MapServer). Unofficial viewing data, not legal title.", "as_of": "2026-09-20", "role": "focus", "color": "#e8b040"}}, {"type": "Feature", "geometry": {"type": "Polygon", "coordinates": [[[-91.4125, 48.9958], [-91.4125, 49.0], [-91.4188, 49.0], [-91.4188, 48.9958], [-91.4125, 48.9958]]]}, "properties": {"company_id": "apollo-silver", "jurisdiction": "Ontario", "claim_id": "684514", "claim_name": null, "holder": "(100) Apollo Exploration Inc.", "status": "Active", "recorded_date": "2021-11-10", "anniversary_or_expiry": "2027-11-10", "area_ha": null, "tenure_type": "Single Cell Mining Claim", "source": "Ontario MLAS operational claims (OGSEarth / LIO MapServer). Unofficial viewing data, not legal title.", "as_of": "2026-09-20", "role": "focus", "color": "#e8b040"}}, {"type": "Feature", "geometry": {"type": "Polygon", "coordinates": [[[-91.4125, 49.0], [-91.4125, 49.0042], [-91.4188, 49.0042], [-91.4188, 49.0], [-91.4125, 49.0]]]}, "properties": {"company_id": "apollo-silver", "jurisdiction": "Ontario", "claim_id": "684515", "claim_name": null, "holder": "(100) Apollo Exploration Inc.", "status": "Active", "recorded_date": "2021-11-10", "anniversary_or_expiry": "2027-11-10", "area_ha": null, "tenure_type": "Single Cell Mining Claim", "source": "Ontario MLAS operational claims (OGSEarth / LIO MapServer). Unofficial viewing data, not legal title.", "as_of": "2026-09-20", "role": "focus", "color": "#e8b040"}}, {"type": "Feature", "geometry": {"type": "Polygon", "coordinates": [[[-91.4125, 49.0042], [-91.4125, 49.0083], [-91.4188, 49.0083], [-91.4188, 49.0042], [-91.4125, 49.0042]]]}, "properties": {"company_id": "apollo-silver", "jurisdiction": "Ontario", "claim_id": "684516", "claim_name": null, "holder": "(100) Apollo Exploration Inc.", "status": "Active", "recorded_date": "2021-11-10", "anniversary_or_expiry": "2027-11-10", "area_ha": null, "tenure_type": "Single Cell Mining Claim", "source": "Ontario MLAS operational claims (OGSEarth / LIO MapServer). Unofficial viewing data, not legal title.", "as_of": "2026-09-20", "role": "focus", "color": "#e8b040"}}, {"type": "Feature", "geometry": {"type": "Polygon", "coordinates": [[[-91.4063, 49.0042], [-91.4063, 49.0083], [-91.4125, 49.0083], [-91.4125, 49.0042], [-91.4063, 49.0042]]]}, "properties": {"company_id": "apollo-silver", "jurisdiction": "Ontario", "claim_id": "684518", "claim_name": null, "holder": "(100) Apollo Exploration Inc.", "status": "Active", "recorded_date": "2021-11-10", "anniversary_or_expiry": "2027-11-10", "area_ha": null, "tenure_type": "Single Cell Mining Claim", "source": "Ontario MLAS operational claims (OGSEarth / LIO MapServer). Unofficial viewing data, not legal title.", "as_of": "2026-09-20", "role": "focus", "color": "#e8b040"}}, {"type": "Feature", "geometry": {"type": "Polygon", "coordinates": [[[-91.4313, 49.0042], [-91.4313, 49.0083], [-91.4375, 49.0083], [-91.4375, 49.0042], [-91.4313, 49.0042]]]}, "properties": {"company_id": "apollo-silver", "jurisdiction": "Ontario", "claim_id": "684519", "claim_name": null, "holder": "(100) Apollo Exploration Inc.", "status": "Active", "recorded_date": "2021-11-10", "anniversary_or_expiry": "2027-11-10", "area_ha": null, "tenure_type": "Single Cell Mining Claim", "source": "Ontario MLAS operational claims (OGSEarth / LIO MapServer). Unofficial viewing data, not legal title.", "as_of": "2026-09-20", "role": "focus", "color": "#e8b040"}}, {"type": "Feature", "geometry": {"type": "Polygon", "coordinates": [[[-91.425, 48.9917], [-91.425, 48.9958], [-91.4313, 48.9958], [-91.4313, 48.9917], [-91.425, 48.9917]]]}, "properties": {"company_id": "apollo-silver", "jurisdiction": "Ontario", "claim_id": "684520", "claim_name": null, "holder": "(100) Apollo Exploration Inc.", "status": "Active", "recorded_date": "2021-11-10", "anniversary_or_expiry": "2027-11-10", "area_ha": null, "tenure_type": "Single Cell Mining Claim", "source": "Ontario MLAS operational claims (OGSEarth / LIO MapServer). Unofficial viewing data, not legal title.", "as_of": "2026-09-20", "role": "focus", "color": "#e8b040"}}, {"type": "Feature", "geometry": {"type": "Polygon", "coordinates": [[[-91.425, 49.0042], [-91.425, 49.0083], [-91.4313, 49.0083], [-91.4313, 49.0042], [-91.425, 49.0042]]]}, "properties": {"company_id": "apollo-silver", "jurisdiction": "Ontario", "claim_id": "684521", "claim_name": null, "holder": "(100) Apollo Exploration Inc.", "status": "Active", "recorded_date": "2021-11-10", "anniversary_or_expiry": "2027-11-10", "area_ha": null, "tenure_type": "Single Cell Mining Claim", "source": "Ontario MLAS operational claims (OGSEarth / LIO MapServer). Unofficial viewing data, not legal title.", "as_of": "2026-09-20", "role": "focus", "color": "#e8b040"}}, {"type": "Feature", "geometry": {"type": "Polygon", "coordinates": [[[-91.4438, 48.9917], [-91.4438, 48.9958], [-91.45, 48.9958], [-91.45, 48.9917], [-91.4438, 48.9917]]]}, "properties": {"company_id": "apollo-silver", "jurisdiction": "Ontario", "claim_id": "684522", "claim_name": null, "holder": "(100) Apollo Exploration Inc.", "status": "Active", "recorded_date": "2021-11-10", "anniversary_or_expiry": "2027-11-10", "area_ha": null, "tenure_type": "Single Cell Mining Claim", "source": "Ontario MLAS operational claims (OGSEarth / LIO MapServer). Unofficial viewing data, not legal title.", "as_of": "2026-09-20", "role": "focus", "color": "#e8b040"}}, {"type": "Feature", "geometry": {"type": "Polygon", "coordinates": [[[-91.4375, 48.9917], [-91.4375, 48.9958], [-91.4438, 48.9958], [-91.4438, 48.9917], [-91.4375, 48.9917]]]}, "properties": {"company_id": "apollo-silver", "jurisdiction": "Ontario", "claim_id": "684524", "claim_name": null, "holder": "(100) Apollo Exploration Inc.", "status": "Active", "recorded_date": "2021-11-10", "anniversary_or_expiry": "2027-11-10", "area_ha": null, "tenure_type": "Single Cell Mining Claim", "source": "Ontario MLAS operational claims (OGSEarth / LIO MapServer). Unofficial viewing data, not legal title.", "as_of": "2026-09-20", "role": "focus", "color": "#e8b040"}}, {"type": "Feature", "geometry": {"type": "Polygon", "coordinates": [[[-91.4375, 48.9958], [-91.4375, 49.0], [-91.4438, 49.0], [-91.4438, 48.9958], [-91.4375, 48.9958]]]}, "properties": {"company_id": "apollo-silver", "jurisdiction": "Ontario", "claim_id": "684525", "claim_name": null, "holder": "(100) Apollo Exploration Inc.", "status": "Active", "recorded_date": "2021-11-10", "anniversary_or_expiry": "2027-11-10", "area_ha": null, "tenure_type": "Single Cell Mining Claim", "source": "Ontario MLAS operational claims (OGSEarth / LIO MapServer). Unofficial viewing data, not legal title.", "as_of": "2026-09-20", "role": "focus", "color": "#e8b040"}}, {"type": "Feature", "geometry": {"type": "Polygon", "coordinates": [[[-91.4188, 48.9917], [-91.4188, 48.9958], [-91.425, 48.9958], [-91.425, 48.9917], [-91.4188, 48.9917]]]}, "properties": {"company_id": "apollo-silver", "jurisdiction": "Ontario", "claim_id": "684526", "claim_name": null, "holder": "(100) Apollo Exploration Inc.", "status": "Active", "recorded_date": "2021-11-10", "anniversary_or_expiry": "2027-11-10", "area_ha": null, "tenure_type": "Single Cell Mining Claim", "source": "Ontario MLAS operational claims (OGSEarth / LIO MapServer). Unofficial viewing data, not legal title.", "as_of": "2026-09-20", "role": "focus", "color": "#e8b040"}}, {"type": "Feature", "geometry": {"type": "Polygon", "coordinates": [[[-91.4063, 49.0083], [-91.4063, 49.0125], [-91.4125, 49.0125], [-91.4125, 49.0083], [-91.4063, 49.0083]]]}, "properties": {"company_id": "apollo-silver", "jurisdiction": "Ontario", "claim_id": "684527", "claim_name": null, "holder": "(100) Apollo Exploration Inc.", "status": "Active", "recorded_date": "2021-11-10", "anniversary_or_expiry": "2027-11-10", "area_ha": null, "tenure_type": "Single Cell Mining Claim", "source": "Ontario MLAS operational claims (OGSEarth / LIO MapServer). Unofficial viewing data, not legal title.", "as_of": "2026-09-20", "role": "focus", "color": "#e8b040"}}, {"type": "Feature", "geometry": {"type": "Polygon", "coordinates": [[[-91.4063, 49.0125], [-91.4063, 49.0167], [-91.4125, 49.0167], [-91.4125, 49.0125], [-91.4063, 49.0125]]]}, "properties": {"company_id": "apollo-silver", "jurisdiction": "Ontario", "claim_id": "745824", "claim_name": null, "holder": "(100) Apollo Exploration Inc.", "status": "Active", "recorded_date": "2022-09-13", "anniversary_or_expiry": "2027-09-13", "area_ha": null, "tenure_type": "Single Cell Mining Claim", "source": "Ontario MLAS operational claims (OGSEarth / LIO MapServer). Unofficial viewing data, not legal title.", "as_of": "2026-09-20", "role": "focus", "color": "#e8b040"}}, {"type": "Feature", "geometry": {"type": "Polygon", "coordinates": [[[-91.4063, 49.0292], [-91.4063, 49.0333], [-91.4125, 49.0333], [-91.4125, 49.0292], [-91.4063, 49.0292]]]}, "properties": {"company_id": "apollo-silver", "jurisdiction": "Ontario", "claim_id": "745825", "claim_name": null, "holder": "(100) Apollo Exploration Inc.", "status": "Active", "recorded_date": "2022-09-13", "anniversary_or_expiry": "2027-09-13", "area_ha": null, "tenure_type": "Single Cell Mining Claim", "source": "Ontario MLAS operational claims (OGSEarth / LIO MapServer). Unofficial viewing data, not legal title.", "as_of": "2026-09-20", "role": "focus", "color": "#e8b040"}}, {"type": "Feature", "geometry": {"type": "Polygon", "coordinates": [[[-91.4125, 49.0125], [-91.4125, 49.0167], [-91.4188, 49.0167], [-91.4188, 49.0125], [-91.4125, 49.0125]]]}, "properties": {"company_id": "apollo-silver", "jurisdiction": "Ontario", "claim_id": "745827", "claim_name": null, "holder": "(100) Apollo Exploration Inc.", "status": "Active", "recorded_date": "2022-09-13", "anniversary_or_expiry": "2027-09-13", "area_ha": null, "tenure_type": "Single Cell Mining Claim", "source": "Ontario MLAS operational claims (OGSEarth / LIO MapServer). Unofficial viewing data, not legal title.", "as_of": "2026-09-20", "role": "focus", "color": "#e8b040"}}, {"type": "Feature", "geometry": {"type": "Polygon", "coordinates": [[[-91.4125, 49.025], [-91.4125, 49.0292], [-91.4188, 49.0292], [-91.4188, 49.025], [-91.4125, 49.025]]]}, "properties": {"company_id": "apollo-silver", "jurisdiction": "Ontario", "claim_id": "745828", "claim_name": null, "holder": "(100) Apollo Exploration Inc.", "status": "Active", "recorded_date": "2022-09-13", "anniversary_or_expiry": "2027-09-13", "area_ha": null, "tenure_type": "Single Cell Mining Claim", "source": "Ontario MLAS operational claims (OGSEarth / LIO MapServer). Unofficial viewing data, not legal title.", "as_of": "2026-09-20", "role": "focus", "color": "#e8b040"}}, {"type": "Feature", "geometry": {"type": "Polygon", "coordinates": [[[-91.4063, 49.0167], [-91.4063, 49.0208], [-91.4125, 49.0208], [-91.4125, 49.0167], [-91.4063, 49.0167]]]}, "properties": {"company_id": "apollo-silver", "jurisdiction": "Ontario", "claim_id": "745829", "claim_name": null, "holder": "(100) Apollo Exploration Inc.", "status": "Active", "recorded_date": "2022-09-13", "anniversary_or_expiry": "2027-09-13", "area_ha": null, "tenure_type": "Single Cell Mining Claim", "source": "Ontario MLAS operational claims (OGSEarth / LIO MapServer). Unofficial viewing data, not legal title.", "as_of": "2026-09-20", "role": "focus", "color": "#e8b040"}}, {"type": "Feature", "geometry": {"type": "Polygon", "coordinates": [[[-91.4125, 49.0292], [-91.4125, 49.0333], [-91.4188, 49.0333], [-91.4188, 49.0292], [-91.4125, 49.0292]]]}, "properties": {"company_id": "apollo-silver", "jurisdiction": "Ontario", "claim_id": "745833", "claim_name": null, "holder": "(100) Apollo Exploration Inc.", "status": "Active", "recorded_date": "2022-09-13", "anniversary_or_expiry": "2027-09-13", "area_ha": null, "tenure_type": "Single Cell Mining Claim", "source": "Ontario MLAS operational claims (OGSEarth / LIO MapServer). Unofficial viewing data, not legal title.", "as_of": "2026-09-20", "role": "focus", "color": "#e8b040"}}, {"type": "Feature", "geometry": {"type": "Polygon", "coordinates": [[[-91.4, 49.0375], [-91.4, 49.0417], [-91.4063, 49.0417], [-91.4063, 49.0375], [-91.4, 49.0375]]]}, "properties": {"company_id": "apollo-silver", "jurisdiction": "Ontario", "claim_id": "745834", "claim_name": null, "holder": "(100) Apollo Exploration Inc.", "status": "Active", "recorded_date": "2022-09-13", "anniversary_or_expiry": "2027-09-13", "area_ha": null, "tenure_type": "Single Cell Mining Claim", "source": "Ontario MLAS operational claims (OGSEarth / LIO MapServer). Unofficial viewing data, not legal title.", "as_of": "2026-09-20", "role": "focus", "color": "#e8b040"}}, {"type": "Feature", "geometry": {"type": "Polygon", "coordinates": [[[-91.4188, 49.0167], [-91.4188, 49.0208], [-91.425, 49.0208], [-91.425, 49.0167], [-91.4188, 49.0167]]]}, "properties": {"company_id": "apollo-silver", "jurisdiction": "Ontario", "claim_id": "745836", "claim_name": null, "holder": "(100) Apollo Exploration Inc.", "status": "Active", "recorded_date": "2022-09-13", "anniversary_or_expiry": "2027-09-13", "area_ha": null, "tenure_type": "Single Cell Mining Claim", "source": "Ontario MLAS operational claims (OGSEarth / LIO MapServer). Unofficial viewing data, not legal title.", "as_of": "2026-09-20", "role": "focus", "color": "#e8b040"}}, {"type": "Feature", "geometry": {"type": "Polygon", "coordinates": [[[-91.4063, 49.025], [-91.4063, 49.0292], [-91.4125, 49.0292], [-91.4125, 49.025], [-91.4063, 49.025]]]}, "properties": {"company_id": "apollo-silver", "jurisdiction": "Ontario", "claim_id": "745837", "claim_name": null, "holder": "(100) Apollo Exploration Inc.", "status": "Active", "recorded_date": "2022-09-13", "anniversary_or_expiry": "2027-09-13", "area_ha": null, "tenure_type": "Single Cell Mining Claim", "source": "Ontario MLAS operational claims (OGSEarth / LIO MapServer). Unofficial viewing data, not legal title.", "as_of": "2026-09-20", "role": "focus", "color": "#e8b040"}}, {"type": "Feature", "geometry": {"type": "Polygon", "coordinates": [[[-91.4188, 49.0125], [-91.4188, 49.0167], [-91.425, 49.0167], [-91.425, 49.0125], [-91.4188, 49.0125]]]}, "properties": {"company_id": "apollo-silver", "jurisdiction": "Ontario", "claim_id": "745838", "claim_name": null, "holder": "(100) Apollo Exploration Inc.", "status": "Active", "recorded_date": "2022-09-13", "anniversary_or_expiry": "2027-09-13", "area_ha": null, "tenure_type": "Single Cell Mining Claim", "source": "Ontario MLAS operational claims (OGSEarth / LIO MapServer). Unofficial viewing data, not legal title.", "as_of": "2026-09-20", "role": "focus", "color": "#e8b040"}}, {"type": "Feature", "geometry": {"type": "Polygon", "coordinates": [[[-91.4125, 49.0167], [-91.4125, 49.0208], [-91.4188, 49.0208], [-91.4188, 49.0167], [-91.4125, 49.0167]]]}, "properties": {"company_id": "apollo-silver", "jurisdiction": "Ontario", "claim_id": "745839", "claim_name": null, "holder": "(100) Apollo Exploration Inc.", "status": "Active", "recorded_date": "2022-09-13", "anniversary_or_expiry": "2027-09-13", "area_ha": null, "tenure_type": "Single Cell Mining Claim", "source": "Ontario MLAS operational claims (OGSEarth / LIO MapServer). Unofficial viewing data, not legal title.", "as_of": "2026-09-20", "role": "focus", "color": "#e8b040"}}, {"type": "Feature", "geometry": {"type": "Polygon", "coordinates": [[[-91.4063, 49.0333], [-91.4063, 49.0375], [-91.4125, 49.0375], [-91.4125, 49.0333], [-91.4063, 49.0333]]]}, "properties": {"company_id": "apollo-silver", "jurisdiction": "Ontario", "claim_id": "745840", "claim_name": null, "holder": "(100) Apollo Exploration Inc.", "status": "Active", "recorded_date": "2022-09-13", "anniversary_or_expiry": "2027-09-13", "area_ha": null, "tenure_type": "Single Cell Mining Claim", "source": "Ontario MLAS operational claims (OGSEarth / LIO MapServer). Unofficial viewing data, not legal title.", "as_of": "2026-09-20", "role": "focus", "color": "#e8b040"}}, {"type": "Feature", "geometry": {"type": "Polygon", "coordinates": [[[-91.4063, 49.0375], [-91.4063, 49.0417], [-91.4125, 49.0417], [-91.4125, 49.0375], [-91.4063, 49.0375]]]}, "properties": {"company_id": "apollo-silver", "jurisdiction": "Ontario", "claim_id": "745841", "claim_name": null, "holder": "(100) Apollo Exploration Inc.", "status": "Active", "recorded_date": "2022-09-13", "anniversary_or_expiry": "2027-09-13", "area_ha": null, "tenure_type": "Single Cell Mining Claim", "source": "Ontario MLAS operational claims (OGSEarth / LIO MapServer). Unofficial viewing data, not legal title.", "as_of": "2026-09-20", "role": "focus", "color": "#e8b040"}}, {"type": "Feature", "geometry": {"type": "Polygon", "coordinates": [[[-91.425, 49.0125], [-91.425, 49.0167], [-91.4313, 49.0167], [-91.4313, 49.0125], [-91.425, 49.0125]]]}, "properties": {"company_id": "apollo-silver", "jurisdiction": "Ontario", "claim_id": "745842", "claim_name": null, "holder": "(100) Apollo Exploration Inc.", "status": "Active", "recorded_date": "2022-09-13", "anniversary_or_expiry": "2027-09-13", "area_ha": null, "tenure_type": "Single Cell Mining Claim", "source": "Ontario MLAS operational claims (OGSEarth / LIO MapServer). Unofficial viewing data, not legal title.", "as_of": "2026-09-20", "role": "focus", "color": "#e8b040"}}, {"type": "Feature", "geometry": {"type": "Polygon", "coordinates": [[[-91.4188, 49.0208], [-91.4188, 49.025], [-91.425, 49.025], [-91.425, 49.0208], [-91.4188, 49.0208]]]}, "properties": {"company_id": "apollo-silver", "jurisdiction": "Ontario", "claim_id": "745843", "claim_name": null, "holder": "(100) Apollo Exploration Inc.", "status": "Active", "recorded_date": "2022-09-13", "anniversary_or_expiry": "2027-09-13", "area_ha": null, "tenure_type": "Single Cell Mining Claim", "source": "Ontario MLAS operational claims (OGSEarth / LIO MapServer). Unofficial viewing data, not legal title.", "as_of": "2026-09-20", "role": "focus", "color": "#e8b040"}}, {"type": "Feature", "geometry": {"type": "Polygon", "coordinates": [[[-91.4, 49.0333], [-91.4, 49.0375], [-91.4063, 49.0375], [-91.4063, 49.0333], [-91.4, 49.0333]]]}, "properties": {"company_id": "apollo-silver", "jurisdiction": "Ontario", "claim_id": "745844", "claim_name": null, "holder": "(100) Apollo Exploration Inc.", "status": "Active", "recorded_date": "2022-09-13", "anniversary_or_expiry": "2027-09-13", "area_ha": null, "tenure_type": "Single Cell Mining Claim", "source": "Ontario MLAS operational claims (OGSEarth / LIO MapServer). Unofficial viewing data, not legal title.", "as_of": "2026-09-20", "role": "focus", "color": "#e8b040"}}, {"type": "Feature", "geometry": {"type": "Polygon", "coordinates": [[[-91.4125, 49.0208], [-91.4125, 49.025], [-91.4188, 49.025], [-91.4188, 49.0208], [-91.4125, 49.0208]]]}, "properties": {"company_id": "apollo-silver", "jurisdiction": "Ontario", "claim_id": "745845", "claim_name": null, "holder": "(100) Apollo Exploration Inc.", "status": "Active", "recorded_date": "2022-09-13", "anniversary_or_expiry": "2027-09-13", "area_ha": null, "tenure_type": "Single Cell Mining Claim", "source": "Ontario MLAS operational claims (OGSEarth / LIO MapServer). Unofficial viewing data, not legal title.", "as_of": "2026-09-20", "role": "focus", "color": "#e8b040"}}, {"type": "Feature", "geometry": {"type": "Polygon", "coordinates": [[[-91.4063, 49.0208], [-91.4063, 49.025], [-91.4125, 49.025], [-91.4125, 49.0208], [-91.4063, 49.0208]]]}, "properties": {"company_id": "apollo-silver", "jurisdiction": "Ontario", "claim_id": "745847", "claim_name": null, "holder": "(100) Apollo Exploration Inc.", "status": "Active", "recorded_date": "2022-09-13", "anniversary_or_expiry": "2027-09-13", "area_ha": null, "tenure_type": "Single Cell Mining Claim", "source": "Ontario MLAS operational claims (OGSEarth / LIO MapServer). Unofficial viewing data, not legal title.", "as_of": "2026-09-20", "role": "focus", "color": "#e8b040"}}]}