{"type": "FeatureCollection", "features": [{"type": "Feature", "geometry": {"type": "Polygon", "coordinates": [[[-78.15000000243842, 48.05833333602341], [-78.14999999124869, 48.06666666870414], [-78.14166665928808, 48.06666666987871], [-78.14166666257023, 48.05833333955893], [-78.15000000243842, 48.05833333602341]]]}, "properties": {"company_id": "apollo-silver", "jurisdiction": "Quebec", "claim_id": "", "claim_name": null, "holder": "Apollo Exploration inc.", "status": "Active", "recorded_date": null, "anniversary_or_expiry": null, "area_ha": null, "tenure_type": null, "source": "GESTIM active titles (MRNF digital data dump). Not legal title.", "as_of": "2026-09-20", "role": "focus", "color": "#e8b040"}}, {"type": "Feature", "geometry": {"type": "Polygon", "coordinates": [[[-78.15833333033778, 48.06666666488421], [-78.15833333126638, 48.07500000026824], [-78.14999999992556, 48.07500000172175], [-78.14999999124869, 48.06666666870414], [-78.15833333033778, 48.06666666488421]]]}, "properties": {"company_id": "apollo-silver", "jurisdiction": "Quebec", "claim_id": "", "claim_name": null, "holder": "Apollo Exploration inc.", "status": "Active", "recorded_date": null, "anniversary_or_expiry": null, "area_ha": null, "tenure_type": null, "source": "GESTIM active titles (MRNF digital data dump). Not legal title.", "as_of": "2026-09-20", "role": "focus", "color": "#e8b040"}}, {"type": "Feature", "geometry": {"type": "Polygon", "coordinates": [[[-78.14999999124869, 48.06666666870414], [-78.14999999992556, 48.07500000172175], [-78.14166666228923, 48.075000000216185], [-78.14166665928808, 48.06666666987871], [-78.14999999124869, 48.06666666870414]]]}, "properties": {"company_id": "apollo-silver", "jurisdiction": "Quebec", "claim_id": "", "claim_name": null, "holder": "Apollo Exploration inc.", "status": "Active", "recorded_date": null, "anniversary_or_expiry": null, "area_ha": null, "tenure_type": null, "source": "GESTIM active titles (MRNF digital data dump). Not legal title.", "as_of": "2026-09-20", "role": "focus", "color": "#e8b040"}}, {"type": "Feature", "geometry": {"type": "Polygon", "coordinates": [[[-78.15833333126638, 48.07500000026824], [-78.15833332543427, 48.083333335311416], [-78.15000000166692, 48.08333333441118], [-78.14999999992556, 48.07500000172175], [-78.15833333126638, 48.07500000026824]]]}, "properties": {"company_id": "apollo-silver", "jurisdiction": "Quebec", "claim_id": "", "claim_name": null, "holder": "Apollo Exploration inc.", "status": "Active", "recorded_date": null, "anniversary_or_expiry": null, "area_ha": null, "tenure_type": null, "source": "GESTIM active titles (MRNF digital data dump). Not legal title.", "as_of": "2026-09-20", "role": "focus", "color": "#e8b040"}}, {"type": "Feature", "geometry": {"type": "Polygon", "coordinates": [[[-78.14999999992556, 48.07500000172175], [-78.15000000166692, 48.08333333441118], [-78.1416666576775, 48.083333339223884], [-78.14166666228923, 48.075000000216185], [-78.14999999992556, 48.07500000172175]]]}, "properties": {"company_id": "apollo-silver", "jurisdiction": "Quebec", "claim_id": "", "claim_name": null, "holder": "Apollo Exploration inc.", "status": "Active", "recorded_date": null, "anniversary_or_expiry": null, "area_ha": null, "tenure_type": null, "source": "GESTIM active titles (MRNF digital data dump). Not legal title.", "as_of": "2026-09-20", "role": "focus", "color": "#e8b040"}}, {"type": "Feature", "geometry": {"type": "Polygon", "coordinates": [[[-78.16666666972753, 48.083333333943585], [-78.16666666314202, 48.091666671338594], [-78.15833332626072, 48.09166667034613], [-78.15833332543427, 48.083333335311416], [-78.16666666972753, 48.083333333943585]]]}, "properties": {"company_id": "apollo-silver", "jurisdiction": "Quebec", "claim_id": "", "claim_name": null, "holder": "Apollo Exploration inc.", "status": "Active", "recorded_date": null, "anniversary_or_expiry": null, "area_ha": null, "tenure_type": null, "source": "GESTIM active titles (MRNF digital data dump). Not legal title.", "as_of": "2026-09-20", "role": "focus", "color": "#e8b040"}}, {"type": "Feature", "geometry": {"type": "Polygon", "coordinates": [[[-78.15833332543427, 48.083333335311416], [-78.15833332626072, 48.09166667034613], [-78.14999999647908, 48.09166666677288], [-78.15000000166692, 48.08333333441118], [-78.15833332543427, 48.083333335311416]]]}, "properties": {"company_id": "apollo-silver", "jurisdiction": "Quebec", "claim_id": "", "claim_name": null, "holder": "Apollo Exploration inc.", "status": "Active", "recorded_date": null, "anniversary_or_expiry": null, "area_ha": null, "tenure_type": null, "source": "GESTIM active titles (MRNF digital data dump). Not legal title.", "as_of": "2026-09-20", "role": "focus", "color": "#e8b040"}}, {"type": "Feature", "geometry": {"type": "Polygon", "coordinates": [[[-78.15000000166692, 48.08333333441118], [-78.14999999647908, 48.09166666677288], [-78.1416666598682, 48.09166666926442], [-78.1416666576775, 48.083333339223884], [-78.15000000166692, 48.08333333441118]]]}, "properties": {"company_id": "apollo-silver", "jurisdiction": "Quebec", "claim_id": "", "claim_name": null, "holder": "Apollo Exploration inc.", "status": "Active", "recorded_date": null, "anniversary_or_expiry": null, "area_ha": null, "tenure_type": null, "source": "GESTIM active titles (MRNF digital data dump). Not legal title.", "as_of": "2026-09-20", "role": "focus", "color": "#e8b040"}}, {"type": "Feature", "geometry": {"type": "Polygon", "coordinates": [[[-78.13333333181373, 48.05000000348887], [-78.13333332982857, 48.05833334042274], [-78.12499999079198, 48.058333338272895], [-78.12499999813149, 48.05000000400934], [-78.13333333181373, 48.05000000348887]]]}, "properties": {"company_id": "apollo-silver", "jurisdiction": "Quebec", "claim_id": "", "claim_name": null, "holder": "Apollo Exploration inc.", "status": "Active", "recorded_date": null, "anniversary_or_expiry": null, "area_ha": null, "tenure_type": null, "source": "GESTIM active titles (MRNF digital data dump). Not legal title.", "as_of": "2026-09-20", "role": "focus", "color": "#e8b040"}}, {"type": "Feature", "geometry": {"type": "Polygon", "coordinates": [[[-78.14166666257023, 48.05833333955893], [-78.14166665928808, 48.06666666987871], [-78.13333333443835, 48.06666666840159], [-78.13333332982857, 48.05833334042274], [-78.14166666257023, 48.05833333955893]]]}, "properties": {"company_id": "apollo-silver", "jurisdiction": "Quebec", "claim_id": "", "claim_name": null, "holder": "Apollo Exploration inc.", "status": "Active", "recorded_date": null, "anniversary_or_expiry": null, "area_ha": null, "tenure_type": null, "source": "GESTIM active titles (MRNF digital data dump). Not legal title.", "as_of": "2026-09-20", "role": "focus", "color": "#e8b040"}}, {"type": "Feature", "geometry": {"type": "Polygon", "coordinates": [[[-78.14166665928808, 48.06666666987871], [-78.14166666228923, 48.075000000216185], [-78.1333333312487, 48.075000005062805], [-78.13333333443835, 48.06666666840159], [-78.14166665928808, 48.06666666987871]]]}, "properties": {"company_id": "apollo-silver", "jurisdiction": "Quebec", "claim_id": "", "claim_name": null, "holder": "Apollo Exploration inc.", "status": "Active", "recorded_date": null, "anniversary_or_expiry": null, "area_ha": null, "tenure_type": null, "source": "GESTIM active titles (MRNF digital data dump). Not legal title.", "as_of": "2026-09-20", "role": "focus", "color": "#e8b040"}}, {"type": "Feature", "geometry": {"type": "Polygon", "coordinates": [[[-78.14166666228923, 48.075000000216185], [-78.1416666576775, 48.083333339223884], [-78.1333333346752, 48.083333332769996], [-78.1333333312487, 48.075000005062805], [-78.14166666228923, 48.075000000216185]]]}, "properties": {"company_id": "apollo-silver", "jurisdiction": "Quebec", "claim_id": "", "claim_name": null, "holder": "Apollo Exploration inc.", "status": "Active", "recorded_date": null, "anniversary_or_expiry": null, "area_ha": null, "tenure_type": null, "source": "GESTIM active titles (MRNF digital data dump). Not legal title.", "as_of": "2026-09-20", "role": "focus", "color": "#e8b040"}}, {"type": "Feature", "geometry": {"type": "Polygon", "coordinates": [[[-78.1333333312487, 48.075000005062805], [-78.1333333346752, 48.083333332769996], [-78.12499999141296, 48.08333333201042], [-78.12499999387478, 48.075000006933635], [-78.1333333312487, 48.075000005062805]]]}, "properties": {"company_id": "apollo-silver", "jurisdiction": "Quebec", "claim_id": "", "claim_name": null, "holder": "Apollo Exploration inc.", "status": "Active", "recorded_date": null, "anniversary_or_expiry": null, "area_ha": null, "tenure_type": null, "source": "GESTIM active titles (MRNF digital data dump). Not legal title.", "as_of": "2026-09-20", "role": "focus", "color": "#e8b040"}}, {"type": "Feature", "geometry": {"type": "Polygon", "coordinates": [[[-78.11666666355802, 48.07500000615614], [-78.11666666809998, 48.0833333379431], [-78.10833332549147, 48.08333333157993], [-78.10833332687281, 48.07500000238626], [-78.11666666355802, 48.07500000615614]]]}, "properties": {"company_id": "apollo-silver", "jurisdiction": "Quebec", "claim_id": "", "claim_name": null, "holder": "Apollo Exploration inc.", "status": "Active", "recorded_date": null, "anniversary_or_expiry": null, "area_ha": null, "tenure_type": null, "source": "GESTIM active titles (MRNF digital data dump). Not legal title.", "as_of": "2026-09-20", "role": "focus", "color": "#e8b040"}}, {"type": "Feature", "geometry": {"type": "Polygon", "coordinates": [[[-78.10833332687281, 48.07500000238626], [-78.10833332549147, 48.08333333157993], [-78.10000000279375, 48.08333333189607], [-78.0999999967042, 48.07500000493885], [-78.10833332687281, 48.07500000238626]]]}, "properties": {"company_id": "apollo-silver", "jurisdiction": "Quebec", "claim_id": "", "claim_name": null, "holder": "Apollo Exploration inc.", "status": "Active", "recorded_date": null, "anniversary_or_expiry": null, "area_ha": null, "tenure_type": null, "source": "GESTIM active titles (MRNF digital data dump). Not legal title.", "as_of": "2026-09-20", "role": "focus", "color": "#e8b040"}}, {"type": "Feature", "geometry": {"type": "Polygon", "coordinates": [[[-78.1416666576775, 48.083333339223884], [-78.1416666598682, 48.09166666926442], [-78.13333333031859, 48.09166666916048], [-78.1333333346752, 48.083333332769996], [-78.1416666576775, 48.083333339223884]]]}, "properties": {"company_id": "apollo-silver", "jurisdiction": "Quebec", "claim_id": "", "claim_name": null, "holder": "Apollo Exploration inc.", "status": "Active", "recorded_date": null, "anniversary_or_expiry": null, "area_ha": null, "tenure_type": null, "source": "GESTIM active titles (MRNF digital data dump). Not legal title.", "as_of": "2026-09-20", "role": "focus", "color": "#e8b040"}}, {"type": "Feature", "geometry": {"type": "Polygon", "coordinates": [[[-78.1333333346752, 48.083333332769996], [-78.13333333031859, 48.09166666916048], [-78.12499999439993, 48.09166666611891], [-78.12499999141296, 48.08333333201042], [-78.1333333346752, 48.083333332769996]]]}, "properties": {"company_id": "apollo-silver", "jurisdiction": "Quebec", "claim_id": "", "claim_name": null, "holder": "Apollo Exploration inc.", "status": "Active", "recorded_date": null, "anniversary_or_expiry": null, "area_ha": null, "tenure_type": null, "source": "GESTIM active titles (MRNF digital data dump). Not legal title.", "as_of": "2026-09-20", "role": "focus", "color": "#e8b040"}}, {"type": "Feature", "geometry": {"type": "Polygon", "coordinates": [[[-78.12499999141296, 48.08333333201042], [-78.12499999439993, 48.09166666611891], [-78.11666666500432, 48.09166666945292], [-78.11666666809998, 48.0833333379431], [-78.12499999141296, 48.08333333201042]]]}, "properties": {"company_id": "apollo-silver", "jurisdiction": "Quebec", "claim_id": "", "claim_name": null, "holder": "Apollo Exploration inc.", "status": "Active", "recorded_date": null, "anniversary_or_expiry": null, "area_ha": null, "tenure_type": null, "source": "GESTIM active titles (MRNF digital data dump). Not legal title.", "as_of": "2026-09-20", "role": "focus", "color": "#e8b040"}}, {"type": "Feature", "geometry": {"type": "Polygon", "coordinates": [[[-78.11666666809998, 48.0833333379431], [-78.11666666500432, 48.09166666945292], [-78.10833332920143, 48.091666669832506], [-78.10833332549147, 48.08333333157993], [-78.11666666809998, 48.0833333379431]]]}, "properties": {"company_id": "apollo-silver", "jurisdiction": "Quebec", "claim_id": "", "claim_name": null, "holder": "Apollo Exploration inc.", "status": "Active", "recorded_date": null, "anniversary_or_expiry": null, "area_ha": null, "tenure_type": null, "source": "GESTIM active titles (MRNF digital data dump). Not legal title.", "as_of": "2026-09-20", "role": "focus", "color": "#e8b040"}}, {"type": "Feature", "geometry": {"type": "Polygon", "coordinates": [[[-78.10833332549147, 48.08333333157993], [-78.10833332920143, 48.091666669832506], [-78.10000000038598, 48.09166666758715], [-78.10000000279375, 48.08333333189607], [-78.10833332549147, 48.08333333157993]]]}, "properties": {"company_id": "apollo-silver", "jurisdiction": "Quebec", "claim_id": "", "claim_name": null, "holder": "Apollo Exploration inc.", "status": "Active", "recorded_date": null, "anniversary_or_expiry": null, "area_ha": null, "tenure_type": null, "source": "GESTIM active titles (MRNF digital data dump). Not legal title.", "as_of": "2026-09-20", "role": "focus", "color": "#e8b040"}}, {"type": "Feature", "geometry": {"type": "Polygon", "coordinates": [[[-78.10833332920143, 48.091666669832506], [-78.10833332560891, 48.09999999883556], [-78.0999999899921, 48.100000003026935], [-78.10000000038598, 48.09166666758715], [-78.10833332920143, 48.091666669832506]]]}, "properties": {"company_id": "apollo-silver", "jurisdiction": "Quebec", "claim_id": "", "claim_name": null, "holder": "Apollo Exploration inc.", "status": "Active", "recorded_date": null, "anniversary_or_expiry": null, "area_ha": null, "tenure_type": null, "source": "GESTIM active titles (MRNF digital data dump). Not legal title.", "as_of": "2026-09-20", "role": "focus", "color": "#e8b040"}}, {"type": "Feature", "geometry": {"type": "Polygon", "coordinates": [[[-78.09166666462089, 48.09166667135607], [-78.09166666132616, 48.100000004604986], [-78.08333332617903, 48.10000000322243], [-78.0833333223928, 48.09166667214438], [-78.09166666462089, 48.09166667135607]]]}, "properties": {"company_id": "apollo-silver", "jurisdiction": "Quebec", "claim_id": "", "claim_name": null, "holder": "Apollo Exploration inc.", "status": "Active", "recorded_date": null, "anniversary_or_expiry": null, "area_ha": null, "tenure_type": null, "source": "GESTIM active titles (MRNF digital data dump). Not legal title.", "as_of": "2026-09-20", "role": "focus", "color": "#e8b040"}}, {"type": "Feature", "geometry": {"type": "Polygon", "coordinates": [[[-78.0833333223928, 48.09166667214438], [-78.08333332617903, 48.10000000322243], [-78.07499999794722, 48.09999999921166], [-78.0750000005081, 48.09166667062599], [-78.0833333223928, 48.09166667214438]]]}, "properties": {"company_id": "apollo-silver", "jurisdiction": "Quebec", "claim_id": "", "claim_name": null, "holder": "Apollo Exploration inc.", "status": "Active", "recorded_date": null, "anniversary_or_expiry": null, "area_ha": null, "tenure_type": null, "source": "GESTIM active titles (MRNF digital data dump). Not legal title.", "as_of": "2026-09-20", "role": "focus", "color": "#e8b040"}}, {"type": "Feature", "geometry": {"type": "Polygon", "coordinates": [[[-78.0750000005081, 48.09166667062599], [-78.07499999794722, 48.09999999921166], [-78.0666666626872, 48.100000001208656], [-78.06666667072378, 48.09784175983654], [-78.0666666587131, 48.09166666576937], [-78.0750000005081, 48.09166667062599]]]}, "properties": {"company_id": "apollo-silver", "jurisdiction": "Quebec", "claim_id": "", "claim_name": null, "holder": "Apollo Exploration inc.", "status": "Active", "recorded_date": null, "anniversary_or_expiry": null, "area_ha": null, "tenure_type": null, "source": "GESTIM active titles (MRNF digital data dump). Not legal title.", "as_of": "2026-09-20", "role": "focus", "color": "#e8b040"}}, {"type": "Feature", "geometry": {"type": "Polygon", "coordinates": [[[-78.14166665921876, 48.04999999993669], [-78.14166666257023, 48.05833333955893], [-78.13333332982857, 48.05833334042274], [-78.13333333181373, 48.05000000348887], [-78.14166665921876, 48.04999999993669]]]}, "properties": {"company_id": "apollo-silver", "jurisdiction": "Quebec", "claim_id": "", "claim_name": null, "holder": "Apollo Exploration inc.", "status": "Active", "recorded_date": null, "anniversary_or_expiry": null, "area_ha": null, "tenure_type": null, "source": "GESTIM active titles (MRNF digital data dump). Not legal title.", "as_of": "2026-09-20", "role": "focus", "color": "#e8b040"}}, {"type": "Feature", "geometry": {"type": "Polygon", "coordinates": [[[-78.12499999387478, 48.075000006933635], [-78.12499999141296, 48.08333333201042], [-78.11666666809998, 48.0833333379431], [-78.11666666355802, 48.07500000615614], [-78.12499999387478, 48.075000006933635]]]}, "properties": {"company_id": "apollo-silver", "jurisdiction": "Quebec", "claim_id": "", "claim_name": null, "holder": "Apollo Exploration inc.", "status": "Active", "recorded_date": null, "anniversary_or_expiry": null, "area_ha": null, "tenure_type": null, "source": "GESTIM active titles (MRNF digital data dump). Not legal title.", "as_of": "2026-09-20", "role": "focus", "color": "#e8b040"}}, {"type": "Feature", "geometry": {"type": "Polygon", "coordinates": [[[-78.17499999383952, 48.08333333830727], [-78.17499999372777, 48.0916666694265], [-78.16666666314202, 48.091666671338594], [-78.16666666972753, 48.083333333943585], [-78.17499999383952, 48.08333333830727]]]}, "properties": {"company_id": "apollo-silver", "jurisdiction": "Quebec", "claim_id": "", "claim_name": null, "holder": "Apollo Exploration inc.", "status": "Active", "recorded_date": null, "anniversary_or_expiry": null, "area_ha": null, "tenure_type": null, "source": "GESTIM active titles (MRNF digital data dump). Not legal title.", "as_of": "2026-09-20", "role": "focus", "color": "#e8b040"}}, {"type": "Feature", "geometry": {"type": "Polygon", "coordinates": [[[-78.10000000038598, 48.09166666758715], [-78.0999999899921, 48.100000003026935], [-78.09166666132616, 48.100000004604986], [-78.09166666462089, 48.09166667135607], [-78.10000000038598, 48.09166666758715]]]}, "properties": {"company_id": "apollo-silver", "jurisdiction": "Quebec", "claim_id": "", "claim_name": null, "holder": "Apollo Exploration inc.", "status": "Active", "recorded_date": null, "anniversary_or_expiry": null, "area_ha": null, "tenure_type": null, "source": "GESTIM active titles (MRNF digital data dump). Not legal title.", "as_of": "2026-09-20", "role": "focus", "color": "#e8b040"}}]}