{"type":"FeatureCollection","name":"artemis-gold-bc","features":[{"type":"Feature","geometry":{"type":"Polygon","coordinates":[[[-125.2005,53.3],[-125.2005,53.2941],[-125.1855,53.2941],[-125.1855,53.3031],[-125.2005,53.3031],[-125.2005,53.3]]]},"properties":{"jurisdiction":"British Columbia","claim_id":238045,"claim_name":"CAP","holder":"BW GOLD LTD.","status":"Mineral","recorded_date":"2749248000","anniversary_or_expiry":"2028-10-16","area_ha":100,"tenure_type":"Mineral","source":"BC MTA Mineral, Placer and Coal Tenure Spatial View (BCGW). Open Government Licence – British Columbia. Not legal title.","as_of":"2026-09-17","role":"focus","color":"#e8b040"}},{"type":"Feature","geometry":{"type":"Polygon","coordinates":[[[-125.1828,53.2957],[-125.1828,53.2707],[-125.1453,53.2707],[-125.1453,53.2999],[-125.1828,53.2999],[-125.1828,53.2957]]]},"properties":{"jurisdiction":"British Columbia","claim_id":512838,"claim_name":null,"holder":"BW GOLD LTD.","status":"Mineral","recorded_date":"2005-05-17","anniversary_or_expiry":"2029-01-30","area_ha":811.88,"tenure_type":"Mineral","source":"BC MTA Mineral, Placer and Coal Tenure Spatial View (BCGW). Open Government Licence – British Columbia. Not legal title.","as_of":"2026-09-17","role":"focus","color":"#e8b040"}},{"type":"Feature","geometry":{"type":"Polygon","coordinates":[[[-124.9078,53.1624],[-124.9078,53.1457],[-124.8953,53.1457],[-124.8953,53.1499],[-124.8891,53.1499],[-124.8891,53.1666],[-124.9078,53.1666],[-124.9078,53.1624]]]},"properties":{"jurisdiction":"British Columbia","claim_id":536650,"claim_name":"NIGHT FLIGHT","holder":"BW GOLD LTD.","status":"Mineral","recorded_date":"2006-07-06","anniversary_or_expiry":"2028-10-16","area_ha":271.42400000000004,"tenure_type":"Mineral","source":"BC MTA Mineral, Placer and Coal Tenure Spatial View (BCGW). Open Government Licence – British Columbia. Not legal title.","as_of":"2026-09-17","role":"focus","color":"#e8b040"}},{"type":"Feature","geometry":{"type":"Polygon","coordinates":[[[-125.0828,53.3374],[-125.0828,53.3291],[-125.0766,53.3291],[-125.0766,53.3249],[-125.0453,53.3249],[-125.0453,53.3207],[-125.0328,53.3207],[-125.0328,53.3291],[-125.0391,53.3291],[-125.0391,53.3332],[-125.0516,53.3332],[-125.0516,53.3374],[-125.0578,53.3374],[-125.0578,53.3416],[-125.0828,53.3416],[-125.0828,53.3374]]]},"properties":{"jurisdiction":"British Columbia","claim_id":534364,"claim_name":"JAG-1","holder":"BW GOLD LTD.","status":"Mineral","recorded_date":"2006-05-24","anniversary_or_expiry":"2029-01-30","area_ha":482.75,"tenure_type":"Mineral","source":"BC MTA Mineral, Placer and Coal Tenure Spatial View (BCGW). Open Government Licence – British Columbia. Not legal title.","as_of":"2026-09-17","role":"focus","color":"#e8b040"}},{"type":"Feature","geometry":{"type":"Polygon","coordinates":[[[-125.0703,53.3207],[-125.0703,53.3166],[-125.0578,53.3166],[-125.0578,53.3124],[-125.0453,53.3124],[-125.0453,53.3082],[-125.0078,53.3082],[-125.0078,53.3124],[-125.0141,53.3124],[-125.0141,53.3166],[-125.0203,53.3166],[-125.0203,53.3207],[-125.0453,53.3207],[-125.0453,53.3249],[-125.0703,53.3249],[-125.0703,53.3207]]]},"properties":{"jurisdiction":"British Columbia","claim_id":534365,"claim_name":"JAG-2","holder":"BW GOLD LTD.","status":"Mineral","recorded_date":"2006-05-24","anniversary_or_expiry":"2029-01-30","area_ha":482.91900000000004,"tenure_type":"Mineral","source":"BC MTA Mineral, Placer and Coal Tenure Spatial View (BCGW). Open Government Licence – British Columbia. Not legal title.","as_of":"2026-09-17","role":"focus","color":"#e8b040"}},{"type":"Feature","geometry":{"type":"Polygon","coordinates":[[[-125.0953,53.3499],[-125.0953,53.3374],[-125.0891,53.3374],[-125.0891,53.3291],[-125.0828,53.3291],[-125.0828,53.3416],[-125.0578,53.3416],[-125.0578,53.3374],[-125.0516,53.3374],[-125.0516,53.3499],[-125.0578,53.3499],[-125.0578,53.3541],[-125.0953,53.3541],[-125.0953,53.3499]]]},"properties":{"jurisdiction":"British Columbia","claim_id":534366,"claim_name":"JAG-3","holder":"BW GOLD LTD.","status":"Mineral","recorded_date":"2006-05-24","anniversary_or_expiry":"2029-01-30","area_ha":482.59700000000004,"tenure_type":"Mineral","source":"BC MTA Mineral, Placer and Coal Tenure Spatial View (BCGW). Open Government Licence – British Columbia. Not legal title.","as_of":"2026-09-17","role":"focus","color":"#e8b040"}},{"type":"Feature","geometry":{"type":"Polygon","coordinates":[[[-125.0516,53.3416],[-125.0516,53.3332],[-125.0391,53.3332],[-125.0391,53.3291],[-125.0328,53.3291],[-125.0328,53.3207],[-125.0203,53.3207],[-125.0203,53.3166],[-125.0141,53.3166],[-125.0141,53.3124],[-125.0078,53.3124],[-125.0078,53.3207],[-125.0141,53.3207],[-125.0141,53.3249],[-125.0266,53.3249],[-125.0266,53.3332],[-125.0328,53.3332],[-125.0328,53.3374],[-125.0391,53.3374],[-125.0391,53.3416],[-125.0453,53.3416],[-125.0453,53.3457],[-125.0516,53.3457],[-125.0516,53.3416]]]},"properties":{"jurisdiction":"British Columbia","claim_id":534367,"claim_name":"JAG-4","holder":"BW GOLD LTD.","status":"Mineral","recorded_date":"2006-05-24","anniversary_or_expiry":"2029-01-30","area_ha":289.666,"tenure_type":"Mineral","source":"BC MTA Mineral, Placer and Coal Tenure Spatial View (BCGW). Open Government Licence – British Columbia. Not legal title.","as_of":"2026-09-17","role":"focus","color":"#e8b040"}}]}