{"type": "FeatureCollection", "features": [{"type": "Feature", "geometry": {"type": "Polygon", "coordinates": [[[-79.7125, 49.4792], [-79.7125, 49.4833], [-79.7188, 49.4833], [-79.7188, 49.4792], [-79.7125, 49.4792]]]}, "properties": {"company_id": "aurelius-minerals", "jurisdiction": "Ontario", "claim_id": "112819", "claim_name": null, "holder": "(100) AURELIUS MINERALS INC.", "status": "Active", "recorded_date": "2018-04-10", "anniversary_or_expiry": "2027-11-17", "area_ha": null, "tenure_type": "Boundary Cell Mining Claim", "source": "Ontario MLAS operational claims (OGSEarth / LIO MapServer). Unofficial viewing data, not legal title.", "as_of": "2026-09-20", "role": "focus", "color": "#e8b040"}}, {"type": "Feature", "geometry": {"type": "Polygon", "coordinates": [[[-79.6813, 49.5], [-79.6813, 49.5042], [-79.6875, 49.5042], [-79.6875, 49.5], [-79.6813, 49.5]]]}, "properties": {"company_id": "aurelius-minerals", "jurisdiction": "Ontario", "claim_id": "112843", "claim_name": null, "holder": "(100) AURELIUS MINERALS INC.", "status": "Active", "recorded_date": "2018-04-10", "anniversary_or_expiry": "2027-11-17", "area_ha": null, "tenure_type": "Boundary Cell Mining Claim", "source": "Ontario MLAS operational claims (OGSEarth / LIO MapServer). Unofficial viewing data, not legal title.", "as_of": "2026-09-20", "role": "focus", "color": "#e8b040"}}, {"type": "Feature", "geometry": {"type": "Polygon", "coordinates": [[[-79.7, 49.4792], [-79.7, 49.4833], [-79.7063, 49.4833], [-79.7063, 49.4792], [-79.7, 49.4792]]]}, "properties": {"company_id": "aurelius-minerals", "jurisdiction": "Ontario", "claim_id": "126189", "claim_name": null, "holder": "(100) AURELIUS MINERALS INC.", "status": "Active", "recorded_date": "2018-04-10", "anniversary_or_expiry": "2027-11-17", "area_ha": null, "tenure_type": "Boundary Cell Mining Claim", "source": "Ontario MLAS operational claims (OGSEarth / LIO MapServer). Unofficial viewing data, not legal title.", "as_of": "2026-09-20", "role": "focus", "color": "#e8b040"}}, {"type": "Feature", "geometry": {"type": "Polygon", "coordinates": [[[-79.6875, 49.4875], [-79.6875, 49.4917], [-79.6938, 49.4917], [-79.6938, 49.4875], [-79.6875, 49.4875]]]}, "properties": {"company_id": "aurelius-minerals", "jurisdiction": "Ontario", "claim_id": "135826", "claim_name": null, "holder": "(100) AURELIUS MINERALS INC.", "status": "Active", "recorded_date": "2018-04-10", "anniversary_or_expiry": "2027-11-15", "area_ha": null, "tenure_type": "Boundary Cell Mining Claim", "source": "Ontario MLAS operational claims (OGSEarth / LIO MapServer). Unofficial viewing data, not legal title.", "as_of": "2026-09-20", "role": "focus", "color": "#e8b040"}}, {"type": "Feature", "geometry": {"type": "Polygon", "coordinates": [[[-79.7375, 49.4917], [-79.7375, 49.4958], [-79.7438, 49.4958], [-79.7438, 49.4917], [-79.7375, 49.4917]]]}, "properties": {"company_id": "aurelius-minerals", "jurisdiction": "Ontario", "claim_id": "137528", "claim_name": null, "holder": "(100) AURELIUS MINERALS INC.", "status": "Active", "recorded_date": "2018-04-10", "anniversary_or_expiry": "2027-03-16", "area_ha": null, "tenure_type": "Single Cell Mining Claim", "source": "Ontario MLAS operational claims (OGSEarth / LIO MapServer). Unofficial viewing data, not legal title.", "as_of": "2026-09-20", "role": "focus", "color": "#e8b040"}}, {"type": "Feature", "geometry": {"type": "Polygon", "coordinates": [[[-79.6938, 49.4833], [-79.6938, 49.4875], [-79.7, 49.4875], [-79.7, 49.4833], [-79.6938, 49.4833]]]}, "properties": {"company_id": "aurelius-minerals", "jurisdiction": "Ontario", "claim_id": "138216", "claim_name": null, "holder": "(100) AURELIUS MINERALS INC.", "status": "Active", "recorded_date": "2018-04-10", "anniversary_or_expiry": "2027-11-17", "area_ha": null, "tenure_type": "Boundary Cell Mining Claim", "source": "Ontario MLAS operational claims (OGSEarth / LIO MapServer). Unofficial viewing data, not legal title.", "as_of": "2026-09-20", "role": "focus", "color": "#e8b040"}}, {"type": "Feature", "geometry": {"type": "Polygon", "coordinates": [[[-79.6813, 49.4875], [-79.6813, 49.4917], [-79.6875, 49.4917], [-79.6875, 49.4875], [-79.6813, 49.4875]]]}, "properties": {"company_id": "aurelius-minerals", "jurisdiction": "Ontario", "claim_id": "141262", "claim_name": null, "holder": "(100) AURELIUS MINERALS INC.", "status": "Active", "recorded_date": "2018-04-10", "anniversary_or_expiry": "2027-11-15", "area_ha": null, "tenure_type": "Boundary Cell Mining Claim", "source": "Ontario MLAS operational claims (OGSEarth / LIO MapServer). Unofficial viewing data, not legal title.", "as_of": "2026-09-20", "role": "focus", "color": "#e8b040"}}, {"type": "Feature", "geometry": {"type": "Polygon", "coordinates": [[[-79.7375, 49.4875], [-79.7375, 49.4917], [-79.7438, 49.4917], [-79.7438, 49.4875], [-79.7375, 49.4875]]]}, "properties": {"company_id": "aurelius-minerals", "jurisdiction": "Ontario", "claim_id": "141958", "claim_name": null, "holder": "(100) AURELIUS MINERALS INC.", "status": "Active", "recorded_date": "2018-04-10", "anniversary_or_expiry": "2027-02-01", "area_ha": null, "tenure_type": "Single Cell Mining Claim", "source": "Ontario MLAS operational claims (OGSEarth / LIO MapServer). Unofficial viewing data, not legal title.", "as_of": "2026-09-20", "role": "focus", "color": "#e8b040"}}, {"type": "Feature", "geometry": {"type": "Polygon", "coordinates": [[[-79.7313, 49.4833], [-79.7313, 49.4875], [-79.7375, 49.4875], [-79.7375, 49.4833], [-79.7313, 49.4833]]]}, "properties": {"company_id": "aurelius-minerals", "jurisdiction": "Ontario", "claim_id": "141959", "claim_name": null, "holder": "(100) AURELIUS MINERALS INC.", "status": "Active", "recorded_date": "2018-04-10", "anniversary_or_expiry": "2027-02-01", "area_ha": null, "tenure_type": "Single Cell Mining Claim", "source": "Ontario MLAS operational claims (OGSEarth / LIO MapServer). Unofficial viewing data, not legal title.", "as_of": "2026-09-20", "role": "focus", "color": "#e8b040"}}, {"type": "Feature", "geometry": {"type": "Polygon", "coordinates": [[[-79.75, 49.4792], [-79.75, 49.4833], [-79.7563, 49.4833], [-79.7563, 49.4792], [-79.75, 49.4792]]]}, "properties": {"company_id": "aurelius-minerals", "jurisdiction": "Ontario", "claim_id": "141960", "claim_name": null, "holder": "(100) AURELIUS MINERALS INC.", "status": "Active", "recorded_date": "2018-04-10", "anniversary_or_expiry": "2027-02-01", "area_ha": null, "tenure_type": "Boundary Cell Mining Claim", "source": "Ontario MLAS operational claims (OGSEarth / LIO MapServer). Unofficial viewing data, not legal title.", "as_of": "2026-09-20", "role": "focus", "color": "#e8b040"}}, {"type": "Feature", "geometry": {"type": "Polygon", "coordinates": [[[-79.7375, 49.475], [-79.7375, 49.4792], [-79.7438, 49.4792], [-79.7438, 49.475], [-79.7375, 49.475]]]}, "properties": {"company_id": "aurelius-minerals", "jurisdiction": "Ontario", "claim_id": "143200", "claim_name": null, "holder": "(100) AURELIUS MINERALS INC.", "status": "Active", "recorded_date": "2018-04-10", "anniversary_or_expiry": "2027-11-17", "area_ha": null, "tenure_type": "Boundary Cell Mining Claim", "source": "Ontario MLAS operational claims (OGSEarth / LIO MapServer). Unofficial viewing data, not legal title.", "as_of": "2026-09-20", "role": "focus", "color": "#e8b040"}}, {"type": "Feature", "geometry": {"type": "Polygon", "coordinates": [[[-79.7063, 49.4792], [-79.7063, 49.4833], [-79.7125, 49.4833], [-79.7125, 49.4792], [-79.7063, 49.4792]]]}, "properties": {"company_id": "aurelius-minerals", "jurisdiction": "Ontario", "claim_id": "144196", "claim_name": null, "holder": "(100) AURELIUS MINERALS INC.", "status": "Active", "recorded_date": "2018-04-10", "anniversary_or_expiry": "2027-11-17", "area_ha": null, "tenure_type": "Boundary Cell Mining Claim", "source": "Ontario MLAS operational claims (OGSEarth / LIO MapServer). Unofficial viewing data, not legal title.", "as_of": "2026-09-20", "role": "focus", "color": "#e8b040"}}, {"type": "Feature", "geometry": {"type": "Polygon", "coordinates": [[[-79.725, 49.4833], [-79.725, 49.4875], [-79.7313, 49.4875], [-79.7313, 49.4833], [-79.725, 49.4833]]]}, "properties": {"company_id": "aurelius-minerals", "jurisdiction": "Ontario", "claim_id": "151114", "claim_name": null, "holder": "(100) AURELIUS MINERALS INC.", "status": "Active", "recorded_date": "2018-04-10", "anniversary_or_expiry": "2027-02-01", "area_ha": null, "tenure_type": "Single Cell Mining Claim", "source": "Ontario MLAS operational claims (OGSEarth / LIO MapServer). Unofficial viewing data, not legal title.", "as_of": "2026-09-20", "role": "focus", "color": "#e8b040"}}, {"type": "Feature", "geometry": {"type": "Polygon", "coordinates": [[[-79.7, 49.5042], [-79.7, 49.5083], [-79.7063, 49.5083], [-79.7063, 49.5042], [-79.7, 49.5042]]]}, "properties": {"company_id": "aurelius-minerals", "jurisdiction": "Ontario", "claim_id": "153970", "claim_name": null, "holder": "(100) AURELIUS MINERALS INC.", "status": "Active", "recorded_date": "2018-04-10", "anniversary_or_expiry": "2027-04-24", "area_ha": null, "tenure_type": "Boundary Cell Mining Claim", "source": "Ontario MLAS operational claims (OGSEarth / LIO MapServer). Unofficial viewing data, not legal title.", "as_of": "2026-09-20", "role": "focus", "color": "#e8b040"}}, {"type": "Feature", "geometry": {"type": "Polygon", "coordinates": [[[-79.725, 49.4958], [-79.725, 49.5], [-79.7313, 49.5], [-79.7313, 49.4958], [-79.725, 49.4958]]]}, "properties": {"company_id": "aurelius-minerals", "jurisdiction": "Ontario", "claim_id": "156044", "claim_name": null, "holder": "(100) AURELIUS MINERALS INC.", "status": "Active", "recorded_date": "2018-04-10", "anniversary_or_expiry": "2027-02-01", "area_ha": null, "tenure_type": "Boundary Cell Mining Claim", "source": "Ontario MLAS operational claims (OGSEarth / LIO MapServer). Unofficial viewing data, not legal title.", "as_of": "2026-09-20", "role": "focus", "color": "#e8b040"}}, {"type": "Feature", "geometry": {"type": "Polygon", "coordinates": [[[-79.7438, 49.4875], [-79.7438, 49.4917], [-79.75, 49.4917], [-79.75, 49.4875], [-79.7438, 49.4875]]]}, "properties": {"company_id": "aurelius-minerals", "jurisdiction": "Ontario", "claim_id": "156045", "claim_name": null, "holder": "(100) AURELIUS MINERALS INC.", "status": "Active", "recorded_date": "2018-04-10", "anniversary_or_expiry": "2027-02-01", "area_ha": null, "tenure_type": "Boundary Cell Mining Claim", "source": "Ontario MLAS operational claims (OGSEarth / LIO MapServer). Unofficial viewing data, not legal title.", "as_of": "2026-09-20", "role": "focus", "color": "#e8b040"}}, {"type": "Feature", "geometry": {"type": "Polygon", "coordinates": [[[-79.6875, 49.4958], [-79.6875, 49.5], [-79.6938, 49.5], [-79.6938, 49.4958], [-79.6875, 49.4958]]]}, "properties": {"company_id": "aurelius-minerals", "jurisdiction": "Ontario", "claim_id": "169295", "claim_name": null, "holder": "(100) AURELIUS MINERALS INC.", "status": "Active", "recorded_date": "2018-04-10", "anniversary_or_expiry": "2027-11-17", "area_ha": null, "tenure_type": "Boundary Cell Mining Claim", "source": "Ontario MLAS operational claims (OGSEarth / LIO MapServer). Unofficial viewing data, not legal title.", "as_of": "2026-09-20", "role": "focus", "color": "#e8b040"}}, {"type": "Feature", "geometry": {"type": "Polygon", "coordinates": [[[-79.6875, 49.4833], [-79.6875, 49.4875], [-79.6938, 49.4875], [-79.6938, 49.4833], [-79.6875, 49.4833]]]}, "properties": {"company_id": "aurelius-minerals", "jurisdiction": "Ontario", "claim_id": "170011", "claim_name": null, "holder": "(100) AURELIUS MINERALS INC.", "status": "Active", "recorded_date": "2018-04-10", "anniversary_or_expiry": "2027-11-15", "area_ha": null, "tenure_type": "Boundary Cell Mining Claim", "source": "Ontario MLAS operational claims (OGSEarth / LIO MapServer). Unofficial viewing data, not legal title.", "as_of": "2026-09-20", "role": "focus", "color": "#e8b040"}}, {"type": "Feature", "geometry": {"type": "Polygon", "coordinates": [[[-79.725, 49.475], [-79.725, 49.4792], [-79.7313, 49.4792], [-79.7313, 49.475], [-79.725, 49.475]]]}, "properties": {"company_id": "aurelius-minerals", "jurisdiction": "Ontario", "claim_id": "171920", "claim_name": null, "holder": "(100) AURELIUS MINERALS INC.", "status": "Active", "recorded_date": "2018-04-10", "anniversary_or_expiry": "2027-11-17", "area_ha": null, "tenure_type": "Boundary Cell Mining Claim", "source": "Ontario MLAS operational claims (OGSEarth / LIO MapServer). Unofficial viewing data, not legal title.", "as_of": "2026-09-20", "role": "focus", "color": "#e8b040"}}, {"type": "Feature", "geometry": {"type": "Polygon", "coordinates": [[[-79.7188, 49.4958], [-79.7188, 49.5], [-79.725, 49.5], [-79.725, 49.4958], [-79.7188, 49.4958]]]}, "properties": {"company_id": "aurelius-minerals", "jurisdiction": "Ontario", "claim_id": "182116", "claim_name": null, "holder": "(100) AURELIUS MINERALS INC.", "status": "Active", "recorded_date": "2018-04-10", "anniversary_or_expiry": "2031-04-24", "area_ha": null, "tenure_type": "Single Cell Mining Claim", "source": "Ontario MLAS operational claims (OGSEarth / LIO MapServer). Unofficial viewing data, not legal title.", "as_of": "2026-09-20", "role": "focus", "color": "#e8b040"}}, {"type": "Feature", "geometry": {"type": "Polygon", "coordinates": [[[-79.7188, 49.4875], [-79.7188, 49.4917], [-79.725, 49.4917], [-79.725, 49.4875], [-79.7188, 49.4875]]]}, "properties": {"company_id": "aurelius-minerals", "jurisdiction": "Ontario", "claim_id": "185722", "claim_name": null, "holder": "(100) AURELIUS MINERALS INC.", "status": "Active", "recorded_date": "2018-04-10", "anniversary_or_expiry": "2031-04-24", "area_ha": null, "tenure_type": "Single Cell Mining Claim", "source": "Ontario MLAS operational claims (OGSEarth / LIO MapServer). Unofficial viewing data, not legal title.", "as_of": "2026-09-20", "role": "focus", "color": "#e8b040"}}, {"type": "Feature", "geometry": {"type": "Polygon", "coordinates": [[[-79.6938, 49.4917], [-79.6938, 49.4958], [-79.7, 49.4958], [-79.7, 49.4917], [-79.6938, 49.4917]]]}, "properties": {"company_id": "aurelius-minerals", "jurisdiction": "Ontario", "claim_id": "190206", "claim_name": null, "holder": "(100) AURELIUS MINERALS INC.", "status": "Active", "recorded_date": "2018-04-10", "anniversary_or_expiry": "2027-11-17", "area_ha": null, "tenure_type": "Single Cell Mining Claim", "source": "Ontario MLAS operational claims (OGSEarth / LIO MapServer). Unofficial viewing data, not legal title.", "as_of": "2026-09-20", "role": "focus", "color": "#e8b040"}}, {"type": "Feature", "geometry": {"type": "Polygon", "coordinates": [[[-79.7063, 49.4875], [-79.7063, 49.4917], [-79.7125, 49.4917], [-79.7125, 49.4875], [-79.7063, 49.4875]]]}, "properties": {"company_id": "aurelius-minerals", "jurisdiction": "Ontario", "claim_id": "190207", "claim_name": null, "holder": "(100) AURELIUS MINERALS INC.", "status": "Active", "recorded_date": "2018-04-10", "anniversary_or_expiry": "2027-04-24", "area_ha": null, "tenure_type": "Single Cell Mining Claim", "source": "Ontario MLAS operational claims (OGSEarth / LIO MapServer). Unofficial viewing data, not legal title.", "as_of": "2026-09-20", "role": "focus", "color": "#e8b040"}}, {"type": "Feature", "geometry": {"type": "Polygon", "coordinates": [[[-79.7313, 49.4958], [-79.7313, 49.5], [-79.7375, 49.5], [-79.7375, 49.4958], [-79.7313, 49.4958]]]}, "properties": {"company_id": "aurelius-minerals", "jurisdiction": "Ontario", "claim_id": "200680", "claim_name": null, "holder": "(100) AURELIUS MINERALS INC.", "status": "Active", "recorded_date": "2018-04-10", "anniversary_or_expiry": "2027-02-01", "area_ha": null, "tenure_type": "Boundary Cell Mining Claim", "source": "Ontario MLAS operational claims (OGSEarth / LIO MapServer). Unofficial viewing data, not legal title.", "as_of": "2026-09-20", "role": "focus", "color": "#e8b040"}}, {"type": "Feature", "geometry": {"type": "Polygon", "coordinates": [[[-79.675, 49.4958], [-79.675, 49.5], [-79.6813, 49.5], [-79.6813, 49.4958], [-79.675, 49.4958]]]}, "properties": {"company_id": "aurelius-minerals", "jurisdiction": "Ontario", "claim_id": "199263", "claim_name": null, "holder": "(100) AURELIUS MINERALS INC.", "status": "Active", "recorded_date": "2018-04-10", "anniversary_or_expiry": "2027-11-17", "area_ha": null, "tenure_type": "Boundary Cell Mining Claim", "source": "Ontario MLAS operational claims (OGSEarth / LIO MapServer). Unofficial viewing data, not legal title.", "as_of": "2026-09-20", "role": "focus", "color": "#e8b040"}}, {"type": "Feature", "geometry": {"type": "Polygon", "coordinates": [[[-79.6938, 49.4958], [-79.6938, 49.5], [-79.7, 49.5], [-79.7, 49.4958], [-79.6938, 49.4958]]]}, "properties": {"company_id": "aurelius-minerals", "jurisdiction": "Ontario", "claim_id": "199264", "claim_name": null, "holder": "(100) AURELIUS MINERALS INC.", "status": "Active", "recorded_date": "2018-04-10", "anniversary_or_expiry": "2027-11-17", "area_ha": null, "tenure_type": "Boundary Cell Mining Claim", "source": "Ontario MLAS operational claims (OGSEarth / LIO MapServer). Unofficial viewing data, not legal title.", "as_of": "2026-09-20", "role": "focus", "color": "#e8b040"}}, {"type": "Feature", "geometry": {"type": "Polygon", "coordinates": [[[-79.7313, 49.4792], [-79.7313, 49.4833], [-79.7375, 49.4833], [-79.7375, 49.4792], [-79.7313, 49.4792]]]}, "properties": {"company_id": "aurelius-minerals", "jurisdiction": "Ontario", "claim_id": "201914", "claim_name": null, "holder": "(100) AURELIUS MINERALS INC.", "status": "Active", "recorded_date": "2018-04-10", "anniversary_or_expiry": "2027-11-17", "area_ha": null, "tenure_type": "Single Cell Mining Claim", "source": "Ontario MLAS operational claims (OGSEarth / LIO MapServer). Unofficial viewing data, not legal title.", "as_of": "2026-09-20", "role": "focus", "color": "#e8b040"}}, {"type": "Feature", "geometry": {"type": "Polygon", "coordinates": [[[-79.7375, 49.4958], [-79.7375, 49.5], [-79.7438, 49.5], [-79.7438, 49.4958], [-79.7375, 49.4958]]]}, "properties": {"company_id": "aurelius-minerals", "jurisdiction": "Ontario", "claim_id": "201674", "claim_name": null, "holder": "(100) AURELIUS MINERALS INC.", "status": "Active", "recorded_date": "2018-04-10", "anniversary_or_expiry": "2027-03-16", "area_ha": null, "tenure_type": "Boundary Cell Mining Claim", "source": "Ontario MLAS operational claims (OGSEarth / LIO MapServer). Unofficial viewing data, not legal title.", "as_of": "2026-09-20", "role": "focus", "color": "#e8b040"}}, {"type": "Feature", "geometry": {"type": "Polygon", "coordinates": [[[-79.7125, 49.4875], [-79.7125, 49.4917], [-79.7188, 49.4917], [-79.7188, 49.4875], [-79.7125, 49.4875]]]}, "properties": {"company_id": "aurelius-minerals", "jurisdiction": "Ontario", "claim_id": "206586", "claim_name": null, "holder": "(100) AURELIUS MINERALS INC.", "status": "Active", "recorded_date": "2018-04-10", "anniversary_or_expiry": "2027-04-24", "area_ha": null, "tenure_type": "Single Cell Mining Claim", "source": "Ontario MLAS operational claims (OGSEarth / LIO MapServer). Unofficial viewing data, not legal title.", "as_of": "2026-09-20", "role": "focus", "color": "#e8b040"}}, {"type": "Feature", "geometry": {"type": "Polygon", "coordinates": [[[-79.7188, 49.4833], [-79.7188, 49.4875], [-79.725, 49.4875], [-79.725, 49.4833], [-79.7188, 49.4833]]]}, "properties": {"company_id": "aurelius-minerals", "jurisdiction": "Ontario", "claim_id": "207238", "claim_name": null, "holder": "(100) AURELIUS MINERALS INC.", "status": "Active", "recorded_date": "2018-04-10", "anniversary_or_expiry": "2027-11-17", "area_ha": null, "tenure_type": "Single Cell Mining Claim", "source": "Ontario MLAS operational claims (OGSEarth / LIO MapServer). Unofficial viewing data, not legal title.", "as_of": "2026-09-20", "role": "focus", "color": "#e8b040"}}, {"type": "Feature", "geometry": {"type": "Polygon", "coordinates": [[[-79.6813, 49.4958], [-79.6813, 49.5], [-79.6875, 49.5], [-79.6875, 49.4958], [-79.6813, 49.4958]]]}, "properties": {"company_id": "aurelius-minerals", "jurisdiction": "Ontario", "claim_id": "207267", "claim_name": null, "holder": "(100) AURELIUS MINERALS INC.", "status": "Active", "recorded_date": "2018-04-10", "anniversary_or_expiry": "2027-11-17", "area_ha": null, "tenure_type": "Boundary Cell Mining Claim", "source": "Ontario MLAS operational claims (OGSEarth / LIO MapServer). Unofficial viewing data, not legal title.", "as_of": "2026-09-20", "role": "focus", "color": "#e8b040"}}, {"type": "Feature", "geometry": {"type": "Polygon", "coordinates": [[[-79.725, 49.5], [-79.725, 49.5042], [-79.7313, 49.5042], [-79.7313, 49.5], [-79.725, 49.5]]]}, "properties": {"company_id": "aurelius-minerals", "jurisdiction": "Ontario", "claim_id": "208692", "claim_name": null, "holder": "(100) AURELIUS MINERALS INC.", "status": "Active", "recorded_date": "2018-04-10", "anniversary_or_expiry": "2027-02-01", "area_ha": null, "tenure_type": "Boundary Cell Mining Claim", "source": "Ontario MLAS operational claims (OGSEarth / LIO MapServer). Unofficial viewing data, not legal title.", "as_of": "2026-09-20", "role": "focus", "color": "#e8b040"}}, {"type": "Feature", "geometry": {"type": "Polygon", "coordinates": [[[-79.7438, 49.4833], [-79.7438, 49.4875], [-79.75, 49.4875], [-79.75, 49.4833], [-79.7438, 49.4833]]]}, "properties": {"company_id": "aurelius-minerals", "jurisdiction": "Ontario", "claim_id": "208693", "claim_name": null, "holder": "(100) AURELIUS MINERALS INC.", "status": "Active", "recorded_date": "2018-04-10", "anniversary_or_expiry": "2027-02-01", "area_ha": null, "tenure_type": "Single Cell Mining Claim", "source": "Ontario MLAS operational claims (OGSEarth / LIO MapServer). Unofficial viewing data, not legal title.", "as_of": "2026-09-20", "role": "focus", "color": "#e8b040"}}, {"type": "Feature", "geometry": {"type": "Polygon", "coordinates": [[[-79.7375, 49.4792], [-79.7375, 49.4833], [-79.7438, 49.4833], [-79.7438, 49.4792], [-79.7375, 49.4792]]]}, "properties": {"company_id": "aurelius-minerals", "jurisdiction": "Ontario", "claim_id": "208694", "claim_name": null, "holder": "(100) AURELIUS MINERALS INC.", "status": "Active", "recorded_date": "2018-04-10", "anniversary_or_expiry": "2027-02-01", "area_ha": null, "tenure_type": "Single Cell Mining Claim", "source": "Ontario MLAS operational claims (OGSEarth / LIO MapServer). Unofficial viewing data, not legal title.", "as_of": "2026-09-20", "role": "focus", "color": "#e8b040"}}, {"type": "Feature", "geometry": {"type": "Polygon", "coordinates": [[[-79.7313, 49.475], [-79.7313, 49.4792], [-79.7375, 49.4792], [-79.7375, 49.475], [-79.7313, 49.475]]]}, "properties": {"company_id": "aurelius-minerals", "jurisdiction": "Ontario", "claim_id": "209944", "claim_name": null, "holder": "(100) AURELIUS MINERALS INC.", "status": "Active", "recorded_date": "2018-04-10", "anniversary_or_expiry": "2027-11-17", "area_ha": null, "tenure_type": "Boundary Cell Mining Claim", "source": "Ontario MLAS operational claims (OGSEarth / LIO MapServer). Unofficial viewing data, not legal title.", "as_of": "2026-09-20", "role": "focus", "color": "#e8b040"}}, {"type": "Feature", "geometry": {"type": "Polygon", "coordinates": [[[-79.7125, 49.4958], [-79.7125, 49.5], [-79.7188, 49.5], [-79.7188, 49.4958], [-79.7125, 49.4958]]]}, "properties": {"company_id": "aurelius-minerals", "jurisdiction": "Ontario", "claim_id": "218777", "claim_name": null, "holder": "(100) AURELIUS MINERALS INC.", "status": "Active", "recorded_date": "2018-04-10", "anniversary_or_expiry": "2027-04-24", "area_ha": null, "tenure_type": "Single Cell Mining Claim", "source": "Ontario MLAS operational claims (OGSEarth / LIO MapServer). Unofficial viewing data, not legal title.", "as_of": "2026-09-20", "role": "focus", "color": "#e8b040"}}, {"type": "Feature", "geometry": {"type": "Polygon", "coordinates": [[[-79.7438, 49.4958], [-79.7438, 49.5], [-79.75, 49.5], [-79.75, 49.4958], [-79.7438, 49.4958]]]}, "properties": {"company_id": "aurelius-minerals", "jurisdiction": "Ontario", "claim_id": "226719", "claim_name": null, "holder": "(100) AURELIUS MINERALS INC.", "status": "Active", "recorded_date": "2018-04-10", "anniversary_or_expiry": "2029-03-16", "area_ha": null, "tenure_type": "Boundary Cell Mining Claim", "source": "Ontario MLAS operational claims (OGSEarth / LIO MapServer). Unofficial viewing data, not legal title.", "as_of": "2026-09-20", "role": "focus", "color": "#e8b040"}}, {"type": "Feature", "geometry": {"type": "Polygon", "coordinates": [[[-79.7438, 49.4917], [-79.7438, 49.4958], [-79.75, 49.4958], [-79.75, 49.4917], [-79.7438, 49.4917]]]}, "properties": {"company_id": "aurelius-minerals", "jurisdiction": "Ontario", "claim_id": "226720", "claim_name": null, "holder": "(100) AURELIUS MINERALS INC.", "status": "Active", "recorded_date": "2018-04-10", "anniversary_or_expiry": "2027-03-16", "area_ha": null, "tenure_type": "Boundary Cell Mining Claim", "source": "Ontario MLAS operational claims (OGSEarth / LIO MapServer). Unofficial viewing data, not legal title.", "as_of": "2026-09-20", "role": "focus", "color": "#e8b040"}}, {"type": "Feature", "geometry": {"type": "Polygon", "coordinates": [[[-79.6938, 49.4875], [-79.6938, 49.4917], [-79.7, 49.4917], [-79.7, 49.4875], [-79.6938, 49.4875]]]}, "properties": {"company_id": "aurelius-minerals", "jurisdiction": "Ontario", "claim_id": "227391", "claim_name": null, "holder": "(100) AURELIUS MINERALS INC.", "status": "Active", "recorded_date": "2018-04-10", "anniversary_or_expiry": "2027-11-17", "area_ha": null, "tenure_type": "Single Cell Mining Claim", "source": "Ontario MLAS operational claims (OGSEarth / LIO MapServer). Unofficial viewing data, not legal title.", "as_of": "2026-09-20", "role": "focus", "color": "#e8b040"}}, {"type": "Feature", "geometry": {"type": "Polygon", "coordinates": [[[-79.7, 49.4875], [-79.7, 49.4917], [-79.7063, 49.4917], [-79.7063, 49.4875], [-79.7, 49.4875]]]}, "properties": {"company_id": "aurelius-minerals", "jurisdiction": "Ontario", "claim_id": "227392", "claim_name": null, "holder": "(100) AURELIUS MINERALS INC.", "status": "Active", "recorded_date": "2018-04-10", "anniversary_or_expiry": "2027-11-17", "area_ha": null, "tenure_type": "Single Cell Mining Claim", "source": "Ontario MLAS operational claims (OGSEarth / LIO MapServer). Unofficial viewing data, not legal title.", "as_of": "2026-09-20", "role": "focus", "color": "#e8b040"}}, {"type": "Feature", "geometry": {"type": "Polygon", "coordinates": [[[-79.7125, 49.4917], [-79.7125, 49.4958], [-79.7188, 49.4958], [-79.7188, 49.4917], [-79.7125, 49.4917]]]}, "properties": {"company_id": "aurelius-minerals", "jurisdiction": "Ontario", "claim_id": "237534", "claim_name": null, "holder": "(100) AURELIUS MINERALS INC.", "status": "Active", "recorded_date": "2018-04-10", "anniversary_or_expiry": "2027-04-24", "area_ha": null, "tenure_type": "Single Cell Mining Claim", "source": "Ontario MLAS operational claims (OGSEarth / LIO MapServer). Unofficial viewing data, not legal title.", "as_of": "2026-09-20", "role": "focus", "color": "#e8b040"}}, {"type": "Feature", "geometry": {"type": "Polygon", "coordinates": [[[-79.7188, 49.4917], [-79.7188, 49.4958], [-79.725, 49.4958], [-79.725, 49.4917], [-79.7188, 49.4917]]]}, "properties": {"company_id": "aurelius-minerals", "jurisdiction": "Ontario", "claim_id": "237535", "claim_name": null, "holder": "(100) AURELIUS MINERALS INC.", "status": "Active", "recorded_date": "2018-04-10", "anniversary_or_expiry": "2028-04-24", "area_ha": null, "tenure_type": "Single Cell Mining Claim", "source": "Ontario MLAS operational claims (OGSEarth / LIO MapServer). Unofficial viewing data, not legal title.", "as_of": "2026-09-20", "role": "focus", "color": "#e8b040"}}, {"type": "Feature", "geometry": {"type": "Polygon", "coordinates": [[[-79.7313, 49.4875], [-79.7313, 49.4917], [-79.7375, 49.4917], [-79.7375, 49.4875], [-79.7313, 49.4875]]]}, "properties": {"company_id": "aurelius-minerals", "jurisdiction": "Ontario", "claim_id": "237777", "claim_name": null, "holder": "(100) AURELIUS MINERALS INC.", "status": "Active", "recorded_date": "2018-04-10", "anniversary_or_expiry": "2027-02-01", "area_ha": null, "tenure_type": "Single Cell Mining Claim", "source": "Ontario MLAS operational claims (OGSEarth / LIO MapServer). Unofficial viewing data, not legal title.", "as_of": "2026-09-20", "role": "focus", "color": "#e8b040"}}, {"type": "Feature", "geometry": {"type": "Polygon", "coordinates": [[[-79.7, 49.4833], [-79.7, 49.4875], [-79.7063, 49.4875], [-79.7063, 49.4833], [-79.7, 49.4833]]]}, "properties": {"company_id": "aurelius-minerals", "jurisdiction": "Ontario", "claim_id": "238862", "claim_name": null, "holder": "(100) AURELIUS MINERALS INC.", "status": "Active", "recorded_date": "2018-04-10", "anniversary_or_expiry": "2027-11-17", "area_ha": null, "tenure_type": "Single Cell Mining Claim", "source": "Ontario MLAS operational claims (OGSEarth / LIO MapServer). Unofficial viewing data, not legal title.", "as_of": "2026-09-20", "role": "focus", "color": "#e8b040"}}, {"type": "Feature", "geometry": {"type": "Polygon", "coordinates": [[[-79.7, 49.4917], [-79.7, 49.4958], [-79.7063, 49.4958], [-79.7063, 49.4917], [-79.7, 49.4917]]]}, "properties": {"company_id": "aurelius-minerals", "jurisdiction": "Ontario", "claim_id": "246859", "claim_name": null, "holder": "(100) AURELIUS MINERALS INC.", "status": "Active", "recorded_date": "2018-04-10", "anniversary_or_expiry": "2027-04-24", "area_ha": null, "tenure_type": "Single Cell Mining Claim", "source": "Ontario MLAS operational claims (OGSEarth / LIO MapServer). Unofficial viewing data, not legal title.", "as_of": "2026-09-20", "role": "focus", "color": "#e8b040"}}, {"type": "Feature", "geometry": {"type": "Polygon", "coordinates": [[[-79.7063, 49.4917], [-79.7063, 49.4958], [-79.7125, 49.4958], [-79.7125, 49.4917], [-79.7063, 49.4917]]]}, "properties": {"company_id": "aurelius-minerals", "jurisdiction": "Ontario", "claim_id": "246860", "claim_name": null, "holder": "(100) AURELIUS MINERALS INC.", "status": "Active", "recorded_date": "2018-04-10", "anniversary_or_expiry": "2027-04-24", "area_ha": null, "tenure_type": "Single Cell Mining Claim", "source": "Ontario MLAS operational claims (OGSEarth / LIO MapServer). Unofficial viewing data, not legal title.", "as_of": "2026-09-20", "role": "focus", "color": "#e8b040"}}, {"type": "Feature", "geometry": {"type": "Polygon", "coordinates": [[[-79.675, 49.5], [-79.675, 49.5042], [-79.6813, 49.5042], [-79.6813, 49.5], [-79.675, 49.5]]]}, "properties": {"company_id": "aurelius-minerals", "jurisdiction": "Ontario", "claim_id": "246462", "claim_name": null, "holder": "(100) AURELIUS MINERALS INC.", "status": "Active", "recorded_date": "2018-04-10", "anniversary_or_expiry": "2027-11-17", "area_ha": null, "tenure_type": "Boundary Cell Mining Claim", "source": "Ontario MLAS operational claims (OGSEarth / LIO MapServer). Unofficial viewing data, not legal title.", "as_of": "2026-09-20", "role": "focus", "color": "#e8b040"}}, {"type": "Feature", "geometry": {"type": "Polygon", "coordinates": [[[-79.675, 49.4917], [-79.675, 49.4958], [-79.6813, 49.4958], [-79.6813, 49.4917], [-79.675, 49.4917]]]}, "properties": {"company_id": "aurelius-minerals", "jurisdiction": "Ontario", "claim_id": "246463", "claim_name": null, "holder": "(100) AURELIUS MINERALS INC.", "status": "Active", "recorded_date": "2018-04-10", "anniversary_or_expiry": "2027-11-17", "area_ha": null, "tenure_type": "Boundary Cell Mining Claim", "source": "Ontario MLAS operational claims (OGSEarth / LIO MapServer). Unofficial viewing data, not legal title.", "as_of": "2026-09-20", "role": "focus", "color": "#e8b040"}}, {"type": "Feature", "geometry": {"type": "Polygon", "coordinates": [[[-79.6813, 49.4917], [-79.6813, 49.4958], [-79.6875, 49.4958], [-79.6875, 49.4917], [-79.6813, 49.4917]]]}, "properties": {"company_id": "aurelius-minerals", "jurisdiction": "Ontario", "claim_id": "246464", "claim_name": null, "holder": "(100) AURELIUS MINERALS INC.", "status": "Active", "recorded_date": "2018-04-10", "anniversary_or_expiry": "2027-11-17", "area_ha": null, "tenure_type": "Single Cell Mining Claim", "source": "Ontario MLAS operational claims (OGSEarth / LIO MapServer). Unofficial viewing data, not legal title.", "as_of": "2026-09-20", "role": "focus", "color": "#e8b040"}}, {"type": "Feature", "geometry": {"type": "Polygon", "coordinates": [[[-79.7063, 49.4958], [-79.7063, 49.5], [-79.7125, 49.5], [-79.7125, 49.4958], [-79.7063, 49.4958]]]}, "properties": {"company_id": "aurelius-minerals", "jurisdiction": "Ontario", "claim_id": "265846", "claim_name": null, "holder": "(100) AURELIUS MINERALS INC.", "status": "Active", "recorded_date": "2018-04-10", "anniversary_or_expiry": "2027-04-24", "area_ha": null, "tenure_type": "Single Cell Mining Claim", "source": "Ontario MLAS operational claims (OGSEarth / LIO MapServer). Unofficial viewing data, not legal title.", "as_of": "2026-09-20", "role": "focus", "color": "#e8b040"}}, {"type": "Feature", "geometry": {"type": "Polygon", "coordinates": [[[-79.7438, 49.4792], [-79.7438, 49.4833], [-79.75, 49.4833], [-79.75, 49.4792], [-79.7438, 49.4792]]]}, "properties": {"company_id": "aurelius-minerals", "jurisdiction": "Ontario", "claim_id": "267926", "claim_name": null, "holder": "(100) AURELIUS MINERALS INC.", "status": "Active", "recorded_date": "2018-04-10", "anniversary_or_expiry": "2027-02-01", "area_ha": null, "tenure_type": "Boundary Cell Mining Claim", "source": "Ontario MLAS operational claims (OGSEarth / LIO MapServer). Unofficial viewing data, not legal title.", "as_of": "2026-09-20", "role": "focus", "color": "#e8b040"}}, {"type": "Feature", "geometry": {"type": "Polygon", "coordinates": [[[-79.6875, 49.4917], [-79.6875, 49.4958], [-79.6938, 49.4958], [-79.6938, 49.4917], [-79.6875, 49.4917]]]}, "properties": {"company_id": "aurelius-minerals", "jurisdiction": "Ontario", "claim_id": "266512", "claim_name": null, "holder": "(100) AURELIUS MINERALS INC.", "status": "Active", "recorded_date": "2018-04-10", "anniversary_or_expiry": "2027-11-17", "area_ha": null, "tenure_type": "Single Cell Mining Claim", "source": "Ontario MLAS operational claims (OGSEarth / LIO MapServer). Unofficial viewing data, not legal title.", "as_of": "2026-09-20", "role": "focus", "color": "#e8b040"}}, {"type": "Feature", "geometry": {"type": "Polygon", "coordinates": [[[-79.725, 49.4875], [-79.725, 49.4917], [-79.7313, 49.4917], [-79.7313, 49.4875], [-79.725, 49.4875]]]}, "properties": {"company_id": "aurelius-minerals", "jurisdiction": "Ontario", "claim_id": "265982", "claim_name": null, "holder": "(100) AURELIUS MINERALS INC.", "status": "Active", "recorded_date": "2018-04-10", "anniversary_or_expiry": "2027-02-01", "area_ha": null, "tenure_type": "Single Cell Mining Claim", "source": "Ontario MLAS operational claims (OGSEarth / LIO MapServer). Unofficial viewing data, not legal title.", "as_of": "2026-09-20", "role": "focus", "color": "#e8b040"}}, {"type": "Feature", "geometry": {"type": "Polygon", "coordinates": [[[-79.7063, 49.4833], [-79.7063, 49.4875], [-79.7125, 49.4875], [-79.7125, 49.4833], [-79.7063, 49.4833]]]}, "properties": {"company_id": "aurelius-minerals", "jurisdiction": "Ontario", "claim_id": "286022", "claim_name": null, "holder": "(100) AURELIUS MINERALS INC.", "status": "Active", "recorded_date": "2018-04-10", "anniversary_or_expiry": "2027-11-17", "area_ha": null, "tenure_type": "Single Cell Mining Claim", "source": "Ontario MLAS operational claims (OGSEarth / LIO MapServer). Unofficial viewing data, not legal title.", "as_of": "2026-09-20", "role": "focus", "color": "#e8b040"}}, {"type": "Feature", "geometry": {"type": "Polygon", "coordinates": [[[-79.6938, 49.4792], [-79.6938, 49.4833], [-79.7, 49.4833], [-79.7, 49.4792], [-79.6938, 49.4792]]]}, "properties": {"company_id": "aurelius-minerals", "jurisdiction": "Ontario", "claim_id": "286023", "claim_name": null, "holder": "(100) AURELIUS MINERALS INC.", "status": "Active", "recorded_date": "2018-04-10", "anniversary_or_expiry": "2027-11-17", "area_ha": null, "tenure_type": "Boundary Cell Mining Claim", "source": "Ontario MLAS operational claims (OGSEarth / LIO MapServer). Unofficial viewing data, not legal title.", "as_of": "2026-09-20", "role": "focus", "color": "#e8b040"}}, {"type": "Feature", "geometry": {"type": "Polygon", "coordinates": [[[-79.7, 49.5], [-79.7, 49.5042], [-79.7063, 49.5042], [-79.7063, 49.5], [-79.7, 49.5]]]}, "properties": {"company_id": "aurelius-minerals", "jurisdiction": "Ontario", "claim_id": "302442", "claim_name": null, "holder": "(100) AURELIUS MINERALS INC.", "status": "Active", "recorded_date": "2018-04-10", "anniversary_or_expiry": "2027-04-24", "area_ha": null, "tenure_type": "Boundary Cell Mining Claim", "source": "Ontario MLAS operational claims (OGSEarth / LIO MapServer). Unofficial viewing data, not legal title.", "as_of": "2026-09-20", "role": "focus", "color": "#e8b040"}}, {"type": "Feature", "geometry": {"type": "Polygon", "coordinates": [[[-79.7063, 49.5], [-79.7063, 49.5042], [-79.7125, 49.5042], [-79.7125, 49.5], [-79.7063, 49.5]]]}, "properties": {"company_id": "aurelius-minerals", "jurisdiction": "Ontario", "claim_id": "302443", "claim_name": null, "holder": "(100) AURELIUS MINERALS INC.", "status": "Active", "recorded_date": "2018-04-10", "anniversary_or_expiry": "2027-04-24", "area_ha": null, "tenure_type": "Boundary Cell Mining Claim", "source": "Ontario MLAS operational claims (OGSEarth / LIO MapServer). Unofficial viewing data, not legal title.", "as_of": "2026-09-20", "role": "focus", "color": "#e8b040"}}, {"type": "Feature", "geometry": {"type": "Polygon", "coordinates": [[[-79.7313, 49.4917], [-79.7313, 49.4958], [-79.7375, 49.4958], [-79.7375, 49.4917], [-79.7313, 49.4917]]]}, "properties": {"company_id": "aurelius-minerals", "jurisdiction": "Ontario", "claim_id": "304499", "claim_name": null, "holder": "(100) AURELIUS MINERALS INC.", "status": "Active", "recorded_date": "2018-04-10", "anniversary_or_expiry": "2027-02-01", "area_ha": null, "tenure_type": "Single Cell Mining Claim", "source": "Ontario MLAS operational claims (OGSEarth / LIO MapServer). Unofficial viewing data, not legal title.", "as_of": "2026-09-20", "role": "focus", "color": "#e8b040"}}, {"type": "Feature", "geometry": {"type": "Polygon", "coordinates": [[[-79.725, 49.4917], [-79.725, 49.4958], [-79.7313, 49.4958], [-79.7313, 49.4917], [-79.725, 49.4917]]]}, "properties": {"company_id": "aurelius-minerals", "jurisdiction": "Ontario", "claim_id": "311282", "claim_name": null, "holder": "(100) AURELIUS MINERALS INC.", "status": "Active", "recorded_date": "2018-04-10", "anniversary_or_expiry": "2027-02-01", "area_ha": null, "tenure_type": "Single Cell Mining Claim", "source": "Ontario MLAS operational claims (OGSEarth / LIO MapServer). Unofficial viewing data, not legal title.", "as_of": "2026-09-20", "role": "focus", "color": "#e8b040"}}, {"type": "Feature", "geometry": {"type": "Polygon", "coordinates": [[[-79.7188, 49.5], [-79.7188, 49.5042], [-79.725, 49.5042], [-79.725, 49.5], [-79.7188, 49.5]]]}, "properties": {"company_id": "aurelius-minerals", "jurisdiction": "Ontario", "claim_id": "319794", "claim_name": null, "holder": "(100) AURELIUS MINERALS INC.", "status": "Active", "recorded_date": "2018-04-10", "anniversary_or_expiry": "2031-04-24", "area_ha": null, "tenure_type": "Boundary Cell Mining Claim", "source": "Ontario MLAS operational claims (OGSEarth / LIO MapServer). Unofficial viewing data, not legal title.", "as_of": "2026-09-20", "role": "focus", "color": "#e8b040"}}, {"type": "Feature", "geometry": {"type": "Polygon", "coordinates": [[[-79.7, 49.4958], [-79.7, 49.5], [-79.7063, 49.5], [-79.7063, 49.4958], [-79.7, 49.4958]]]}, "properties": {"company_id": "aurelius-minerals", "jurisdiction": "Ontario", "claim_id": "319795", "claim_name": null, "holder": "(100) AURELIUS MINERALS INC.", "status": "Active", "recorded_date": "2018-04-10", "anniversary_or_expiry": "2027-04-24", "area_ha": null, "tenure_type": "Boundary Cell Mining Claim", "source": "Ontario MLAS operational claims (OGSEarth / LIO MapServer). Unofficial viewing data, not legal title.", "as_of": "2026-09-20", "role": "focus", "color": "#e8b040"}}, {"type": "Feature", "geometry": {"type": "Polygon", "coordinates": [[[-79.7125, 49.5], [-79.7125, 49.5042], [-79.7188, 49.5042], [-79.7188, 49.5], [-79.7125, 49.5]]]}, "properties": {"company_id": "aurelius-minerals", "jurisdiction": "Ontario", "claim_id": "321961", "claim_name": null, "holder": "(100) AURELIUS MINERALS INC.", "status": "Active", "recorded_date": "2018-04-10", "anniversary_or_expiry": "2027-04-24", "area_ha": null, "tenure_type": "Boundary Cell Mining Claim", "source": "Ontario MLAS operational claims (OGSEarth / LIO MapServer). Unofficial viewing data, not legal title.", "as_of": "2026-09-20", "role": "focus", "color": "#e8b040"}}, {"type": "Feature", "geometry": {"type": "Polygon", "coordinates": [[[-79.7125, 49.4833], [-79.7125, 49.4875], [-79.7188, 49.4875], [-79.7188, 49.4833], [-79.7125, 49.4833]]]}, "properties": {"company_id": "aurelius-minerals", "jurisdiction": "Ontario", "claim_id": "322608", "claim_name": null, "holder": "(100) AURELIUS MINERALS INC.", "status": "Active", "recorded_date": "2018-04-10", "anniversary_or_expiry": "2027-11-17", "area_ha": null, "tenure_type": "Single Cell Mining Claim", "source": "Ontario MLAS operational claims (OGSEarth / LIO MapServer). Unofficial viewing data, not legal title.", "as_of": "2026-09-20", "role": "focus", "color": "#e8b040"}}, {"type": "Feature", "geometry": {"type": "Polygon", "coordinates": [[[-79.725, 49.4792], [-79.725, 49.4833], [-79.7313, 49.4833], [-79.7313, 49.4792], [-79.725, 49.4792]]]}, "properties": {"company_id": "aurelius-minerals", "jurisdiction": "Ontario", "claim_id": "322609", "claim_name": null, "holder": "(100) AURELIUS MINERALS INC.", "status": "Active", "recorded_date": "2018-04-10", "anniversary_or_expiry": "2027-11-17", "area_ha": null, "tenure_type": "Boundary Cell Mining Claim", "source": "Ontario MLAS operational claims (OGSEarth / LIO MapServer). Unofficial viewing data, not legal title.", "as_of": "2026-09-20", "role": "focus", "color": "#e8b040"}}, {"type": "Feature", "geometry": {"type": "Polygon", "coordinates": [[[-79.7375, 49.4833], [-79.7375, 49.4875], [-79.7438, 49.4875], [-79.7438, 49.4833], [-79.7375, 49.4833]]]}, "properties": {"company_id": "aurelius-minerals", "jurisdiction": "Ontario", "claim_id": "323989", "claim_name": null, "holder": "(100) AURELIUS MINERALS INC.", "status": "Active", "recorded_date": "2018-04-10", "anniversary_or_expiry": "2027-02-01", "area_ha": null, "tenure_type": "Single Cell Mining Claim", "source": "Ontario MLAS operational claims (OGSEarth / LIO MapServer). Unofficial viewing data, not legal title.", "as_of": "2026-09-20", "role": "focus", "color": "#e8b040"}}, {"type": "Feature", "geometry": {"type": "Polygon", "coordinates": [[[-79.7188, 49.4792], [-79.7188, 49.4833], [-79.725, 49.4833], [-79.725, 49.4792], [-79.7188, 49.4792]]]}, "properties": {"company_id": "aurelius-minerals", "jurisdiction": "Ontario", "claim_id": "333669", "claim_name": null, "holder": "(100) AURELIUS MINERALS INC.", "status": "Active", "recorded_date": "2018-04-10", "anniversary_or_expiry": "2027-11-17", "area_ha": null, "tenure_type": "Boundary Cell Mining Claim", "source": "Ontario MLAS operational claims (OGSEarth / LIO MapServer). Unofficial viewing data, not legal title.", "as_of": "2026-09-20", "role": "focus", "color": "#e8b040"}}, {"type": "Feature", "geometry": {"type": "Polygon", "coordinates": [[[-79.75, 49.4833], [-79.75, 49.4875], [-79.7563, 49.4875], [-79.7563, 49.4833], [-79.75, 49.4833]]]}, "properties": {"company_id": "aurelius-minerals", "jurisdiction": "Ontario", "claim_id": "334406", "claim_name": null, "holder": "(100) AURELIUS MINERALS INC.", "status": "Active", "recorded_date": "2018-04-10", "anniversary_or_expiry": "2027-02-01", "area_ha": null, "tenure_type": "Boundary Cell Mining Claim", "source": "Ontario MLAS operational claims (OGSEarth / LIO MapServer). Unofficial viewing data, not legal title.", "as_of": "2026-09-20", "role": "focus", "color": "#e8b040"}}, {"type": "Feature", "geometry": {"type": "Polygon", "coordinates": [[[-79.7063, 49.5042], [-79.7063, 49.5083], [-79.7125, 49.5083], [-79.7125, 49.5042], [-79.7063, 49.5042]]]}, "properties": {"company_id": "aurelius-minerals", "jurisdiction": "Ontario", "claim_id": "333340", "claim_name": null, "holder": "(100) AURELIUS MINERALS INC.", "status": "Active", "recorded_date": "2018-04-10", "anniversary_or_expiry": "2027-04-24", "area_ha": null, "tenure_type": "Boundary Cell Mining Claim", "source": "Ontario MLAS operational claims (OGSEarth / LIO MapServer). Unofficial viewing data, not legal title.", "as_of": "2026-09-20", "role": "focus", "color": "#e8b040"}}]}