{"type": "FeatureCollection", "features": [{"type": "Feature", "geometry": {"type": "Polygon", "coordinates": [[[-121.5577, 53.0898], [-121.5652, 53.0892], [-121.5655, 53.0862], [-121.5613, 53.0861], [-121.5607, 53.0837], [-121.5582, 53.0835], [-121.5577, 53.0898]]]}, "properties": {"company_id": "austin-gold", "jurisdiction": "British Columbia", "claim_id": 315077, "claim_name": "LOWHEE 2", "holder": "FREDERICK, AUSTIN REED", "status": "Placer", "recorded_date": "7240320000", "anniversary_or_expiry": "2029-02-22", "area_ha": 50, "tenure_type": "Placer", "source": "BC MTA Mineral, Placer and Coal Tenure Spatial View (BCGW). Open Government Licence - British Columbia. Not legal title.", "as_of": "2026-09-20", "role": "focus", "color": "#e8b040"}}]}