{"type": "FeatureCollection", "features": [{"type": "Feature", "geometry": {"type": "Polygon", "coordinates": [[[-122.7639, 50.8666], [-122.7639, 50.8624], [-122.7577, 50.8624], [-122.7577, 50.8707], [-122.7639, 50.8707], [-122.7639, 50.8666]]]}, "properties": {"company_id": "avino-silver-gold-mines", "jurisdiction": "British Columbia", "claim_id": 510647, "claim_name": "LEVON 5", "holder": "AVINO SILVER & GOLD MINES LTD.", "status": "Mineral", "recorded_date": "2005-04-12", "anniversary_or_expiry": "2033-12-01", "area_ha": 40.799, "tenure_type": "Mineral", "source": "BC MTA Mineral, Placer and Coal Tenure Spatial View (BCGW). Open Government Licence - British Columbia. Not legal title.", "as_of": "2026-09-20", "role": "focus", "color": "#e8b040"}}, {"type": "Feature", "geometry": {"type": "Polygon", "coordinates": [[[-122.7452, 50.8916], [-122.7514, 50.8916], [-122.7514, 50.8874], [-122.7452, 50.8874], [-122.7452, 50.8832], [-122.7389, 50.8832], [-122.7389, 50.8874], [-122.7327, 50.8874], [-122.7327, 50.8916], [-122.7452, 50.8916]]]}, "properties": {"company_id": "avino-silver-gold-mines", "jurisdiction": "British Columbia", "claim_id": 510885, "claim_name": null, "holder": "AVINO SILVER & GOLD MINES LTD.", "status": "Mineral", "recorded_date": "2005-04-18", "anniversary_or_expiry": "2033-12-01", "area_ha": 81.557, "tenure_type": "Mineral", "source": "BC MTA Mineral, Placer and Coal Tenure Spatial View (BCGW). Open Government Licence - British Columbia. Not legal title.", "as_of": "2026-09-20", "role": "focus", "color": "#e8b040"}}, {"type": "Feature", "geometry": {"type": "Polygon", "coordinates": [[[-122.7577, 50.8999], [-122.7577, 50.8916], [-122.7327, 50.8916], [-122.7327, 50.8957], [-122.7264, 50.8957], [-122.7264, 50.9041], [-122.7327, 50.9041], [-122.7327, 50.9082], [-122.7514, 50.9082], [-122.7514, 50.9041], [-122.7577, 50.9041], [-122.7577, 50.8999]]]}, "properties": {"company_id": "avino-silver-gold-mines", "jurisdiction": "British Columbia", "claim_id": 510886, "claim_name": null, "holder": "AVINO SILVER & GOLD MINES LTD.", "status": "Mineral", "recorded_date": "2005-04-18", "anniversary_or_expiry": "2033-12-01", "area_ha": 346.53900000000004, "tenure_type": "Mineral", "source": "BC MTA Mineral, Placer and Coal Tenure Spatial View (BCGW). Open Government Licence - British Columbia. Not legal title.", "as_of": "2026-09-20", "role": "focus", "color": "#e8b040"}}, {"type": "Feature", "geometry": {"type": "Polygon", "coordinates": [[[-122.7577, 50.8874], [-122.7577, 50.8749], [-122.7264, 50.8749], [-122.7264, 50.8791], [-122.7389, 50.8791], [-122.7389, 50.8832], [-122.7452, 50.8832], [-122.7452, 50.8874], [-122.7514, 50.8874], [-122.7514, 50.8916], [-122.7577, 50.8916], [-122.7577, 50.8874]]]}, "properties": {"company_id": "avino-silver-gold-mines", "jurisdiction": "British Columbia", "claim_id": 509832, "claim_name": null, "holder": "AVINO SILVER & GOLD MINES LTD.", "status": "Mineral", "recorded_date": "2005-03-30", "anniversary_or_expiry": "2033-12-01", "area_ha": 224.318, "tenure_type": "Mineral", "source": "BC MTA Mineral, Placer and Coal Tenure Spatial View (BCGW). Open Government Licence - British Columbia. Not legal title.", "as_of": "2026-09-20", "role": "focus", "color": "#e8b040"}}, {"type": "Feature", "geometry": {"type": "Polygon", "coordinates": [[[-122.7639, 50.8957], [-122.7702, 50.8957], [-122.7702, 50.8916], [-122.7639, 50.8916], [-122.7639, 50.8791], [-122.7577, 50.8791], [-122.7577, 50.8957], [-122.7639, 50.8957]]]}, "properties": {"company_id": "avino-silver-gold-mines", "jurisdiction": "British Columbia", "claim_id": 510228, "claim_name": "LEVON 3", "holder": "AVINO SILVER & GOLD MINES LTD.", "status": "Mineral", "recorded_date": "2005-04-05", "anniversary_or_expiry": "2033-12-01", "area_ha": 101.946, "tenure_type": "Mineral", "source": "BC MTA Mineral, Placer and Coal Tenure Spatial View (BCGW). Open Government Licence - British Columbia. Not legal title.", "as_of": "2026-09-20", "role": "focus", "color": "#e8b040"}}, {"type": "Feature", "geometry": {"type": "Polygon", "coordinates": [[[-122.7577, 50.8707], [-122.7577, 50.8624], [-122.7514, 50.8624], [-122.7514, 50.8749], [-122.7577, 50.8749], [-122.7577, 50.8707]]]}, "properties": {"company_id": "avino-silver-gold-mines", "jurisdiction": "British Columbia", "claim_id": 510229, "claim_name": "LEVON 4", "holder": "AVINO SILVER & GOLD MINES LTD.", "status": "Mineral", "recorded_date": "2005-04-05", "anniversary_or_expiry": "2033-12-01", "area_ha": 61.195, "tenure_type": "Mineral", "source": "BC MTA Mineral, Placer and Coal Tenure Spatial View (BCGW). Open Government Licence - British Columbia. Not legal title.", "as_of": "2026-09-20", "role": "focus", "color": "#e8b040"}}, {"type": "Feature", "geometry": {"type": "Polygon", "coordinates": [[[-122.7389, 50.8832], [-122.7389, 50.8791], [-122.7264, 50.8791], [-122.7264, 50.8749], [-122.7139, 50.8749], [-122.7139, 50.8791], [-122.7076, 50.8791], [-122.7077, 50.8874], [-122.7139, 50.8874], [-122.7139, 50.8957], [-122.7202, 50.8957], [-122.7202, 50.8999], [-122.7264, 50.8999], [-122.7264, 50.8957], [-122.7327, 50.8957], [-122.7327, 50.8874], [-122.7389, 50.8874], [-122.7389, 50.8832]]]}, "properties": {"company_id": "avino-silver-gold-mines", "jurisdiction": "British Columbia", "claim_id": 510884, "claim_name": null, "holder": "AVINO SILVER & GOLD MINES LTD.", "status": "Mineral", "recorded_date": "2005-04-18", "anniversary_or_expiry": "2033-12-01", "area_ha": 387.41400000000004, "tenure_type": "Mineral", "source": "BC MTA Mineral, Placer and Coal Tenure Spatial View (BCGW). Open Government Licence - British Columbia. Not legal title.", "as_of": "2026-09-20", "role": "focus", "color": "#e8b040"}}]}