{"type": "FeatureCollection", "features": [{"type": "Feature", "geometry": {"type": "Polygon", "coordinates": [[[-121.4535, 49.4871], [-121.4539, 49.4882], [-121.4592, 49.487], [-121.4535, 49.4871]]]}, "properties": {"company_id": "barrick", "jurisdiction": "British Columbia", "claim_id": 236761, "claim_name": "T D 15 FR.", "holder": "BARRICK GOLD INC.", "status": "Mineral", "recorded_date": "2254-09-29", "anniversary_or_expiry": "2025-08-26", "area_ha": 25, "tenure_type": "Mineral", "source": "BC MTA Mineral, Placer and Coal Tenure Spatial View (BCGW). Open Government Licence - British Columbia. Not legal title.", "as_of": "2026-09-20", "role": "focus", "color": "#e8b040"}}, {"type": "Feature", "geometry": {"type": "Polygon", "coordinates": [[[-121.4609, 49.4869], [-121.4592, 49.4869], [-121.4595, 49.4875], [-121.4635, 49.4868], [-121.4609, 49.4869]]]}, "properties": {"company_id": "barrick", "jurisdiction": "British Columbia", "claim_id": 236762, "claim_name": "T D 16 FR.", "holder": "BARRICK GOLD INC.", "status": "Mineral", "recorded_date": "2290-05-03", "anniversary_or_expiry": "2025-08-26", "area_ha": 25, "tenure_type": "Mineral", "source": "BC MTA Mineral, Placer and Coal Tenure Spatial View (BCGW). Open Government Licence - British Columbia. Not legal title.", "as_of": "2026-09-20", "role": "focus", "color": "#e8b040"}}, {"type": "Feature", "geometry": {"type": "Polygon", "coordinates": [[[-121.453, 49.4793], [-121.4475, 49.4794], [-121.4476, 49.483], [-121.4532, 49.4829], [-121.453, 49.4793]]]}, "properties": {"company_id": "barrick", "jurisdiction": "British Columbia", "claim_id": 236793, "claim_name": "TD 18", "holder": "BARRICK GOLD INC.", "status": "Mineral", "recorded_date": "4544640000", "anniversary_or_expiry": "2025-08-26", "area_ha": 25, "tenure_type": "Mineral", "source": "BC MTA Mineral, Placer and Coal Tenure Spatial View (BCGW). Open Government Licence - British Columbia. Not legal title.", "as_of": "2026-09-20", "role": "focus", "color": "#e8b040"}}, {"type": "Feature", "geometry": {"type": "Polygon", "coordinates": [[[-121.4532, 49.4829], [-121.4476, 49.483], [-121.4477, 49.4867], [-121.4534, 49.4866], [-121.4532, 49.4829]]]}, "properties": {"company_id": "barrick", "jurisdiction": "British Columbia", "claim_id": 236794, "claim_name": "TD 19", "holder": "BARRICK GOLD INC.", "status": "Mineral", "recorded_date": "4544640000", "anniversary_or_expiry": "2025-08-26", "area_ha": 25, "tenure_type": "Mineral", "source": "BC MTA Mineral, Placer and Coal Tenure Spatial View (BCGW). Open Government Licence - British Columbia. Not legal title.", "as_of": "2026-09-20", "role": "focus", "color": "#e8b040"}}, {"type": "Feature", "geometry": {"type": "Polygon", "coordinates": [[[-121.4477, 49.4867], [-121.4479, 49.4902], [-121.4534, 49.4902], [-121.4534, 49.4866], [-121.4477, 49.4867]]]}, "properties": {"company_id": "barrick", "jurisdiction": "British Columbia", "claim_id": 236795, "claim_name": "TD 20", "holder": "BARRICK GOLD INC.", "status": "Mineral", "recorded_date": "4544640000", "anniversary_or_expiry": "2025-08-26", "area_ha": 25, "tenure_type": "Mineral", "source": "BC MTA Mineral, Placer and Coal Tenure Spatial View (BCGW). Open Government Licence - British Columbia. Not legal title.", "as_of": "2026-09-20", "role": "focus", "color": "#e8b040"}}, {"type": "Feature", "geometry": {"type": "Polygon", "coordinates": [[[-121.4479, 49.4902], [-121.448, 49.4935], [-121.4516, 49.4935], [-121.4517, 49.491], [-121.4534, 49.491], [-121.4534, 49.4902], [-121.4479, 49.4902]]]}, "properties": {"company_id": "barrick", "jurisdiction": "British Columbia", "claim_id": 236796, "claim_name": "TD 21", "holder": "BARRICK GOLD INC.", "status": "Mineral", "recorded_date": "4544640000", "anniversary_or_expiry": "2025-08-26", "area_ha": 25, "tenure_type": "Mineral", "source": "BC MTA Mineral, Placer and Coal Tenure Spatial View (BCGW). Open Government Licence - British Columbia. Not legal title.", "as_of": "2026-09-20", "role": "focus", "color": "#e8b040"}}, {"type": "Feature", "geometry": {"type": "Polygon", "coordinates": [[[-121.5383, 49.4755], [-121.5434, 49.477], [-121.5456, 49.4737], [-121.5418, 49.4726], [-121.5398, 49.4756], [-121.5383, 49.4755]]]}, "properties": {"company_id": "barrick", "jurisdiction": "British Columbia", "claim_id": 236887, "claim_name": "WAY 1", "holder": "BARRICK GOLD INC.", "status": "Mineral", "recorded_date": "1479168000", "anniversary_or_expiry": "2025-08-26", "area_ha": 25, "tenure_type": "Mineral", "source": "BC MTA Mineral, Placer and Coal Tenure Spatial View (BCGW). Open Government Licence - British Columbia. Not legal title.", "as_of": "2026-09-20", "role": "focus", "color": "#e8b040"}}, {"type": "Feature", "geometry": {"type": "Polygon", "coordinates": [[[-121.5332, 49.4741], [-121.5329, 49.4747], [-121.5369, 49.4765], [-121.5348, 49.4785], [-121.5361, 49.4788], [-121.5383, 49.4755], [-121.5332, 49.4741]]]}, "properties": {"company_id": "barrick", "jurisdiction": "British Columbia", "claim_id": 236888, "claim_name": "WAY 2", "holder": "BARRICK GOLD INC.", "status": "Mineral", "recorded_date": "1479168000", "anniversary_or_expiry": "2025-08-26", "area_ha": 25, "tenure_type": "Mineral", "source": "BC MTA Mineral, Placer and Coal Tenure Spatial View (BCGW). Open Government Licence - British Columbia. Not legal title.", "as_of": "2026-09-20", "role": "focus", "color": "#e8b040"}}, {"type": "Feature", "geometry": {"type": "Polygon", "coordinates": [[[-121.5361, 49.4788], [-121.5412, 49.4803], [-121.5434, 49.477], [-121.5383, 49.4755], [-121.5361, 49.4788]]]}, "properties": {"company_id": "barrick", "jurisdiction": "British Columbia", "claim_id": 236889, "claim_name": "WAY 3", "holder": "BARRICK GOLD INC.", "status": "Mineral", "recorded_date": "1479168000", "anniversary_or_expiry": "2025-08-26", "area_ha": 25, "tenure_type": "Mineral", "source": "BC MTA Mineral, Placer and Coal Tenure Spatial View (BCGW). Open Government Licence - British Columbia. Not legal title.", "as_of": "2026-09-20", "role": "focus", "color": "#e8b040"}}, {"type": "Feature", "geometry": {"type": "Polygon", "coordinates": [[[-121.5412, 49.4803], [-121.5463, 49.4817], [-121.5485, 49.4784], [-121.5434, 49.477], [-121.5412, 49.4803]]]}, "properties": {"company_id": "barrick", "jurisdiction": "British Columbia", "claim_id": 236890, "claim_name": "WAY 4", "holder": "BARRICK GOLD INC.", "status": "Mineral", "recorded_date": "1479168000", "anniversary_or_expiry": "2025-08-26", "area_ha": 25, "tenure_type": "Mineral", "source": "BC MTA Mineral, Placer and Coal Tenure Spatial View (BCGW). Open Government Licence - British Columbia. Not legal title.", "as_of": "2026-09-20", "role": "focus", "color": "#e8b040"}}, {"type": "Feature", "geometry": {"type": "Polygon", "coordinates": [[[-121.5434, 49.477], [-121.5485, 49.4784], [-121.5507, 49.4751], [-121.5456, 49.4737], [-121.5434, 49.477]]]}, "properties": {"company_id": "barrick", "jurisdiction": "British Columbia", "claim_id": 236891, "claim_name": "WAY 5", "holder": "BARRICK GOLD INC.", "status": "Mineral", "recorded_date": "1479168000", "anniversary_or_expiry": "2025-08-26", "area_ha": 25, "tenure_type": "Mineral", "source": "BC MTA Mineral, Placer and Coal Tenure Spatial View (BCGW). Open Government Licence - British Columbia. Not legal title.", "as_of": "2026-09-20", "role": "focus", "color": "#e8b040"}}, {"type": "Feature", "geometry": {"type": "Polygon", "coordinates": [[[-121.4953, 49.4683], [-121.4989, 49.467], [-121.494, 49.4673], [-121.4938, 49.4656], [-121.4878, 49.4645], [-121.4891, 49.4674], [-121.4954, 49.4679], [-121.4953, 49.4683]]]}, "properties": {"company_id": "barrick", "jurisdiction": "British Columbia", "claim_id": 236494, "claim_name": null, "holder": "BARRICK GOLD INC.", "status": "Mineral", "recorded_date": "5901120000", "anniversary_or_expiry": "2025-11-15", "area_ha": 13.22, "tenure_type": "Mineral", "source": "BC MTA Mineral, Placer and Coal Tenure Spatial View (BCGW). Open Government Licence - British Columbia. Not legal title.", "as_of": "2026-09-20", "role": "focus", "color": "#e8b040"}}, {"type": "Feature", "geometry": {"type": "Polygon", "coordinates": [[[-121.4955, 49.4613], [-121.4952, 49.4619], [-121.5011, 49.4633], [-121.5019, 49.4618], [-121.5021, 49.4593], [-121.5053, 49.4594], [-121.5056, 49.4611], [-121.5093, 49.4609], [-121.5135, 49.4624], [-121.5161, 49.4623], [-121.5153, 49.4596], [-121.5108, 49.4603], [-121.5103, 49.458], [-121.5036, 49.4575], [-121.503, 49.4582], [-121.4976, 49.456], [-121.4955, 49.4613]]]}, "properties": {"company_id": "barrick", "jurisdiction": "British Columbia", "claim_id": 236495, "claim_name": null, "holder": "BARRICK GOLD INC.", "status": "Mineral", "recorded_date": "5901120000", "anniversary_or_expiry": "2023-11-15", "area_ha": 54.96, "tenure_type": "Mineral", "source": "BC MTA Mineral, Placer and Coal Tenure Spatial View (BCGW). Open Government Licence - British Columbia. Not legal title.", "as_of": "2026-09-20", "role": "focus", "color": "#e8b040"}}, {"type": "Feature", "geometry": {"type": "Polygon", "coordinates": [[[-121.4642, 49.4796], [-121.4644, 49.4832], [-121.4699, 49.483], [-121.4697, 49.4794], [-121.4642, 49.4796]]]}, "properties": {"company_id": "barrick", "jurisdiction": "British Columbia", "claim_id": 236539, "claim_name": "T.D. 7", "holder": "BARRICK GOLD INC.", "status": "Mineral", "recorded_date": "-267926400", "anniversary_or_expiry": "2025-08-26", "area_ha": 25, "tenure_type": "Mineral", "source": "BC MTA Mineral, Placer and Coal Tenure Spatial View (BCGW). Open Government Licence - British Columbia. Not legal title.", "as_of": "2026-09-20", "role": "focus", "color": "#e8b040"}}, {"type": "Feature", "geometry": {"type": "Polygon", "coordinates": [[[-121.4586, 49.4801], [-121.4588, 49.4833], [-121.4644, 49.4832], [-121.4642, 49.4796], [-121.4586, 49.4801]]]}, "properties": {"company_id": "barrick", "jurisdiction": "British Columbia", "claim_id": 236540, "claim_name": "T.D. 8", "holder": "BARRICK GOLD INC.", "status": "Mineral", "recorded_date": "-267926400", "anniversary_or_expiry": "2025-08-26", "area_ha": 25, "tenure_type": "Mineral", "source": "BC MTA Mineral, Placer and Coal Tenure Spatial View (BCGW). Open Government Licence - British Columbia. Not legal title.", "as_of": "2026-09-20", "role": "focus", "color": "#e8b040"}}, {"type": "Feature", "geometry": {"type": "Polygon", "coordinates": [[[-121.4644, 49.4832], [-121.4646, 49.4868], [-121.4701, 49.4867], [-121.4699, 49.483], [-121.4644, 49.4832]]]}, "properties": {"company_id": "barrick", "jurisdiction": "British Columbia", "claim_id": 236541, "claim_name": "T.D. 9", "holder": "BARRICK GOLD INC.", "status": "Mineral", "recorded_date": "-267926400", "anniversary_or_expiry": "2025-08-26", "area_ha": 25, "tenure_type": "Mineral", "source": "BC MTA Mineral, Placer and Coal Tenure Spatial View (BCGW). Open Government Licence - British Columbia. Not legal title.", "as_of": "2026-09-20", "role": "focus", "color": "#e8b040"}}, {"type": "Feature", "geometry": {"type": "Polygon", "coordinates": [[[-121.4588, 49.4833], [-121.459, 49.4869], [-121.4646, 49.4868], [-121.4644, 49.4832], [-121.4588, 49.4833]]]}, "properties": {"company_id": "barrick", "jurisdiction": "British Columbia", "claim_id": 236542, "claim_name": "T.D. 10", "holder": "BARRICK GOLD INC.", "status": "Mineral", "recorded_date": "-267926400", "anniversary_or_expiry": "2025-08-26", "area_ha": 25, "tenure_type": "Mineral", "source": "BC MTA Mineral, Placer and Coal Tenure Spatial View (BCGW). Open Government Licence - British Columbia. Not legal title.", "as_of": "2026-09-20", "role": "focus", "color": "#e8b040"}}, {"type": "Feature", "geometry": {"type": "Polygon", "coordinates": [[[-121.4538, 49.4805], [-121.4531, 49.4805], [-121.4533, 49.4834], [-121.4588, 49.4833], [-121.4586, 49.4804], [-121.4538, 49.4805]]]}, "properties": {"company_id": "barrick", "jurisdiction": "British Columbia", "claim_id": 236621, "claim_name": "T.D. NO. 11", "holder": "BARRICK GOLD INC.", "status": "Mineral", "recorded_date": "-107049600", "anniversary_or_expiry": "2025-08-26", "area_ha": 25, "tenure_type": "Mineral", "source": "BC MTA Mineral, Placer and Coal Tenure Spatial View (BCGW). Open Government Licence - British Columbia. Not legal title.", "as_of": "2026-09-20", "role": "focus", "color": "#e8b040"}}, {"type": "Feature", "geometry": {"type": "Polygon", "coordinates": [[[-121.4533, 49.4834], [-121.4535, 49.4871], [-121.459, 49.4869], [-121.4588, 49.4833], [-121.4533, 49.4834]]]}, "properties": {"company_id": "barrick", "jurisdiction": "British Columbia", "claim_id": 236622, "claim_name": "T.D. NO. 12", "holder": "BARRICK GOLD INC.", "status": "Mineral", "recorded_date": "-107049600", "anniversary_or_expiry": "2025-08-26", "area_ha": 25, "tenure_type": "Mineral", "source": "BC MTA Mineral, Placer and Coal Tenure Spatial View (BCGW). Open Government Licence - British Columbia. Not legal title.", "as_of": "2026-09-20", "role": "focus", "color": "#e8b040"}}, {"type": "Feature", "geometry": {"type": "Polygon", "coordinates": [[[-121.5434, 49.466], [-121.5421, 49.4675], [-121.5521, 49.4707], [-121.5533, 49.4693], [-121.5434, 49.466]]]}, "properties": {"company_id": "barrick", "jurisdiction": "British Columbia", "claim_id": 236585, "claim_name": "PETE FR.", "holder": "BARRICK GOLD INC.", "status": "Mineral", "recorded_date": "-201484800", "anniversary_or_expiry": "2025-08-26", "area_ha": 25, "tenure_type": "Mineral", "source": "BC MTA Mineral, Placer and Coal Tenure Spatial View (BCGW). Open Government Licence - British Columbia. Not legal title.", "as_of": "2026-09-20", "role": "focus", "color": "#e8b040"}}, {"type": "Feature", "geometry": {"type": "Polygon", "coordinates": [[[-121.47, 49.485], [-121.4711, 49.4866], [-121.4762, 49.4851], [-121.4739, 49.4818], [-121.4699, 49.483], [-121.47, 49.485]]]}, "properties": {"company_id": "barrick", "jurisdiction": "British Columbia", "claim_id": 236667, "claim_name": "PENTAX NO.1 FRACTIONAL", "holder": "BARRICK GOLD INC.", "status": "Mineral", "recorded_date": "-199584000", "anniversary_or_expiry": "2025-08-26", "area_ha": 25, "tenure_type": "Mineral", "source": "BC MTA Mineral, Placer and Coal Tenure Spatial View (BCGW). Open Government Licence - British Columbia. Not legal title.", "as_of": "2026-09-20", "role": "focus", "color": "#e8b040"}}, {"type": "Feature", "geometry": {"type": "Polygon", "coordinates": [[[-121.4699, 49.4825], [-121.4699, 49.483], [-121.4739, 49.4818], [-121.4729, 49.4804], [-121.4699, 49.4825]]]}, "properties": {"company_id": "barrick", "jurisdiction": "British Columbia", "claim_id": 236668, "claim_name": "PENTAX NO.2 FRACTIONAL", "holder": "BARRICK GOLD INC.", "status": "Mineral", "recorded_date": "-199584000", "anniversary_or_expiry": "2025-08-26", "area_ha": 25, "tenure_type": "Mineral", "source": "BC MTA Mineral, Placer and Coal Tenure Spatial View (BCGW). Open Government Licence - British Columbia. Not legal title.", "as_of": "2026-09-20", "role": "focus", "color": "#e8b040"}}, {"type": "Feature", "geometry": {"type": "Polygon", "coordinates": [[[-121.4739, 49.4818], [-121.4762, 49.4851], [-121.4812, 49.4836], [-121.4789, 49.4803], [-121.4739, 49.4818]]]}, "properties": {"company_id": "barrick", "jurisdiction": "British Columbia", "claim_id": 236669, "claim_name": "PENTAX NO. 3", "holder": "BARRICK GOLD INC.", "status": "Mineral", "recorded_date": "-199584000", "anniversary_or_expiry": "2025-08-26", "area_ha": 25, "tenure_type": "Mineral", "source": "BC MTA Mineral, Placer and Coal Tenure Spatial View (BCGW). Open Government Licence - British Columbia. Not legal title.", "as_of": "2026-09-20", "role": "focus", "color": "#e8b040"}}, {"type": "Feature", "geometry": {"type": "Polygon", "coordinates": [[[-121.4738, 49.4798], [-121.4729, 49.4804], [-121.4739, 49.4818], [-121.4789, 49.4803], [-121.477, 49.4776], [-121.4738, 49.4798]]]}, "properties": {"company_id": "barrick", "jurisdiction": "British Columbia", "claim_id": 236670, "claim_name": "PENTAX NO.4 FRACTIONAL", "holder": "BARRICK GOLD INC.", "status": "Mineral", "recorded_date": "-199584000", "anniversary_or_expiry": "2025-08-26", "area_ha": 25, "tenure_type": "Mineral", "source": "BC MTA Mineral, Placer and Coal Tenure Spatial View (BCGW). Open Government Licence - British Columbia. Not legal title.", "as_of": "2026-09-20", "role": "focus", "color": "#e8b040"}}, {"type": "Feature", "geometry": {"type": "Polygon", "coordinates": [[[-121.477, 49.4776], [-121.4789, 49.4803], [-121.484, 49.4788], [-121.4817, 49.4756], [-121.477, 49.4776]]]}, "properties": {"company_id": "barrick", "jurisdiction": "British Columbia", "claim_id": 236672, "claim_name": "PENTAX NO. 6", "holder": "BARRICK GOLD INC.", "status": "Mineral", "recorded_date": "-199584000", "anniversary_or_expiry": "2025-08-26", "area_ha": 25, "tenure_type": "Mineral", "source": "BC MTA Mineral, Placer and Coal Tenure Spatial View (BCGW). Open Government Licence - British Columbia. Not legal title.", "as_of": "2026-09-20", "role": "focus", "color": "#e8b040"}}, {"type": "Feature", "geometry": {"type": "Polygon", "coordinates": [[[-121.4817, 49.4756], [-121.484, 49.4788], [-121.489, 49.4773], [-121.4867, 49.474], [-121.4817, 49.4756]]]}, "properties": {"company_id": "barrick", "jurisdiction": "British Columbia", "claim_id": 236674, "claim_name": "PENTAX NO. 8", "holder": "BARRICK GOLD INC.", "status": "Mineral", "recorded_date": "-199584000", "anniversary_or_expiry": "2025-08-26", "area_ha": 25, "tenure_type": "Mineral", "source": "BC MTA Mineral, Placer and Coal Tenure Spatial View (BCGW). Open Government Licence - British Columbia. Not legal title.", "as_of": "2026-09-20", "role": "focus", "color": "#e8b040"}}, {"type": "Feature", "geometry": {"type": "Polygon", "coordinates": [[[-120.0725, 49.3814], [-120.077, 49.3785], [-120.0725, 49.3755], [-120.0681, 49.3785], [-120.0725, 49.3814]]]}, "properties": {"company_id": "barrick", "jurisdiction": "British Columbia", "claim_id": 247411, "claim_name": null, "holder": "BARRICK GOLD INC.", "status": "Mineral", "recorded_date": "-672192000", "anniversary_or_expiry": "2025-11-15", "area_ha": 20.830000000000002, "tenure_type": "Mineral", "source": "BC MTA Mineral, Placer and Coal Tenure Spatial View (BCGW). Open Government Licence - British Columbia. Not legal title.", "as_of": "2026-09-20", "role": "focus", "color": "#e8b040"}}, {"type": "Feature", "geometry": {"type": "Polygon", "coordinates": [[[-120.0691, 49.3825], [-120.066, 49.3786], [-120.0642, 49.3782], [-120.0645, 49.3785], [-120.0602, 49.3809], [-120.0588, 49.3799], [-120.058, 49.3836], [-120.0558, 49.3834], [-120.0557, 49.3853], [-120.0507, 49.3851], [-120.0483, 49.3873], [-120.045, 49.3859], [-120.0385, 49.3867], [-120.0379, 49.386], [-120.0345, 49.3877], [-120.0315, 49.386], [-120.0367, 49.3815], [-120.0367, 49.3808], [-120.0349, 49.3813], [-120.0341, 49.3799], [-120.034, 49.3818], [-120.0292, 49.3817], [-120.0271, 49.383], [-120.0274, 49.3837], [-120.0246, 49.3845], [-120.0275, 49.3866], [-120.0269, 49.3871], [-120.0324, 49.393], [-120.034, 49.3926], [-120.0368, 49.3963], [-120.0425, 49.3945], [-120.043, 49.3955], [-120.0484, 49.3944], [-120.0457, 49.3966], [-120.0506, 49.3992], [-120.0545, 49.396], [-120.0514, 49.3996], [-120.0567, 49.4016], [-120.0629, 49.3944], [-120.0616, 49.3939], [-120.0664, 49.3906], [-120.0619, 49.3877], [-120.0642, 49.3868], [-120.0691, 49.3825]]]}, "properties": {"company_id": "barrick", "jurisdiction": "British Columbia", "claim_id": 247412, "claim_name": null, "holder": "BARRICK GOLD INC.", "status": "Mineral", "recorded_date": "-661824000", "anniversary_or_expiry": "2025-11-27", "area_ha": 369.53000000000003, "tenure_type": "Mineral", "source": "BC MTA Mineral, Placer and Coal Tenure Spatial View (BCGW). Open Government Licence - British Columbia. Not legal title.", "as_of": "2026-09-20", "role": "focus", "color": "#e8b040"}}, {"type": "Feature", "geometry": {"type": "Polygon", "coordinates": [[[-120.0372, 49.3503], [-120.0313, 49.3503], [-120.0311, 49.3524], [-120.0397, 49.3503], [-120.0372, 49.3503]]]}, "properties": {"company_id": "barrick", "jurisdiction": "British Columbia", "claim_id": 246453, "claim_name": "R9 FR.", "holder": "BARRICK GOLD INC.", "status": "Mineral", "recorded_date": "4194720000", "anniversary_or_expiry": "2025-02-13", "area_ha": 25, "tenure_type": "Mineral", "source": "BC MTA Mineral, Placer and Coal Tenure Spatial View (BCGW). Open Government Licence - British Columbia. Not legal title.", "as_of": "2026-09-20", "role": "focus", "color": "#e8b040"}}, {"type": "Feature", "geometry": {"type": "Polygon", "coordinates": [[[-120.0296, 49.354], [-120.0311, 49.3543], [-120.0309, 49.3538], [-120.0296, 49.354]]]}, "properties": {"company_id": "barrick", "jurisdiction": "British Columbia", "claim_id": 246454, "claim_name": "R8 FR.", "holder": "BARRICK GOLD INC.", "status": "Mineral", "recorded_date": "4194720000", "anniversary_or_expiry": "2025-02-13", "area_ha": 25, "tenure_type": "Mineral", "source": "BC MTA Mineral, Placer and Coal Tenure Spatial View (BCGW). Open Government Licence - British Columbia. Not legal title.", "as_of": "2026-09-20", "role": "focus", "color": "#e8b040"}}, {"type": "Feature", "geometry": {"type": "Polygon", "coordinates": [[[-120.0027, 49.3753], [-120.0024, 49.3753], [-120.0028, 49.3755], [-120.0027, 49.3753]]]}, "properties": {"company_id": "barrick", "jurisdiction": "British Columbia", "claim_id": 246991, "claim_name": "BONITA FRACTION", "holder": "BARRICK GOLD INC.", "status": "Mineral", "recorded_date": "6142176000", "anniversary_or_expiry": "2027-02-13", "area_ha": 25, "tenure_type": "Mineral", "source": "BC MTA Mineral, Placer and Coal Tenure Spatial View (BCGW). Open Government Licence - British Columbia. Not legal title.", "as_of": "2026-09-20", "role": "focus", "color": "#e8b040"}}, {"type": "Feature", "geometry": {"type": "Polygon", "coordinates": [[[-120.0296, 49.354], [-120.0309, 49.3539], [-120.0302, 49.3526], [-120.0302, 49.3502], [-120.024, 49.3506], [-120.0244, 49.3534], [-120.0296, 49.354]]]}, "properties": {"company_id": "barrick", "jurisdiction": "British Columbia", "claim_id": 247604, "claim_name": "MALI 21", "holder": "BARRICK GOLD INC.", "status": "Mineral", "recorded_date": "-722304000", "anniversary_or_expiry": "2025-02-13", "area_ha": 25, "tenure_type": "Mineral", "source": "BC MTA Mineral, Placer and Coal Tenure Spatial View (BCGW). Open Government Licence - British Columbia. Not legal title.", "as_of": "2026-09-20", "role": "focus", "color": "#e8b040"}}, {"type": "Feature", "geometry": {"type": "Polygon", "coordinates": [[[-120.0204, 49.3509], [-120.0183, 49.351], [-120.0183, 49.3522], [-120.0244, 49.3534], [-120.024, 49.3506], [-120.0204, 49.3509]]]}, "properties": {"company_id": "barrick", "jurisdiction": "British Columbia", "claim_id": 247605, "claim_name": "MALI 22", "holder": "BARRICK GOLD INC.", "status": "Mineral", "recorded_date": "-722304000", "anniversary_or_expiry": "2025-02-13", "area_ha": 25, "tenure_type": "Mineral", "source": "BC MTA Mineral, Placer and Coal Tenure Spatial View (BCGW). Open Government Licence - British Columbia. Not legal title.", "as_of": "2026-09-20", "role": "focus", "color": "#e8b040"}}, {"type": "Feature", "geometry": {"type": "Polygon", "coordinates": [[[-120.0371, 49.3486], [-120.0328, 49.3486], [-120.0328, 49.3503], [-120.0371, 49.3503], [-120.0371, 49.3486]]]}, "properties": {"company_id": "barrick", "jurisdiction": "British Columbia", "claim_id": 341354, "claim_name": "TETRAD", "holder": "BARRICK GOLD INC.", "status": "Mineral", "recorded_date": "8139744000", "anniversary_or_expiry": "2027-02-13", "area_ha": 25, "tenure_type": "Mineral", "source": "BC MTA Mineral, Placer and Coal Tenure Spatial View (BCGW). Open Government Licence - British Columbia. Not legal title.", "as_of": "2026-09-20", "role": "focus", "color": "#e8b040"}}, {"type": "Feature", "geometry": {"type": "Polygon", "coordinates": [[[-120.0372, 49.3485], [-120.0372, 49.3503], [-120.0397, 49.3503], [-120.0397, 49.3472], [-120.0379, 49.3472], [-120.0379, 49.3485], [-120.0372, 49.3485]]]}, "properties": {"company_id": "barrick", "jurisdiction": "British Columbia", "claim_id": 346572, "claim_name": "PENTAD 1", "holder": "BARRICK GOLD INC.", "status": "Mineral", "recorded_date": "8331552000", "anniversary_or_expiry": "2027-02-13", "area_ha": 25, "tenure_type": "Mineral", "source": "BC MTA Mineral, Placer and Coal Tenure Spatial View (BCGW). Open Government Licence - British Columbia. Not legal title.", "as_of": "2026-09-20", "role": "focus", "color": "#e8b040"}}, {"type": "Feature", "geometry": {"type": "Polygon", "coordinates": [[[-120.051, 49.3487], [-120.0459, 49.3487], [-120.0472, 49.349], [-120.0438, 49.3517], [-120.051, 49.3517], [-120.051, 49.3487]]]}, "properties": {"company_id": "barrick", "jurisdiction": "British Columbia", "claim_id": 346574, "claim_name": "PENTAD 3", "holder": "BARRICK GOLD INC.", "status": "Mineral", "recorded_date": "8339328000", "anniversary_or_expiry": "2027-02-13", "area_ha": 25, "tenure_type": "Mineral", "source": "BC MTA Mineral, Placer and Coal Tenure Spatial View (BCGW). Open Government Licence - British Columbia. Not legal title.", "as_of": "2026-09-20", "role": "focus", "color": "#e8b040"}}, {"type": "Feature", "geometry": {"type": "Polygon", "coordinates": [[[-120.0441, 49.3517], [-120.0441, 49.3562], [-120.0453, 49.3562], [-120.0471, 49.3521], [-120.051, 49.3528], [-120.051, 49.3517], [-120.0441, 49.3517]]]}, "properties": {"company_id": "barrick", "jurisdiction": "British Columbia", "claim_id": 346575, "claim_name": "PENTAD 4", "holder": "BARRICK GOLD INC.", "status": "Mineral", "recorded_date": "8339328000", "anniversary_or_expiry": "2027-02-13", "area_ha": 25, "tenure_type": "Mineral", "source": "BC MTA Mineral, Placer and Coal Tenure Spatial View (BCGW). Open Government Licence - British Columbia. Not legal title.", "as_of": "2026-09-20", "role": "focus", "color": "#e8b040"}}, {"type": "Feature", "geometry": {"type": "Polygon", "coordinates": [[[-120.0331, 49.352], [-120.0302, 49.3526], [-120.0323, 49.3563], [-120.0372, 49.3553], [-120.0372, 49.3531], [-120.0362, 49.3513], [-120.0331, 49.352]]]}, "properties": {"company_id": "barrick", "jurisdiction": "British Columbia", "claim_id": 363050, "claim_name": "UNION 1", "holder": "BARRICK GOLD INC.", "status": "Mineral", "recorded_date": "8963136000", "anniversary_or_expiry": "2027-02-13", "area_ha": 25, "tenure_type": "Mineral", "source": "BC MTA Mineral, Placer and Coal Tenure Spatial View (BCGW). Open Government Licence - British Columbia. Not legal title.", "as_of": "2026-09-20", "role": "focus", "color": "#e8b040"}}, {"type": "Feature", "geometry": {"type": "Polygon", "coordinates": [[[-120.04, 49.3562], [-120.0399, 49.3593], [-120.0415, 49.3579], [-120.0434, 49.3581], [-120.0436, 49.3569], [-120.0468, 49.3572], [-120.0453, 49.3562], [-120.04, 49.3562]]]}, "properties": {"company_id": "barrick", "jurisdiction": "British Columbia", "claim_id": 363054, "claim_name": "UNION 2", "holder": "BARRICK GOLD INC.", "status": "Mineral", "recorded_date": "8964000000", "anniversary_or_expiry": "2027-02-13", "area_ha": 25, "tenure_type": "Mineral", "source": "BC MTA Mineral, Placer and Coal Tenure Spatial View (BCGW). Open Government Licence - British Columbia. Not legal title.", "as_of": "2026-09-20", "role": "focus", "color": "#e8b040"}}, {"type": "Feature", "geometry": {"type": "Polygon", "coordinates": [[[-121.5347, 49.4615], [-121.5359, 49.4619], [-121.5352, 49.463], [-121.5403, 49.4641], [-121.5403, 49.4604], [-121.5358, 49.4595], [-121.5347, 49.4615]]]}, "properties": {"company_id": "barrick", "jurisdiction": "British Columbia", "claim_id": 383450, "claim_name": "WAY 7", "holder": "BARRICK GOLD INC.", "status": "Mineral", "recorded_date": "9797760000", "anniversary_or_expiry": "2025-08-26", "area_ha": 25, "tenure_type": "Mineral", "source": "BC MTA Mineral, Placer and Coal Tenure Spatial View (BCGW). Open Government Licence - British Columbia. Not legal title.", "as_of": "2026-09-20", "role": "focus", "color": "#e8b040"}}, {"type": "Feature", "geometry": {"type": "Polygon", "coordinates": [[[-121.5445, 49.4566], [-121.5429, 49.4598], [-121.5501, 49.4598], [-121.5511, 49.458], [-121.5445, 49.4566]]]}, "properties": {"company_id": "barrick", "jurisdiction": "British Columbia", "claim_id": 383451, "claim_name": "WAY 8", "holder": "BARRICK GOLD INC.", "status": "Mineral", "recorded_date": "9797760000", "anniversary_or_expiry": "2025-08-26", "area_ha": 25, "tenure_type": "Mineral", "source": "BC MTA Mineral, Placer and Coal Tenure Spatial View (BCGW). Open Government Licence - British Columbia. Not legal title.", "as_of": "2026-09-20", "role": "focus", "color": "#e8b040"}}, {"type": "Feature", "geometry": {"type": "Polygon", "coordinates": [[[-121.5358, 49.4595], [-121.5403, 49.4604], [-121.5403, 49.4598], [-121.5429, 49.4598], [-121.5445, 49.4566], [-121.538, 49.4552], [-121.5358, 49.4595]]]}, "properties": {"company_id": "barrick", "jurisdiction": "British Columbia", "claim_id": 383452, "claim_name": "WAY 9", "holder": "BARRICK GOLD INC.", "status": "Mineral", "recorded_date": "9797760000", "anniversary_or_expiry": "2025-08-26", "area_ha": 25, "tenure_type": "Mineral", "source": "BC MTA Mineral, Placer and Coal Tenure Spatial View (BCGW). Open Government Licence - British Columbia. Not legal title.", "as_of": "2026-09-20", "role": "focus", "color": "#e8b040"}}, {"type": "Feature", "geometry": {"type": "Polygon", "coordinates": [[[-120.0825, 49.3666], [-120.0825, 49.3582], [-120.0512, 49.3582], [-120.0512, 49.3791], [-120.0762, 49.3791], [-120.0762, 49.3707], [-120.0825, 49.3707], [-120.0825, 49.3666]]]}, "properties": {"company_id": "barrick", "jurisdiction": "British Columbia", "claim_id": 503974, "claim_name": "New NP 1", "holder": "BARRICK GOLD INC.", "status": "Mineral", "recorded_date": "2005-01-17", "anniversary_or_expiry": "2025-01-17", "area_ha": 483.867, "tenure_type": "Mineral", "source": "BC MTA Mineral, Placer and Coal Tenure Spatial View (BCGW). Open Government Licence - British Columbia. Not legal title.", "as_of": "2026-09-20", "role": "focus", "color": "#e8b040"}}, {"type": "Feature", "geometry": {"type": "Polygon", "coordinates": [[[-120.0012, 49.3874], [-120.0075, 49.3874], [-120.0075, 49.3832], [-120.0012, 49.3832], [-120.0012, 49.3874]]]}, "properties": {"company_id": "barrick", "jurisdiction": "British Columbia", "claim_id": 504007, "claim_name": "New NP 7", "holder": "BARRICK GOLD INC.", "status": "Mineral", "recorded_date": "2005-01-17", "anniversary_or_expiry": "2025-01-17", "area_ha": 21.03, "tenure_type": "Mineral", "source": "BC MTA Mineral, Placer and Coal Tenure Spatial View (BCGW). Open Government Licence - British Columbia. Not legal title.", "as_of": "2026-09-20", "role": "focus", "color": "#e8b040"}}, {"type": "Feature", "geometry": {"type": "Polygon", "coordinates": [[[-120.0012, 49.3791], [-120.0075, 49.3791], [-120.0075, 49.3749], [-120.0012, 49.3749], [-120.0012, 49.3791]]]}, "properties": {"company_id": "barrick", "jurisdiction": "British Columbia", "claim_id": 504016, "claim_name": "New NP 9", "holder": "BARRICK GOLD INC.", "status": "Mineral", "recorded_date": "2005-01-17", "anniversary_or_expiry": "2025-01-17", "area_ha": 21.033, "tenure_type": "Mineral", "source": "BC MTA Mineral, Placer and Coal Tenure Spatial View (BCGW). Open Government Licence - British Columbia. Not legal title.", "as_of": "2026-09-20", "role": "focus", "color": "#e8b040"}}, {"type": "Feature", "geometry": {"type": "Polygon", "coordinates": [[[-121.52, 49.4582], [-121.52, 49.454], [-121.5138, 49.454], [-121.5138, 49.4457], [-121.4888, 49.4457], [-121.4888, 49.4624], [-121.52, 49.4624], [-121.52, 49.4582]]]}, "properties": {"company_id": "barrick", "jurisdiction": "British Columbia", "claim_id": 504031, "claim_name": "New GN 2", "holder": "BARRICK GOLD INC.", "status": "Mineral", "recorded_date": "2005-01-17", "anniversary_or_expiry": "2025-01-17", "area_ha": 378.004, "tenure_type": "Mineral", "source": "BC MTA Mineral, Placer and Coal Tenure Spatial View (BCGW). Open Government Licence - British Columbia. Not legal title.", "as_of": "2026-09-20", "role": "focus", "color": "#e8b040"}}, {"type": "Feature", "geometry": {"type": "Polygon", "coordinates": [[[-121.47, 49.4874], [-121.47, 49.4832], [-121.4575, 49.4832], [-121.4575, 49.4874], [-121.4513, 49.4874], [-121.4513, 49.4915], [-121.47, 49.4915], [-121.47, 49.4874]]]}, "properties": {"company_id": "barrick", "jurisdiction": "British Columbia", "claim_id": 513310, "claim_name": null, "holder": "BARRICK GOLD INC.", "status": "Mineral", "recorded_date": "2005-05-26", "anniversary_or_expiry": "2025-08-26", "area_ha": 104.932, "tenure_type": "Mineral", "source": "BC MTA Mineral, Placer and Coal Tenure Spatial View (BCGW). Open Government Licence - British Columbia. Not legal title.", "as_of": "2026-09-20", "role": "focus", "color": "#e8b040"}}, {"type": "Feature", "geometry": {"type": "Polygon", "coordinates": [[[-119.995, 49.3832], [-119.995, 49.3791], [-119.9887, 49.3791], [-119.9887, 49.3874], [-119.995, 49.3874], [-119.995, 49.3832]]]}, "properties": {"company_id": "barrick", "jurisdiction": "British Columbia", "claim_id": 513780, "claim_name": null, "holder": "BARRICK GOLD INC.", "status": "Mineral", "recorded_date": "2005-06-02", "anniversary_or_expiry": "2025-02-13", "area_ha": 42.061, "tenure_type": "Mineral", "source": "BC MTA Mineral, Placer and Coal Tenure Spatial View (BCGW). Open Government Licence - British Columbia. Not legal title.", "as_of": "2026-09-20", "role": "focus", "color": "#e8b040"}}, {"type": "Feature", "geometry": {"type": "Polygon", "coordinates": [[[-120.045, 49.3582], [-120.045, 49.3541], [-120.0325, 49.3541], [-120.0325, 49.3582], [-120.0387, 49.3582], [-120.0387, 49.3624], [-120.045, 49.3624], [-120.045, 49.3582]]]}, "properties": {"company_id": "barrick", "jurisdiction": "British Columbia", "claim_id": 513781, "claim_name": null, "holder": "BARRICK GOLD INC.", "status": "Mineral", "recorded_date": "2005-06-02", "anniversary_or_expiry": "2025-02-13", "area_ha": 63.126000000000005, "tenure_type": "Mineral", "source": "BC MTA Mineral, Placer and Coal Tenure Spatial View (BCGW). Open Government Licence - British Columbia. Not legal title.", "as_of": "2026-09-20", "role": "focus", "color": "#e8b040"}}, {"type": "Feature", "geometry": {"type": "Polygon", "coordinates": [[[-120.0325, 49.3624], [-120.0387, 49.3624], [-120.0387, 49.3582], [-120.0325, 49.3582], [-120.0325, 49.3499], [-120.02, 49.3499], [-120.02, 49.3582], [-120.0075, 49.3582], [-120.0075, 49.3666], [-120.0137, 49.3666], [-120.0137, 49.3707], [-120.0262, 49.3707], [-120.0262, 49.3666], [-120.0325, 49.3666], [-120.0325, 49.3624]]]}, "properties": {"company_id": "barrick", "jurisdiction": "British Columbia", "claim_id": 513782, "claim_name": null, "holder": "BARRICK GOLD INC.", "status": "Mineral", "recorded_date": "2005-06-02", "anniversary_or_expiry": "2025-02-13", "area_ha": 315.60400000000004, "tenure_type": "Mineral", "source": "BC MTA Mineral, Placer and Coal Tenure Spatial View (BCGW). Open Government Licence - British Columbia. Not legal title.", "as_of": "2026-09-20", "role": "focus", "color": "#e8b040"}}, {"type": "Feature", "geometry": {"type": "Polygon", "coordinates": [[[-120.0137, 49.3707], [-120.0137, 49.3666], [-120.0075, 49.3666], [-120.0075, 49.3749], [-120.0137, 49.3749], [-120.0137, 49.3707]]]}, "properties": {"company_id": "barrick", "jurisdiction": "British Columbia", "claim_id": 513784, "claim_name": null, "holder": "BARRICK GOLD INC.", "status": "Mineral", "recorded_date": "2005-06-02", "anniversary_or_expiry": "2025-02-13", "area_ha": 42.072, "tenure_type": "Mineral", "source": "BC MTA Mineral, Placer and Coal Tenure Spatial View (BCGW). Open Government Licence - British Columbia. Not legal title.", "as_of": "2026-09-20", "role": "focus", "color": "#e8b040"}}, {"type": "Feature", "geometry": {"type": "Polygon", "coordinates": [[[-120.0137, 49.3582], [-120.02, 49.3582], [-120.02, 49.3541], [-120.0075, 49.3541], [-120.0075, 49.3582], [-120.0137, 49.3582]]]}, "properties": {"company_id": "barrick", "jurisdiction": "British Columbia", "claim_id": 513786, "claim_name": null, "holder": "BARRICK GOLD INC.", "status": "Mineral", "recorded_date": "2005-06-02", "anniversary_or_expiry": "2025-02-13", "area_ha": 42.084, "tenure_type": "Mineral", "source": "BC MTA Mineral, Placer and Coal Tenure Spatial View (BCGW). Open Government Licence - British Columbia. Not legal title.", "as_of": "2026-09-20", "role": "focus", "color": "#e8b040"}}, {"type": "Feature", "geometry": {"type": "Polygon", "coordinates": [[[-120.0387, 49.3457], [-120.0387, 49.3291], [-120.02, 49.3291], [-120.02, 49.3416], [-120.0137, 49.3416], [-120.0137, 49.3541], [-120.02, 49.3541], [-120.02, 49.3499], [-120.0387, 49.3499], [-120.0387, 49.3457]]]}, "properties": {"company_id": "barrick", "jurisdiction": "British Columbia", "claim_id": 513787, "claim_name": null, "holder": "BARRICK GOLD INC.", "status": "Mineral", "recorded_date": "2005-06-02", "anniversary_or_expiry": "2025-02-13", "area_ha": 378.877, "tenure_type": "Mineral", "source": "BC MTA Mineral, Placer and Coal Tenure Spatial View (BCGW). Open Government Licence - British Columbia. Not legal title.", "as_of": "2026-09-20", "role": "focus", "color": "#e8b040"}}, {"type": "Feature", "geometry": {"type": "Polygon", "coordinates": [[[-121.5013, 49.479], [-121.5013, 49.4749], [-121.495, 49.4749], [-121.495, 49.4707], [-121.4888, 49.4707], [-121.4888, 49.4665], [-121.4825, 49.4665], [-121.4825, 49.4707], [-121.47, 49.4707], [-121.47, 49.4749], [-121.4638, 49.4749], [-121.4638, 49.479], [-121.4513, 49.479], [-121.4513, 49.4832], [-121.4763, 49.4832], [-121.4763, 49.4874], [-121.4825, 49.4874], [-121.4825, 49.4832], [-121.5013, 49.4832], [-121.5013, 49.479]]]}, "properties": {"company_id": "barrick", "jurisdiction": "British Columbia", "claim_id": 513790, "claim_name": null, "holder": "BARRICK GOLD INC.", "status": "Mineral", "recorded_date": "2005-06-02", "anniversary_or_expiry": "2025-08-26", "area_ha": 419.81300000000005, "tenure_type": "Mineral", "source": "BC MTA Mineral, Placer and Coal Tenure Spatial View (BCGW). Open Government Licence - British Columbia. Not legal title.", "as_of": "2026-09-20", "role": "focus", "color": "#e8b040"}}, {"type": "Feature", "geometry": {"type": "Polygon", "coordinates": [[[-120.0512, 49.3832], [-120.0575, 49.3832], [-120.0575, 49.3791], [-120.0512, 49.3791], [-120.0512, 49.3582], [-120.045, 49.3582], [-120.045, 49.3666], [-120.0387, 49.3666], [-120.0387, 49.3832], [-120.0512, 49.3832]]]}, "properties": {"company_id": "barrick", "jurisdiction": "British Columbia", "claim_id": 513801, "claim_name": "NEW NP 20", "holder": "BARRICK GOLD INC.", "status": "Mineral", "recorded_date": "2005-06-02", "anniversary_or_expiry": "2025-06-02", "area_ha": 231.389, "tenure_type": "Mineral", "source": "BC MTA Mineral, Placer and Coal Tenure Spatial View (BCGW). Open Government Licence - British Columbia. Not legal title.", "as_of": "2026-09-20", "role": "focus", "color": "#e8b040"}}, {"type": "Feature", "geometry": {"type": "Polygon", "coordinates": [[[-120.0575, 49.3541], [-120.0575, 49.3499], [-120.045, 49.3499], [-120.045, 49.3582], [-120.0575, 49.3582], [-120.0575, 49.3541]]]}, "properties": {"company_id": "barrick", "jurisdiction": "British Columbia", "claim_id": 513855, "claim_name": null, "holder": "BARRICK GOLD INC.", "status": "Mineral", "recorded_date": "2005-06-03", "anniversary_or_expiry": "2025-02-13", "area_ha": 84.174, "tenure_type": "Mineral", "source": "BC MTA Mineral, Placer and Coal Tenure Spatial View (BCGW). Open Government Licence - British Columbia. Not legal title.", "as_of": "2026-09-20", "role": "focus", "color": "#e8b040"}}, {"type": "Feature", "geometry": {"type": "Polygon", "coordinates": [[[-120.0387, 49.3541], [-120.045, 49.3541], [-120.045, 49.3499], [-120.0325, 49.3499], [-120.0325, 49.3541], [-120.0387, 49.3541]]]}, "properties": {"company_id": "barrick", "jurisdiction": "British Columbia", "claim_id": 513856, "claim_name": null, "holder": "BARRICK GOLD INC.", "status": "Mineral", "recorded_date": "2005-06-03", "anniversary_or_expiry": "2025-02-13", "area_ha": 42.088, "tenure_type": "Mineral", "source": "BC MTA Mineral, Placer and Coal Tenure Spatial View (BCGW). Open Government Licence - British Columbia. Not legal title.", "as_of": "2026-09-20", "role": "focus", "color": "#e8b040"}}, {"type": "Feature", "geometry": {"type": "Polygon", "coordinates": [[[-120.07, 49.3582], [-120.0762, 49.3582], [-120.0762, 49.3541], [-120.07, 49.3541], [-120.07, 49.3499], [-120.0575, 49.3499], [-120.0575, 49.3582], [-120.07, 49.3582]]]}, "properties": {"company_id": "barrick", "jurisdiction": "British Columbia", "claim_id": 513857, "claim_name": "NEW NP #21", "holder": "BARRICK GOLD INC.", "status": "Mineral", "recorded_date": "2005-06-03", "anniversary_or_expiry": "2025-06-03", "area_ha": 105.217, "tenure_type": "Mineral", "source": "BC MTA Mineral, Placer and Coal Tenure Spatial View (BCGW). Open Government Licence - British Columbia. Not legal title.", "as_of": "2026-09-20", "role": "focus", "color": "#e8b040"}}, {"type": "Feature", "geometry": {"type": "Polygon", "coordinates": [[[-120.0762, 49.3874], [-120.0762, 49.3791], [-120.0575, 49.3791], [-120.0575, 49.3832], [-120.0387, 49.3832], [-120.0387, 49.3791], [-120.0262, 49.3791], [-120.0262, 49.3832], [-120.02, 49.3832], [-120.02, 49.3874], [-120.0575, 49.3874], [-120.0575, 49.3916], [-120.0762, 49.3916], [-120.0762, 49.3874]]]}, "properties": {"company_id": "barrick", "jurisdiction": "British Columbia", "claim_id": 513867, "claim_name": "NEW NP #22", "holder": "BARRICK GOLD INC.", "status": "Mineral", "recorded_date": "2005-06-03", "anniversary_or_expiry": "2025-06-03", "area_ha": 357.519, "tenure_type": "Mineral", "source": "BC MTA Mineral, Placer and Coal Tenure Spatial View (BCGW). Open Government Licence - British Columbia. Not legal title.", "as_of": "2026-09-20", "role": "focus", "color": "#e8b040"}}, {"type": "Feature", "geometry": {"type": "Polygon", "coordinates": [[[-121.5263, 49.4665], [-121.5325, 49.4665], [-121.5325, 49.4624], [-121.4825, 49.4624], [-121.4825, 49.4665], [-121.4888, 49.4665], [-121.4888, 49.4707], [-121.5013, 49.4707], [-121.5013, 49.4665], [-121.5263, 49.4665]]]}, "properties": {"company_id": "barrick", "jurisdiction": "British Columbia", "claim_id": 513868, "claim_name": "NEW GN #20", "holder": "BARRICK GOLD INC.", "status": "Mineral", "recorded_date": "2005-06-03", "anniversary_or_expiry": "2025-06-03", "area_ha": 209.95700000000002, "tenure_type": "Mineral", "source": "BC MTA Mineral, Placer and Coal Tenure Spatial View (BCGW). Open Government Licence - British Columbia. Not legal title.", "as_of": "2026-09-20", "role": "focus", "color": "#e8b040"}}, {"type": "Feature", "geometry": {"type": "Polygon", "coordinates": [[[-121.5325, 49.4707], [-121.5388, 49.4707], [-121.5388, 49.4665], [-121.5325, 49.4665], [-121.5325, 49.4707]]]}, "properties": {"company_id": "barrick", "jurisdiction": "British Columbia", "claim_id": 513869, "claim_name": "NEW GN #21", "holder": "BARRICK GOLD INC.", "status": "Mineral", "recorded_date": "2005-06-03", "anniversary_or_expiry": "2025-06-03", "area_ha": 20.994, "tenure_type": "Mineral", "source": "BC MTA Mineral, Placer and Coal Tenure Spatial View (BCGW). Open Government Licence - British Columbia. Not legal title.", "as_of": "2026-09-20", "role": "focus", "color": "#e8b040"}}, {"type": "Feature", "geometry": {"type": "Polygon", "coordinates": [[[-120.0387, 49.3749], [-120.0387, 49.3666], [-120.045, 49.3666], [-120.045, 49.3624], [-120.0325, 49.3624], [-120.0325, 49.3666], [-120.0262, 49.3666], [-120.0262, 49.3707], [-120.02, 49.3707], [-120.02, 49.3749], [-120.0262, 49.3749], [-120.0262, 49.3791], [-120.0387, 49.3791], [-120.0387, 49.3749]]]}, "properties": {"company_id": "barrick", "jurisdiction": "British Columbia", "claim_id": 525414, "claim_name": "NEW NP 1-06", "holder": "BARRICK GOLD INC.", "status": "Mineral", "recorded_date": "2006-01-14", "anniversary_or_expiry": "2025-01-14", "area_ha": 189.32500000000002, "tenure_type": "Mineral", "source": "BC MTA Mineral, Placer and Coal Tenure Spatial View (BCGW). Open Government Licence - British Columbia. Not legal title.", "as_of": "2026-09-20", "role": "focus", "color": "#e8b040"}}, {"type": "Feature", "geometry": {"type": "Polygon", "coordinates": [[[-120.02, 49.3832], [-120.0262, 49.3832], [-120.0262, 49.3791], [-120.0137, 49.3791], [-120.0137, 49.3749], [-120.0075, 49.3749], [-120.0075, 49.3791], [-120.0012, 49.3791], [-120.0012, 49.3832], [-120.0075, 49.3832], [-120.0075, 49.3874], [-120.02, 49.3874], [-120.02, 49.3832]]]}, "properties": {"company_id": "barrick", "jurisdiction": "British Columbia", "claim_id": 525421, "claim_name": "NEW NP 2-06", "holder": "BARRICK GOLD INC.", "status": "Mineral", "recorded_date": "2006-01-14", "anniversary_or_expiry": "2025-01-14", "area_ha": 147.22, "tenure_type": "Mineral", "source": "BC MTA Mineral, Placer and Coal Tenure Spatial View (BCGW). Open Government Licence - British Columbia. Not legal title.", "as_of": "2026-09-20", "role": "focus", "color": "#e8b040"}}, {"type": "Feature", "geometry": {"type": "Polygon", "coordinates": [[[-121.5075, 49.4749], [-121.5075, 49.4665], [-121.5013, 49.4665], [-121.5013, 49.4707], [-121.495, 49.4707], [-121.495, 49.4749], [-121.5013, 49.4749], [-121.5013, 49.479], [-121.5075, 49.479], [-121.5075, 49.4749]]]}, "properties": {"company_id": "barrick", "jurisdiction": "British Columbia", "claim_id": 525243, "claim_name": "NEW GN 1-06", "holder": "BARRICK GOLD INC.", "status": "Mineral", "recorded_date": "2006-01-13", "anniversary_or_expiry": "2025-01-13", "area_ha": 83.97, "tenure_type": "Mineral", "source": "BC MTA Mineral, Placer and Coal Tenure Spatial View (BCGW). Open Government Licence - British Columbia. Not legal title.", "as_of": "2026-09-20", "role": "focus", "color": "#e8b040"}}, {"type": "Feature", "geometry": {"type": "Polygon", "coordinates": [[[-120.02, 49.3791], [-120.0262, 49.3791], [-120.0262, 49.3749], [-120.02, 49.3749], [-120.02, 49.3707], [-120.0137, 49.3707], [-120.0137, 49.3791], [-120.02, 49.3791]]]}, "properties": {"company_id": "barrick", "jurisdiction": "British Columbia", "claim_id": 513785, "claim_name": null, "holder": "BARRICK GOLD INC.", "status": "Mineral", "recorded_date": "2005-06-02", "anniversary_or_expiry": "2025-02-13", "area_ha": 63.102000000000004, "tenure_type": "Mineral", "source": "BC MTA Mineral, Placer and Coal Tenure Spatial View (BCGW). Open Government Licence - British Columbia. Not legal title.", "as_of": "2026-09-20", "role": "focus", "color": "#e8b040"}}]}