{"type": "FeatureCollection", "features": [{"type": "Feature", "geometry": {"type": "Polygon", "coordinates": [[[-91.55, 49.8583], [-91.55, 49.8542], [-91.5313, 49.8542], [-91.5313, 49.8583], [-91.5188, 49.8583], [-91.5188, 49.8667], [-91.5125, 49.8667], [-91.5125, 49.8708], [-91.5188, 49.8708], [-91.5188, 49.875], [-91.5438, 49.875], [-91.5438, 49.8708], [-91.55, 49.8708], [-91.55, 49.8583]]]}, "properties": {"company_id": "benton-resources", "jurisdiction": "Ontario", "claim_id": "533920", "claim_name": null, "holder": "(100) BENTON RESOURCES INC.", "status": "Active", "recorded_date": "2018-10-29", "anniversary_or_expiry": "2027-07-11", "area_ha": null, "tenure_type": "Multi-cell Mining Claim", "source": "Ontario MLAS operational claims (OGSEarth / LIO MapServer). Unofficial viewing data, not legal title.", "as_of": "2026-09-20", "role": "focus", "color": "#e8b040"}}, {"type": "Feature", "geometry": {"type": "Polygon", "coordinates": [[[-94.6438, 49.7208], [-94.6438, 49.7167], [-94.6188, 49.7167], [-94.6188, 49.7208], [-94.6125, 49.7208], [-94.6125, 49.725], [-94.6063, 49.725], [-94.6063, 49.7292], [-94.6, 49.7292], [-94.6, 49.7333], [-94.5938, 49.7333], [-94.5938, 49.7375], [-94.6, 49.7375], [-94.6, 49.7417], [-94.6125, 49.7417], [-94.6125, 49.7375], [-94.6188, 49.7375], [-94.6188, 49.7333], [-94.6313, 49.7333], [-94.6313, 49.7292], [-94.6375, 49.7292], [-94.6375, 49.725], [-94.6438, 49.725], [-94.6438, 49.7208]]]}, "properties": {"company_id": "benton-resources", "jurisdiction": "Ontario", "claim_id": "539582", "claim_name": null, "holder": "(100) BENTON RESOURCES INC.", "status": "Active", "recorded_date": "2019-01-21", "anniversary_or_expiry": "2027-06-09", "area_ha": null, "tenure_type": "Multi-cell Mining Claim", "source": "Ontario MLAS operational claims (OGSEarth / LIO MapServer). Unofficial viewing data, not legal title.", "as_of": "2026-09-20", "role": "focus", "color": "#e8b040"}}, {"type": "Feature", "geometry": {"type": "Polygon", "coordinates": [[[-94.6625, 49.7292], [-94.6625, 49.725], [-94.6375, 49.725], [-94.6375, 49.7417], [-94.65, 49.7417], [-94.65, 49.7375], [-94.6625, 49.7375], [-94.6625, 49.7292]]]}, "properties": {"company_id": "benton-resources", "jurisdiction": "Ontario", "claim_id": "539594", "claim_name": null, "holder": "(100) BENTON RESOURCES INC.", "status": "Active", "recorded_date": "2019-01-22", "anniversary_or_expiry": "2027-06-09", "area_ha": null, "tenure_type": "Multi-cell Mining Claim", "source": "Ontario MLAS operational claims (OGSEarth / LIO MapServer). Unofficial viewing data, not legal title.", "as_of": "2026-09-20", "role": "focus", "color": "#e8b040"}}, {"type": "Feature", "geometry": {"type": "Polygon", "coordinates": [[[-94.6375, 49.7333], [-94.6375, 49.7292], [-94.6313, 49.7292], [-94.6313, 49.7333], [-94.6188, 49.7333], [-94.6188, 49.7375], [-94.6125, 49.7375], [-94.6125, 49.7417], [-94.6, 49.7417], [-94.6, 49.7458], [-94.6375, 49.7458], [-94.6375, 49.7333]]]}, "properties": {"company_id": "benton-resources", "jurisdiction": "Ontario", "claim_id": "539595", "claim_name": null, "holder": "(100) BENTON RESOURCES INC.", "status": "Active", "recorded_date": "2019-01-22", "anniversary_or_expiry": "2027-06-09", "area_ha": null, "tenure_type": "Multi-cell Mining Claim", "source": "Ontario MLAS operational claims (OGSEarth / LIO MapServer). Unofficial viewing data, not legal title.", "as_of": "2026-09-20", "role": "focus", "color": "#e8b040"}}, {"type": "Feature", "geometry": {"type": "Polygon", "coordinates": [[[-94.6125, 49.7167], [-94.5875, 49.7167], [-94.5875, 49.7208], [-94.5813, 49.7208], [-94.5813, 49.7292], [-94.5875, 49.7292], [-94.5875, 49.7375], [-94.5938, 49.7375], [-94.5938, 49.7333], [-94.6, 49.7333], [-94.6, 49.7292], [-94.6063, 49.7292], [-94.6063, 49.725], [-94.6125, 49.725], [-94.6125, 49.7208], [-94.6188, 49.7208], [-94.6188, 49.7167], [-94.6125, 49.7167]]]}, "properties": {"company_id": "benton-resources", "jurisdiction": "Ontario", "claim_id": "539731", "claim_name": null, "holder": "(100) BENTON RESOURCES INC.", "status": "Active", "recorded_date": "2019-01-25", "anniversary_or_expiry": "2027-06-09", "area_ha": null, "tenure_type": "Multi-cell Mining Claim", "source": "Ontario MLAS operational claims (OGSEarth / LIO MapServer). Unofficial viewing data, not legal title.", "as_of": "2026-09-20", "role": "focus", "color": "#e8b040"}}, {"type": "Feature", "geometry": {"type": "Polygon", "coordinates": [[[-90.275, 48.6958], [-90.275, 48.6917], [-90.2563, 48.6917], [-90.2563, 48.725], [-90.275, 48.725], [-90.275, 48.6958]]]}, "properties": {"company_id": "benton-resources", "jurisdiction": "Ontario", "claim_id": "587712", "claim_name": null, "holder": "(100) BENTON RESOURCES INC.", "status": "Active", "recorded_date": "2020-05-08", "anniversary_or_expiry": "2028-05-08", "area_ha": null, "tenure_type": "Multi-cell Mining Claim", "source": "Ontario MLAS operational claims (OGSEarth / LIO MapServer). Unofficial viewing data, not legal title.", "as_of": "2026-09-20", "role": "focus", "color": "#e8b040"}}, {"type": "Feature", "geometry": {"type": "Polygon", "coordinates": [[[-90.2563, 48.6958], [-90.2563, 48.6917], [-90.2375, 48.6917], [-90.2375, 48.725], [-90.2563, 48.725], [-90.2563, 48.6958]]]}, "properties": {"company_id": "benton-resources", "jurisdiction": "Ontario", "claim_id": "587713", "claim_name": null, "holder": "(100) BENTON RESOURCES INC.", "status": "Active", "recorded_date": "2020-05-08", "anniversary_or_expiry": "2028-05-08", "area_ha": null, "tenure_type": "Multi-cell Mining Claim", "source": "Ontario MLAS operational claims (OGSEarth / LIO MapServer). Unofficial viewing data, not legal title.", "as_of": "2026-09-20", "role": "focus", "color": "#e8b040"}}, {"type": "Feature", "geometry": {"type": "Polygon", "coordinates": [[[-90.2375, 48.6958], [-90.2375, 48.6917], [-90.225, 48.6917], [-90.225, 48.7042], [-90.2188, 48.7042], [-90.2188, 48.7083], [-90.2125, 48.7083], [-90.2125, 48.725], [-90.2375, 48.725], [-90.2375, 48.6958]]]}, "properties": {"company_id": "benton-resources", "jurisdiction": "Ontario", "claim_id": "587714", "claim_name": null, "holder": "(100) BENTON RESOURCES INC.", "status": "Active", "recorded_date": "2020-05-08", "anniversary_or_expiry": "2028-05-08", "area_ha": null, "tenure_type": "Multi-cell Mining Claim", "source": "Ontario MLAS operational claims (OGSEarth / LIO MapServer). Unofficial viewing data, not legal title.", "as_of": "2026-09-20", "role": "focus", "color": "#e8b040"}}, {"type": "Feature", "geometry": {"type": "Polygon", "coordinates": [[[-90.3, 48.7375], [-90.3, 48.7333], [-90.2938, 48.7333], [-90.2938, 48.725], [-90.2875, 48.725], [-90.2875, 48.7208], [-90.275, 48.7208], [-90.275, 48.725], [-90.2563, 48.725], [-90.2563, 48.7333], [-90.2688, 48.7333], [-90.2688, 48.7375], [-90.2813, 48.7375], [-90.2813, 48.7417], [-90.3, 48.7417], [-90.3, 48.7375]]]}, "properties": {"company_id": "benton-resources", "jurisdiction": "Ontario", "claim_id": "587724", "claim_name": null, "holder": "(100) BENTON RESOURCES INC.", "status": "Active", "recorded_date": "2020-05-08", "anniversary_or_expiry": "2028-05-08", "area_ha": null, "tenure_type": "Multi-cell Mining Claim", "source": "Ontario MLAS operational claims (OGSEarth / LIO MapServer). Unofficial viewing data, not legal title.", "as_of": "2026-09-20", "role": "focus", "color": "#e8b040"}}, {"type": "Feature", "geometry": {"type": "Polygon", "coordinates": [[[-90.2938, 48.6833], [-90.275, 48.6833], [-90.275, 48.7], [-90.2813, 48.7], [-90.2813, 48.6958], [-90.2875, 48.6958], [-90.2875, 48.6917], [-90.2938, 48.6917], [-90.2938, 48.6875], [-90.3, 48.6875], [-90.3, 48.6833], [-90.2938, 48.6833]]]}, "properties": {"company_id": "benton-resources", "jurisdiction": "Ontario", "claim_id": "590111", "claim_name": null, "holder": "(100) BENTON RESOURCES INC.", "status": "Active", "recorded_date": "2020-05-18", "anniversary_or_expiry": "2028-05-18", "area_ha": null, "tenure_type": "Multi-cell Mining Claim", "source": "Ontario MLAS operational claims (OGSEarth / LIO MapServer). Unofficial viewing data, not legal title.", "as_of": "2026-09-20", "role": "focus", "color": "#e8b040"}}, {"type": "Feature", "geometry": {"type": "Polygon", "coordinates": [[[-85.8438, 48.7042], [-85.8438, 48.7], [-85.8375, 48.7], [-85.8375, 48.6917], [-85.8188, 48.6917], [-85.8188, 48.6958], [-85.825, 48.6958], [-85.825, 48.7], [-85.8188, 48.7], [-85.8188, 48.7208], [-85.8438, 48.7208], [-85.8438, 48.7042]]]}, "properties": {"company_id": "benton-resources", "jurisdiction": "Ontario", "claim_id": "621523", "claim_name": null, "holder": "(100) BENTON RESOURCES INC.", "status": "Hold Special Circumstances Apply", "recorded_date": "2020-11-30", "anniversary_or_expiry": "2025-11-25", "area_ha": null, "tenure_type": "Multi-cell Mining Claim", "source": "Ontario MLAS operational claims (OGSEarth / LIO MapServer). Unofficial viewing data, not legal title.", "as_of": "2026-09-20", "role": "focus", "color": "#e8b040"}}, {"type": "Feature", "geometry": {"type": "Polygon", "coordinates": [[[-85.8188, 48.7], [-85.8188, 48.6958], [-85.7938, 48.6958], [-85.7938, 48.7208], [-85.8188, 48.7208], [-85.8188, 48.7]], [[-85.8, 48.7083], [-85.8125, 48.7083], [-85.8125, 48.7167], [-85.8, 48.7167], [-85.8, 48.7083]]]}, "properties": {"company_id": "benton-resources", "jurisdiction": "Ontario", "claim_id": "621524", "claim_name": null, "holder": "(100) BENTON RESOURCES INC.", "status": "Hold Special Circumstances Apply", "recorded_date": "2020-11-30", "anniversary_or_expiry": "2025-11-25", "area_ha": null, "tenure_type": "Multi-cell Mining Claim", "source": "Ontario MLAS operational claims (OGSEarth / LIO MapServer). Unofficial viewing data, not legal title.", "as_of": "2026-09-20", "role": "focus", "color": "#e8b040"}}, {"type": "Feature", "geometry": {"type": "Polygon", "coordinates": [[[-85.7938, 48.7], [-85.7938, 48.6958], [-85.7688, 48.6958], [-85.7688, 48.7208], [-85.7938, 48.7208], [-85.7938, 48.7]]]}, "properties": {"company_id": "benton-resources", "jurisdiction": "Ontario", "claim_id": "621525", "claim_name": null, "holder": "(100) BENTON RESOURCES INC.", "status": "Hold Special Circumstances Apply", "recorded_date": "2020-11-30", "anniversary_or_expiry": "2025-11-25", "area_ha": null, "tenure_type": "Multi-cell Mining Claim", "source": "Ontario MLAS operational claims (OGSEarth / LIO MapServer). Unofficial viewing data, not legal title.", "as_of": "2026-09-20", "role": "focus", "color": "#e8b040"}}, {"type": "Feature", "geometry": {"type": "Polygon", "coordinates": [[[-85.7688, 48.7], [-85.7688, 48.6958], [-85.7563, 48.6958], [-85.7563, 48.6917], [-85.75, 48.6917], [-85.75, 48.7208], [-85.7688, 48.7208], [-85.7688, 48.7]]]}, "properties": {"company_id": "benton-resources", "jurisdiction": "Ontario", "claim_id": "621526", "claim_name": null, "holder": "(100) BENTON RESOURCES INC.", "status": "Hold Special Circumstances Apply", "recorded_date": "2020-11-30", "anniversary_or_expiry": "2025-11-25", "area_ha": null, "tenure_type": "Multi-cell Mining Claim", "source": "Ontario MLAS operational claims (OGSEarth / LIO MapServer). Unofficial viewing data, not legal title.", "as_of": "2026-09-20", "role": "focus", "color": "#e8b040"}}, {"type": "Feature", "geometry": {"type": "Polygon", "coordinates": [[[-85.75, 48.6958], [-85.75, 48.6917], [-85.7313, 48.6917], [-85.7313, 48.7208], [-85.75, 48.7208], [-85.75, 48.6958]]]}, "properties": {"company_id": "benton-resources", "jurisdiction": "Ontario", "claim_id": "621527", "claim_name": null, "holder": "(100) BENTON RESOURCES INC.", "status": "Hold Special Circumstances Apply", "recorded_date": "2020-11-30", "anniversary_or_expiry": "2025-11-25", "area_ha": null, "tenure_type": "Multi-cell Mining Claim", "source": "Ontario MLAS operational claims (OGSEarth / LIO MapServer). Unofficial viewing data, not legal title.", "as_of": "2026-09-20", "role": "focus", "color": "#e8b040"}}, {"type": "Feature", "geometry": {"type": "Polygon", "coordinates": [[[-85.7313, 48.6958], [-85.7313, 48.6917], [-85.7125, 48.6917], [-85.7125, 48.7208], [-85.7313, 48.7208], [-85.7313, 48.6958]]]}, "properties": {"company_id": "benton-resources", "jurisdiction": "Ontario", "claim_id": "621528", "claim_name": null, "holder": "(100) BENTON RESOURCES INC.", "status": "Hold Special Circumstances Apply", "recorded_date": "2020-11-30", "anniversary_or_expiry": "2025-11-25", "area_ha": null, "tenure_type": "Multi-cell Mining Claim", "source": "Ontario MLAS operational claims (OGSEarth / LIO MapServer). Unofficial viewing data, not legal title.", "as_of": "2026-09-20", "role": "focus", "color": "#e8b040"}}, {"type": "Feature", "geometry": {"type": "Polygon", "coordinates": [[[-85.7125, 48.6958], [-85.7125, 48.6917], [-85.6938, 48.6917], [-85.6938, 48.7125], [-85.7125, 48.7125], [-85.7125, 48.6958]]]}, "properties": {"company_id": "benton-resources", "jurisdiction": "Ontario", "claim_id": "621529", "claim_name": null, "holder": "(100) BENTON RESOURCES INC.", "status": "Hold Special Circumstances Apply", "recorded_date": "2020-11-30", "anniversary_or_expiry": "2025-11-25", "area_ha": null, "tenure_type": "Multi-cell Mining Claim", "source": "Ontario MLAS operational claims (OGSEarth / LIO MapServer). Unofficial viewing data, not legal title.", "as_of": "2026-09-20", "role": "focus", "color": "#e8b040"}}, {"type": "Feature", "geometry": {"type": "Polygon", "coordinates": [[[-90.175, 48.6583], [-90.175, 48.6542], [-90.1438, 48.6542], [-90.1438, 48.6667], [-90.175, 48.6667], [-90.175, 48.6583]]]}, "properties": {"company_id": "benton-resources", "jurisdiction": "Ontario", "claim_id": "621532", "claim_name": null, "holder": "(100) BENTON RESOURCES INC.", "status": "Active", "recorded_date": "2020-11-30", "anniversary_or_expiry": "2028-05-26", "area_ha": null, "tenure_type": "Multi-cell Mining Claim", "source": "Ontario MLAS operational claims (OGSEarth / LIO MapServer). Unofficial viewing data, not legal title.", "as_of": "2026-09-20", "role": "focus", "color": "#e8b040"}}, {"type": "Feature", "geometry": {"type": "Polygon", "coordinates": [[[-90.1438, 48.65], [-90.1438, 48.6458], [-90.1, 48.6458], [-90.1, 48.65], [-90.0938, 48.65], [-90.0938, 48.6542], [-90.0875, 48.6542], [-90.0875, 48.6583], [-90.1438, 48.6583], [-90.1438, 48.65]]]}, "properties": {"company_id": "benton-resources", "jurisdiction": "Ontario", "claim_id": "621533", "claim_name": null, "holder": "(100) BENTON RESOURCES INC.", "status": "Active", "recorded_date": "2020-11-30", "anniversary_or_expiry": "2028-05-26", "area_ha": null, "tenure_type": "Multi-cell Mining Claim", "source": "Ontario MLAS operational claims (OGSEarth / LIO MapServer). Unofficial viewing data, not legal title.", "as_of": "2026-09-20", "role": "focus", "color": "#e8b040"}}, {"type": "Feature", "geometry": {"type": "Polygon", "coordinates": [[[-90.1438, 48.6625], [-90.1438, 48.6583], [-90.1063, 48.6583], [-90.1063, 48.6708], [-90.1438, 48.6708], [-90.1438, 48.6625]]]}, "properties": {"company_id": "benton-resources", "jurisdiction": "Ontario", "claim_id": "621534", "claim_name": null, "holder": "(100) BENTON RESOURCES INC.", "status": "Active", "recorded_date": "2020-11-30", "anniversary_or_expiry": "2028-05-26", "area_ha": null, "tenure_type": "Multi-cell Mining Claim", "source": "Ontario MLAS operational claims (OGSEarth / LIO MapServer). Unofficial viewing data, not legal title.", "as_of": "2026-09-20", "role": "focus", "color": "#e8b040"}}, {"type": "Feature", "geometry": {"type": "Polygon", "coordinates": [[[-90.3188, 48.6667], [-90.3188, 48.6625], [-90.2938, 48.6625], [-90.2938, 48.675], [-90.275, 48.675], [-90.275, 48.6833], [-90.3125, 48.6833], [-90.3125, 48.6792], [-90.3188, 48.6792], [-90.3188, 48.6667]]]}, "properties": {"company_id": "benton-resources", "jurisdiction": "Ontario", "claim_id": "621750", "claim_name": null, "holder": "(100) BENTON RESOURCES INC.", "status": "Active", "recorded_date": "2020-12-01", "anniversary_or_expiry": "2028-05-03", "area_ha": null, "tenure_type": "Multi-cell Mining Claim", "source": "Ontario MLAS operational claims (OGSEarth / LIO MapServer). Unofficial viewing data, not legal title.", "as_of": "2026-09-20", "role": "focus", "color": "#e8b040"}}, {"type": "Feature", "geometry": {"type": "Polygon", "coordinates": [[[-90.275, 48.6833], [-90.275, 48.6792], [-90.225, 48.6792], [-90.225, 48.6917], [-90.275, 48.6917], [-90.275, 48.6833]]]}, "properties": {"company_id": "benton-resources", "jurisdiction": "Ontario", "claim_id": "621751", "claim_name": null, "holder": "(100) BENTON RESOURCES INC.", "status": "Active", "recorded_date": "2020-12-01", "anniversary_or_expiry": "2028-01-09", "area_ha": null, "tenure_type": "Multi-cell Mining Claim", "source": "Ontario MLAS operational claims (OGSEarth / LIO MapServer). Unofficial viewing data, not legal title.", "as_of": "2026-09-20", "role": "focus", "color": "#e8b040"}}, {"type": "Feature", "geometry": {"type": "Polygon", "coordinates": [[[-90.2688, 48.675], [-90.2625, 48.675], [-90.2625, 48.6667], [-90.2438, 48.6667], [-90.2438, 48.6708], [-90.2375, 48.6708], [-90.2313, 48.6708], [-90.2313, 48.6667], [-90.225, 48.6667], [-90.225, 48.6792], [-90.275, 48.6792], [-90.275, 48.675], [-90.2688, 48.675]]]}, "properties": {"company_id": "benton-resources", "jurisdiction": "Ontario", "claim_id": "621757", "claim_name": null, "holder": "(100) BENTON RESOURCES INC.", "status": "Active", "recorded_date": "2020-12-01", "anniversary_or_expiry": "2028-04-25", "area_ha": null, "tenure_type": "Multi-cell Mining Claim", "source": "Ontario MLAS operational claims (OGSEarth / LIO MapServer). Unofficial viewing data, not legal title.", "as_of": "2026-09-20", "role": "focus", "color": "#e8b040"}}, {"type": "Feature", "geometry": {"type": "Polygon", "coordinates": [[[-90.225, 48.6708], [-90.225, 48.6667], [-90.2, 48.6667], [-90.2, 48.6833], [-90.225, 48.6833], [-90.225, 48.6708]]]}, "properties": {"company_id": "benton-resources", "jurisdiction": "Ontario", "claim_id": "621758", "claim_name": null, "holder": "(100) BENTON RESOURCES INC.", "status": "Active", "recorded_date": "2020-12-01", "anniversary_or_expiry": "2028-04-25", "area_ha": null, "tenure_type": "Multi-cell Mining Claim", "source": "Ontario MLAS operational claims (OGSEarth / LIO MapServer). Unofficial viewing data, not legal title.", "as_of": "2026-09-20", "role": "focus", "color": "#e8b040"}}, {"type": "Feature", "geometry": {"type": "Polygon", "coordinates": [[[-90.2, 48.6708], [-90.2, 48.6667], [-90.1625, 48.6667], [-90.1625, 48.6708], [-90.175, 48.6708], [-90.175, 48.675], [-90.1813, 48.675], [-90.1813, 48.6792], [-90.2, 48.6792], [-90.2, 48.6708]]]}, "properties": {"company_id": "benton-resources", "jurisdiction": "Ontario", "claim_id": "621759", "claim_name": null, "holder": "(100) BENTON RESOURCES INC.", "status": "Active", "recorded_date": "2020-12-01", "anniversary_or_expiry": "2028-05-20", "area_ha": null, "tenure_type": "Multi-cell Mining Claim", "source": "Ontario MLAS operational claims (OGSEarth / LIO MapServer). Unofficial viewing data, not legal title.", "as_of": "2026-09-20", "role": "focus", "color": "#e8b040"}}, {"type": "Feature", "geometry": {"type": "Polygon", "coordinates": [[[-90.225, 48.6875], [-90.225, 48.6833], [-90.2, 48.6833], [-90.2, 48.7083], [-90.2188, 48.7083], [-90.2188, 48.7042], [-90.225, 48.7042], [-90.225, 48.6875]]]}, "properties": {"company_id": "benton-resources", "jurisdiction": "Ontario", "claim_id": "621760", "claim_name": null, "holder": "(100) BENTON RESOURCES INC.", "status": "Active", "recorded_date": "2020-12-01", "anniversary_or_expiry": "2028-05-08", "area_ha": null, "tenure_type": "Multi-cell Mining Claim", "source": "Ontario MLAS operational claims (OGSEarth / LIO MapServer). Unofficial viewing data, not legal title.", "as_of": "2026-09-20", "role": "focus", "color": "#e8b040"}}, {"type": "Feature", "geometry": {"type": "Polygon", "coordinates": [[[-90.2, 48.6833], [-90.2, 48.6792], [-90.1813, 48.6792], [-90.1813, 48.7], [-90.1688, 48.7], [-90.1688, 48.7042], [-90.2, 48.7042], [-90.2, 48.6833]]]}, "properties": {"company_id": "benton-resources", "jurisdiction": "Ontario", "claim_id": "621761", "claim_name": null, "holder": "(100) BENTON RESOURCES INC.", "status": "Active", "recorded_date": "2020-12-01", "anniversary_or_expiry": "2028-06-20", "area_ha": null, "tenure_type": "Multi-cell Mining Claim", "source": "Ontario MLAS operational claims (OGSEarth / LIO MapServer). Unofficial viewing data, not legal title.", "as_of": "2026-09-20", "role": "focus", "color": "#e8b040"}}, {"type": "Feature", "geometry": {"type": "Polygon", "coordinates": [[[-88.5125, 48.9292], [-88.5125, 48.9333], [-88.5188, 48.9333], [-88.5188, 48.9292], [-88.5125, 48.9292]]]}, "properties": {"company_id": "benton-resources", "jurisdiction": "Ontario", "claim_id": "1028039", "claim_name": null, "holder": "(100) BENTON RESOURCES INC.", "status": "Active", "recorded_date": "2026-02-24", "anniversary_or_expiry": "2028-02-24", "area_ha": null, "tenure_type": "Single Cell Mining Claim", "source": "Ontario MLAS operational claims (OGSEarth / LIO MapServer). Unofficial viewing data, not legal title.", "as_of": "2026-09-20", "role": "focus", "color": "#e8b040"}}, {"type": "Feature", "geometry": {"type": "Polygon", "coordinates": [[[-88.5063, 48.9292], [-88.5063, 48.9333], [-88.5125, 48.9333], [-88.5125, 48.9292], [-88.5063, 48.9292]]]}, "properties": {"company_id": "benton-resources", "jurisdiction": "Ontario", "claim_id": "1028040", "claim_name": null, "holder": "(100) BENTON RESOURCES INC.", "status": "Active", "recorded_date": "2026-02-24", "anniversary_or_expiry": "2028-02-24", "area_ha": null, "tenure_type": "Single Cell Mining Claim", "source": "Ontario MLAS operational claims (OGSEarth / LIO MapServer). Unofficial viewing data, not legal title.", "as_of": "2026-09-20", "role": "focus", "color": "#e8b040"}}, {"type": "Feature", "geometry": {"type": "Polygon", "coordinates": [[[-88.5438, 48.925], [-88.5438, 48.9292], [-88.55, 48.9292], [-88.55, 48.925], [-88.5438, 48.925]]]}, "properties": {"company_id": "benton-resources", "jurisdiction": "Ontario", "claim_id": "1028041", "claim_name": null, "holder": "(100) BENTON RESOURCES INC.", "status": "Active", "recorded_date": "2026-02-24", "anniversary_or_expiry": "2028-02-24", "area_ha": null, "tenure_type": "Single Cell Mining Claim", "source": "Ontario MLAS operational claims (OGSEarth / LIO MapServer). Unofficial viewing data, not legal title.", "as_of": "2026-09-20", "role": "focus", "color": "#e8b040"}}, {"type": "Feature", "geometry": {"type": "Polygon", "coordinates": [[[-88.5375, 48.925], [-88.5375, 48.9292], [-88.5438, 48.9292], [-88.5438, 48.925], [-88.5375, 48.925]]]}, "properties": {"company_id": "benton-resources", "jurisdiction": "Ontario", "claim_id": "1028042", "claim_name": null, "holder": "(100) BENTON RESOURCES INC.", "status": "Active", "recorded_date": "2026-02-24", "anniversary_or_expiry": "2028-02-24", "area_ha": null, "tenure_type": "Single Cell Mining Claim", "source": "Ontario MLAS operational claims (OGSEarth / LIO MapServer). Unofficial viewing data, not legal title.", "as_of": "2026-09-20", "role": "focus", "color": "#e8b040"}}, {"type": "Feature", "geometry": {"type": "Polygon", "coordinates": [[[-88.5313, 48.925], [-88.5313, 48.9292], [-88.5375, 48.9292], [-88.5375, 48.925], [-88.5313, 48.925]]]}, "properties": {"company_id": "benton-resources", "jurisdiction": "Ontario", "claim_id": "1028043", "claim_name": null, "holder": "(100) BENTON RESOURCES INC.", "status": "Active", "recorded_date": "2026-02-24", "anniversary_or_expiry": "2028-02-24", "area_ha": null, "tenure_type": "Single Cell Mining Claim", "source": "Ontario MLAS operational claims (OGSEarth / LIO MapServer). Unofficial viewing data, not legal title.", "as_of": "2026-09-20", "role": "focus", "color": "#e8b040"}}, {"type": "Feature", "geometry": {"type": "Polygon", "coordinates": [[[-88.525, 48.925], [-88.525, 48.9292], [-88.5313, 48.9292], [-88.5313, 48.925], [-88.525, 48.925]]]}, "properties": {"company_id": "benton-resources", "jurisdiction": "Ontario", "claim_id": "1028044", "claim_name": null, "holder": "(100) BENTON RESOURCES INC.", "status": "Active", "recorded_date": "2026-02-24", "anniversary_or_expiry": "2028-02-24", "area_ha": null, "tenure_type": "Single Cell Mining Claim", "source": "Ontario MLAS operational claims (OGSEarth / LIO MapServer). Unofficial viewing data, not legal title.", "as_of": "2026-09-20", "role": "focus", "color": "#e8b040"}}, {"type": "Feature", "geometry": {"type": "Polygon", "coordinates": [[[-88.5188, 48.925], [-88.5188, 48.9292], [-88.525, 48.9292], [-88.525, 48.925], [-88.5188, 48.925]]]}, "properties": {"company_id": "benton-resources", "jurisdiction": "Ontario", "claim_id": "1028045", "claim_name": null, "holder": "(100) BENTON RESOURCES INC.", "status": "Active", "recorded_date": "2026-02-24", "anniversary_or_expiry": "2028-02-24", "area_ha": null, "tenure_type": "Single Cell Mining Claim", "source": "Ontario MLAS operational claims (OGSEarth / LIO MapServer). Unofficial viewing data, not legal title.", "as_of": "2026-09-20", "role": "focus", "color": "#e8b040"}}, {"type": "Feature", "geometry": {"type": "Polygon", "coordinates": [[[-88.5125, 48.925], [-88.5125, 48.9292], [-88.5188, 48.9292], [-88.5188, 48.925], [-88.5125, 48.925]]]}, "properties": {"company_id": "benton-resources", "jurisdiction": "Ontario", "claim_id": "1028046", "claim_name": null, "holder": "(100) BENTON RESOURCES INC.", "status": "Active", "recorded_date": "2026-02-24", "anniversary_or_expiry": "2028-02-24", "area_ha": null, "tenure_type": "Single Cell Mining Claim", "source": "Ontario MLAS operational claims (OGSEarth / LIO MapServer). Unofficial viewing data, not legal title.", "as_of": "2026-09-20", "role": "focus", "color": "#e8b040"}}, {"type": "Feature", "geometry": {"type": "Polygon", "coordinates": [[[-88.5063, 48.925], [-88.5063, 48.9292], [-88.5125, 48.9292], [-88.5125, 48.925], [-88.5063, 48.925]]]}, "properties": {"company_id": "benton-resources", "jurisdiction": "Ontario", "claim_id": "1028047", "claim_name": null, "holder": "(100) BENTON RESOURCES INC.", "status": "Active", "recorded_date": "2026-02-24", "anniversary_or_expiry": "2028-02-24", "area_ha": null, "tenure_type": "Single Cell Mining Claim", "source": "Ontario MLAS operational claims (OGSEarth / LIO MapServer). Unofficial viewing data, not legal title.", "as_of": "2026-09-20", "role": "focus", "color": "#e8b040"}}, {"type": "Feature", "geometry": {"type": "Polygon", "coordinates": [[[-88.5438, 48.9208], [-88.5438, 48.925], [-88.55, 48.925], [-88.55, 48.9208], [-88.5438, 48.9208]]]}, "properties": {"company_id": "benton-resources", "jurisdiction": "Ontario", "claim_id": "1028048", "claim_name": null, "holder": "(100) BENTON RESOURCES INC.", "status": "Active", "recorded_date": "2026-02-24", "anniversary_or_expiry": "2028-02-24", "area_ha": null, "tenure_type": "Single Cell Mining Claim", "source": "Ontario MLAS operational claims (OGSEarth / LIO MapServer). Unofficial viewing data, not legal title.", "as_of": "2026-09-20", "role": "focus", "color": "#e8b040"}}, {"type": "Feature", "geometry": {"type": "Polygon", "coordinates": [[[-88.5375, 48.9208], [-88.5375, 48.925], [-88.5438, 48.925], [-88.5438, 48.9208], [-88.5375, 48.9208]]]}, "properties": {"company_id": "benton-resources", "jurisdiction": "Ontario", "claim_id": "1028049", "claim_name": null, "holder": "(100) BENTON RESOURCES INC.", "status": "Active", "recorded_date": "2026-02-24", "anniversary_or_expiry": "2028-02-24", "area_ha": null, "tenure_type": "Single Cell Mining Claim", "source": "Ontario MLAS operational claims (OGSEarth / LIO MapServer). Unofficial viewing data, not legal title.", "as_of": "2026-09-20", "role": "focus", "color": "#e8b040"}}, {"type": "Feature", "geometry": {"type": "Polygon", "coordinates": [[[-88.5313, 48.9208], [-88.5313, 48.925], [-88.5375, 48.925], [-88.5375, 48.9208], [-88.5313, 48.9208]]]}, "properties": {"company_id": "benton-resources", "jurisdiction": "Ontario", "claim_id": "1028050", "claim_name": null, "holder": "(100) BENTON RESOURCES INC.", "status": "Active", "recorded_date": "2026-02-24", "anniversary_or_expiry": "2028-02-24", "area_ha": null, "tenure_type": "Single Cell Mining Claim", "source": "Ontario MLAS operational claims (OGSEarth / LIO MapServer). Unofficial viewing data, not legal title.", "as_of": "2026-09-20", "role": "focus", "color": "#e8b040"}}, {"type": "Feature", "geometry": {"type": "Polygon", "coordinates": [[[-88.525, 48.9208], [-88.525, 48.925], [-88.5313, 48.925], [-88.5313, 48.9208], [-88.525, 48.9208]]]}, "properties": {"company_id": "benton-resources", "jurisdiction": "Ontario", "claim_id": "1028051", "claim_name": null, "holder": "(100) BENTON RESOURCES INC.", "status": "Active", "recorded_date": "2026-02-24", "anniversary_or_expiry": "2028-02-24", "area_ha": null, "tenure_type": "Single Cell Mining Claim", "source": "Ontario MLAS operational claims (OGSEarth / LIO MapServer). Unofficial viewing data, not legal title.", "as_of": "2026-09-20", "role": "focus", "color": "#e8b040"}}, {"type": "Feature", "geometry": {"type": "Polygon", "coordinates": [[[-88.5188, 48.9208], [-88.5188, 48.925], [-88.525, 48.925], [-88.525, 48.9208], [-88.5188, 48.9208]]]}, "properties": {"company_id": "benton-resources", "jurisdiction": "Ontario", "claim_id": "1028052", "claim_name": null, "holder": "(100) BENTON RESOURCES INC.", "status": "Active", "recorded_date": "2026-02-24", "anniversary_or_expiry": "2028-02-24", "area_ha": null, "tenure_type": "Single Cell Mining Claim", "source": "Ontario MLAS operational claims (OGSEarth / LIO MapServer). Unofficial viewing data, not legal title.", "as_of": "2026-09-20", "role": "focus", "color": "#e8b040"}}, {"type": "Feature", "geometry": {"type": "Polygon", "coordinates": [[[-88.5125, 48.9208], [-88.5125, 48.925], [-88.5188, 48.925], [-88.5188, 48.9208], [-88.5125, 48.9208]]]}, "properties": {"company_id": "benton-resources", "jurisdiction": "Ontario", "claim_id": "1028053", "claim_name": null, "holder": "(100) BENTON RESOURCES INC.", "status": "Active", "recorded_date": "2026-02-24", "anniversary_or_expiry": "2028-02-24", "area_ha": null, "tenure_type": "Single Cell Mining Claim", "source": "Ontario MLAS operational claims (OGSEarth / LIO MapServer). Unofficial viewing data, not legal title.", "as_of": "2026-09-20", "role": "focus", "color": "#e8b040"}}, {"type": "Feature", "geometry": {"type": "Polygon", "coordinates": [[[-88.5063, 48.9208], [-88.5063, 48.925], [-88.5125, 48.925], [-88.5125, 48.9208], [-88.5063, 48.9208]]]}, "properties": {"company_id": "benton-resources", "jurisdiction": "Ontario", "claim_id": "1028054", "claim_name": null, "holder": "(100) BENTON RESOURCES INC.", "status": "Active", "recorded_date": "2026-02-24", "anniversary_or_expiry": "2028-02-24", "area_ha": null, "tenure_type": "Single Cell Mining Claim", "source": "Ontario MLAS operational claims (OGSEarth / LIO MapServer). Unofficial viewing data, not legal title.", "as_of": "2026-09-20", "role": "focus", "color": "#e8b040"}}, {"type": "Feature", "geometry": {"type": "Polygon", "coordinates": [[[-88.5, 48.925], [-88.5, 48.9292], [-88.5063, 48.9292], [-88.5063, 48.925], [-88.5, 48.925]]]}, "properties": {"company_id": "benton-resources", "jurisdiction": "Ontario", "claim_id": "1036065", "claim_name": null, "holder": "(100) BENTON RESOURCES INC.", "status": "Active", "recorded_date": "2026-03-24", "anniversary_or_expiry": "2028-03-24", "area_ha": null, "tenure_type": "Single Cell Mining Claim", "source": "Ontario MLAS operational claims (OGSEarth / LIO MapServer). Unofficial viewing data, not legal title.", "as_of": "2026-09-20", "role": "focus", "color": "#e8b040"}}, {"type": "Feature", "geometry": {"type": "Polygon", "coordinates": [[[-88.4813, 48.9292], [-88.4813, 48.9333], [-88.4875, 48.9333], [-88.4875, 48.9292], [-88.4813, 48.9292]]]}, "properties": {"company_id": "benton-resources", "jurisdiction": "Ontario", "claim_id": "1036066", "claim_name": null, "holder": "(100) BENTON RESOURCES INC.", "status": "Active", "recorded_date": "2026-03-24", "anniversary_or_expiry": "2028-03-24", "area_ha": null, "tenure_type": "Single Cell Mining Claim", "source": "Ontario MLAS operational claims (OGSEarth / LIO MapServer). Unofficial viewing data, not legal title.", "as_of": "2026-09-20", "role": "focus", "color": "#e8b040"}}, {"type": "Feature", "geometry": {"type": "Polygon", "coordinates": [[[-88.475, 48.9333], [-88.475, 48.9375], [-88.4813, 48.9375], [-88.4813, 48.9333], [-88.475, 48.9333]]]}, "properties": {"company_id": "benton-resources", "jurisdiction": "Ontario", "claim_id": "1036067", "claim_name": null, "holder": "(100) BENTON RESOURCES INC.", "status": "Active", "recorded_date": "2026-03-24", "anniversary_or_expiry": "2028-03-24", "area_ha": null, "tenure_type": "Single Cell Mining Claim", "source": "Ontario MLAS operational claims (OGSEarth / LIO MapServer). Unofficial viewing data, not legal title.", "as_of": "2026-09-20", "role": "focus", "color": "#e8b040"}}, {"type": "Feature", "geometry": {"type": "Polygon", "coordinates": [[[-88.4688, 48.9292], [-88.4688, 48.9333], [-88.475, 48.9333], [-88.475, 48.9292], [-88.4688, 48.9292]]]}, "properties": {"company_id": "benton-resources", "jurisdiction": "Ontario", "claim_id": "1036068", "claim_name": null, "holder": "(100) BENTON RESOURCES INC.", "status": "Active", "recorded_date": "2026-03-24", "anniversary_or_expiry": "2028-03-24", "area_ha": null, "tenure_type": "Single Cell Mining Claim", "source": "Ontario MLAS operational claims (OGSEarth / LIO MapServer). Unofficial viewing data, not legal title.", "as_of": "2026-09-20", "role": "focus", "color": "#e8b040"}}, {"type": "Feature", "geometry": {"type": "Polygon", "coordinates": [[[-88.5, 48.9333], [-88.5, 48.9375], [-88.5063, 48.9375], [-88.5063, 48.9333], [-88.5, 48.9333]]]}, "properties": {"company_id": "benton-resources", "jurisdiction": "Ontario", "claim_id": "1036069", "claim_name": null, "holder": "(100) BENTON RESOURCES INC.", "status": "Active", "recorded_date": "2026-03-24", "anniversary_or_expiry": "2028-03-24", "area_ha": null, "tenure_type": "Single Cell Mining Claim", "source": "Ontario MLAS operational claims (OGSEarth / LIO MapServer). Unofficial viewing data, not legal title.", "as_of": "2026-09-20", "role": "focus", "color": "#e8b040"}}, {"type": "Feature", "geometry": {"type": "Polygon", "coordinates": [[[-88.4938, 48.925], [-88.4938, 48.9292], [-88.5, 48.9292], [-88.5, 48.925], [-88.4938, 48.925]]]}, "properties": {"company_id": "benton-resources", "jurisdiction": "Ontario", "claim_id": "1036070", "claim_name": null, "holder": "(100) BENTON RESOURCES INC.", "status": "Active", "recorded_date": "2026-03-24", "anniversary_or_expiry": "2028-03-24", "area_ha": null, "tenure_type": "Single Cell Mining Claim", "source": "Ontario MLAS operational claims (OGSEarth / LIO MapServer). Unofficial viewing data, not legal title.", "as_of": "2026-09-20", "role": "focus", "color": "#e8b040"}}, {"type": "Feature", "geometry": {"type": "Polygon", "coordinates": [[[-88.4938, 48.9292], [-88.4938, 48.9333], [-88.5, 48.9333], [-88.5, 48.9292], [-88.4938, 48.9292]]]}, "properties": {"company_id": "benton-resources", "jurisdiction": "Ontario", "claim_id": "1036071", "claim_name": null, "holder": "(100) BENTON RESOURCES INC.", "status": "Active", "recorded_date": "2026-03-24", "anniversary_or_expiry": "2028-03-24", "area_ha": null, "tenure_type": "Single Cell Mining Claim", "source": "Ontario MLAS operational claims (OGSEarth / LIO MapServer). Unofficial viewing data, not legal title.", "as_of": "2026-09-20", "role": "focus", "color": "#e8b040"}}, {"type": "Feature", "geometry": {"type": "Polygon", "coordinates": [[[-88.4875, 48.925], [-88.4875, 48.9292], [-88.4938, 48.9292], [-88.4938, 48.925], [-88.4875, 48.925]]]}, "properties": {"company_id": "benton-resources", "jurisdiction": "Ontario", "claim_id": "1036072", "claim_name": null, "holder": "(100) BENTON RESOURCES INC.", "status": "Active", "recorded_date": "2026-03-24", "anniversary_or_expiry": "2028-03-24", "area_ha": null, "tenure_type": "Single Cell Mining Claim", "source": "Ontario MLAS operational claims (OGSEarth / LIO MapServer). Unofficial viewing data, not legal title.", "as_of": "2026-09-20", "role": "focus", "color": "#e8b040"}}, {"type": "Feature", "geometry": {"type": "Polygon", "coordinates": [[[-88.4688, 48.925], [-88.4688, 48.9292], [-88.475, 48.9292], [-88.475, 48.925], [-88.4688, 48.925]]]}, "properties": {"company_id": "benton-resources", "jurisdiction": "Ontario", "claim_id": "1036073", "claim_name": null, "holder": "(100) BENTON RESOURCES INC.", "status": "Active", "recorded_date": "2026-03-24", "anniversary_or_expiry": "2028-03-24", "area_ha": null, "tenure_type": "Single Cell Mining Claim", "source": "Ontario MLAS operational claims (OGSEarth / LIO MapServer). Unofficial viewing data, not legal title.", "as_of": "2026-09-20", "role": "focus", "color": "#e8b040"}}, {"type": "Feature", "geometry": {"type": "Polygon", "coordinates": [[[-88.5, 48.9292], [-88.5, 48.9333], [-88.5063, 48.9333], [-88.5063, 48.9292], [-88.5, 48.9292]]]}, "properties": {"company_id": "benton-resources", "jurisdiction": "Ontario", "claim_id": "1036074", "claim_name": null, "holder": "(100) BENTON RESOURCES INC.", "status": "Active", "recorded_date": "2026-03-24", "anniversary_or_expiry": "2028-03-24", "area_ha": null, "tenure_type": "Single Cell Mining Claim", "source": "Ontario MLAS operational claims (OGSEarth / LIO MapServer). Unofficial viewing data, not legal title.", "as_of": "2026-09-20", "role": "focus", "color": "#e8b040"}}, {"type": "Feature", "geometry": {"type": "Polygon", "coordinates": [[[-88.475, 48.925], [-88.475, 48.9292], [-88.4813, 48.9292], [-88.4813, 48.925], [-88.475, 48.925]]]}, "properties": {"company_id": "benton-resources", "jurisdiction": "Ontario", "claim_id": "1036075", "claim_name": null, "holder": "(100) BENTON RESOURCES INC.", "status": "Active", "recorded_date": "2026-03-24", "anniversary_or_expiry": "2028-03-24", "area_ha": null, "tenure_type": "Single Cell Mining Claim", "source": "Ontario MLAS operational claims (OGSEarth / LIO MapServer). Unofficial viewing data, not legal title.", "as_of": "2026-09-20", "role": "focus", "color": "#e8b040"}}, {"type": "Feature", "geometry": {"type": "Polygon", "coordinates": [[[-88.4688, 48.9333], [-88.4688, 48.9375], [-88.475, 48.9375], [-88.475, 48.9333], [-88.4688, 48.9333]]]}, "properties": {"company_id": "benton-resources", "jurisdiction": "Ontario", "claim_id": "1036076", "claim_name": null, "holder": "(100) BENTON RESOURCES INC.", "status": "Active", "recorded_date": "2026-03-24", "anniversary_or_expiry": "2028-03-24", "area_ha": null, "tenure_type": "Single Cell Mining Claim", "source": "Ontario MLAS operational claims (OGSEarth / LIO MapServer). Unofficial viewing data, not legal title.", "as_of": "2026-09-20", "role": "focus", "color": "#e8b040"}}, {"type": "Feature", "geometry": {"type": "Polygon", "coordinates": [[[-88.4938, 48.9333], [-88.4938, 48.9375], [-88.5, 48.9375], [-88.5, 48.9333], [-88.4938, 48.9333]]]}, "properties": {"company_id": "benton-resources", "jurisdiction": "Ontario", "claim_id": "1036077", "claim_name": null, "holder": "(100) BENTON RESOURCES INC.", "status": "Active", "recorded_date": "2026-03-24", "anniversary_or_expiry": "2028-03-24", "area_ha": null, "tenure_type": "Single Cell Mining Claim", "source": "Ontario MLAS operational claims (OGSEarth / LIO MapServer). Unofficial viewing data, not legal title.", "as_of": "2026-09-20", "role": "focus", "color": "#e8b040"}}, {"type": "Feature", "geometry": {"type": "Polygon", "coordinates": [[[-88.4875, 48.9292], [-88.4875, 48.9333], [-88.4938, 48.9333], [-88.4938, 48.9292], [-88.4875, 48.9292]]]}, "properties": {"company_id": "benton-resources", "jurisdiction": "Ontario", "claim_id": "1036078", "claim_name": null, "holder": "(100) BENTON RESOURCES INC.", "status": "Active", "recorded_date": "2026-03-24", "anniversary_or_expiry": "2028-03-24", "area_ha": null, "tenure_type": "Single Cell Mining Claim", "source": "Ontario MLAS operational claims (OGSEarth / LIO MapServer). Unofficial viewing data, not legal title.", "as_of": "2026-09-20", "role": "focus", "color": "#e8b040"}}, {"type": "Feature", "geometry": {"type": "Polygon", "coordinates": [[[-88.4813, 48.9333], [-88.4813, 48.9375], [-88.4875, 48.9375], [-88.4875, 48.9333], [-88.4813, 48.9333]]]}, "properties": {"company_id": "benton-resources", "jurisdiction": "Ontario", "claim_id": "1036079", "claim_name": null, "holder": "(100) BENTON RESOURCES INC.", "status": "Active", "recorded_date": "2026-03-24", "anniversary_or_expiry": "2028-03-24", "area_ha": null, "tenure_type": "Single Cell Mining Claim", "source": "Ontario MLAS operational claims (OGSEarth / LIO MapServer). Unofficial viewing data, not legal title.", "as_of": "2026-09-20", "role": "focus", "color": "#e8b040"}}, {"type": "Feature", "geometry": {"type": "Polygon", "coordinates": [[[-88.4875, 48.9333], [-88.4875, 48.9375], [-88.4938, 48.9375], [-88.4938, 48.9333], [-88.4875, 48.9333]]]}, "properties": {"company_id": "benton-resources", "jurisdiction": "Ontario", "claim_id": "1036080", "claim_name": null, "holder": "(100) BENTON RESOURCES INC.", "status": "Active", "recorded_date": "2026-03-24", "anniversary_or_expiry": "2028-03-24", "area_ha": null, "tenure_type": "Single Cell Mining Claim", "source": "Ontario MLAS operational claims (OGSEarth / LIO MapServer). Unofficial viewing data, not legal title.", "as_of": "2026-09-20", "role": "focus", "color": "#e8b040"}}, {"type": "Feature", "geometry": {"type": "Polygon", "coordinates": [[[-88.4813, 48.925], [-88.4813, 48.9292], [-88.4875, 48.9292], [-88.4875, 48.925], [-88.4813, 48.925]]]}, "properties": {"company_id": "benton-resources", "jurisdiction": "Ontario", "claim_id": "1036081", "claim_name": null, "holder": "(100) BENTON RESOURCES INC.", "status": "Active", "recorded_date": "2026-03-24", "anniversary_or_expiry": "2028-03-24", "area_ha": null, "tenure_type": "Single Cell Mining Claim", "source": "Ontario MLAS operational claims (OGSEarth / LIO MapServer). Unofficial viewing data, not legal title.", "as_of": "2026-09-20", "role": "focus", "color": "#e8b040"}}, {"type": "Feature", "geometry": {"type": "Polygon", "coordinates": [[[-88.475, 48.9292], [-88.475, 48.9333], [-88.4813, 48.9333], [-88.4813, 48.9292], [-88.475, 48.9292]]]}, "properties": {"company_id": "benton-resources", "jurisdiction": "Ontario", "claim_id": "1036082", "claim_name": null, "holder": "(100) BENTON RESOURCES INC.", "status": "Active", "recorded_date": "2026-03-24", "anniversary_or_expiry": "2028-03-24", "area_ha": null, "tenure_type": "Single Cell Mining Claim", "source": "Ontario MLAS operational claims (OGSEarth / LIO MapServer). Unofficial viewing data, not legal title.", "as_of": "2026-09-20", "role": "focus", "color": "#e8b040"}}, {"type": "Feature", "geometry": {"type": "Polygon", "coordinates": [[[-88.5438, 48.9292], [-88.5438, 48.9333], [-88.55, 48.9333], [-88.55, 48.9292], [-88.5438, 48.9292]]]}, "properties": {"company_id": "benton-resources", "jurisdiction": "Ontario", "claim_id": "1045963", "claim_name": null, "holder": "(100) BENTON RESOURCES INC.", "status": "Active", "recorded_date": "2026-05-10", "anniversary_or_expiry": "2028-05-10", "area_ha": null, "tenure_type": "Single Cell Mining Claim", "source": "Ontario MLAS operational claims (OGSEarth / LIO MapServer). Unofficial viewing data, not legal title.", "as_of": "2026-09-20", "role": "focus", "color": "#e8b040"}}, {"type": "Feature", "geometry": {"type": "Polygon", "coordinates": [[[-88.5375, 48.9292], [-88.5375, 48.9333], [-88.5438, 48.9333], [-88.5438, 48.9292], [-88.5375, 48.9292]]]}, "properties": {"company_id": "benton-resources", "jurisdiction": "Ontario", "claim_id": "1045964", "claim_name": null, "holder": "(100) BENTON RESOURCES INC.", "status": "Active", "recorded_date": "2026-05-10", "anniversary_or_expiry": "2028-05-10", "area_ha": null, "tenure_type": "Single Cell Mining Claim", "source": "Ontario MLAS operational claims (OGSEarth / LIO MapServer). Unofficial viewing data, not legal title.", "as_of": "2026-09-20", "role": "focus", "color": "#e8b040"}}, {"type": "Feature", "geometry": {"type": "Polygon", "coordinates": [[[-88.5313, 48.9292], [-88.5313, 48.9333], [-88.5375, 48.9333], [-88.5375, 48.9292], [-88.5313, 48.9292]]]}, "properties": {"company_id": "benton-resources", "jurisdiction": "Ontario", "claim_id": "1045965", "claim_name": null, "holder": "(100) BENTON RESOURCES INC.", "status": "Active", "recorded_date": "2026-05-10", "anniversary_or_expiry": "2028-05-10", "area_ha": null, "tenure_type": "Single Cell Mining Claim", "source": "Ontario MLAS operational claims (OGSEarth / LIO MapServer). Unofficial viewing data, not legal title.", "as_of": "2026-09-20", "role": "focus", "color": "#e8b040"}}, {"type": "Feature", "geometry": {"type": "Polygon", "coordinates": [[[-88.525, 48.9292], [-88.525, 48.9333], [-88.5313, 48.9333], [-88.5313, 48.9292], [-88.525, 48.9292]]]}, "properties": {"company_id": "benton-resources", "jurisdiction": "Ontario", "claim_id": "1045966", "claim_name": null, "holder": "(100) BENTON RESOURCES INC.", "status": "Active", "recorded_date": "2026-05-10", "anniversary_or_expiry": "2028-05-10", "area_ha": null, "tenure_type": "Single Cell Mining Claim", "source": "Ontario MLAS operational claims (OGSEarth / LIO MapServer). Unofficial viewing data, not legal title.", "as_of": "2026-09-20", "role": "focus", "color": "#e8b040"}}, {"type": "Feature", "geometry": {"type": "Polygon", "coordinates": [[[-88.5188, 48.9292], [-88.5188, 48.9333], [-88.525, 48.9333], [-88.525, 48.9292], [-88.5188, 48.9292]]]}, "properties": {"company_id": "benton-resources", "jurisdiction": "Ontario", "claim_id": "1045967", "claim_name": null, "holder": "(100) BENTON RESOURCES INC.", "status": "Active", "recorded_date": "2026-05-10", "anniversary_or_expiry": "2028-05-10", "area_ha": null, "tenure_type": "Single Cell Mining Claim", "source": "Ontario MLAS operational claims (OGSEarth / LIO MapServer). Unofficial viewing data, not legal title.", "as_of": "2026-09-20", "role": "focus", "color": "#e8b040"}}]}