{"type": "FeatureCollection", "features": [{"type": "Feature", "geometry": {"type": "Polygon", "coordinates": [[[-130.455, 57.2225], [-130.4716, 57.2225], [-130.4716, 57.2001], [-130.455, 57.2001], [-130.455, 57.2225]]]}, "properties": {"company_id": "big-ridge-gold", "jurisdiction": "British Columbia", "claim_id": 222389, "claim_name": "HANK 4", "holder": "GOLDEN RIDGE RESOURCES LTD.", "status": "Mineral", "recorded_date": "4663872000", "anniversary_or_expiry": "2030-02-06", "area_ha": 250, "tenure_type": "Mineral", "source": "BC MTA Mineral, Placer and Coal Tenure Spatial View (BCGW). Open Government Licence - British Columbia. Not legal title.", "as_of": "2026-09-20", "role": "focus", "color": "#e8b040"}}, {"type": "Feature", "geometry": {"type": "Polygon", "coordinates": [[[-130.455, 57.2225], [-130.455, 57.236], [-130.5047, 57.236], [-130.5047, 57.2225], [-130.455, 57.2225]]]}, "properties": {"company_id": "big-ridge-gold", "jurisdiction": "British Columbia", "claim_id": 222248, "claim_name": "HANK 1", "holder": "GOLDEN RIDGE RESOURCES LTD.", "status": "Mineral", "recorded_date": "4161024000", "anniversary_or_expiry": "2030-02-06", "area_ha": 450, "tenure_type": "Mineral", "source": "BC MTA Mineral, Placer and Coal Tenure Spatial View (BCGW). Open Government Licence - British Columbia. Not legal title.", "as_of": "2026-09-20", "role": "focus", "color": "#e8b040"}}, {"type": "Feature", "geometry": {"type": "Polygon", "coordinates": [[[-130.4716, 57.2225], [-130.5047, 57.2225], [-130.5047, 57.2001], [-130.4716, 57.2001], [-130.4716, 57.2225]]]}, "properties": {"company_id": "big-ridge-gold", "jurisdiction": "British Columbia", "claim_id": 222249, "claim_name": "HANK 2", "holder": "GOLDEN RIDGE RESOURCES LTD.", "status": "Mineral", "recorded_date": "4161024000", "anniversary_or_expiry": "2030-02-06", "area_ha": 500, "tenure_type": "Mineral", "source": "BC MTA Mineral, Placer and Coal Tenure Spatial View (BCGW). Open Government Licence - British Columbia. Not legal title.", "as_of": "2026-09-20", "role": "focus", "color": "#e8b040"}}, {"type": "Feature", "geometry": {"type": "Polygon", "coordinates": [[[-130.5047, 57.2225], [-130.5378, 57.2225], [-130.5378, 57.2001], [-130.5047, 57.2001], [-130.5047, 57.2225]]]}, "properties": {"company_id": "big-ridge-gold", "jurisdiction": "British Columbia", "claim_id": 222250, "claim_name": "HANK 3", "holder": "GOLDEN RIDGE RESOURCES LTD.", "status": "Mineral", "recorded_date": "4161024000", "anniversary_or_expiry": "2030-02-06", "area_ha": 500, "tenure_type": "Mineral", "source": "BC MTA Mineral, Placer and Coal Tenure Spatial View (BCGW). Open Government Licence - British Columbia. Not legal title.", "as_of": "2026-09-20", "role": "focus", "color": "#e8b040"}}, {"type": "Feature", "geometry": {"type": "Polygon", "coordinates": [[[-128.396, 54.8296], [-128.3952, 54.8335], [-128.4025, 54.8303], [-128.398, 54.8269], [-128.3931, 54.8294], [-128.396, 54.8296]]]}, "properties": {"company_id": "big-ridge-gold", "jurisdiction": "British Columbia", "claim_id": 239190, "claim_name": "REFER TO LOT TABLE", "holder": "PROSPECT RIDGE RESOURCES CORP.", "status": "Mineral", "recorded_date": "5201280000", "anniversary_or_expiry": "2032-11-10", "area_ha": 25, "tenure_type": "Mineral", "source": "BC MTA Mineral, Placer and Coal Tenure Spatial View (BCGW). Open Government Licence - British Columbia. Not legal title.", "as_of": "2026-09-20", "role": "focus", "color": "#e8b040"}}, {"type": "Feature", "geometry": {"type": "Polygon", "coordinates": [[[-128.3895, 54.8308], [-128.3889, 54.8332], [-128.3952, 54.8337], [-128.396, 54.8296], [-128.3931, 54.8294], [-128.3916, 54.8304], [-128.3895, 54.8308]]]}, "properties": {"company_id": "big-ridge-gold", "jurisdiction": "British Columbia", "claim_id": 239191, "claim_name": "REFER TO LOT TABLE", "holder": "PROSPECT RIDGE RESOURCES CORP.", "status": "Mineral", "recorded_date": "5201280000", "anniversary_or_expiry": "2032-11-10", "area_ha": 25, "tenure_type": "Mineral", "source": "BC MTA Mineral, Placer and Coal Tenure Spatial View (BCGW). Open Government Licence - British Columbia. Not legal title.", "as_of": "2026-09-20", "role": "focus", "color": "#e8b040"}}, {"type": "Feature", "geometry": {"type": "Polygon", "coordinates": [[[-128.3904, 54.823], [-128.3884, 54.8213], [-128.3826, 54.8235], [-128.3863, 54.8269], [-128.3924, 54.8247], [-128.3904, 54.823]]]}, "properties": {"company_id": "big-ridge-gold", "jurisdiction": "British Columbia", "claim_id": 239192, "claim_name": "REFER TO LOT TABLE", "holder": "PROSPECT RIDGE RESOURCES CORP.", "status": "Mineral", "recorded_date": "5201280000", "anniversary_or_expiry": "2032-11-10", "area_ha": 25, "tenure_type": "Mineral", "source": "BC MTA Mineral, Placer and Coal Tenure Spatial View (BCGW). Open Government Licence - British Columbia. Not legal title.", "as_of": "2026-09-20", "role": "focus", "color": "#e8b040"}}, {"type": "Feature", "geometry": {"type": "Polygon", "coordinates": [[[-128.3819, 54.8301], [-128.3773, 54.8323], [-128.3821, 54.8355], [-128.3866, 54.8331], [-128.3819, 54.8301]]]}, "properties": {"company_id": "big-ridge-gold", "jurisdiction": "British Columbia", "claim_id": 239193, "claim_name": "REFER TO LOT TABLE", "holder": "PROSPECT RIDGE RESOURCES CORP.", "status": "Mineral", "recorded_date": "5201280000", "anniversary_or_expiry": "2032-11-10", "area_ha": 25, "tenure_type": "Mineral", "source": "BC MTA Mineral, Placer and Coal Tenure Spatial View (BCGW). Open Government Licence - British Columbia. Not legal title.", "as_of": "2026-09-20", "role": "focus", "color": "#e8b040"}}, {"type": "Feature", "geometry": {"type": "Polygon", "coordinates": [[[-128.3819, 54.8301], [-128.3857, 54.8326], [-128.3906, 54.8302], [-128.3858, 54.8272], [-128.3812, 54.8296], [-128.3819, 54.8301]]]}, "properties": {"company_id": "big-ridge-gold", "jurisdiction": "British Columbia", "claim_id": 239194, "claim_name": "REFER TO LOT TABLE", "holder": "PROSPECT RIDGE RESOURCES CORP.", "status": "Mineral", "recorded_date": "5201280000", "anniversary_or_expiry": "2032-11-10", "area_ha": 25, "tenure_type": "Mineral", "source": "BC MTA Mineral, Placer and Coal Tenure Spatial View (BCGW). Open Government Licence - British Columbia. Not legal title.", "as_of": "2026-09-20", "role": "focus", "color": "#e8b040"}}, {"type": "Feature", "geometry": {"type": "Polygon", "coordinates": [[[-128.3906, 54.8302], [-128.3916, 54.8304], [-128.3953, 54.8278], [-128.3904, 54.8254], [-128.3865, 54.8276], [-128.3906, 54.8302]]]}, "properties": {"company_id": "big-ridge-gold", "jurisdiction": "British Columbia", "claim_id": 239195, "claim_name": "REFER TO LOT TABLE", "holder": "PROSPECT RIDGE RESOURCES CORP.", "status": "Mineral", "recorded_date": "5201280000", "anniversary_or_expiry": "2032-11-10", "area_ha": 25, "tenure_type": "Mineral", "source": "BC MTA Mineral, Placer and Coal Tenure Spatial View (BCGW). Open Government Licence - British Columbia. Not legal title.", "as_of": "2026-09-20", "role": "focus", "color": "#e8b040"}}, {"type": "Feature", "geometry": {"type": "Polygon", "coordinates": [[[-128.3904, 54.8254], [-128.3953, 54.8278], [-128.3971, 54.8244], [-128.3909, 54.8234], [-128.3924, 54.8247], [-128.3904, 54.8254]]]}, "properties": {"company_id": "big-ridge-gold", "jurisdiction": "British Columbia", "claim_id": 239196, "claim_name": "REFER TO LOT TABLE", "holder": "PROSPECT RIDGE RESOURCES CORP.", "status": "Mineral", "recorded_date": "5201280000", "anniversary_or_expiry": "2032-11-10", "area_ha": 25, "tenure_type": "Mineral", "source": "BC MTA Mineral, Placer and Coal Tenure Spatial View (BCGW). Open Government Licence - British Columbia. Not legal title.", "as_of": "2026-09-20", "role": "focus", "color": "#e8b040"}}, {"type": "Feature", "geometry": {"type": "Polygon", "coordinates": [[[-128.3909, 54.8234], [-128.3971, 54.8244], [-128.3988, 54.8204], [-128.392, 54.8193], [-128.3904, 54.823], [-128.3909, 54.8234]]]}, "properties": {"company_id": "big-ridge-gold", "jurisdiction": "British Columbia", "claim_id": 239197, "claim_name": "REFER TO LOT TABLE", "holder": "PROSPECT RIDGE RESOURCES CORP.", "status": "Mineral", "recorded_date": "5201280000", "anniversary_or_expiry": "2032-11-10", "area_ha": 25, "tenure_type": "Mineral", "source": "BC MTA Mineral, Placer and Coal Tenure Spatial View (BCGW). Open Government Licence - British Columbia. Not legal title.", "as_of": "2026-09-20", "role": "focus", "color": "#e8b040"}}, {"type": "Feature", "geometry": {"type": "Polygon", "coordinates": [[[-126.1439, 56.5119], [-126.1505, 56.5119], [-126.1505, 56.5083], [-126.1439, 56.5083], [-126.1439, 56.5119]]]}, "properties": {"company_id": "big-ridge-gold", "jurisdiction": "British Columbia", "claim_id": 245065, "claim_name": "KLI NO. 1", "holder": "PACIFIC RIDGE EXPLORATION LTD.", "status": "Mineral", "recorded_date": "2575-01-29", "anniversary_or_expiry": "2034-12-31", "area_ha": 25, "tenure_type": "Mineral", "source": "BC MTA Mineral, Placer and Coal Tenure Spatial View (BCGW). Open Government Licence - British Columbia. Not legal title.", "as_of": "2026-09-20", "role": "focus", "color": "#e8b040"}}, {"type": "Feature", "geometry": {"type": "Polygon", "coordinates": [[[-126.1439, 56.5047], [-126.1439, 56.5083], [-126.1505, 56.5083], [-126.1505, 56.5047], [-126.1439, 56.5047]]]}, "properties": {"company_id": "big-ridge-gold", "jurisdiction": "British Columbia", "claim_id": 245066, "claim_name": "KLI NO. 2", "holder": "PACIFIC RIDGE EXPLORATION LTD.", "status": "Mineral", "recorded_date": "2575-01-29", "anniversary_or_expiry": "2034-12-31", "area_ha": 25, "tenure_type": "Mineral", "source": "BC MTA Mineral, Placer and Coal Tenure Spatial View (BCGW). Open Government Licence - British Columbia. Not legal title.", "as_of": "2026-09-20", "role": "focus", "color": "#e8b040"}}, {"type": "Feature", "geometry": {"type": "Polygon", "coordinates": [[[-126.143, 56.5119], [-126.1439, 56.5119], [-126.1439, 56.5083], [-126.1374, 56.5083], [-126.1374, 56.5119], [-126.143, 56.5119]]]}, "properties": {"company_id": "big-ridge-gold", "jurisdiction": "British Columbia", "claim_id": 245067, "claim_name": "KLI NO. 3", "holder": "PACIFIC RIDGE EXPLORATION LTD.", "status": "Mineral", "recorded_date": "2575-01-29", "anniversary_or_expiry": "2034-12-31", "area_ha": 25, "tenure_type": "Mineral", "source": "BC MTA Mineral, Placer and Coal Tenure Spatial View (BCGW). Open Government Licence - British Columbia. Not legal title.", "as_of": "2026-09-20", "role": "focus", "color": "#e8b040"}}, {"type": "Feature", "geometry": {"type": "Polygon", "coordinates": [[[-126.1374, 56.5047], [-126.1374, 56.5083], [-126.1439, 56.5083], [-126.1439, 56.5047], [-126.1374, 56.5047]]]}, "properties": {"company_id": "big-ridge-gold", "jurisdiction": "British Columbia", "claim_id": 245068, "claim_name": "KLI NO. 4", "holder": "PACIFIC RIDGE EXPLORATION LTD.", "status": "Mineral", "recorded_date": "2575-01-29", "anniversary_or_expiry": "2034-12-31", "area_ha": 25, "tenure_type": "Mineral", "source": "BC MTA Mineral, Placer and Coal Tenure Spatial View (BCGW). Open Government Licence - British Columbia. Not legal title.", "as_of": "2026-09-20", "role": "focus", "color": "#e8b040"}}, {"type": "Feature", "geometry": {"type": "Polygon", "coordinates": [[[-126.1309, 56.5047], [-126.1309, 56.5083], [-126.1374, 56.5083], [-126.1374, 56.5047], [-126.1309, 56.5047]]]}, "properties": {"company_id": "big-ridge-gold", "jurisdiction": "British Columbia", "claim_id": 245070, "claim_name": "KLI NO. 6", "holder": "PACIFIC RIDGE EXPLORATION LTD.", "status": "Mineral", "recorded_date": "2575-01-29", "anniversary_or_expiry": "2034-12-31", "area_ha": 25, "tenure_type": "Mineral", "source": "BC MTA Mineral, Placer and Coal Tenure Spatial View (BCGW). Open Government Licence - British Columbia. Not legal title.", "as_of": "2026-09-20", "role": "focus", "color": "#e8b040"}}, {"type": "Feature", "geometry": {"type": "Polygon", "coordinates": [[[-126.1243, 56.5083], [-126.1243, 56.5119], [-126.1308, 56.5119], [-126.1309, 56.5083], [-126.1243, 56.5083]]]}, "properties": {"company_id": "big-ridge-gold", "jurisdiction": "British Columbia", "claim_id": 245071, "claim_name": "KLI NO. 7", "holder": "PACIFIC RIDGE EXPLORATION LTD.", "status": "Mineral", "recorded_date": "2575-01-29", "anniversary_or_expiry": "2034-12-31", "area_ha": 25, "tenure_type": "Mineral", "source": "BC MTA Mineral, Placer and Coal Tenure Spatial View (BCGW). Open Government Licence - British Columbia. Not legal title.", "as_of": "2026-09-20", "role": "focus", "color": "#e8b040"}}, {"type": "Feature", "geometry": {"type": "Polygon", "coordinates": [[[-126.1243, 56.5047], [-126.1243, 56.5083], [-126.1309, 56.5083], [-126.1309, 56.5047], [-126.1243, 56.5047]]]}, "properties": {"company_id": "big-ridge-gold", "jurisdiction": "British Columbia", "claim_id": 245072, "claim_name": "KLI NO. 8", "holder": "PACIFIC RIDGE EXPLORATION LTD.", "status": "Mineral", "recorded_date": "2575-01-29", "anniversary_or_expiry": "2034-12-31", "area_ha": 25, "tenure_type": "Mineral", "source": "BC MTA Mineral, Placer and Coal Tenure Spatial View (BCGW). Open Government Licence - British Columbia. Not legal title.", "as_of": "2026-09-20", "role": "focus", "color": "#e8b040"}}, {"type": "Feature", "geometry": {"type": "Polygon", "coordinates": [[[-126.1178, 56.5047], [-126.1178, 56.5083], [-126.1243, 56.5083], [-126.1243, 56.5047], [-126.1178, 56.5047]]]}, "properties": {"company_id": "big-ridge-gold", "jurisdiction": "British Columbia", "claim_id": 245074, "claim_name": "KLI NO. 10", "holder": "PACIFIC RIDGE EXPLORATION LTD.", "status": "Mineral", "recorded_date": "2575-01-29", "anniversary_or_expiry": "2034-12-31", "area_ha": 25, "tenure_type": "Mineral", "source": "BC MTA Mineral, Placer and Coal Tenure Spatial View (BCGW). Open Government Licence - British Columbia. Not legal title.", "as_of": "2026-09-20", "role": "focus", "color": "#e8b040"}}, {"type": "Feature", "geometry": {"type": "Polygon", "coordinates": [[[-126.1439, 56.5011], [-126.1439, 56.5047], [-126.1505, 56.5047], [-126.1505, 56.5011], [-126.1439, 56.5011]]]}, "properties": {"company_id": "big-ridge-gold", "jurisdiction": "British Columbia", "claim_id": 245075, "claim_name": "KLI NO. 11", "holder": "PACIFIC RIDGE EXPLORATION LTD.", "status": "Mineral", "recorded_date": "2575-01-29", "anniversary_or_expiry": "2034-12-31", "area_ha": 25, "tenure_type": "Mineral", "source": "BC MTA Mineral, Placer and Coal Tenure Spatial View (BCGW). Open Government Licence - British Columbia. Not legal title.", "as_of": "2026-09-20", "role": "focus", "color": "#e8b040"}}, {"type": "Feature", "geometry": {"type": "Polygon", "coordinates": [[[-126.1439, 56.5], [-126.1439, 56.5011], [-126.1505, 56.5011], [-126.1505, 56.4975], [-126.1439, 56.4975], [-126.1439, 56.5]]]}, "properties": {"company_id": "big-ridge-gold", "jurisdiction": "British Columbia", "claim_id": 245076, "claim_name": "KLI NO. 12", "holder": "PACIFIC RIDGE EXPLORATION LTD.", "status": "Mineral", "recorded_date": "2575-01-29", "anniversary_or_expiry": "2034-12-31", "area_ha": 25, "tenure_type": "Mineral", "source": "BC MTA Mineral, Placer and Coal Tenure Spatial View (BCGW). Open Government Licence - British Columbia. Not legal title.", "as_of": "2026-09-20", "role": "focus", "color": "#e8b040"}}, {"type": "Feature", "geometry": {"type": "Polygon", "coordinates": [[[-126.1374, 56.5047], [-126.1439, 56.5047], [-126.1439, 56.5011], [-126.1374, 56.5011], [-126.1374, 56.5047]]]}, "properties": {"company_id": "big-ridge-gold", "jurisdiction": "British Columbia", "claim_id": 245077, "claim_name": "KLI NO. 13", "holder": "PACIFIC RIDGE EXPLORATION LTD.", "status": "Mineral", "recorded_date": "2575-01-29", "anniversary_or_expiry": "2034-12-31", "area_ha": 25, "tenure_type": "Mineral", "source": "BC MTA Mineral, Placer and Coal Tenure Spatial View (BCGW). Open Government Licence - British Columbia. Not legal title.", "as_of": "2026-09-20", "role": "focus", "color": "#e8b040"}}, {"type": "Feature", "geometry": {"type": "Polygon", "coordinates": [[[-126.1374, 56.5011], [-126.1439, 56.5011], [-126.1439, 56.4975], [-126.1374, 56.4974], [-126.1374, 56.5011]]]}, "properties": {"company_id": "big-ridge-gold", "jurisdiction": "British Columbia", "claim_id": 245078, "claim_name": "KLI NO. 14", "holder": "PACIFIC RIDGE EXPLORATION LTD.", "status": "Mineral", "recorded_date": "2575-01-29", "anniversary_or_expiry": "2034-12-31", "area_ha": 25, "tenure_type": "Mineral", "source": "BC MTA Mineral, Placer and Coal Tenure Spatial View (BCGW). Open Government Licence - British Columbia. Not legal title.", "as_of": "2026-09-20", "role": "focus", "color": "#e8b040"}}, {"type": "Feature", "geometry": {"type": "Polygon", "coordinates": [[[-126.1309, 56.5011], [-126.1309, 56.5047], [-126.1374, 56.5047], [-126.1374, 56.5011], [-126.1309, 56.5011]]]}, "properties": {"company_id": "big-ridge-gold", "jurisdiction": "British Columbia", "claim_id": 245079, "claim_name": "KLI NO. 15", "holder": "PACIFIC RIDGE EXPLORATION LTD.", "status": "Mineral", "recorded_date": "2575-01-29", "anniversary_or_expiry": "2034-12-31", "area_ha": 25, "tenure_type": "Mineral", "source": "BC MTA Mineral, Placer and Coal Tenure Spatial View (BCGW). Open Government Licence - British Columbia. Not legal title.", "as_of": "2026-09-20", "role": "focus", "color": "#e8b040"}}, {"type": "Feature", "geometry": {"type": "Polygon", "coordinates": [[[-126.1309, 56.5], [-126.1309, 56.5011], [-126.1374, 56.5011], [-126.1374, 56.4974], [-126.1309, 56.4974], [-126.1309, 56.5]]]}, "properties": {"company_id": "big-ridge-gold", "jurisdiction": "British Columbia", "claim_id": 245080, "claim_name": "KLI NO. 16", "holder": "PACIFIC RIDGE EXPLORATION LTD.", "status": "Mineral", "recorded_date": "2575-01-29", "anniversary_or_expiry": "2034-12-31", "area_ha": 25, "tenure_type": "Mineral", "source": "BC MTA Mineral, Placer and Coal Tenure Spatial View (BCGW). Open Government Licence - British Columbia. Not legal title.", "as_of": "2026-09-20", "role": "focus", "color": "#e8b040"}}, {"type": "Feature", "geometry": {"type": "Polygon", "coordinates": [[[-126.1243, 56.5011], [-126.1243, 56.5047], [-126.1309, 56.5047], [-126.1309, 56.5011], [-126.1243, 56.5011]]]}, "properties": {"company_id": "big-ridge-gold", "jurisdiction": "British Columbia", "claim_id": 245081, "claim_name": "KLI NO. 17", "holder": "PACIFIC RIDGE EXPLORATION LTD.", "status": "Mineral", "recorded_date": "2575-01-29", "anniversary_or_expiry": "2034-12-31", "area_ha": 25, "tenure_type": "Mineral", "source": "BC MTA Mineral, Placer and Coal Tenure Spatial View (BCGW). Open Government Licence - British Columbia. Not legal title.", "as_of": "2026-09-20", "role": "focus", "color": "#e8b040"}}, {"type": "Feature", "geometry": {"type": "Polygon", "coordinates": [[[-126.1243, 56.5], [-126.1243, 56.5011], [-126.1309, 56.5011], [-126.1309, 56.4974], [-126.1243, 56.4974], [-126.1243, 56.5]]]}, "properties": {"company_id": "big-ridge-gold", "jurisdiction": "British Columbia", "claim_id": 245082, "claim_name": "KLI NO. 18", "holder": "PACIFIC RIDGE EXPLORATION LTD.", "status": "Mineral", "recorded_date": "2575-01-29", "anniversary_or_expiry": "2034-12-31", "area_ha": 25, "tenure_type": "Mineral", "source": "BC MTA Mineral, Placer and Coal Tenure Spatial View (BCGW). Open Government Licence - British Columbia. Not legal title.", "as_of": "2026-09-20", "role": "focus", "color": "#e8b040"}}, {"type": "Feature", "geometry": {"type": "Polygon", "coordinates": [[[-126.1178, 56.5011], [-126.1178, 56.5047], [-126.1243, 56.5047], [-126.1243, 56.5011], [-126.1178, 56.5011]]]}, "properties": {"company_id": "big-ridge-gold", "jurisdiction": "British Columbia", "claim_id": 245083, "claim_name": "KLI NO. 19", "holder": "PACIFIC RIDGE EXPLORATION LTD.", "status": "Mineral", "recorded_date": "2575-01-29", "anniversary_or_expiry": "2034-12-31", "area_ha": 25, "tenure_type": "Mineral", "source": "BC MTA Mineral, Placer and Coal Tenure Spatial View (BCGW). Open Government Licence - British Columbia. Not legal title.", "as_of": "2026-09-20", "role": "focus", "color": "#e8b040"}}, {"type": "Feature", "geometry": {"type": "Polygon", "coordinates": [[[-126.1178, 56.4987], [-126.1178, 56.5011], [-126.1243, 56.5011], [-126.1243, 56.4974], [-126.1178, 56.4974], [-126.1178, 56.4987]]]}, "properties": {"company_id": "big-ridge-gold", "jurisdiction": "British Columbia", "claim_id": 245084, "claim_name": "KLI NO. 20", "holder": "PACIFIC RIDGE EXPLORATION LTD.", "status": "Mineral", "recorded_date": "2575-01-29", "anniversary_or_expiry": "2034-12-31", "area_ha": 25, "tenure_type": "Mineral", "source": "BC MTA Mineral, Placer and Coal Tenure Spatial View (BCGW). Open Government Licence - British Columbia. Not legal title.", "as_of": "2026-09-20", "role": "focus", "color": "#e8b040"}}, {"type": "Feature", "geometry": {"type": "Polygon", "coordinates": [[[-126.1178, 56.5083], [-126.1112, 56.5083], [-126.1112, 56.5119], [-126.1178, 56.5119], [-126.1178, 56.5083]]]}, "properties": {"company_id": "big-ridge-gold", "jurisdiction": "British Columbia", "claim_id": 245155, "claim_name": "KLI NO.21", "holder": "PACIFIC RIDGE EXPLORATION LTD.", "status": "Mineral", "recorded_date": "2662-09-10", "anniversary_or_expiry": "2034-12-31", "area_ha": 25, "tenure_type": "Mineral", "source": "BC MTA Mineral, Placer and Coal Tenure Spatial View (BCGW). Open Government Licence - British Columbia. Not legal title.", "as_of": "2026-09-20", "role": "focus", "color": "#e8b040"}}, {"type": "Feature", "geometry": {"type": "Polygon", "coordinates": [[[-126.1113, 56.5011], [-126.1113, 56.5047], [-126.1178, 56.5047], [-126.1178, 56.5011], [-126.1113, 56.5011]]]}, "properties": {"company_id": "big-ridge-gold", "jurisdiction": "British Columbia", "claim_id": 245156, "claim_name": "KLI NO.25", "holder": "PACIFIC RIDGE EXPLORATION LTD.", "status": "Mineral", "recorded_date": "2662-09-10", "anniversary_or_expiry": "2034-12-31", "area_ha": 25, "tenure_type": "Mineral", "source": "BC MTA Mineral, Placer and Coal Tenure Spatial View (BCGW). Open Government Licence - British Columbia. Not legal title.", "as_of": "2026-09-20", "role": "focus", "color": "#e8b040"}}, {"type": "Feature", "geometry": {"type": "Polygon", "coordinates": [[[-126.1113, 56.5011], [-126.1178, 56.5011], [-126.1178, 56.4974], [-126.1113, 56.4974], [-126.1113, 56.5011]]]}, "properties": {"company_id": "big-ridge-gold", "jurisdiction": "British Columbia", "claim_id": 245157, "claim_name": "KLI NO.26", "holder": "PACIFIC RIDGE EXPLORATION LTD.", "status": "Mineral", "recorded_date": "2662-09-10", "anniversary_or_expiry": "2034-12-31", "area_ha": 25, "tenure_type": "Mineral", "source": "BC MTA Mineral, Placer and Coal Tenure Spatial View (BCGW). Open Government Licence - British Columbia. Not legal title.", "as_of": "2026-09-20", "role": "focus", "color": "#e8b040"}}, {"type": "Feature", "geometry": {"type": "Polygon", "coordinates": [[[-126.1113, 56.5011], [-126.1047, 56.5011], [-126.1047, 56.5047], [-126.1113, 56.5047], [-126.1113, 56.5011]]]}, "properties": {"company_id": "big-ridge-gold", "jurisdiction": "British Columbia", "claim_id": 245158, "claim_name": "KLI NO.27", "holder": "PACIFIC RIDGE EXPLORATION LTD.", "status": "Mineral", "recorded_date": "2662-09-10", "anniversary_or_expiry": "2034-12-31", "area_ha": 25, "tenure_type": "Mineral", "source": "BC MTA Mineral, Placer and Coal Tenure Spatial View (BCGW). Open Government Licence - British Columbia. Not legal title.", "as_of": "2026-09-20", "role": "focus", "color": "#e8b040"}}, {"type": "Feature", "geometry": {"type": "Polygon", "coordinates": [[[-126.1047, 56.5011], [-126.1113, 56.5011], [-126.1113, 56.4974], [-126.1047, 56.4974], [-126.1047, 56.5011]]]}, "properties": {"company_id": "big-ridge-gold", "jurisdiction": "British Columbia", "claim_id": 245159, "claim_name": "KLI NO.28", "holder": "PACIFIC RIDGE EXPLORATION LTD.", "status": "Mineral", "recorded_date": "2662-09-10", "anniversary_or_expiry": "2034-12-31", "area_ha": 25, "tenure_type": "Mineral", "source": "BC MTA Mineral, Placer and Coal Tenure Spatial View (BCGW). Open Government Licence - British Columbia. Not legal title.", "as_of": "2026-09-20", "role": "focus", "color": "#e8b040"}}, {"type": "Feature", "geometry": {"type": "Polygon", "coordinates": [[[-126.1505, 56.4975], [-126.1505, 56.5011], [-126.157, 56.5011], [-126.157, 56.4975], [-126.1505, 56.4975]]]}, "properties": {"company_id": "big-ridge-gold", "jurisdiction": "British Columbia", "claim_id": 245382, "claim_name": "KLI #39", "holder": "PACIFIC RIDGE EXPLORATION LTD.", "status": "Mineral", "recorded_date": "4812480000", "anniversary_or_expiry": "2034-12-31", "area_ha": 25, "tenure_type": "Mineral", "source": "BC MTA Mineral, Placer and Coal Tenure Spatial View (BCGW). Open Government Licence - British Columbia. Not legal title.", "as_of": "2026-09-20", "role": "focus", "color": "#e8b040"}}, {"type": "Feature", "geometry": {"type": "Polygon", "coordinates": [[[-126.1505, 56.5047], [-126.157, 56.5047], [-126.157, 56.5011], [-126.1505, 56.5011], [-126.1505, 56.5047]]]}, "properties": {"company_id": "big-ridge-gold", "jurisdiction": "British Columbia", "claim_id": 245383, "claim_name": "KLI #40", "holder": "PACIFIC RIDGE EXPLORATION LTD.", "status": "Mineral", "recorded_date": "4812480000", "anniversary_or_expiry": "2034-12-31", "area_ha": 25, "tenure_type": "Mineral", "source": "BC MTA Mineral, Placer and Coal Tenure Spatial View (BCGW). Open Government Licence - British Columbia. Not legal title.", "as_of": "2026-09-20", "role": "focus", "color": "#e8b040"}}, {"type": "Feature", "geometry": {"type": "Polygon", "coordinates": [[[-126.157, 56.5], [-126.157, 56.5011], [-126.1635, 56.5011], [-126.1635, 56.4975], [-126.157, 56.4975], [-126.157, 56.5]]]}, "properties": {"company_id": "big-ridge-gold", "jurisdiction": "British Columbia", "claim_id": 245384, "claim_name": "KLI #41", "holder": "PACIFIC RIDGE EXPLORATION LTD.", "status": "Mineral", "recorded_date": "4812480000", "anniversary_or_expiry": "2034-12-31", "area_ha": 25, "tenure_type": "Mineral", "source": "BC MTA Mineral, Placer and Coal Tenure Spatial View (BCGW). Open Government Licence - British Columbia. Not legal title.", "as_of": "2026-09-20", "role": "focus", "color": "#e8b040"}}, {"type": "Feature", "geometry": {"type": "Polygon", "coordinates": [[[-126.157, 56.5011], [-126.157, 56.5047], [-126.1635, 56.5047], [-126.1635, 56.5011], [-126.157, 56.5011]]]}, "properties": {"company_id": "big-ridge-gold", "jurisdiction": "British Columbia", "claim_id": 245385, "claim_name": "KLI #42", "holder": "PACIFIC RIDGE EXPLORATION LTD.", "status": "Mineral", "recorded_date": "4812480000", "anniversary_or_expiry": "2034-12-31", "area_ha": 25, "tenure_type": "Mineral", "source": "BC MTA Mineral, Placer and Coal Tenure Spatial View (BCGW). Open Government Licence - British Columbia. Not legal title.", "as_of": "2026-09-20", "role": "focus", "color": "#e8b040"}}, {"type": "Feature", "geometry": {"type": "Polygon", "coordinates": [[[-126.1505, 56.4938], [-126.157, 56.4938], [-126.157, 56.4902], [-126.1505, 56.4902], [-126.1505, 56.4938]]]}, "properties": {"company_id": "big-ridge-gold", "jurisdiction": "British Columbia", "claim_id": 245386, "claim_name": "KLI #43", "holder": "PACIFIC RIDGE EXPLORATION LTD.", "status": "Mineral", "recorded_date": "4812480000", "anniversary_or_expiry": "2034-12-31", "area_ha": 25, "tenure_type": "Mineral", "source": "BC MTA Mineral, Placer and Coal Tenure Spatial View (BCGW). Open Government Licence - British Columbia. Not legal title.", "as_of": "2026-09-20", "role": "focus", "color": "#e8b040"}}, {"type": "Feature", "geometry": {"type": "Polygon", "coordinates": [[[-126.1505, 56.4975], [-126.157, 56.4975], [-126.157, 56.4938], [-126.1505, 56.4938], [-126.1505, 56.4975]]]}, "properties": {"company_id": "big-ridge-gold", "jurisdiction": "British Columbia", "claim_id": 245387, "claim_name": "KLI #44", "holder": "PACIFIC RIDGE EXPLORATION LTD.", "status": "Mineral", "recorded_date": "4812480000", "anniversary_or_expiry": "2034-12-31", "area_ha": 25, "tenure_type": "Mineral", "source": "BC MTA Mineral, Placer and Coal Tenure Spatial View (BCGW). Open Government Licence - British Columbia. Not legal title.", "as_of": "2026-09-20", "role": "focus", "color": "#e8b040"}}, {"type": "Feature", "geometry": {"type": "Polygon", "coordinates": [[[-126.157, 56.4938], [-126.1635, 56.4938], [-126.1635, 56.4902], [-126.157, 56.4902], [-126.157, 56.4938]]]}, "properties": {"company_id": "big-ridge-gold", "jurisdiction": "British Columbia", "claim_id": 245388, "claim_name": "KLI #45", "holder": "PACIFIC RIDGE EXPLORATION LTD.", "status": "Mineral", "recorded_date": "4812480000", "anniversary_or_expiry": "2034-12-31", "area_ha": 25, "tenure_type": "Mineral", "source": "BC MTA Mineral, Placer and Coal Tenure Spatial View (BCGW). Open Government Licence - British Columbia. Not legal title.", "as_of": "2026-09-20", "role": "focus", "color": "#e8b040"}}, {"type": "Feature", "geometry": {"type": "Polygon", "coordinates": [[[-126.157, 56.4975], [-126.1635, 56.4975], [-126.1635, 56.4938], [-126.157, 56.4938], [-126.157, 56.4975]]]}, "properties": {"company_id": "big-ridge-gold", "jurisdiction": "British Columbia", "claim_id": 245389, "claim_name": "KLI #46", "holder": "PACIFIC RIDGE EXPLORATION LTD.", "status": "Mineral", "recorded_date": "4812480000", "anniversary_or_expiry": "2034-12-31", "area_ha": 25, "tenure_type": "Mineral", "source": "BC MTA Mineral, Placer and Coal Tenure Spatial View (BCGW). Open Government Licence - British Columbia. Not legal title.", "as_of": "2026-09-20", "role": "focus", "color": "#e8b040"}}, {"type": "Feature", "geometry": {"type": "Polygon", "coordinates": [[[-126.1505, 56.5047], [-126.1505, 56.5083], [-126.157, 56.5083], [-126.157, 56.5047], [-126.1505, 56.5047]]]}, "properties": {"company_id": "big-ridge-gold", "jurisdiction": "British Columbia", "claim_id": 245390, "claim_name": "KLI #47", "holder": "PACIFIC RIDGE EXPLORATION LTD.", "status": "Mineral", "recorded_date": "4812480000", "anniversary_or_expiry": "2034-12-31", "area_ha": 25, "tenure_type": "Mineral", "source": "BC MTA Mineral, Placer and Coal Tenure Spatial View (BCGW). Open Government Licence - British Columbia. Not legal title.", "as_of": "2026-09-20", "role": "focus", "color": "#e8b040"}}, {"type": "Feature", "geometry": {"type": "Polygon", "coordinates": [[[-126.1505, 56.5083], [-126.1505, 56.5119], [-126.157, 56.5119], [-126.157, 56.5083], [-126.1505, 56.5083]]]}, "properties": {"company_id": "big-ridge-gold", "jurisdiction": "British Columbia", "claim_id": 245391, "claim_name": "KLI #48", "holder": "PACIFIC RIDGE EXPLORATION LTD.", "status": "Mineral", "recorded_date": "4812480000", "anniversary_or_expiry": "2034-12-31", "area_ha": 25, "tenure_type": "Mineral", "source": "BC MTA Mineral, Placer and Coal Tenure Spatial View (BCGW). Open Government Licence - British Columbia. Not legal title.", "as_of": "2026-09-20", "role": "focus", "color": "#e8b040"}}, {"type": "Feature", "geometry": {"type": "Polygon", "coordinates": [[[-126.1635, 56.5083], [-126.1701, 56.5083], [-126.1701, 56.5047], [-126.1635, 56.5047], [-126.1635, 56.5083]]]}, "properties": {"company_id": "big-ridge-gold", "jurisdiction": "British Columbia", "claim_id": 245777, "claim_name": "UTA #4", "holder": "PACIFIC RIDGE EXPLORATION LTD.", "status": "Mineral", "recorded_date": "1154304000", "anniversary_or_expiry": "2034-12-31", "area_ha": 25, "tenure_type": "Mineral", "source": "BC MTA Mineral, Placer and Coal Tenure Spatial View (BCGW). Open Government Licence - British Columbia. Not legal title.", "as_of": "2026-09-20", "role": "focus", "color": "#e8b040"}}, {"type": "Feature", "geometry": {"type": "Polygon", "coordinates": [[[-126.1635, 56.5119], [-126.1701, 56.5119], [-126.1701, 56.5083], [-126.1635, 56.5083], [-126.1635, 56.5119]]]}, "properties": {"company_id": "big-ridge-gold", "jurisdiction": "British Columbia", "claim_id": 245778, "claim_name": "UTA #6", "holder": "PACIFIC RIDGE EXPLORATION LTD.", "status": "Mineral", "recorded_date": "1154304000", "anniversary_or_expiry": "2034-12-31", "area_ha": 25, "tenure_type": "Mineral", "source": "BC MTA Mineral, Placer and Coal Tenure Spatial View (BCGW). Open Government Licence - British Columbia. Not legal title.", "as_of": "2026-09-20", "role": "focus", "color": "#e8b040"}}, {"type": "Feature", "geometry": {"type": "Polygon", "coordinates": [[[-126.1635, 56.514], [-126.1635, 56.5155], [-126.1701, 56.5155], [-126.1701, 56.5119], [-126.1635, 56.5119], [-126.1635, 56.514]]]}, "properties": {"company_id": "big-ridge-gold", "jurisdiction": "British Columbia", "claim_id": 245779, "claim_name": "UTA #8", "holder": "PACIFIC RIDGE EXPLORATION LTD.", "status": "Mineral", "recorded_date": "1154304000", "anniversary_or_expiry": "2034-12-31", "area_ha": 25, "tenure_type": "Mineral", "source": "BC MTA Mineral, Placer and Coal Tenure Spatial View (BCGW). Open Government Licence - British Columbia. Not legal title.", "as_of": "2026-09-20", "role": "focus", "color": "#e8b040"}}, {"type": "Feature", "geometry": {"type": "Polygon", "coordinates": [[[-126.1187, 56.5121], [-126.1187, 56.514], [-126.1268, 56.514], [-126.1268, 56.5121], [-126.1187, 56.5121]]]}, "properties": {"company_id": "big-ridge-gold", "jurisdiction": "British Columbia", "claim_id": 319492, "claim_name": "YUL-7", "holder": "PACIFIC RIDGE EXPLORATION LTD.", "status": "Mineral", "recorded_date": "7426944000", "anniversary_or_expiry": "2034-12-31", "area_ha": 25, "tenure_type": "Mineral", "source": "BC MTA Mineral, Placer and Coal Tenure Spatial View (BCGW). Open Government Licence - British Columbia. Not legal title.", "as_of": "2026-09-20", "role": "focus", "color": "#e8b040"}}, {"type": "Feature", "geometry": {"type": "Polygon", "coordinates": [[[-126.1117, 56.514], [-126.1187, 56.5139], [-126.1187, 56.5121], [-126.1117, 56.5121], [-126.1117, 56.514]]]}, "properties": {"company_id": "big-ridge-gold", "jurisdiction": "British Columbia", "claim_id": 319493, "claim_name": "YUL-8", "holder": "PACIFIC RIDGE EXPLORATION LTD.", "status": "Mineral", "recorded_date": "7426944000", "anniversary_or_expiry": "2034-12-31", "area_ha": 25, "tenure_type": "Mineral", "source": "BC MTA Mineral, Placer and Coal Tenure Spatial View (BCGW). Open Government Licence - British Columbia. Not legal title.", "as_of": "2026-09-20", "role": "focus", "color": "#e8b040"}}, {"type": "Feature", "geometry": {"type": "Polygon", "coordinates": [[[-126.135, 56.512], [-126.1268, 56.5121], [-126.1269, 56.5141], [-126.135, 56.514], [-126.135, 56.512]]]}, "properties": {"company_id": "big-ridge-gold", "jurisdiction": "British Columbia", "claim_id": 319494, "claim_name": "YUL-9", "holder": "PACIFIC RIDGE EXPLORATION LTD.", "status": "Mineral", "recorded_date": "7426944000", "anniversary_or_expiry": "2034-12-31", "area_ha": 25, "tenure_type": "Mineral", "source": "BC MTA Mineral, Placer and Coal Tenure Spatial View (BCGW). Open Government Licence - British Columbia. Not legal title.", "as_of": "2026-09-20", "role": "focus", "color": "#e8b040"}}, {"type": "Feature", "geometry": {"type": "Polygon", "coordinates": [[[-126.135, 56.512], [-126.135, 56.514], [-126.1429, 56.514], [-126.143, 56.5119], [-126.135, 56.512]]]}, "properties": {"company_id": "big-ridge-gold", "jurisdiction": "British Columbia", "claim_id": 319495, "claim_name": "YUL-10", "holder": "PACIFIC RIDGE EXPLORATION LTD.", "status": "Mineral", "recorded_date": "7426944000", "anniversary_or_expiry": "2034-12-31", "area_ha": 25, "tenure_type": "Mineral", "source": "BC MTA Mineral, Placer and Coal Tenure Spatial View (BCGW). Open Government Licence - British Columbia. Not legal title.", "as_of": "2026-09-20", "role": "focus", "color": "#e8b040"}}, {"type": "Feature", "geometry": {"type": "Polygon", "coordinates": [[[-126.1429, 56.514], [-126.151, 56.514], [-126.1511, 56.5119], [-126.143, 56.5119], [-126.1429, 56.514]]]}, "properties": {"company_id": "big-ridge-gold", "jurisdiction": "British Columbia", "claim_id": 319496, "claim_name": "YUL-11", "holder": "PACIFIC RIDGE EXPLORATION LTD.", "status": "Mineral", "recorded_date": "7426944000", "anniversary_or_expiry": "2034-12-31", "area_ha": 25, "tenure_type": "Mineral", "source": "BC MTA Mineral, Placer and Coal Tenure Spatial View (BCGW). Open Government Licence - British Columbia. Not legal title.", "as_of": "2026-09-20", "role": "focus", "color": "#e8b040"}}, {"type": "Feature", "geometry": {"type": "Polygon", "coordinates": [[[-126.151, 56.514], [-126.1591, 56.514], [-126.1593, 56.5119], [-126.1511, 56.5119], [-126.151, 56.514]]]}, "properties": {"company_id": "big-ridge-gold", "jurisdiction": "British Columbia", "claim_id": 319497, "claim_name": "YUL-12", "holder": "PACIFIC RIDGE EXPLORATION LTD.", "status": "Mineral", "recorded_date": "7431264000", "anniversary_or_expiry": "2034-12-31", "area_ha": 25, "tenure_type": "Mineral", "source": "BC MTA Mineral, Placer and Coal Tenure Spatial View (BCGW). Open Government Licence - British Columbia. Not legal title.", "as_of": "2026-09-20", "role": "focus", "color": "#e8b040"}}, {"type": "Feature", "geometry": {"type": "Polygon", "coordinates": [[[-126.1591, 56.514], [-126.1635, 56.514], [-126.1635, 56.5119], [-126.1593, 56.5119], [-126.1591, 56.514]]]}, "properties": {"company_id": "big-ridge-gold", "jurisdiction": "British Columbia", "claim_id": 319498, "claim_name": "YUL-13", "holder": "PACIFIC RIDGE EXPLORATION LTD.", "status": "Mineral", "recorded_date": "7431264000", "anniversary_or_expiry": "2034-12-31", "area_ha": 25, "tenure_type": "Mineral", "source": "BC MTA Mineral, Placer and Coal Tenure Spatial View (BCGW). Open Government Licence - British Columbia. Not legal title.", "as_of": "2026-09-20", "role": "focus", "color": "#e8b040"}}, {"type": "Feature", "geometry": {"type": "Polygon", "coordinates": [[[-128.3606, 54.809], [-128.3613, 54.8135], [-128.3691, 54.8131], [-128.3684, 54.8086], [-128.3606, 54.809]]]}, "properties": {"company_id": "big-ridge-gold", "jurisdiction": "British Columbia", "claim_id": 380885, "claim_name": "MUNIN 1", "holder": "PROSPECT RIDGE RESOURCES CORP.", "status": "Mineral", "recorded_date": "9694944000", "anniversary_or_expiry": "2032-11-10", "area_ha": 25, "tenure_type": "Mineral", "source": "BC MTA Mineral, Placer and Coal Tenure Spatial View (BCGW). Open Government Licence - British Columbia. Not legal title.", "as_of": "2026-09-20", "role": "focus", "color": "#e8b040"}}, {"type": "Feature", "geometry": {"type": "Polygon", "coordinates": [[[-128.3613, 54.8135], [-128.3606, 54.809], [-128.3529, 54.8094], [-128.3536, 54.8138], [-128.3613, 54.8135]]]}, "properties": {"company_id": "big-ridge-gold", "jurisdiction": "British Columbia", "claim_id": 380886, "claim_name": "MUNIN 2", "holder": "PROSPECT RIDGE RESOURCES CORP.", "status": "Mineral", "recorded_date": "9698400000", "anniversary_or_expiry": "2032-11-10", "area_ha": 25, "tenure_type": "Mineral", "source": "BC MTA Mineral, Placer and Coal Tenure Spatial View (BCGW). Open Government Licence - British Columbia. Not legal title.", "as_of": "2026-09-20", "role": "focus", "color": "#e8b040"}}, {"type": "Feature", "geometry": {"type": "Polygon", "coordinates": [[[-128.3613, 54.8135], [-128.362, 54.8179], [-128.3698, 54.8175], [-128.3691, 54.8131], [-128.3613, 54.8135]]]}, "properties": {"company_id": "big-ridge-gold", "jurisdiction": "British Columbia", "claim_id": 380887, "claim_name": "MUNIN 3", "holder": "PROSPECT RIDGE RESOURCES CORP.", "status": "Mineral", "recorded_date": "9694944000", "anniversary_or_expiry": "2032-11-10", "area_ha": 25, "tenure_type": "Mineral", "source": "BC MTA Mineral, Placer and Coal Tenure Spatial View (BCGW). Open Government Licence - British Columbia. Not legal title.", "as_of": "2026-09-20", "role": "focus", "color": "#e8b040"}}, {"type": "Feature", "geometry": {"type": "Polygon", "coordinates": [[[-128.3613, 54.8135], [-128.3536, 54.8138], [-128.3542, 54.8183], [-128.362, 54.8179], [-128.3613, 54.8135]]]}, "properties": {"company_id": "big-ridge-gold", "jurisdiction": "British Columbia", "claim_id": 380888, "claim_name": "MUNIN 4", "holder": "PROSPECT RIDGE RESOURCES CORP.", "status": "Mineral", "recorded_date": "9698400000", "anniversary_or_expiry": "2032-11-10", "area_ha": 25, "tenure_type": "Mineral", "source": "BC MTA Mineral, Placer and Coal Tenure Spatial View (BCGW). Open Government Licence - British Columbia. Not legal title.", "as_of": "2026-09-20", "role": "focus", "color": "#e8b040"}}, {"type": "Feature", "geometry": {"type": "Polygon", "coordinates": [[[-125.3642, 55.5749], [-125.3642, 55.5499], [-125.3329, 55.5499], [-125.3329, 55.5416], [-125.3267, 55.5416], [-125.3204, 55.5416], [-125.3204, 55.5499], [-125.3142, 55.5499], [-125.3142, 55.5583], [-125.3579, 55.5583], [-125.3579, 55.5791], [-125.3642, 55.5791], [-125.3642, 55.5749]]]}, "properties": {"company_id": "big-ridge-gold", "jurisdiction": "British Columbia", "claim_id": 502179, "claim_name": "CS045", "holder": "PACIFIC RIDGE EXPLORATION LTD.", "status": "Mineral", "recorded_date": "2005-01-12", "anniversary_or_expiry": "2027-03-01", "area_ha": 457.47400000000005, "tenure_type": "Mineral", "source": "BC MTA Mineral, Placer and Coal Tenure Spatial View (BCGW). Open Government Licence - British Columbia. Not legal title.", "as_of": "2026-09-20", "role": "focus", "color": "#e8b040"}}, {"type": "Feature", "geometry": {"type": "Polygon", "coordinates": [[[-125.3267, 55.5374], [-125.3267, 55.5332], [-125.2954, 55.5332], [-125.2954, 55.5583], [-125.3142, 55.5583], [-125.3142, 55.5499], [-125.3204, 55.5499], [-125.3204, 55.5416], [-125.3267, 55.5416], [-125.3267, 55.5374]]]}, "properties": {"company_id": "big-ridge-gold", "jurisdiction": "British Columbia", "claim_id": 502205, "claim_name": "CS046", "holder": "PACIFIC RIDGE EXPLORATION LTD.", "status": "Mineral", "recorded_date": "2005-01-12", "anniversary_or_expiry": "2027-03-01", "area_ha": 439.29900000000004, "tenure_type": "Mineral", "source": "BC MTA Mineral, Placer and Coal Tenure Spatial View (BCGW). Open Government Licence - British Columbia. Not legal title.", "as_of": "2026-09-20", "role": "focus", "color": "#e8b040"}}, {"type": "Feature", "geometry": {"type": "Polygon", "coordinates": [[[-125.3267, 55.5291], [-125.3267, 55.5207], [-125.3142, 55.5207], [-125.3142, 55.5041], [-125.3079, 55.5041], [-125.3079, 55.5082], [-125.2954, 55.5082], [-125.2954, 55.5332], [-125.3267, 55.5332], [-125.3267, 55.5291]]]}, "properties": {"company_id": "big-ridge-gold", "jurisdiction": "British Columbia", "claim_id": 502260, "claim_name": "CS047", "holder": "PACIFIC RIDGE EXPLORATION LTD.", "status": "Mineral", "recorded_date": "2005-01-12", "anniversary_or_expiry": "2027-03-01", "area_ha": 457.865, "tenure_type": "Mineral", "source": "BC MTA Mineral, Placer and Coal Tenure Spatial View (BCGW). Open Government Licence - British Columbia. Not legal title.", "as_of": "2026-09-20", "role": "focus", "color": "#e8b040"}}, {"type": "Feature", "geometry": {"type": "Polygon", "coordinates": [[[-128.408, 54.8082], [-128.408, 54.804], [-128.4018, 54.804], [-128.4018, 54.8082], [-128.3955, 54.8082], [-128.3955, 54.8123], [-128.4018, 54.8123], [-128.4018, 54.8165], [-128.408, 54.8165], [-128.408, 54.8123], [-128.4143, 54.8123], [-128.4143, 54.8082], [-128.408, 54.8082]]]}, "properties": {"company_id": "big-ridge-gold", "jurisdiction": "British Columbia", "claim_id": 504021, "claim_name": null, "holder": "PROSPECT RIDGE RESOURCES CORP.", "status": "Mineral", "recorded_date": "2005-01-17", "anniversary_or_expiry": "2032-11-10", "area_ha": 93.21000000000001, "tenure_type": "Mineral", "source": "BC MTA Mineral, Placer and Coal Tenure Spatial View (BCGW). Open Government Licence - British Columbia. Not legal title.", "as_of": "2026-09-20", "role": "focus", "color": "#e8b040"}}, {"type": "Feature", "geometry": {"type": "Polygon", "coordinates": [[[-125.2954, 55.5541], [-125.2954, 55.5374], [-125.2642, 55.5374], [-125.2642, 55.5583], [-125.2954, 55.5583], [-125.2954, 55.5541]]]}, "properties": {"company_id": "big-ridge-gold", "jurisdiction": "British Columbia", "claim_id": 502419, "claim_name": "cs070", "holder": "PACIFIC RIDGE EXPLORATION LTD.", "status": "Mineral", "recorded_date": "2005-01-12", "anniversary_or_expiry": "2027-03-01", "area_ha": 457.567, "tenure_type": "Mineral", "source": "BC MTA Mineral, Placer and Coal Tenure Spatial View (BCGW). Open Government Licence - British Columbia. Not legal title.", "as_of": "2026-09-20", "role": "focus", "color": "#e8b040"}}, {"type": "Feature", "geometry": {"type": "Polygon", "coordinates": [[[-125.2954, 55.5332], [-125.2954, 55.5166], [-125.2642, 55.5166], [-125.2642, 55.5374], [-125.2954, 55.5374], [-125.2954, 55.5332]]]}, "properties": {"company_id": "big-ridge-gold", "jurisdiction": "British Columbia", "claim_id": 502431, "claim_name": "cs073", "holder": "PACIFIC RIDGE EXPLORATION LTD.", "status": "Mineral", "recorded_date": "2005-01-12", "anniversary_or_expiry": "2027-03-01", "area_ha": 457.807, "tenure_type": "Mineral", "source": "BC MTA Mineral, Placer and Coal Tenure Spatial View (BCGW). Open Government Licence - British Columbia. Not legal title.", "as_of": "2026-09-20", "role": "focus", "color": "#e8b040"}}, {"type": "Feature", "geometry": {"type": "Polygon", "coordinates": [[[-125.2954, 55.4916], [-125.2954, 55.4749], [-125.2642, 55.4749], [-125.2642, 55.4957], [-125.2954, 55.4957], [-125.2954, 55.4916]]]}, "properties": {"company_id": "big-ridge-gold", "jurisdiction": "British Columbia", "claim_id": 502451, "claim_name": "cs079", "holder": "PACIFIC RIDGE EXPLORATION LTD.", "status": "Mineral", "recorded_date": "2005-01-12", "anniversary_or_expiry": "2027-03-01", "area_ha": 458.211, "tenure_type": "Mineral", "source": "BC MTA Mineral, Placer and Coal Tenure Spatial View (BCGW). Open Government Licence - British Columbia. Not legal title.", "as_of": "2026-09-20", "role": "focus", "color": "#e8b040"}}, {"type": "Feature", "geometry": {"type": "Polygon", "coordinates": [[[-125.3142, 55.5041], [-125.3204, 55.5041], [-125.3204, 55.4999], [-125.3142, 55.4999], [-125.3142, 55.4957], [-125.3079, 55.4957], [-125.3079, 55.4874], [-125.3017, 55.4874], [-125.3017, 55.4791], [-125.2954, 55.4791], [-125.2954, 55.5082], [-125.3079, 55.5082], [-125.3079, 55.5041], [-125.3142, 55.5041]]]}, "properties": {"company_id": "big-ridge-gold", "jurisdiction": "British Columbia", "claim_id": 502571, "claim_name": "CS098", "holder": "PACIFIC RIDGE EXPLORATION LTD.", "status": "Mineral", "recorded_date": "2005-01-12", "anniversary_or_expiry": "2027-03-01", "area_ha": 274.867, "tenure_type": "Mineral", "source": "BC MTA Mineral, Placer and Coal Tenure Spatial View (BCGW). Open Government Licence - British Columbia. Not legal title.", "as_of": "2026-09-20", "role": "focus", "color": "#e8b040"}}, {"type": "Feature", "geometry": {"type": "Polygon", "coordinates": [[[-125.2954, 55.5124], [-125.2954, 55.4957], [-125.2642, 55.4957], [-125.2642, 55.5166], [-125.2954, 55.5166], [-125.2954, 55.5124]]]}, "properties": {"company_id": "big-ridge-gold", "jurisdiction": "British Columbia", "claim_id": 502440, "claim_name": "cs076", "holder": "PACIFIC RIDGE EXPLORATION LTD.", "status": "Mineral", "recorded_date": "2005-01-12", "anniversary_or_expiry": "2027-03-01", "area_ha": 458.03200000000004, "tenure_type": "Mineral", "source": "BC MTA Mineral, Placer and Coal Tenure Spatial View (BCGW). Open Government Licence - British Columbia. Not legal title.", "as_of": "2026-09-20", "role": "focus", "color": "#e8b040"}}, {"type": "Feature", "geometry": {"type": "Polygon", "coordinates": [[[-128.358, 54.8123], [-128.3643, 54.8123], [-128.3643, 54.8082], [-128.358, 54.8082], [-128.358, 54.8123]]]}, "properties": {"company_id": "big-ridge-gold", "jurisdiction": "British Columbia", "claim_id": 533444, "claim_name": "M THREE", "holder": "PROSPECT RIDGE RESOURCES CORP.", "status": "Mineral", "recorded_date": "2006-05-03", "anniversary_or_expiry": "2032-11-10", "area_ha": 18.642, "tenure_type": "Mineral", "source": "BC MTA Mineral, Placer and Coal Tenure Spatial View (BCGW). Open Government Licence - British Columbia. Not legal title.", "as_of": "2026-09-20", "role": "focus", "color": "#e8b040"}}, {"type": "Feature", "geometry": {"type": "Polygon", "coordinates": [[[-128.3893, 54.8332], [-128.3893, 54.829], [-128.383, 54.829], [-128.383, 54.8373], [-128.3893, 54.8373], [-128.3893, 54.8332]]]}, "properties": {"company_id": "big-ridge-gold", "jurisdiction": "British Columbia", "claim_id": 533445, "claim_name": "SAT U", "holder": "PROSPECT RIDGE RESOURCES CORP.", "status": "Mineral", "recorded_date": "2006-05-03", "anniversary_or_expiry": "2032-11-10", "area_ha": 37.264, "tenure_type": "Mineral", "source": "BC MTA Mineral, Placer and Coal Tenure Spatial View (BCGW). Open Government Licence - British Columbia. Not legal title.", "as_of": "2026-09-20", "role": "focus", "color": "#e8b040"}}, {"type": "Feature", "geometry": {"type": "Polygon", "coordinates": [[[-128.3955, 54.7873], [-128.3955, 54.7832], [-128.3768, 54.7832], [-128.3768, 54.7915], [-128.3955, 54.7915], [-128.3955, 54.7873]]]}, "properties": {"company_id": "big-ridge-gold", "jurisdiction": "British Columbia", "claim_id": 533219, "claim_name": "11-ICE", "holder": "PROSPECT RIDGE RESOURCES CORP.", "status": "Mineral", "recorded_date": "2006-04-30", "anniversary_or_expiry": "2032-11-10", "area_ha": 111.9144, "tenure_type": "Mineral", "source": "BC MTA Mineral, Placer and Coal Tenure Spatial View (BCGW). Open Government Licence - British Columbia. Not legal title.", "as_of": "2026-09-20", "role": "focus", "color": "#e8b040"}}, {"type": "Feature", "geometry": {"type": "Polygon", "coordinates": [[[-128.383, 54.7957], [-128.383, 54.7915], [-128.3768, 54.7915], [-128.3768, 54.7957], [-128.358, 54.7957], [-128.358, 54.7873], [-128.3768, 54.7873], [-128.3768, 54.7832], [-128.3518, 54.7832], [-128.3518, 54.8082], [-128.3705, 54.8082], [-128.3705, 54.804], [-128.383, 54.804], [-128.383, 54.7957]]]}, "properties": {"company_id": "big-ridge-gold", "jurisdiction": "British Columbia", "claim_id": 533220, "claim_name": "MUN", "holder": "PROSPECT RIDGE RESOURCES CORP.", "status": "Mineral", "recorded_date": "2006-04-30", "anniversary_or_expiry": "2032-11-10", "area_ha": 372.964, "tenure_type": "Mineral", "source": "BC MTA Mineral, Placer and Coal Tenure Spatial View (BCGW). Open Government Licence - British Columbia. Not legal title.", "as_of": "2026-09-20", "role": "focus", "color": "#e8b040"}}, {"type": "Feature", "geometry": {"type": "Polygon", "coordinates": [[[-128.4018, 54.8248], [-128.4018, 54.8207], [-128.3955, 54.8207], [-128.3955, 54.829], [-128.4018, 54.829], [-128.4018, 54.8248]]]}, "properties": {"company_id": "big-ridge-gold", "jurisdiction": "British Columbia", "claim_id": 533222, "claim_name": "SAT", "holder": "PROSPECT RIDGE RESOURCES CORP.", "status": "Mineral", "recorded_date": "2006-04-30", "anniversary_or_expiry": "2032-11-10", "area_ha": 37.271, "tenure_type": "Mineral", "source": "BC MTA Mineral, Placer and Coal Tenure Spatial View (BCGW). Open Government Licence - British Columbia. Not legal title.", "as_of": "2026-09-20", "role": "focus", "color": "#e8b040"}}, {"type": "Feature", "geometry": {"type": "Polygon", "coordinates": [[[-128.3893, 54.8207], [-128.383, 54.8207], [-128.383, 54.829], [-128.3893, 54.829], [-128.3893, 54.8248], [-128.3955, 54.8248], [-128.3955, 54.8207], [-128.3893, 54.8207]]]}, "properties": {"company_id": "big-ridge-gold", "jurisdiction": "British Columbia", "claim_id": 533358, "claim_name": "CAMILLE", "holder": "PROSPECT RIDGE RESOURCES CORP.", "status": "Mineral", "recorded_date": "2006-05-02", "anniversary_or_expiry": "2032-11-10", "area_ha": 55.907000000000004, "tenure_type": "Mineral", "source": "BC MTA Mineral, Placer and Coal Tenure Spatial View (BCGW). Open Government Licence - British Columbia. Not legal title.", "as_of": "2026-09-20", "role": "focus", "color": "#e8b040"}}, {"type": "Feature", "geometry": {"type": "Polygon", "coordinates": [[[-128.358, 54.8123], [-128.358, 54.8082], [-128.3518, 54.8082], [-128.3518, 54.8165], [-128.358, 54.8165], [-128.358, 54.8123]]]}, "properties": {"company_id": "big-ridge-gold", "jurisdiction": "British Columbia", "claim_id": 533442, "claim_name": "MTWO", "holder": "PROSPECT RIDGE RESOURCES CORP.", "status": "Mineral", "recorded_date": "2006-05-03", "anniversary_or_expiry": "2032-11-10", "area_ha": 37.282000000000004, "tenure_type": "Mineral", "source": "BC MTA Mineral, Placer and Coal Tenure Spatial View (BCGW). Open Government Licence - British Columbia. Not legal title.", "as_of": "2026-09-20", "role": "focus", "color": "#e8b040"}}, {"type": "Feature", "geometry": {"type": "Polygon", "coordinates": [[[-126.2081, 56.5165], [-126.2081, 56.5124], [-126.1518, 56.5124], [-126.1518, 56.5249], [-126.1956, 56.5249], [-126.1956, 56.5207], [-126.2081, 56.5207], [-126.2081, 56.5165]]]}, "properties": {"company_id": "big-ridge-gold", "jurisdiction": "British Columbia", "claim_id": 532002, "claim_name": "KLI 51", "holder": "PACIFIC RIDGE EXPLORATION LTD.", "status": "Mineral", "recorded_date": "2006-04-13", "anniversary_or_expiry": "2034-12-31", "area_ha": 446.18, "tenure_type": "Mineral", "source": "BC MTA Mineral, Placer and Coal Tenure Spatial View (BCGW). Open Government Licence - British Columbia. Not legal title.", "as_of": "2026-09-20", "role": "focus", "color": "#e8b040"}}, {"type": "Feature", "geometry": {"type": "Polygon", "coordinates": [[[-126.2018, 56.504], [-126.2018, 56.4999], [-126.1581, 56.4999], [-126.1581, 56.504], [-126.1643, 56.504], [-126.1643, 56.5124], [-126.2081, 56.5124], [-126.2081, 56.5082], [-126.2018, 56.5082], [-126.2018, 56.504]]]}, "properties": {"company_id": "big-ridge-gold", "jurisdiction": "British Columbia", "claim_id": 532005, "claim_name": "KLI 52", "holder": "PACIFIC RIDGE EXPLORATION LTD.", "status": "Mineral", "recorded_date": "2006-04-13", "anniversary_or_expiry": "2034-12-31", "area_ha": 357.06600000000003, "tenure_type": "Mineral", "source": "BC MTA Mineral, Placer and Coal Tenure Spatial View (BCGW). Open Government Licence - British Columbia. Not legal title.", "as_of": "2026-09-20", "role": "focus", "color": "#e8b040"}}, {"type": "Feature", "geometry": {"type": "Polygon", "coordinates": [[[-126.2018, 56.4874], [-126.1581, 56.4874], [-126.1581, 56.4999], [-126.2018, 56.4999], [-126.2018, 56.4915], [-126.2081, 56.4915], [-126.2081, 56.4874], [-126.2018, 56.4874]]]}, "properties": {"company_id": "big-ridge-gold", "jurisdiction": "British Columbia", "claim_id": 532011, "claim_name": "KLI 53", "holder": "PACIFIC RIDGE EXPLORATION LTD.", "status": "Mineral", "recorded_date": "2006-04-13", "anniversary_or_expiry": "2034-12-31", "area_ha": 392.925, "tenure_type": "Mineral", "source": "BC MTA Mineral, Placer and Coal Tenure Spatial View (BCGW). Open Government Licence - British Columbia. Not legal title.", "as_of": "2026-09-20", "role": "focus", "color": "#e8b040"}}, {"type": "Feature", "geometry": {"type": "Polygon", "coordinates": [[[-126.2143, 56.5332], [-126.1956, 56.5332], [-126.1956, 56.5249], [-126.1518, 56.5249], [-126.1518, 56.5374], [-126.2206, 56.5374], [-126.2206, 56.5332], [-126.2143, 56.5332]]]}, "properties": {"company_id": "big-ridge-gold", "jurisdiction": "British Columbia", "claim_id": 532014, "claim_name": "KLI 54", "holder": "PACIFIC RIDGE EXPLORATION LTD.", "status": "Mineral", "recorded_date": "2006-04-13", "anniversary_or_expiry": "2034-12-31", "area_ha": 446.019, "tenure_type": "Mineral", "source": "BC MTA Mineral, Placer and Coal Tenure Spatial View (BCGW). Open Government Licence - British Columbia. Not legal title.", "as_of": "2026-09-20", "role": "focus", "color": "#e8b040"}}, {"type": "Feature", "geometry": {"type": "Polygon", "coordinates": [[[-126.1081, 56.4999], [-126.0706, 56.4999], [-126.0706, 56.5124], [-126.0643, 56.5124], [-126.0643, 56.5165], [-126.1018, 56.5165], [-126.1018, 56.5124], [-126.1081, 56.5124], [-126.1081, 56.5082], [-126.1143, 56.5082], [-126.1143, 56.504], [-126.1081, 56.504], [-126.1081, 56.4999]]]}, "properties": {"company_id": "big-ridge-gold", "jurisdiction": "British Columbia", "claim_id": 535013, "claim_name": "JOH2", "holder": "PACIFIC RIDGE EXPLORATION LTD.", "status": "Mineral", "recorded_date": "2006-06-06", "anniversary_or_expiry": "2034-12-31", "area_ha": 446.283, "tenure_type": "Mineral", "source": "BC MTA Mineral, Placer and Coal Tenure Spatial View (BCGW). Open Government Licence - British Columbia. Not legal title.", "as_of": "2026-09-20", "role": "focus", "color": "#e8b040"}}, {"type": "Feature", "geometry": {"type": "Polygon", "coordinates": [[[-128.3768, 54.7915], [-128.3768, 54.7873], [-128.358, 54.7873], [-128.358, 54.7957], [-128.3768, 54.7957], [-128.3768, 54.7915]]]}, "properties": {"company_id": "big-ridge-gold", "jurisdiction": "British Columbia", "claim_id": 537031, "claim_name": "AMY", "holder": "PROSPECT RIDGE RESOURCES CORP.", "status": "Mineral", "recorded_date": "2006-07-13", "anniversary_or_expiry": "2032-11-10", "area_ha": 111.903, "tenure_type": "Mineral", "source": "BC MTA Mineral, Placer and Coal Tenure Spatial View (BCGW). Open Government Licence - British Columbia. Not legal title.", "as_of": "2026-09-20", "role": "focus", "color": "#e8b040"}}, {"type": "Feature", "geometry": {"type": "Polygon", "coordinates": [[[-128.3955, 54.8332], [-128.4018, 54.8332], [-128.4018, 54.829], [-128.3955, 54.829], [-128.3955, 54.8332]]]}, "properties": {"company_id": "big-ridge-gold", "jurisdiction": "British Columbia", "claim_id": 534687, "claim_name": "AUM 8", "holder": "PROSPECT RIDGE RESOURCES CORP.", "status": "Mineral", "recorded_date": "2006-05-31", "anniversary_or_expiry": "2032-11-10", "area_ha": 18.633, "tenure_type": "Mineral", "source": "BC MTA Mineral, Placer and Coal Tenure Spatial View (BCGW). Open Government Licence - British Columbia. Not legal title.", "as_of": "2026-09-20", "role": "focus", "color": "#e8b040"}}, {"type": "Feature", "geometry": {"type": "Polygon", "coordinates": [[[-126.1518, 56.4874], [-126.1518, 56.4832], [-126.1143, 56.4832], [-126.1143, 56.4915], [-126.1206, 56.4915], [-126.1206, 56.4999], [-126.1518, 56.4999], [-126.1518, 56.4874]]]}, "properties": {"company_id": "big-ridge-gold", "jurisdiction": "British Columbia", "claim_id": 534992, "claim_name": "MOC1", "holder": "PACIFIC RIDGE EXPLORATION LTD.", "status": "Mineral", "recorded_date": "2006-06-06", "anniversary_or_expiry": "2034-12-31", "area_ha": 392.932, "tenure_type": "Mineral", "source": "BC MTA Mineral, Placer and Coal Tenure Spatial View (BCGW). Open Government Licence - British Columbia. Not legal title.", "as_of": "2026-09-20", "role": "focus", "color": "#e8b040"}}]}