{"type": "FeatureCollection", "features": [{"type": "Feature", "geometry": {"type": "Polygon", "coordinates": [[[-122.9762, 53.2853], [-122.9834, 53.2866], [-122.9856, 53.2823], [-122.9784, 53.281], [-122.9762, 53.2853]]]}, "properties": {"company_id": "black-stone-minerals", "jurisdiction": "British Columbia", "claim_id": 397280, "claim_name": "DAD #1", "holder": "BLACK, WILLIAM JOHN", "status": "Placer", "recorded_date": "2002-10-23", "anniversary_or_expiry": "2025-10-23", "area_ha": 50, "tenure_type": "Placer", "source": "BC MTA Mineral, Placer and Coal Tenure Spatial View (BCGW). Open Government Licence - British Columbia. Not legal title.", "as_of": "2026-09-20", "role": "focus", "color": "#e8b040"}}, {"type": "Feature", "geometry": {"type": "Polygon", "coordinates": [[[-124.2088, 48.5753], [-124.2092, 48.5777], [-124.2159, 48.5772], [-124.2158, 48.5765], [-124.2103, 48.5768], [-124.2099, 48.5731], [-124.2084, 48.5732], [-124.2088, 48.5753]]]}, "properties": {"company_id": "black-stone-minerals", "jurisdiction": "British Columbia", "claim_id": 401347, "claim_name": "ARBAS", "holder": "K2 STONE QUARRIES INC.", "status": "Mineral", "recorded_date": "2003-04-02", "anniversary_or_expiry": "2025-04-02", "area_ha": 25, "tenure_type": "Mineral", "source": "BC MTA Mineral, Placer and Coal Tenure Spatial View (BCGW). Open Government Licence - British Columbia. Not legal title.", "as_of": "2026-09-20", "role": "focus", "color": "#e8b040"}}, {"type": "Feature", "geometry": {"type": "Polygon", "coordinates": [[[-124.228, 48.5762], [-124.228, 48.5716], [-124.2233, 48.572], [-124.2238, 48.576], [-124.2226, 48.5761], [-124.2227, 48.5766], [-124.228, 48.5762]]]}, "properties": {"company_id": "black-stone-minerals", "jurisdiction": "British Columbia", "claim_id": 401348, "claim_name": "ANSEL'S JOURNEY", "holder": "K2 STONE QUARRIES INC.", "status": "Mineral", "recorded_date": "2003-04-02", "anniversary_or_expiry": "2025-04-02", "area_ha": 25, "tenure_type": "Mineral", "source": "BC MTA Mineral, Placer and Coal Tenure Spatial View (BCGW). Open Government Licence - British Columbia. Not legal title.", "as_of": "2026-09-20", "role": "focus", "color": "#e8b040"}}, {"type": "Feature", "geometry": {"type": "Polygon", "coordinates": [[[-124.2158, 48.5765], [-124.2159, 48.5772], [-124.2227, 48.5766], [-124.2226, 48.5761], [-124.2158, 48.5765]]]}, "properties": {"company_id": "black-stone-minerals", "jurisdiction": "British Columbia", "claim_id": 401349, "claim_name": "RAVYN'S STORY", "holder": "K2 STONE QUARRIES INC.", "status": "Mineral", "recorded_date": "2003-04-02", "anniversary_or_expiry": "2025-04-02", "area_ha": 25, "tenure_type": "Mineral", "source": "BC MTA Mineral, Placer and Coal Tenure Spatial View (BCGW). Open Government Licence - British Columbia. Not legal title.", "as_of": "2026-09-20", "role": "focus", "color": "#e8b040"}}, {"type": "Feature", "geometry": {"type": "Polygon", "coordinates": [[[-124.215, 48.5772], [-124.2158, 48.5817], [-124.2225, 48.5811], [-124.2217, 48.5767], [-124.215, 48.5772]]]}, "properties": {"company_id": "black-stone-minerals", "jurisdiction": "British Columbia", "claim_id": 401350, "claim_name": "RY'S WORLD", "holder": "K2 STONE QUARRIES INC.", "status": "Mineral", "recorded_date": "2003-04-02", "anniversary_or_expiry": "2025-04-02", "area_ha": 25, "tenure_type": "Mineral", "source": "BC MTA Mineral, Placer and Coal Tenure Spatial View (BCGW). Open Government Licence - British Columbia. Not legal title.", "as_of": "2026-09-20", "role": "focus", "color": "#e8b040"}}, {"type": "Feature", "geometry": {"type": "Polygon", "coordinates": [[[-124.2292, 48.5801], [-124.228, 48.5801], [-124.228, 48.5762], [-124.2217, 48.5767], [-124.2225, 48.5811], [-124.2293, 48.5806], [-124.2292, 48.5801]]]}, "properties": {"company_id": "black-stone-minerals", "jurisdiction": "British Columbia", "claim_id": 401351, "claim_name": "THANK YOU MR. MOFFAT", "holder": "K2 STONE QUARRIES INC.", "status": "Mineral", "recorded_date": "2003-04-02", "anniversary_or_expiry": "2025-04-02", "area_ha": 25, "tenure_type": "Mineral", "source": "BC MTA Mineral, Placer and Coal Tenure Spatial View (BCGW). Open Government Licence - British Columbia. Not legal title.", "as_of": "2026-09-20", "role": "focus", "color": "#e8b040"}}, {"type": "Feature", "geometry": {"type": "Polygon", "coordinates": [[[-126.5578, 49.754], [-126.5578, 49.7498], [-126.5203, 49.7498], [-126.5203, 49.7706], [-126.5578, 49.7706], [-126.5578, 49.754]]]}, "properties": {"company_id": "black-stone-minerals", "jurisdiction": "British Columbia", "claim_id": 512519, "claim_name": null, "holder": "PACIFIC WEST STONE INC.", "status": "Mineral", "recorded_date": "2005-05-13", "anniversary_or_expiry": "2027-11-09", "area_ha": 626.135, "tenure_type": "Mineral", "source": "BC MTA Mineral, Placer and Coal Tenure Spatial View (BCGW). Open Government Licence - British Columbia. Not legal title.", "as_of": "2026-09-20", "role": "focus", "color": "#e8b040"}}, {"type": "Feature", "geometry": {"type": "Polygon", "coordinates": [[[-126.539, 49.7748], [-126.539, 49.7706], [-126.4765, 49.7706], [-126.4765, 49.7831], [-126.4828, 49.7831], [-126.4828, 49.7873], [-126.4953, 49.7873], [-126.4953, 49.779], [-126.539, 49.779], [-126.539, 49.7748]]]}, "properties": {"company_id": "black-stone-minerals", "jurisdiction": "British Columbia", "claim_id": 510251, "claim_name": "INLET", "holder": "PACIFIC WEST STONE INC.", "status": "Mineral", "recorded_date": "2005-04-06", "anniversary_or_expiry": "2027-11-09", "area_ha": 521.605, "tenure_type": "Mineral", "source": "BC MTA Mineral, Placer and Coal Tenure Spatial View (BCGW). Open Government Licence - British Columbia. Not legal title.", "as_of": "2026-09-20", "role": "focus", "color": "#e8b040"}}, {"type": "Feature", "geometry": {"type": "Polygon", "coordinates": [[[-126.5203, 49.754], [-126.5203, 49.7498], [-126.514, 49.7498], [-126.514, 49.7623], [-126.5203, 49.7623], [-126.5203, 49.754]]]}, "properties": {"company_id": "black-stone-minerals", "jurisdiction": "British Columbia", "claim_id": 510254, "claim_name": "INLET 4", "holder": "PACIFIC WEST STONE INC.", "status": "Mineral", "recorded_date": "2005-04-06", "anniversary_or_expiry": "2027-11-09", "area_ha": 62.618, "tenure_type": "Mineral", "source": "BC MTA Mineral, Placer and Coal Tenure Spatial View (BCGW). Open Government Licence - British Columbia. Not legal title.", "as_of": "2026-09-20", "role": "focus", "color": "#e8b040"}}, {"type": "Feature", "geometry": {"type": "Polygon", "coordinates": [[[-126.4702, 49.7748], [-126.4765, 49.7748], [-126.4765, 49.7706], [-126.4702, 49.7706], [-126.4702, 49.7748]]]}, "properties": {"company_id": "black-stone-minerals", "jurisdiction": "British Columbia", "claim_id": 510256, "claim_name": "INLET 5", "holder": "PACIFIC WEST STONE INC.", "status": "Mineral", "recorded_date": "2005-04-06", "anniversary_or_expiry": "2027-11-09", "area_ha": 20.866, "tenure_type": "Mineral", "source": "BC MTA Mineral, Placer and Coal Tenure Spatial View (BCGW). Open Government Licence - British Columbia. Not legal title.", "as_of": "2026-09-20", "role": "focus", "color": "#e8b040"}}, {"type": "Feature", "geometry": {"type": "Polygon", "coordinates": [[[-124.2415, 48.5666], [-124.228, 48.5666], [-124.228, 48.5801], [-124.2415, 48.5801], [-124.2415, 48.5666]]]}, "properties": {"company_id": "black-stone-minerals", "jurisdiction": "British Columbia", "claim_id": 519281, "claim_name": null, "holder": "K2 STONE QUARRIES INC.", "status": "Mineral", "recorded_date": "2005-08-24", "anniversary_or_expiry": "2025-08-24", "area_ha": 150, "tenure_type": "Mineral", "source": "BC MTA Mineral, Placer and Coal Tenure Spatial View (BCGW). Open Government Licence - British Columbia. Not legal title.", "as_of": "2026-09-20", "role": "focus", "color": "#e8b040"}}, {"type": "Feature", "geometry": {"type": "Polygon", "coordinates": [[[-115.9073, 49.4375], [-115.9136, 49.4375], [-115.9136, 49.4333], [-115.9073, 49.4333], [-115.9073, 49.4375]]]}, "properties": {"company_id": "black-stone-minerals", "jurisdiction": "British Columbia", "claim_id": 514711, "claim_name": null, "holder": "ALDRIDGE STONE LTD.", "status": "Mineral", "recorded_date": "2005-06-17", "anniversary_or_expiry": "2032-05-30", "area_ha": 21.0091, "tenure_type": "Mineral", "source": "BC MTA Mineral, Placer and Coal Tenure Spatial View (BCGW). Open Government Licence - British Columbia. Not legal title.", "as_of": "2026-09-20", "role": "focus", "color": "#e8b040"}}, {"type": "Feature", "geometry": {"type": "Polygon", "coordinates": [[[-115.9136, 49.4375], [-115.9198, 49.4375], [-115.9198, 49.4333], [-115.9136, 49.4333], [-115.9136, 49.4375]]]}, "properties": {"company_id": "black-stone-minerals", "jurisdiction": "British Columbia", "claim_id": 527330, "claim_name": "VENT 4", "holder": "ALDRIDGE STONE LTD.", "status": "Mineral", "recorded_date": "2006-02-09", "anniversary_or_expiry": "2031-02-09", "area_ha": 21.009, "tenure_type": "Mineral", "source": "BC MTA Mineral, Placer and Coal Tenure Spatial View (BCGW). Open Government Licence - British Columbia. Not legal title.", "as_of": "2026-09-20", "role": "focus", "color": "#e8b040"}}, {"type": "Feature", "geometry": {"type": "Polygon", "coordinates": [[[-126.514, 49.7456], [-126.514, 49.7415], [-126.4827, 49.7415], [-126.4827, 49.7498], [-126.514, 49.7498], [-126.514, 49.7456]]]}, "properties": {"company_id": "black-stone-minerals", "jurisdiction": "British Columbia", "claim_id": 534520, "claim_name": "THASIS", "holder": "PACIFIC WEST STONE INC.", "status": "Mineral", "recorded_date": "2006-05-27", "anniversary_or_expiry": "2027-11-09", "area_ha": 208.788, "tenure_type": "Mineral", "source": "BC MTA Mineral, Placer and Coal Tenure Spatial View (BCGW). Open Government Licence - British Columbia. Not legal title.", "as_of": "2026-09-20", "role": "focus", "color": "#e8b040"}}, {"type": "Feature", "geometry": {"type": "Polygon", "coordinates": [[[-126.5078, 49.7373], [-126.4702, 49.7373], [-126.4702, 49.7498], [-126.4827, 49.7498], [-126.4827, 49.7415], [-126.514, 49.7415], [-126.514, 49.7373], [-126.5078, 49.7373]]]}, "properties": {"company_id": "black-stone-minerals", "jurisdiction": "British Columbia", "claim_id": 534845, "claim_name": "AVA", "holder": "PACIFIC WEST STONE INC.", "status": "Mineral", "recorded_date": "2006-06-02", "anniversary_or_expiry": "2027-11-09", "area_ha": 229.68800000000002, "tenure_type": "Mineral", "source": "BC MTA Mineral, Placer and Coal Tenure Spatial View (BCGW). Open Government Licence - British Columbia. Not legal title.", "as_of": "2026-09-20", "role": "focus", "color": "#e8b040"}}]}