{"type": "FeatureCollection", "features": [{"type": "Feature", "geometry": {"type": "Polygon", "coordinates": [[[-123.6187, 51.0836], [-123.5934, 51.0836], [-123.5934, 51.1061], [-123.6219, 51.1061], [-123.6219, 51.0836], [-123.6187, 51.0836]]]}, "properties": {"company_id": "blue-lagoon-resources", "jurisdiction": "British Columbia", "claim_id": 207933, "claim_name": "LORD #1", "holder": "BLUE LAGOON RESOURCES INC.", "status": "Mineral", "recorded_date": "3011904000", "anniversary_or_expiry": "2029-11-01", "area_ha": 500, "tenure_type": "Mineral", "source": "BC MTA Mineral, Placer and Coal Tenure Spatial View (BCGW). Open Government Licence - British Columbia. Not legal title.", "as_of": "2026-09-20", "role": "focus", "color": "#e8b040"}}, {"type": "Feature", "geometry": {"type": "Polygon", "coordinates": [[[-123.5648, 51.0845], [-123.5648, 51.1061], [-123.5934, 51.1061], [-123.5934, 51.0836], [-123.5648, 51.0836], [-123.5648, 51.0845]]]}, "properties": {"company_id": "blue-lagoon-resources", "jurisdiction": "British Columbia", "claim_id": 207934, "claim_name": "LORD #2", "holder": "BLUE LAGOON RESOURCES INC.", "status": "Mineral", "recorded_date": "3011904000", "anniversary_or_expiry": "2029-11-01", "area_ha": 500, "tenure_type": "Mineral", "source": "BC MTA Mineral, Placer and Coal Tenure Spatial View (BCGW). Open Government Licence - British Columbia. Not legal title.", "as_of": "2026-09-20", "role": "focus", "color": "#e8b040"}}, {"type": "Feature", "geometry": {"type": "Polygon", "coordinates": [[[-123.6219, 51.1061], [-123.6077, 51.1061], [-123.6077, 51.1151], [-123.6219, 51.1151], [-123.6219, 51.1061]]]}, "properties": {"company_id": "blue-lagoon-resources", "jurisdiction": "British Columbia", "claim_id": 208501, "claim_name": "LORD #5", "holder": "BLUE LAGOON RESOURCES INC.", "status": "Mineral", "recorded_date": "5891616000", "anniversary_or_expiry": "2029-11-01", "area_ha": 100, "tenure_type": "Mineral", "source": "BC MTA Mineral, Placer and Coal Tenure Spatial View (BCGW). Open Government Licence - British Columbia. Not legal title.", "as_of": "2026-09-20", "role": "focus", "color": "#e8b040"}}, {"type": "Feature", "geometry": {"type": "Polygon", "coordinates": [[[-123.6087, 51.1025], [-123.6144, 51.1025], [-123.6144, 51.0989], [-123.6087, 51.0989], [-123.6087, 51.1025]]]}, "properties": {"company_id": "blue-lagoon-resources", "jurisdiction": "British Columbia", "claim_id": 209470, "claim_name": "HI #1", "holder": "BLUE LAGOON RESOURCES INC.", "status": "Mineral", "recorded_date": "-147225600", "anniversary_or_expiry": "2029-11-01", "area_ha": 25, "tenure_type": "Mineral", "source": "BC MTA Mineral, Placer and Coal Tenure Spatial View (BCGW). Open Government Licence - British Columbia. Not legal title.", "as_of": "2026-09-20", "role": "focus", "color": "#e8b040"}}, {"type": "Feature", "geometry": {"type": "Polygon", "coordinates": [[[-123.6087, 51.0989], [-123.6029, 51.0989], [-123.6029, 51.1025], [-123.6087, 51.1025], [-123.6087, 51.0989]]]}, "properties": {"company_id": "blue-lagoon-resources", "jurisdiction": "British Columbia", "claim_id": 209471, "claim_name": "HI #2", "holder": "BLUE LAGOON RESOURCES INC.", "status": "Mineral", "recorded_date": "-147225600", "anniversary_or_expiry": "2029-11-01", "area_ha": 25, "tenure_type": "Mineral", "source": "BC MTA Mineral, Placer and Coal Tenure Spatial View (BCGW). Open Government Licence - British Columbia. Not legal title.", "as_of": "2026-09-20", "role": "focus", "color": "#e8b040"}}, {"type": "Feature", "geometry": {"type": "Polygon", "coordinates": [[[-123.6029, 51.1025], [-123.6029, 51.1061], [-123.6087, 51.1061], [-123.6087, 51.1025], [-123.6029, 51.1025]]]}, "properties": {"company_id": "blue-lagoon-resources", "jurisdiction": "British Columbia", "claim_id": 209472, "claim_name": "HI #3", "holder": "BLUE LAGOON RESOURCES INC.", "status": "Mineral", "recorded_date": "-147225600", "anniversary_or_expiry": "2029-11-01", "area_ha": 25, "tenure_type": "Mineral", "source": "BC MTA Mineral, Placer and Coal Tenure Spatial View (BCGW). Open Government Licence - British Columbia. Not legal title.", "as_of": "2026-09-20", "role": "focus", "color": "#e8b040"}}, {"type": "Feature", "geometry": {"type": "Polygon", "coordinates": [[[-123.6087, 51.1061], [-123.6144, 51.1061], [-123.6144, 51.1025], [-123.6087, 51.1025], [-123.6087, 51.1061]]]}, "properties": {"company_id": "blue-lagoon-resources", "jurisdiction": "British Columbia", "claim_id": 209473, "claim_name": "HI #4", "holder": "BLUE LAGOON RESOURCES INC.", "status": "Mineral", "recorded_date": "-147225600", "anniversary_or_expiry": "2029-11-01", "area_ha": 25, "tenure_type": "Mineral", "source": "BC MTA Mineral, Placer and Coal Tenure Spatial View (BCGW). Open Government Licence - British Columbia. Not legal title.", "as_of": "2026-09-20", "role": "focus", "color": "#e8b040"}}, {"type": "Feature", "geometry": {"type": "Polygon", "coordinates": [[[-123.6327, 51.0874], [-123.6327, 51.0832], [-123.614, 51.0832], [-123.614, 51.0874], [-123.6202, 51.0874], [-123.6202, 51.0915], [-123.6327, 51.0915], [-123.6327, 51.0874]]]}, "properties": {"company_id": "blue-lagoon-resources", "jurisdiction": "British Columbia", "claim_id": 514694, "claim_name": null, "holder": "BLUE LAGOON RESOURCES INC.", "status": "Mineral", "recorded_date": "2005-06-17", "anniversary_or_expiry": "2029-11-01", "area_ha": 101.509, "tenure_type": "Mineral", "source": "BC MTA Mineral, Placer and Coal Tenure Spatial View (BCGW). Open Government Licence - British Columbia. Not legal title.", "as_of": "2026-09-20", "role": "focus", "color": "#e8b040"}}, {"type": "Feature", "geometry": {"type": "Polygon", "coordinates": [[[-122.4014, 52.4249], [-122.4014, 52.4166], [-122.3952, 52.4166], [-122.3952, 52.4124], [-122.3889, 52.4124], [-122.3889, 52.4249], [-122.3952, 52.4249], [-122.3952, 52.4291], [-122.4014, 52.4291], [-122.4014, 52.4249]]]}, "properties": {"company_id": "blue-lagoon-resources", "jurisdiction": "British Columbia", "claim_id": 534108, "claim_name": "SHARBI 1", "holder": "BLUE, DAVID MALCOLM", "status": "Placer", "recorded_date": "2006-05-16", "anniversary_or_expiry": "2028-11-30", "area_ha": 118.31150000000001, "tenure_type": "Placer", "source": "BC MTA Mineral, Placer and Coal Tenure Spatial View (BCGW). Open Government Licence - British Columbia. Not legal title.", "as_of": "2026-09-20", "role": "focus", "color": "#e8b040"}}]}