{"type": "FeatureCollection", "features": [{"type": "Feature", "geometry": {"type": "Polygon", "coordinates": [[[-86.6125, 49.8042], [-86.6125, 49.8], [-86.575, 49.8], [-86.575, 49.8083], [-86.6125, 49.8083], [-86.6125, 49.8042]]]}, "properties": {"company_id": "blue-lagoon-resources", "jurisdiction": "Ontario", "claim_id": "548957", "claim_name": null, "holder": "(100) Blue Jay Gold Corp.", "status": "Active", "recorded_date": "2019-04-24", "anniversary_or_expiry": "2030-04-24", "area_ha": null, "tenure_type": "Multi-cell Mining Claim", "source": "Ontario MLAS operational claims (OGSEarth / LIO MapServer). Unofficial viewing data, not legal title.", "as_of": "2026-09-20", "role": "focus", "color": "#e8b040"}}, {"type": "Feature", "geometry": {"type": "Polygon", "coordinates": [[[-87.7375, 49.625], [-87.6875, 49.625], [-87.6875, 49.6375], [-87.6938, 49.6375], [-87.6938, 49.6292], [-87.7438, 49.6292], [-87.7438, 49.625], [-87.7375, 49.625]]]}, "properties": {"company_id": "blue-lagoon-resources", "jurisdiction": "Ontario", "claim_id": "550990", "claim_name": null, "holder": "(100) Blue Jay Gold Corp.", "status": "Active", "recorded_date": "2019-06-03", "anniversary_or_expiry": "2027-06-03", "area_ha": null, "tenure_type": "Multi-cell Mining Claim", "source": "Ontario MLAS operational claims (OGSEarth / LIO MapServer). Unofficial viewing data, not legal title.", "as_of": "2026-09-20", "role": "focus", "color": "#e8b040"}}, {"type": "Feature", "geometry": {"type": "Polygon", "coordinates": [[[-86.6375, 49.7958], [-86.6375, 49.7917], [-86.6188, 49.7917], [-86.6188, 49.7958], [-86.6125, 49.7958], [-86.6125, 49.8083], [-86.6188, 49.8083], [-86.6188, 49.8042], [-86.6313, 49.8042], [-86.6313, 49.8], [-86.6375, 49.8], [-86.6375, 49.7958]]]}, "properties": {"company_id": "blue-lagoon-resources", "jurisdiction": "Ontario", "claim_id": "551116", "claim_name": null, "holder": "(100) Blue Jay Gold Corp.", "status": "Active", "recorded_date": "2019-06-06", "anniversary_or_expiry": "2027-06-06", "area_ha": null, "tenure_type": "Multi-cell Mining Claim", "source": "Ontario MLAS operational claims (OGSEarth / LIO MapServer). Unofficial viewing data, not legal title.", "as_of": "2026-09-20", "role": "focus", "color": "#e8b040"}}, {"type": "Feature", "geometry": {"type": "Polygon", "coordinates": [[[-87.6813, 49.6542], [-87.6813, 49.65], [-87.6625, 49.65], [-87.6625, 49.6583], [-87.6813, 49.6583], [-87.6813, 49.6542]]]}, "properties": {"company_id": "blue-lagoon-resources", "jurisdiction": "Ontario", "claim_id": "559557", "claim_name": null, "holder": "(100) Blue Jay Gold Corp.", "status": "Active", "recorded_date": "2019-09-23", "anniversary_or_expiry": "2029-09-23", "area_ha": null, "tenure_type": "Multi-cell Mining Claim", "source": "Ontario MLAS operational claims (OGSEarth / LIO MapServer). Unofficial viewing data, not legal title.", "as_of": "2026-09-20", "role": "focus", "color": "#e8b040"}}, {"type": "Feature", "geometry": {"type": "Polygon", "coordinates": [[[-87.6625, 49.6542], [-87.6625, 49.65], [-87.6563, 49.65], [-87.6563, 49.6542], [-87.6375, 49.6542], [-87.6375, 49.6625], [-87.65, 49.6625], [-87.65, 49.6583], [-87.6625, 49.6583], [-87.6625, 49.6542]]]}, "properties": {"company_id": "blue-lagoon-resources", "jurisdiction": "Ontario", "claim_id": "563102", "claim_name": null, "holder": "(100) Blue Jay Gold Corp.", "status": "Active", "recorded_date": "2019-11-01", "anniversary_or_expiry": "2027-11-01", "area_ha": null, "tenure_type": "Multi-cell Mining Claim", "source": "Ontario MLAS operational claims (OGSEarth / LIO MapServer). Unofficial viewing data, not legal title.", "as_of": "2026-09-20", "role": "focus", "color": "#e8b040"}}, {"type": "Feature", "geometry": {"type": "Polygon", "coordinates": [[[-87.6313, 49.6542], [-87.6313, 49.6583], [-87.6375, 49.6583], [-87.6375, 49.6542], [-87.6313, 49.6542]]]}, "properties": {"company_id": "blue-lagoon-resources", "jurisdiction": "Ontario", "claim_id": "563103", "claim_name": null, "holder": "(100) Blue Jay Gold Corp.", "status": "Active", "recorded_date": "2019-11-01", "anniversary_or_expiry": "2027-11-01", "area_ha": null, "tenure_type": "Single Cell Mining Claim", "source": "Ontario MLAS operational claims (OGSEarth / LIO MapServer). Unofficial viewing data, not legal title.", "as_of": "2026-09-20", "role": "focus", "color": "#e8b040"}}, {"type": "Feature", "geometry": {"type": "Polygon", "coordinates": [[[-87.6313, 49.6583], [-87.6313, 49.6625], [-87.6375, 49.6625], [-87.6375, 49.6583], [-87.6313, 49.6583]]]}, "properties": {"company_id": "blue-lagoon-resources", "jurisdiction": "Ontario", "claim_id": "563104", "claim_name": null, "holder": "(100) Blue Jay Gold Corp.", "status": "Active", "recorded_date": "2019-11-01", "anniversary_or_expiry": "2027-11-01", "area_ha": null, "tenure_type": "Single Cell Mining Claim", "source": "Ontario MLAS operational claims (OGSEarth / LIO MapServer). Unofficial viewing data, not legal title.", "as_of": "2026-09-20", "role": "focus", "color": "#e8b040"}}, {"type": "Feature", "geometry": {"type": "Polygon", "coordinates": [[[-86.5438, 49.8042], [-86.5438, 49.8], [-86.5375, 49.8], [-86.5375, 49.8042], [-86.525, 49.8042], [-86.525, 49.8], [-86.5063, 49.8], [-86.5063, 49.8042], [-86.5, 49.8042], [-86.5, 49.8167], [-86.5313, 49.8167], [-86.5313, 49.8125], [-86.5438, 49.8125], [-86.5438, 49.8042]]]}, "properties": {"company_id": "blue-lagoon-resources", "jurisdiction": "Ontario", "claim_id": "702840", "claim_name": null, "holder": "(100) Blue Jay Gold Corp.", "status": "Active", "recorded_date": "2022-01-26", "anniversary_or_expiry": "2029-01-31", "area_ha": null, "tenure_type": "Multi-cell Mining Claim", "source": "Ontario MLAS operational claims (OGSEarth / LIO MapServer). Unofficial viewing data, not legal title.", "as_of": "2026-09-20", "role": "focus", "color": "#e8b040"}}, {"type": "Feature", "geometry": {"type": "Polygon", "coordinates": [[[-86.6063, 49.8125], [-86.5438, 49.8125], [-86.5438, 49.8167], [-86.55, 49.8167], [-86.55, 49.8208], [-86.6063, 49.8208], [-86.6063, 49.8167], [-86.6125, 49.8167], [-86.6125, 49.8125], [-86.6063, 49.8125]]]}, "properties": {"company_id": "blue-lagoon-resources", "jurisdiction": "Ontario", "claim_id": "702841", "claim_name": null, "holder": "(100) Blue Jay Gold Corp.", "status": "Active", "recorded_date": "2022-01-26", "anniversary_or_expiry": "2029-01-31", "area_ha": null, "tenure_type": "Multi-cell Mining Claim", "source": "Ontario MLAS operational claims (OGSEarth / LIO MapServer). Unofficial viewing data, not legal title.", "as_of": "2026-09-20", "role": "focus", "color": "#e8b040"}}, {"type": "Feature", "geometry": {"type": "Polygon", "coordinates": [[[-86.6625, 49.7875], [-86.625, 49.7875], [-86.625, 49.7917], [-86.6375, 49.7917], [-86.6375, 49.8], [-86.6313, 49.8], [-86.6313, 49.8042], [-86.6188, 49.8042], [-86.6188, 49.8083], [-86.6063, 49.8083], [-86.6063, 49.8125], [-86.625, 49.8125], [-86.625, 49.8083], [-86.6375, 49.8083], [-86.6375, 49.8042], [-86.65, 49.8042], [-86.65, 49.8], [-86.6625, 49.8], [-86.6625, 49.7917], [-86.6688, 49.7917], [-86.6688, 49.7875], [-86.6625, 49.7875]]]}, "properties": {"company_id": "blue-lagoon-resources", "jurisdiction": "Ontario", "claim_id": "702842", "claim_name": null, "holder": "(100) Blue Jay Gold Corp.", "status": "Active", "recorded_date": "2022-01-26", "anniversary_or_expiry": "2029-01-31", "area_ha": null, "tenure_type": "Multi-cell Mining Claim", "source": "Ontario MLAS operational claims (OGSEarth / LIO MapServer). Unofficial viewing data, not legal title.", "as_of": "2026-09-20", "role": "focus", "color": "#e8b040"}}, {"type": "Feature", "geometry": {"type": "Polygon", "coordinates": [[[-86.6, 49.8083], [-86.575, 49.8083], [-86.575, 49.8], [-86.5438, 49.8], [-86.5438, 49.8125], [-86.6063, 49.8125], [-86.6063, 49.8083], [-86.6, 49.8083]]]}, "properties": {"company_id": "blue-lagoon-resources", "jurisdiction": "Ontario", "claim_id": "702852", "claim_name": null, "holder": "(100) Blue Jay Gold Corp.", "status": "Active", "recorded_date": "2022-01-26", "anniversary_or_expiry": "2030-06-06", "area_ha": null, "tenure_type": "Multi-cell Mining Claim", "source": "Ontario MLAS operational claims (OGSEarth / LIO MapServer). Unofficial viewing data, not legal title.", "as_of": "2026-09-20", "role": "focus", "color": "#e8b040"}}, {"type": "Feature", "geometry": {"type": "Polygon", "coordinates": [[[-87.7, 49.6542], [-87.7, 49.65], [-87.6938, 49.65], [-87.6938, 49.6417], [-87.675, 49.6417], [-87.675, 49.65], [-87.6813, 49.65], [-87.6813, 49.6625], [-87.7, 49.6625], [-87.7, 49.6542]]]}, "properties": {"company_id": "blue-lagoon-resources", "jurisdiction": "Ontario", "claim_id": "711254", "claim_name": null, "holder": "(100) Blue Jay Gold Corp.", "status": "Active", "recorded_date": "2022-02-26", "anniversary_or_expiry": "2027-06-24", "area_ha": null, "tenure_type": "Multi-cell Mining Claim", "source": "Ontario MLAS operational claims (OGSEarth / LIO MapServer). Unofficial viewing data, not legal title.", "as_of": "2026-09-20", "role": "focus", "color": "#e8b040"}}, {"type": "Feature", "geometry": {"type": "Polygon", "coordinates": [[[-87.6875, 49.6292], [-87.6875, 49.625], [-87.6563, 49.625], [-87.6563, 49.6333], [-87.6688, 49.6333], [-87.6688, 49.6375], [-87.6875, 49.6375], [-87.6875, 49.6292]]]}, "properties": {"company_id": "blue-lagoon-resources", "jurisdiction": "Ontario", "claim_id": "711255", "claim_name": null, "holder": "(100) Blue Jay Gold Corp.", "status": "Active", "recorded_date": "2022-02-26", "anniversary_or_expiry": "2027-06-24", "area_ha": null, "tenure_type": "Multi-cell Mining Claim", "source": "Ontario MLAS operational claims (OGSEarth / LIO MapServer). Unofficial viewing data, not legal title.", "as_of": "2026-09-20", "role": "focus", "color": "#e8b040"}}, {"type": "Feature", "geometry": {"type": "Polygon", "coordinates": [[[-87.7188, 49.6292], [-87.6938, 49.6292], [-87.6938, 49.6375], [-87.7188, 49.6375], [-87.7188, 49.6333], [-87.725, 49.6333], [-87.725, 49.6292], [-87.7188, 49.6292]]]}, "properties": {"company_id": "blue-lagoon-resources", "jurisdiction": "Ontario", "claim_id": "711257", "claim_name": null, "holder": "(100) Blue Jay Gold Corp.", "status": "Active", "recorded_date": "2022-02-26", "anniversary_or_expiry": "2028-04-16", "area_ha": null, "tenure_type": "Multi-cell Mining Claim", "source": "Ontario MLAS operational claims (OGSEarth / LIO MapServer). Unofficial viewing data, not legal title.", "as_of": "2026-09-20", "role": "focus", "color": "#e8b040"}}, {"type": "Feature", "geometry": {"type": "Polygon", "coordinates": [[[-87.6813, 49.6375], [-87.6688, 49.6375], [-87.6688, 49.6417], [-87.6875, 49.6417], [-87.6875, 49.6375], [-87.6813, 49.6375]]]}, "properties": {"company_id": "blue-lagoon-resources", "jurisdiction": "Ontario", "claim_id": "714422", "claim_name": null, "holder": "(100) Blue Jay Gold Corp.", "status": "Active", "recorded_date": "2022-03-14", "anniversary_or_expiry": "2029-06-24", "area_ha": null, "tenure_type": "Multi-cell Mining Claim", "source": "Ontario MLAS operational claims (OGSEarth / LIO MapServer). Unofficial viewing data, not legal title.", "as_of": "2026-09-20", "role": "focus", "color": "#e8b040"}}, {"type": "Feature", "geometry": {"type": "Polygon", "coordinates": [[[-86.725, 49.7542], [-86.7, 49.7542], [-86.7, 49.75], [-86.6688, 49.75], [-86.6688, 49.7625], [-86.6813, 49.7625], [-86.6813, 49.7667], [-86.6938, 49.7667], [-86.6938, 49.7625], [-86.7188, 49.7625], [-86.7188, 49.7583], [-86.7313, 49.7583], [-86.7313, 49.7542], [-86.725, 49.7542]]]}, "properties": {"company_id": "blue-lagoon-resources", "jurisdiction": "Ontario", "claim_id": "716560", "claim_name": null, "holder": "(100) Blue Jay Gold Corp.", "status": "Hold Special Circumstances Apply", "recorded_date": "2022-03-31", "anniversary_or_expiry": "2026-02-07", "area_ha": null, "tenure_type": "Multi-cell Mining Claim", "source": "Ontario MLAS operational claims (OGSEarth / LIO MapServer). Unofficial viewing data, not legal title.", "as_of": "2026-09-20", "role": "focus", "color": "#e8b040"}}, {"type": "Feature", "geometry": {"type": "Polygon", "coordinates": [[[-86.725, 49.7333], [-86.725, 49.7292], [-86.7188, 49.7292], [-86.7188, 49.7333], [-86.6938, 49.7333], [-86.6938, 49.75], [-86.7, 49.75], [-86.7, 49.7542], [-86.725, 49.7542], [-86.725, 49.7333]]]}, "properties": {"company_id": "blue-lagoon-resources", "jurisdiction": "Ontario", "claim_id": "716562", "claim_name": null, "holder": "(100) Blue Jay Gold Corp.", "status": "Hold Special Circumstances Apply", "recorded_date": "2022-03-31", "anniversary_or_expiry": "2026-02-07", "area_ha": null, "tenure_type": "Multi-cell Mining Claim", "source": "Ontario MLAS operational claims (OGSEarth / LIO MapServer). Unofficial viewing data, not legal title.", "as_of": "2026-09-20", "role": "focus", "color": "#e8b040"}}, {"type": "Feature", "geometry": {"type": "Polygon", "coordinates": [[[-86.75, 49.7375], [-86.75, 49.7333], [-86.725, 49.7333], [-86.725, 49.7542], [-86.7438, 49.7542], [-86.7438, 49.7458], [-86.75, 49.7458], [-86.75, 49.7375]]]}, "properties": {"company_id": "blue-lagoon-resources", "jurisdiction": "Ontario", "claim_id": "716563", "claim_name": null, "holder": "(100) Blue Jay Gold Corp.", "status": "Hold Special Circumstances Apply", "recorded_date": "2022-03-31", "anniversary_or_expiry": "2026-02-07", "area_ha": null, "tenure_type": "Multi-cell Mining Claim", "source": "Ontario MLAS operational claims (OGSEarth / LIO MapServer). Unofficial viewing data, not legal title.", "as_of": "2026-09-20", "role": "focus", "color": "#e8b040"}}, {"type": "Feature", "geometry": {"type": "Polygon", "coordinates": [[[-86.7313, 49.7208], [-86.725, 49.7208], [-86.725, 49.7167], [-86.7125, 49.7167], [-86.7125, 49.7208], [-86.7063, 49.7208], [-86.7063, 49.725], [-86.6938, 49.725], [-86.6938, 49.7333], [-86.7188, 49.7333], [-86.7188, 49.7292], [-86.725, 49.7292], [-86.725, 49.725], [-86.7375, 49.725], [-86.7375, 49.7208], [-86.7313, 49.7208]]]}, "properties": {"company_id": "blue-lagoon-resources", "jurisdiction": "Ontario", "claim_id": "716565", "claim_name": null, "holder": "(100) Blue Jay Gold Corp.", "status": "Hold Special Circumstances Apply", "recorded_date": "2022-03-31", "anniversary_or_expiry": "2026-02-07", "area_ha": null, "tenure_type": "Multi-cell Mining Claim", "source": "Ontario MLAS operational claims (OGSEarth / LIO MapServer). Unofficial viewing data, not legal title.", "as_of": "2026-09-20", "role": "focus", "color": "#e8b040"}}, {"type": "Feature", "geometry": {"type": "Polygon", "coordinates": [[[-82.9563, 49.2708], [-82.9563, 49.275], [-82.9625, 49.275], [-82.9625, 49.2708], [-82.9563, 49.2708]]]}, "properties": {"company_id": "blue-lagoon-resources", "jurisdiction": "Ontario", "claim_id": "735689", "claim_name": null, "holder": "(100) Blue Jay Gold Corp.", "status": "Active", "recorded_date": "2022-07-03", "anniversary_or_expiry": "2027-07-03", "area_ha": null, "tenure_type": "Single Cell Mining Claim", "source": "Ontario MLAS operational claims (OGSEarth / LIO MapServer). Unofficial viewing data, not legal title.", "as_of": "2026-09-20", "role": "focus", "color": "#e8b040"}}, {"type": "Feature", "geometry": {"type": "Polygon", "coordinates": [[[-82.9563, 49.275], [-82.9563, 49.2792], [-82.9625, 49.2792], [-82.9625, 49.275], [-82.9563, 49.275]]]}, "properties": {"company_id": "blue-lagoon-resources", "jurisdiction": "Ontario", "claim_id": "735690", "claim_name": null, "holder": "(100) Blue Jay Gold Corp.", "status": "Active", "recorded_date": "2022-07-03", "anniversary_or_expiry": "2027-07-03", "area_ha": null, "tenure_type": "Single Cell Mining Claim", "source": "Ontario MLAS operational claims (OGSEarth / LIO MapServer). Unofficial viewing data, not legal title.", "as_of": "2026-09-20", "role": "focus", "color": "#e8b040"}}, {"type": "Feature", "geometry": {"type": "Polygon", "coordinates": [[[-82.95, 49.2625], [-82.95, 49.2667], [-82.9563, 49.2667], [-82.9563, 49.2625], [-82.95, 49.2625]]]}, "properties": {"company_id": "blue-lagoon-resources", "jurisdiction": "Ontario", "claim_id": "735691", "claim_name": null, "holder": "(100) Blue Jay Gold Corp.", "status": "Active", "recorded_date": "2022-07-03", "anniversary_or_expiry": "2027-07-03", "area_ha": null, "tenure_type": "Single Cell Mining Claim", "source": "Ontario MLAS operational claims (OGSEarth / LIO MapServer). Unofficial viewing data, not legal title.", "as_of": "2026-09-20", "role": "focus", "color": "#e8b040"}}, {"type": "Feature", "geometry": {"type": "Polygon", "coordinates": [[[-82.9563, 49.2667], [-82.9563, 49.2708], [-82.9625, 49.2708], [-82.9625, 49.2667], [-82.9563, 49.2667]]]}, "properties": {"company_id": "blue-lagoon-resources", "jurisdiction": "Ontario", "claim_id": "735692", "claim_name": null, "holder": "(100) Blue Jay Gold Corp.", "status": "Active", "recorded_date": "2022-07-03", "anniversary_or_expiry": "2027-07-03", "area_ha": null, "tenure_type": "Single Cell Mining Claim", "source": "Ontario MLAS operational claims (OGSEarth / LIO MapServer). Unofficial viewing data, not legal title.", "as_of": "2026-09-20", "role": "focus", "color": "#e8b040"}}, {"type": "Feature", "geometry": {"type": "Polygon", "coordinates": [[[-82.9688, 49.2708], [-82.9688, 49.275], [-82.975, 49.275], [-82.975, 49.2708], [-82.9688, 49.2708]]]}, "properties": {"company_id": "blue-lagoon-resources", "jurisdiction": "Ontario", "claim_id": "735693", "claim_name": null, "holder": "(100) Blue Jay Gold Corp.", "status": "Active", "recorded_date": "2022-07-03", "anniversary_or_expiry": "2027-07-03", "area_ha": null, "tenure_type": "Single Cell Mining Claim", "source": "Ontario MLAS operational claims (OGSEarth / LIO MapServer). Unofficial viewing data, not legal title.", "as_of": "2026-09-20", "role": "focus", "color": "#e8b040"}}, {"type": "Feature", "geometry": {"type": "Polygon", "coordinates": [[[-82.9625, 49.2583], [-82.9625, 49.2625], [-82.9688, 49.2625], [-82.9688, 49.2583], [-82.9625, 49.2583]]]}, "properties": {"company_id": "blue-lagoon-resources", "jurisdiction": "Ontario", "claim_id": "735694", "claim_name": null, "holder": "(100) Blue Jay Gold Corp.", "status": "Active", "recorded_date": "2022-07-03", "anniversary_or_expiry": "2027-07-03", "area_ha": null, "tenure_type": "Single Cell Mining Claim", "source": "Ontario MLAS operational claims (OGSEarth / LIO MapServer). Unofficial viewing data, not legal title.", "as_of": "2026-09-20", "role": "focus", "color": "#e8b040"}}, {"type": "Feature", "geometry": {"type": "Polygon", "coordinates": [[[-82.9625, 49.2625], [-82.9625, 49.2667], [-82.9688, 49.2667], [-82.9688, 49.2625], [-82.9625, 49.2625]]]}, "properties": {"company_id": "blue-lagoon-resources", "jurisdiction": "Ontario", "claim_id": "735695", "claim_name": null, "holder": "(100) Blue Jay Gold Corp.", "status": "Active", "recorded_date": "2022-07-03", "anniversary_or_expiry": "2027-07-03", "area_ha": null, "tenure_type": "Single Cell Mining Claim", "source": "Ontario MLAS operational claims (OGSEarth / LIO MapServer). Unofficial viewing data, not legal title.", "as_of": "2026-09-20", "role": "focus", "color": "#e8b040"}}, {"type": "Feature", "geometry": {"type": "Polygon", "coordinates": [[[-82.9438, 49.2625], [-82.9438, 49.2667], [-82.95, 49.2667], [-82.95, 49.2625], [-82.9438, 49.2625]]]}, "properties": {"company_id": "blue-lagoon-resources", "jurisdiction": "Ontario", "claim_id": "735696", "claim_name": null, "holder": "(100) Blue Jay Gold Corp.", "status": "Active", "recorded_date": "2022-07-03", "anniversary_or_expiry": "2027-07-03", "area_ha": null, "tenure_type": "Single Cell Mining Claim", "source": "Ontario MLAS operational claims (OGSEarth / LIO MapServer). Unofficial viewing data, not legal title.", "as_of": "2026-09-20", "role": "focus", "color": "#e8b040"}}, {"type": "Feature", "geometry": {"type": "Polygon", "coordinates": [[[-82.9438, 49.2708], [-82.9438, 49.275], [-82.95, 49.275], [-82.95, 49.2708], [-82.9438, 49.2708]]]}, "properties": {"company_id": "blue-lagoon-resources", "jurisdiction": "Ontario", "claim_id": "735697", "claim_name": null, "holder": "(100) Blue Jay Gold Corp.", "status": "Active", "recorded_date": "2022-07-03", "anniversary_or_expiry": "2027-07-03", "area_ha": null, "tenure_type": "Single Cell Mining Claim", "source": "Ontario MLAS operational claims (OGSEarth / LIO MapServer). Unofficial viewing data, not legal title.", "as_of": "2026-09-20", "role": "focus", "color": "#e8b040"}}, {"type": "Feature", "geometry": {"type": "Polygon", "coordinates": [[[-82.9625, 49.2667], [-82.9625, 49.2708], [-82.9688, 49.2708], [-82.9688, 49.2667], [-82.9625, 49.2667]]]}, "properties": {"company_id": "blue-lagoon-resources", "jurisdiction": "Ontario", "claim_id": "735698", "claim_name": null, "holder": "(100) Blue Jay Gold Corp.", "status": "Active", "recorded_date": "2022-07-03", "anniversary_or_expiry": "2027-07-03", "area_ha": null, "tenure_type": "Single Cell Mining Claim", "source": "Ontario MLAS operational claims (OGSEarth / LIO MapServer). Unofficial viewing data, not legal title.", "as_of": "2026-09-20", "role": "focus", "color": "#e8b040"}}, {"type": "Feature", "geometry": {"type": "Polygon", "coordinates": [[[-82.975, 49.2708], [-82.975, 49.275], [-82.9813, 49.275], [-82.9813, 49.2708], [-82.975, 49.2708]]]}, "properties": {"company_id": "blue-lagoon-resources", "jurisdiction": "Ontario", "claim_id": "735699", "claim_name": null, "holder": "(100) Blue Jay Gold Corp.", "status": "Active", "recorded_date": "2022-07-03", "anniversary_or_expiry": "2027-07-03", "area_ha": null, "tenure_type": "Single Cell Mining Claim", "source": "Ontario MLAS operational claims (OGSEarth / LIO MapServer). Unofficial viewing data, not legal title.", "as_of": "2026-09-20", "role": "focus", "color": "#e8b040"}}, {"type": "Feature", "geometry": {"type": "Polygon", "coordinates": [[[-82.975, 49.275], [-82.975, 49.2792], [-82.9813, 49.2792], [-82.9813, 49.275], [-82.975, 49.275]]]}, "properties": {"company_id": "blue-lagoon-resources", "jurisdiction": "Ontario", "claim_id": "735700", "claim_name": null, "holder": "(100) Blue Jay Gold Corp.", "status": "Active", "recorded_date": "2022-07-03", "anniversary_or_expiry": "2027-07-03", "area_ha": null, "tenure_type": "Single Cell Mining Claim", "source": "Ontario MLAS operational claims (OGSEarth / LIO MapServer). Unofficial viewing data, not legal title.", "as_of": "2026-09-20", "role": "focus", "color": "#e8b040"}}, {"type": "Feature", "geometry": {"type": "Polygon", "coordinates": [[[-82.9625, 49.2708], [-82.9625, 49.275], [-82.9688, 49.275], [-82.9688, 49.2708], [-82.9625, 49.2708]]]}, "properties": {"company_id": "blue-lagoon-resources", "jurisdiction": "Ontario", "claim_id": "735701", "claim_name": null, "holder": "(100) Blue Jay Gold Corp.", "status": "Active", "recorded_date": "2022-07-03", "anniversary_or_expiry": "2027-07-03", "area_ha": null, "tenure_type": "Single Cell Mining Claim", "source": "Ontario MLAS operational claims (OGSEarth / LIO MapServer). Unofficial viewing data, not legal title.", "as_of": "2026-09-20", "role": "focus", "color": "#e8b040"}}, {"type": "Feature", "geometry": {"type": "Polygon", "coordinates": [[[-82.9563, 49.2583], [-82.9563, 49.2625], [-82.9625, 49.2625], [-82.9625, 49.2583], [-82.9563, 49.2583]]]}, "properties": {"company_id": "blue-lagoon-resources", "jurisdiction": "Ontario", "claim_id": "735702", "claim_name": null, "holder": "(100) Blue Jay Gold Corp.", "status": "Active", "recorded_date": "2022-07-03", "anniversary_or_expiry": "2027-07-03", "area_ha": null, "tenure_type": "Single Cell Mining Claim", "source": "Ontario MLAS operational claims (OGSEarth / LIO MapServer). Unofficial viewing data, not legal title.", "as_of": "2026-09-20", "role": "focus", "color": "#e8b040"}}, {"type": "Feature", "geometry": {"type": "Polygon", "coordinates": [[[-82.95, 49.2708], [-82.95, 49.275], [-82.9563, 49.275], [-82.9563, 49.2708], [-82.95, 49.2708]]]}, "properties": {"company_id": "blue-lagoon-resources", "jurisdiction": "Ontario", "claim_id": "735703", "claim_name": null, "holder": "(100) Blue Jay Gold Corp.", "status": "Active", "recorded_date": "2022-07-03", "anniversary_or_expiry": "2027-07-03", "area_ha": null, "tenure_type": "Single Cell Mining Claim", "source": "Ontario MLAS operational claims (OGSEarth / LIO MapServer). Unofficial viewing data, not legal title.", "as_of": "2026-09-20", "role": "focus", "color": "#e8b040"}}, {"type": "Feature", "geometry": {"type": "Polygon", "coordinates": [[[-82.95, 49.275], [-82.95, 49.2792], [-82.9563, 49.2792], [-82.9563, 49.275], [-82.95, 49.275]]]}, "properties": {"company_id": "blue-lagoon-resources", "jurisdiction": "Ontario", "claim_id": "735704", "claim_name": null, "holder": "(100) Blue Jay Gold Corp.", "status": "Active", "recorded_date": "2022-07-03", "anniversary_or_expiry": "2027-07-03", "area_ha": null, "tenure_type": "Single Cell Mining Claim", "source": "Ontario MLAS operational claims (OGSEarth / LIO MapServer). Unofficial viewing data, not legal title.", "as_of": "2026-09-20", "role": "focus", "color": "#e8b040"}}, {"type": "Feature", "geometry": {"type": "Polygon", "coordinates": [[[-82.9688, 49.2625], [-82.9688, 49.2667], [-82.975, 49.2667], [-82.975, 49.2625], [-82.9688, 49.2625]]]}, "properties": {"company_id": "blue-lagoon-resources", "jurisdiction": "Ontario", "claim_id": "735705", "claim_name": null, "holder": "(100) Blue Jay Gold Corp.", "status": "Active", "recorded_date": "2022-07-03", "anniversary_or_expiry": "2027-07-03", "area_ha": null, "tenure_type": "Single Cell Mining Claim", "source": "Ontario MLAS operational claims (OGSEarth / LIO MapServer). Unofficial viewing data, not legal title.", "as_of": "2026-09-20", "role": "focus", "color": "#e8b040"}}, {"type": "Feature", "geometry": {"type": "Polygon", "coordinates": [[[-82.95, 49.2583], [-82.95, 49.2625], [-82.9563, 49.2625], [-82.9563, 49.2583], [-82.95, 49.2583]]]}, "properties": {"company_id": "blue-lagoon-resources", "jurisdiction": "Ontario", "claim_id": "735706", "claim_name": null, "holder": "(100) Blue Jay Gold Corp.", "status": "Active", "recorded_date": "2022-07-03", "anniversary_or_expiry": "2027-07-03", "area_ha": null, "tenure_type": "Single Cell Mining Claim", "source": "Ontario MLAS operational claims (OGSEarth / LIO MapServer). Unofficial viewing data, not legal title.", "as_of": "2026-09-20", "role": "focus", "color": "#e8b040"}}, {"type": "Feature", "geometry": {"type": "Polygon", "coordinates": [[[-82.9688, 49.2583], [-82.9688, 49.2625], [-82.975, 49.2625], [-82.975, 49.2583], [-82.9688, 49.2583]]]}, "properties": {"company_id": "blue-lagoon-resources", "jurisdiction": "Ontario", "claim_id": "735707", "claim_name": null, "holder": "(100) Blue Jay Gold Corp.", "status": "Active", "recorded_date": "2022-07-03", "anniversary_or_expiry": "2027-07-03", "area_ha": null, "tenure_type": "Single Cell Mining Claim", "source": "Ontario MLAS operational claims (OGSEarth / LIO MapServer). Unofficial viewing data, not legal title.", "as_of": "2026-09-20", "role": "focus", "color": "#e8b040"}}, {"type": "Feature", "geometry": {"type": "Polygon", "coordinates": [[[-82.9625, 49.275], [-82.9625, 49.2792], [-82.9688, 49.2792], [-82.9688, 49.275], [-82.9625, 49.275]]]}, "properties": {"company_id": "blue-lagoon-resources", "jurisdiction": "Ontario", "claim_id": "735708", "claim_name": null, "holder": "(100) Blue Jay Gold Corp.", "status": "Active", "recorded_date": "2022-07-03", "anniversary_or_expiry": "2027-07-03", "area_ha": null, "tenure_type": "Single Cell Mining Claim", "source": "Ontario MLAS operational claims (OGSEarth / LIO MapServer). Unofficial viewing data, not legal title.", "as_of": "2026-09-20", "role": "focus", "color": "#e8b040"}}, {"type": "Feature", "geometry": {"type": "Polygon", "coordinates": [[[-82.9438, 49.275], [-82.9438, 49.2792], [-82.95, 49.2792], [-82.95, 49.275], [-82.9438, 49.275]]]}, "properties": {"company_id": "blue-lagoon-resources", "jurisdiction": "Ontario", "claim_id": "735709", "claim_name": null, "holder": "(100) Blue Jay Gold Corp.", "status": "Active", "recorded_date": "2022-07-03", "anniversary_or_expiry": "2027-07-03", "area_ha": null, "tenure_type": "Single Cell Mining Claim", "source": "Ontario MLAS operational claims (OGSEarth / LIO MapServer). Unofficial viewing data, not legal title.", "as_of": "2026-09-20", "role": "focus", "color": "#e8b040"}}, {"type": "Feature", "geometry": {"type": "Polygon", "coordinates": [[[-82.975, 49.2667], [-82.975, 49.2708], [-82.9813, 49.2708], [-82.9813, 49.2667], [-82.975, 49.2667]]]}, "properties": {"company_id": "blue-lagoon-resources", "jurisdiction": "Ontario", "claim_id": "735710", "claim_name": null, "holder": "(100) Blue Jay Gold Corp.", "status": "Active", "recorded_date": "2022-07-03", "anniversary_or_expiry": "2027-07-03", "area_ha": null, "tenure_type": "Single Cell Mining Claim", "source": "Ontario MLAS operational claims (OGSEarth / LIO MapServer). Unofficial viewing data, not legal title.", "as_of": "2026-09-20", "role": "focus", "color": "#e8b040"}}, {"type": "Feature", "geometry": {"type": "Polygon", "coordinates": [[[-82.9688, 49.2667], [-82.9688, 49.2708], [-82.975, 49.2708], [-82.975, 49.2667], [-82.9688, 49.2667]]]}, "properties": {"company_id": "blue-lagoon-resources", "jurisdiction": "Ontario", "claim_id": "735711", "claim_name": null, "holder": "(100) Blue Jay Gold Corp.", "status": "Active", "recorded_date": "2022-07-03", "anniversary_or_expiry": "2027-07-03", "area_ha": null, "tenure_type": "Single Cell Mining Claim", "source": "Ontario MLAS operational claims (OGSEarth / LIO MapServer). Unofficial viewing data, not legal title.", "as_of": "2026-09-20", "role": "focus", "color": "#e8b040"}}, {"type": "Feature", "geometry": {"type": "Polygon", "coordinates": [[[-82.9688, 49.275], [-82.9688, 49.2792], [-82.975, 49.2792], [-82.975, 49.275], [-82.9688, 49.275]]]}, "properties": {"company_id": "blue-lagoon-resources", "jurisdiction": "Ontario", "claim_id": "735712", "claim_name": null, "holder": "(100) Blue Jay Gold Corp.", "status": "Active", "recorded_date": "2022-07-03", "anniversary_or_expiry": "2027-07-03", "area_ha": null, "tenure_type": "Single Cell Mining Claim", "source": "Ontario MLAS operational claims (OGSEarth / LIO MapServer). Unofficial viewing data, not legal title.", "as_of": "2026-09-20", "role": "focus", "color": "#e8b040"}}, {"type": "Feature", "geometry": {"type": "Polygon", "coordinates": [[[-82.9563, 49.2625], [-82.9563, 49.2667], [-82.9625, 49.2667], [-82.9625, 49.2625], [-82.9563, 49.2625]]]}, "properties": {"company_id": "blue-lagoon-resources", "jurisdiction": "Ontario", "claim_id": "735713", "claim_name": null, "holder": "(100) Blue Jay Gold Corp.", "status": "Active", "recorded_date": "2022-07-03", "anniversary_or_expiry": "2027-07-03", "area_ha": null, "tenure_type": "Single Cell Mining Claim", "source": "Ontario MLAS operational claims (OGSEarth / LIO MapServer). Unofficial viewing data, not legal title.", "as_of": "2026-09-20", "role": "focus", "color": "#e8b040"}}, {"type": "Feature", "geometry": {"type": "Polygon", "coordinates": [[[-82.95, 49.2667], [-82.95, 49.2708], [-82.9563, 49.2708], [-82.9563, 49.2667], [-82.95, 49.2667]]]}, "properties": {"company_id": "blue-lagoon-resources", "jurisdiction": "Ontario", "claim_id": "735714", "claim_name": null, "holder": "(100) Blue Jay Gold Corp.", "status": "Active", "recorded_date": "2022-07-03", "anniversary_or_expiry": "2027-07-03", "area_ha": null, "tenure_type": "Single Cell Mining Claim", "source": "Ontario MLAS operational claims (OGSEarth / LIO MapServer). Unofficial viewing data, not legal title.", "as_of": "2026-09-20", "role": "focus", "color": "#e8b040"}}, {"type": "Feature", "geometry": {"type": "Polygon", "coordinates": [[[-82.9438, 49.2667], [-82.9438, 49.2708], [-82.95, 49.2708], [-82.95, 49.2667], [-82.9438, 49.2667]]]}, "properties": {"company_id": "blue-lagoon-resources", "jurisdiction": "Ontario", "claim_id": "735715", "claim_name": null, "holder": "(100) Blue Jay Gold Corp.", "status": "Active", "recorded_date": "2022-07-03", "anniversary_or_expiry": "2027-07-03", "area_ha": null, "tenure_type": "Single Cell Mining Claim", "source": "Ontario MLAS operational claims (OGSEarth / LIO MapServer). Unofficial viewing data, not legal title.", "as_of": "2026-09-20", "role": "focus", "color": "#e8b040"}}, {"type": "Feature", "geometry": {"type": "Polygon", "coordinates": [[[-82.975, 49.2583], [-82.975, 49.2625], [-82.9813, 49.2625], [-82.9813, 49.2583], [-82.975, 49.2583]]]}, "properties": {"company_id": "blue-lagoon-resources", "jurisdiction": "Ontario", "claim_id": "735716", "claim_name": null, "holder": "(100) Blue Jay Gold Corp.", "status": "Active", "recorded_date": "2022-07-03", "anniversary_or_expiry": "2027-07-03", "area_ha": null, "tenure_type": "Single Cell Mining Claim", "source": "Ontario MLAS operational claims (OGSEarth / LIO MapServer). Unofficial viewing data, not legal title.", "as_of": "2026-09-20", "role": "focus", "color": "#e8b040"}}, {"type": "Feature", "geometry": {"type": "Polygon", "coordinates": [[[-82.975, 49.2625], [-82.975, 49.2667], [-82.9813, 49.2667], [-82.9813, 49.2625], [-82.975, 49.2625]]]}, "properties": {"company_id": "blue-lagoon-resources", "jurisdiction": "Ontario", "claim_id": "735717", "claim_name": null, "holder": "(100) Blue Jay Gold Corp.", "status": "Active", "recorded_date": "2022-07-03", "anniversary_or_expiry": "2027-07-03", "area_ha": null, "tenure_type": "Single Cell Mining Claim", "source": "Ontario MLAS operational claims (OGSEarth / LIO MapServer). Unofficial viewing data, not legal title.", "as_of": "2026-09-20", "role": "focus", "color": "#e8b040"}}, {"type": "Feature", "geometry": {"type": "Polygon", "coordinates": [[[-86.6938, 49.7625], [-86.6938, 49.7667], [-86.7, 49.7667], [-86.7, 49.7625], [-86.6938, 49.7625]]]}, "properties": {"company_id": "blue-lagoon-resources", "jurisdiction": "Ontario", "claim_id": "750113", "claim_name": null, "holder": "(100) Blue Jay Gold Corp.", "status": "Hold Special Circumstances Apply", "recorded_date": "2022-09-26", "anniversary_or_expiry": "2026-09-26", "area_ha": null, "tenure_type": "Single Cell Mining Claim", "source": "Ontario MLAS operational claims (OGSEarth / LIO MapServer). Unofficial viewing data, not legal title.", "as_of": "2026-09-20", "role": "focus", "color": "#e8b040"}}, {"type": "Feature", "geometry": {"type": "Polygon", "coordinates": [[[-86.6938, 49.7375], [-86.6938, 49.7333], [-86.6625, 49.7333], [-86.6625, 49.7375], [-86.65, 49.7375], [-86.65, 49.7458], [-86.6563, 49.7458], [-86.6563, 49.75], [-86.6938, 49.75], [-86.6938, 49.7375]]]}, "properties": {"company_id": "blue-lagoon-resources", "jurisdiction": "Ontario", "claim_id": "753711", "claim_name": null, "holder": "(100) Blue Jay Gold Corp.", "status": "Hold Special Circumstances Apply", "recorded_date": "2022-11-01", "anniversary_or_expiry": "2026-02-07", "area_ha": null, "tenure_type": "Multi-cell Mining Claim", "source": "Ontario MLAS operational claims (OGSEarth / LIO MapServer). Unofficial viewing data, not legal title.", "as_of": "2026-09-20", "role": "focus", "color": "#e8b040"}}, {"type": "Feature", "geometry": {"type": "Polygon", "coordinates": [[[-86.6813, 49.7667], [-86.6813, 49.7625], [-86.6688, 49.7625], [-86.6688, 49.7667], [-86.6625, 49.7667], [-86.6625, 49.775], [-86.65, 49.775], [-86.65, 49.7833], [-86.6438, 49.7833], [-86.6438, 49.7875], [-86.6813, 49.7875], [-86.6813, 49.7708], [-86.6875, 49.7708], [-86.6875, 49.7667], [-86.6813, 49.7667]]]}, "properties": {"company_id": "blue-lagoon-resources", "jurisdiction": "Ontario", "claim_id": "716559", "claim_name": null, "holder": "(100) Blue Jay Gold Corp.", "status": "Hold Special Circumstances Apply", "recorded_date": "2022-03-31", "anniversary_or_expiry": "2026-04-16", "area_ha": null, "tenure_type": "Multi-cell Mining Claim", "source": "Ontario MLAS operational claims (OGSEarth / LIO MapServer). Unofficial viewing data, not legal title.", "as_of": "2026-09-20", "role": "focus", "color": "#e8b040"}}, {"type": "Feature", "geometry": {"type": "Polygon", "coordinates": [[[-86.5063, 49.7958], [-86.4813, 49.7958], [-86.4813, 49.8125], [-86.475, 49.8125], [-86.475, 49.8167], [-86.5, 49.8167], [-86.5, 49.8042], [-86.5063, 49.8042], [-86.5063, 49.8], [-86.5125, 49.8], [-86.5125, 49.7958], [-86.5063, 49.7958]]]}, "properties": {"company_id": "blue-lagoon-resources", "jurisdiction": "Ontario", "claim_id": "716566", "claim_name": null, "holder": "(100) Blue Jay Gold Corp.", "status": "Hold Special Circumstances Apply", "recorded_date": "2022-03-31", "anniversary_or_expiry": "2026-04-16", "area_ha": null, "tenure_type": "Multi-cell Mining Claim", "source": "Ontario MLAS operational claims (OGSEarth / LIO MapServer). Unofficial viewing data, not legal title.", "as_of": "2026-09-20", "role": "focus", "color": "#e8b040"}}, {"type": "Feature", "geometry": {"type": "Polygon", "coordinates": [[[-87.6188, 49.6583], [-87.6188, 49.6625], [-87.625, 49.6625], [-87.625, 49.6583], [-87.6188, 49.6583]]]}, "properties": {"company_id": "blue-lagoon-resources", "jurisdiction": "Ontario", "claim_id": "929651", "claim_name": null, "holder": "(100) Blue Jay Gold Corp.", "status": "Active", "recorded_date": "2025-02-14", "anniversary_or_expiry": "2027-02-14", "area_ha": null, "tenure_type": "Single Cell Mining Claim", "source": "Ontario MLAS operational claims (OGSEarth / LIO MapServer). Unofficial viewing data, not legal title.", "as_of": "2026-09-20", "role": "focus", "color": "#e8b040"}}, {"type": "Feature", "geometry": {"type": "Polygon", "coordinates": [[[-87.6125, 49.6583], [-87.6125, 49.6625], [-87.6188, 49.6625], [-87.6188, 49.6583], [-87.6125, 49.6583]]]}, "properties": {"company_id": "blue-lagoon-resources", "jurisdiction": "Ontario", "claim_id": "929652", "claim_name": null, "holder": "(100) Blue Jay Gold Corp.", "status": "Active", "recorded_date": "2025-02-14", "anniversary_or_expiry": "2027-02-14", "area_ha": null, "tenure_type": "Single Cell Mining Claim", "source": "Ontario MLAS operational claims (OGSEarth / LIO MapServer). Unofficial viewing data, not legal title.", "as_of": "2026-09-20", "role": "focus", "color": "#e8b040"}}, {"type": "Feature", "geometry": {"type": "Polygon", "coordinates": [[[-87.625, 49.6583], [-87.625, 49.6625], [-87.6313, 49.6625], [-87.6313, 49.6583], [-87.625, 49.6583]]]}, "properties": {"company_id": "blue-lagoon-resources", "jurisdiction": "Ontario", "claim_id": "929653", "claim_name": null, "holder": "(100) Blue Jay Gold Corp.", "status": "Active", "recorded_date": "2025-02-14", "anniversary_or_expiry": "2027-02-14", "area_ha": null, "tenure_type": "Single Cell Mining Claim", "source": "Ontario MLAS operational claims (OGSEarth / LIO MapServer). Unofficial viewing data, not legal title.", "as_of": "2026-09-20", "role": "focus", "color": "#e8b040"}}, {"type": "Feature", "geometry": {"type": "Polygon", "coordinates": [[[-87.9, 49.6042], [-87.9, 49.6083], [-87.9063, 49.6083], [-87.9063, 49.6042], [-87.9, 49.6042]]]}, "properties": {"company_id": "blue-lagoon-resources", "jurisdiction": "Ontario", "claim_id": "931633", "claim_name": null, "holder": "(100) Blue Jay Gold Corp.", "status": "Active", "recorded_date": "2025-02-19", "anniversary_or_expiry": "2027-02-19", "area_ha": null, "tenure_type": "Single Cell Mining Claim", "source": "Ontario MLAS operational claims (OGSEarth / LIO MapServer). Unofficial viewing data, not legal title.", "as_of": "2026-09-20", "role": "focus", "color": "#e8b040"}}, {"type": "Feature", "geometry": {"type": "Polygon", "coordinates": [[[-87.8875, 49.6083], [-87.8875, 49.6125], [-87.8938, 49.6125], [-87.8938, 49.6083], [-87.8875, 49.6083]]]}, "properties": {"company_id": "blue-lagoon-resources", "jurisdiction": "Ontario", "claim_id": "931634", "claim_name": null, "holder": "(100) Blue Jay Gold Corp.", "status": "Active", "recorded_date": "2025-02-19", "anniversary_or_expiry": "2027-02-19", "area_ha": null, "tenure_type": "Single Cell Mining Claim", "source": "Ontario MLAS operational claims (OGSEarth / LIO MapServer). Unofficial viewing data, not legal title.", "as_of": "2026-09-20", "role": "focus", "color": "#e8b040"}}, {"type": "Feature", "geometry": {"type": "Polygon", "coordinates": [[[-87.8938, 49.6083], [-87.8938, 49.6125], [-87.9, 49.6125], [-87.9, 49.6083], [-87.8938, 49.6083]]]}, "properties": {"company_id": "blue-lagoon-resources", "jurisdiction": "Ontario", "claim_id": "931635", "claim_name": null, "holder": "(100) Blue Jay Gold Corp.", "status": "Active", "recorded_date": "2025-02-19", "anniversary_or_expiry": "2027-02-19", "area_ha": null, "tenure_type": "Single Cell Mining Claim", "source": "Ontario MLAS operational claims (OGSEarth / LIO MapServer). Unofficial viewing data, not legal title.", "as_of": "2026-09-20", "role": "focus", "color": "#e8b040"}}, {"type": "Feature", "geometry": {"type": "Polygon", "coordinates": [[[-87.8875, 49.6125], [-87.8875, 49.6167], [-87.8938, 49.6167], [-87.8938, 49.6125], [-87.8875, 49.6125]]]}, "properties": {"company_id": "blue-lagoon-resources", "jurisdiction": "Ontario", "claim_id": "931636", "claim_name": null, "holder": "(100) Blue Jay Gold Corp.", "status": "Active", "recorded_date": "2025-02-19", "anniversary_or_expiry": "2027-02-19", "area_ha": null, "tenure_type": "Single Cell Mining Claim", "source": "Ontario MLAS operational claims (OGSEarth / LIO MapServer). Unofficial viewing data, not legal title.", "as_of": "2026-09-20", "role": "focus", "color": "#e8b040"}}, {"type": "Feature", "geometry": {"type": "Polygon", "coordinates": [[[-87.8813, 49.6083], [-87.8813, 49.6125], [-87.8875, 49.6125], [-87.8875, 49.6083], [-87.8813, 49.6083]]]}, "properties": {"company_id": "blue-lagoon-resources", "jurisdiction": "Ontario", "claim_id": "931637", "claim_name": null, "holder": "(100) Blue Jay Gold Corp.", "status": "Active", "recorded_date": "2025-02-19", "anniversary_or_expiry": "2027-02-19", "area_ha": null, "tenure_type": "Single Cell Mining Claim", "source": "Ontario MLAS operational claims (OGSEarth / LIO MapServer). Unofficial viewing data, not legal title.", "as_of": "2026-09-20", "role": "focus", "color": "#e8b040"}}, {"type": "Feature", "geometry": {"type": "Polygon", "coordinates": [[[-87.8938, 49.6042], [-87.8938, 49.6083], [-87.9, 49.6083], [-87.9, 49.6042], [-87.8938, 49.6042]]]}, "properties": {"company_id": "blue-lagoon-resources", "jurisdiction": "Ontario", "claim_id": "931638", "claim_name": null, "holder": "(100) Blue Jay Gold Corp.", "status": "Active", "recorded_date": "2025-02-19", "anniversary_or_expiry": "2027-02-19", "area_ha": null, "tenure_type": "Single Cell Mining Claim", "source": "Ontario MLAS operational claims (OGSEarth / LIO MapServer). Unofficial viewing data, not legal title.", "as_of": "2026-09-20", "role": "focus", "color": "#e8b040"}}, {"type": "Feature", "geometry": {"type": "Polygon", "coordinates": [[[-87.8813, 49.6042], [-87.8813, 49.6083], [-87.8875, 49.6083], [-87.8875, 49.6042], [-87.8813, 49.6042]]]}, "properties": {"company_id": "blue-lagoon-resources", "jurisdiction": "Ontario", "claim_id": "931639", "claim_name": null, "holder": "(100) Blue Jay Gold Corp.", "status": "Active", "recorded_date": "2025-02-19", "anniversary_or_expiry": "2027-02-19", "area_ha": null, "tenure_type": "Single Cell Mining Claim", "source": "Ontario MLAS operational claims (OGSEarth / LIO MapServer). Unofficial viewing data, not legal title.", "as_of": "2026-09-20", "role": "focus", "color": "#e8b040"}}, {"type": "Feature", "geometry": {"type": "Polygon", "coordinates": [[[-87.9, 49.6083], [-87.9, 49.6125], [-87.9063, 49.6125], [-87.9063, 49.6083], [-87.9, 49.6083]]]}, "properties": {"company_id": "blue-lagoon-resources", "jurisdiction": "Ontario", "claim_id": "931640", "claim_name": null, "holder": "(100) Blue Jay Gold Corp.", "status": "Active", "recorded_date": "2025-02-19", "anniversary_or_expiry": "2027-02-19", "area_ha": null, "tenure_type": "Single Cell Mining Claim", "source": "Ontario MLAS operational claims (OGSEarth / LIO MapServer). Unofficial viewing data, not legal title.", "as_of": "2026-09-20", "role": "focus", "color": "#e8b040"}}, {"type": "Feature", "geometry": {"type": "Polygon", "coordinates": [[[-87.8875, 49.6042], [-87.8875, 49.6083], [-87.8938, 49.6083], [-87.8938, 49.6042], [-87.8875, 49.6042]]]}, "properties": {"company_id": "blue-lagoon-resources", "jurisdiction": "Ontario", "claim_id": "931641", "claim_name": null, "holder": "(100) Blue Jay Gold Corp.", "status": "Active", "recorded_date": "2025-02-19", "anniversary_or_expiry": "2027-02-19", "area_ha": null, "tenure_type": "Single Cell Mining Claim", "source": "Ontario MLAS operational claims (OGSEarth / LIO MapServer). Unofficial viewing data, not legal title.", "as_of": "2026-09-20", "role": "focus", "color": "#e8b040"}}, {"type": "Feature", "geometry": {"type": "Polygon", "coordinates": [[[-87.8813, 49.6125], [-87.8813, 49.6167], [-87.8875, 49.6167], [-87.8875, 49.6125], [-87.8813, 49.6125]]]}, "properties": {"company_id": "blue-lagoon-resources", "jurisdiction": "Ontario", "claim_id": "931642", "claim_name": null, "holder": "(100) Blue Jay Gold Corp.", "status": "Active", "recorded_date": "2025-02-19", "anniversary_or_expiry": "2027-02-19", "area_ha": null, "tenure_type": "Single Cell Mining Claim", "source": "Ontario MLAS operational claims (OGSEarth / LIO MapServer). Unofficial viewing data, not legal title.", "as_of": "2026-09-20", "role": "focus", "color": "#e8b040"}}, {"type": "Feature", "geometry": {"type": "Polygon", "coordinates": [[[-87.7438, 49.6583], [-87.7438, 49.6625], [-87.75, 49.6625], [-87.75, 49.6583], [-87.7438, 49.6583]]]}, "properties": {"company_id": "blue-lagoon-resources", "jurisdiction": "Ontario", "claim_id": "931747", "claim_name": null, "holder": "(100) Blue Jay Gold Corp.", "status": "Active", "recorded_date": "2025-02-20", "anniversary_or_expiry": "2027-02-20", "area_ha": null, "tenure_type": "Single Cell Mining Claim", "source": "Ontario MLAS operational claims (OGSEarth / LIO MapServer). Unofficial viewing data, not legal title.", "as_of": "2026-09-20", "role": "focus", "color": "#e8b040"}}, {"type": "Feature", "geometry": {"type": "Polygon", "coordinates": [[[-87.725, 49.6583], [-87.725, 49.6625], [-87.7313, 49.6625], [-87.7313, 49.6583], [-87.725, 49.6583]]]}, "properties": {"company_id": "blue-lagoon-resources", "jurisdiction": "Ontario", "claim_id": "931748", "claim_name": null, "holder": "(100) Blue Jay Gold Corp.", "status": "Active", "recorded_date": "2025-02-20", "anniversary_or_expiry": "2027-02-20", "area_ha": null, "tenure_type": "Single Cell Mining Claim", "source": "Ontario MLAS operational claims (OGSEarth / LIO MapServer). Unofficial viewing data, not legal title.", "as_of": "2026-09-20", "role": "focus", "color": "#e8b040"}}, {"type": "Feature", "geometry": {"type": "Polygon", "coordinates": [[[-87.7438, 49.6542], [-87.7438, 49.6583], [-87.75, 49.6583], [-87.75, 49.6542], [-87.7438, 49.6542]]]}, "properties": {"company_id": "blue-lagoon-resources", "jurisdiction": "Ontario", "claim_id": "931749", "claim_name": null, "holder": "(100) Blue Jay Gold Corp.", "status": "Active", "recorded_date": "2025-02-20", "anniversary_or_expiry": "2027-02-20", "area_ha": null, "tenure_type": "Single Cell Mining Claim", "source": "Ontario MLAS operational claims (OGSEarth / LIO MapServer). Unofficial viewing data, not legal title.", "as_of": "2026-09-20", "role": "focus", "color": "#e8b040"}}, {"type": "Feature", "geometry": {"type": "Polygon", "coordinates": [[[-87.7188, 49.6583], [-87.7188, 49.6625], [-87.725, 49.6625], [-87.725, 49.6583], [-87.7188, 49.6583]]]}, "properties": {"company_id": "blue-lagoon-resources", "jurisdiction": "Ontario", "claim_id": "931750", "claim_name": null, "holder": "(100) Blue Jay Gold Corp.", "status": "Active", "recorded_date": "2025-02-20", "anniversary_or_expiry": "2027-02-20", "area_ha": null, "tenure_type": "Single Cell Mining Claim", "source": "Ontario MLAS operational claims (OGSEarth / LIO MapServer). Unofficial viewing data, not legal title.", "as_of": "2026-09-20", "role": "focus", "color": "#e8b040"}}, {"type": "Feature", "geometry": {"type": "Polygon", "coordinates": [[[-87.7, 49.6583], [-87.7, 49.6625], [-87.7063, 49.6625], [-87.7063, 49.6583], [-87.7, 49.6583]]]}, "properties": {"company_id": "blue-lagoon-resources", "jurisdiction": "Ontario", "claim_id": "931751", "claim_name": null, "holder": "(100) Blue Jay Gold Corp.", "status": "Active", "recorded_date": "2025-02-20", "anniversary_or_expiry": "2027-02-20", "area_ha": null, "tenure_type": "Single Cell Mining Claim", "source": "Ontario MLAS operational claims (OGSEarth / LIO MapServer). Unofficial viewing data, not legal title.", "as_of": "2026-09-20", "role": "focus", "color": "#e8b040"}}, {"type": "Feature", "geometry": {"type": "Polygon", "coordinates": [[[-87.7063, 49.6583], [-87.7063, 49.6625], [-87.7125, 49.6625], [-87.7125, 49.6583], [-87.7063, 49.6583]]]}, "properties": {"company_id": "blue-lagoon-resources", "jurisdiction": "Ontario", "claim_id": "931752", "claim_name": null, "holder": "(100) Blue Jay Gold Corp.", "status": "Active", "recorded_date": "2025-02-20", "anniversary_or_expiry": "2027-02-20", "area_ha": null, "tenure_type": "Single Cell Mining Claim", "source": "Ontario MLAS operational claims (OGSEarth / LIO MapServer). Unofficial viewing data, not legal title.", "as_of": "2026-09-20", "role": "focus", "color": "#e8b040"}}, {"type": "Feature", "geometry": {"type": "Polygon", "coordinates": [[[-87.7313, 49.6583], [-87.7313, 49.6625], [-87.7375, 49.6625], [-87.7375, 49.6583], [-87.7313, 49.6583]]]}, "properties": {"company_id": "blue-lagoon-resources", "jurisdiction": "Ontario", "claim_id": "931753", "claim_name": null, "holder": "(100) Blue Jay Gold Corp.", "status": "Active", "recorded_date": "2025-02-20", "anniversary_or_expiry": "2027-02-20", "area_ha": null, "tenure_type": "Single Cell Mining Claim", "source": "Ontario MLAS operational claims (OGSEarth / LIO MapServer). Unofficial viewing data, not legal title.", "as_of": "2026-09-20", "role": "focus", "color": "#e8b040"}}, {"type": "Feature", "geometry": {"type": "Polygon", "coordinates": [[[-87.7125, 49.6583], [-87.7125, 49.6625], [-87.7188, 49.6625], [-87.7188, 49.6583], [-87.7125, 49.6583]]]}, "properties": {"company_id": "blue-lagoon-resources", "jurisdiction": "Ontario", "claim_id": "931754", "claim_name": null, "holder": "(100) Blue Jay Gold Corp.", "status": "Active", "recorded_date": "2025-02-20", "anniversary_or_expiry": "2027-02-20", "area_ha": null, "tenure_type": "Single Cell Mining Claim", "source": "Ontario MLAS operational claims (OGSEarth / LIO MapServer). Unofficial viewing data, not legal title.", "as_of": "2026-09-20", "role": "focus", "color": "#e8b040"}}, {"type": "Feature", "geometry": {"type": "Polygon", "coordinates": [[[-87.7375, 49.6583], [-87.7375, 49.6625], [-87.7438, 49.6625], [-87.7438, 49.6583], [-87.7375, 49.6583]]]}, "properties": {"company_id": "blue-lagoon-resources", "jurisdiction": "Ontario", "claim_id": "931755", "claim_name": null, "holder": "(100) Blue Jay Gold Corp.", "status": "Active", "recorded_date": "2025-02-20", "anniversary_or_expiry": "2027-02-20", "area_ha": null, "tenure_type": "Single Cell Mining Claim", "source": "Ontario MLAS operational claims (OGSEarth / LIO MapServer). Unofficial viewing data, not legal title.", "as_of": "2026-09-20", "role": "focus", "color": "#e8b040"}}, {"type": "Feature", "geometry": {"type": "Polygon", "coordinates": [[[-87.725, 49.6542], [-87.725, 49.6583], [-87.7313, 49.6583], [-87.7313, 49.6542], [-87.725, 49.6542]]]}, "properties": {"company_id": "blue-lagoon-resources", "jurisdiction": "Ontario", "claim_id": "931756", "claim_name": null, "holder": "(100) Blue Jay Gold Corp.", "status": "Active", "recorded_date": "2025-02-20", "anniversary_or_expiry": "2027-02-20", "area_ha": null, "tenure_type": "Single Cell Mining Claim", "source": "Ontario MLAS operational claims (OGSEarth / LIO MapServer). Unofficial viewing data, not legal title.", "as_of": "2026-09-20", "role": "focus", "color": "#e8b040"}}, {"type": "Feature", "geometry": {"type": "Polygon", "coordinates": [[[-87.725, 49.6625], [-87.725, 49.6667], [-87.7313, 49.6667], [-87.7313, 49.6625], [-87.725, 49.6625]]]}, "properties": {"company_id": "blue-lagoon-resources", "jurisdiction": "Ontario", "claim_id": "932222", "claim_name": null, "holder": "(100) Blue Jay Gold Corp.", "status": "Active", "recorded_date": "2025-02-21", "anniversary_or_expiry": "2027-02-21", "area_ha": null, "tenure_type": "Single Cell Mining Claim", "source": "Ontario MLAS operational claims (OGSEarth / LIO MapServer). Unofficial viewing data, not legal title.", "as_of": "2026-09-20", "role": "focus", "color": "#e8b040"}}, {"type": "Feature", "geometry": {"type": "Polygon", "coordinates": [[[-87.6938, 49.6625], [-87.6938, 49.6667], [-87.7, 49.6667], [-87.7, 49.6625], [-87.6938, 49.6625]]]}, "properties": {"company_id": "blue-lagoon-resources", "jurisdiction": "Ontario", "claim_id": "932223", "claim_name": null, "holder": "(100) Blue Jay Gold Corp.", "status": "Active", "recorded_date": "2025-02-21", "anniversary_or_expiry": "2027-02-21", "area_ha": null, "tenure_type": "Single Cell Mining Claim", "source": "Ontario MLAS operational claims (OGSEarth / LIO MapServer). Unofficial viewing data, not legal title.", "as_of": "2026-09-20", "role": "focus", "color": "#e8b040"}}, {"type": "Feature", "geometry": {"type": "Polygon", "coordinates": [[[-87.7313, 49.6625], [-87.7313, 49.6667], [-87.7375, 49.6667], [-87.7375, 49.6625], [-87.7313, 49.6625]]]}, "properties": {"company_id": "blue-lagoon-resources", "jurisdiction": "Ontario", "claim_id": "932224", "claim_name": null, "holder": "(100) Blue Jay Gold Corp.", "status": "Active", "recorded_date": "2025-02-21", "anniversary_or_expiry": "2027-02-21", "area_ha": null, "tenure_type": "Single Cell Mining Claim", "source": "Ontario MLAS operational claims (OGSEarth / LIO MapServer). Unofficial viewing data, not legal title.", "as_of": "2026-09-20", "role": "focus", "color": "#e8b040"}}, {"type": "Feature", "geometry": {"type": "Polygon", "coordinates": [[[-87.7188, 49.6625], [-87.7188, 49.6667], [-87.725, 49.6667], [-87.725, 49.6625], [-87.7188, 49.6625]]]}, "properties": {"company_id": "blue-lagoon-resources", "jurisdiction": "Ontario", "claim_id": "932225", "claim_name": null, "holder": "(100) Blue Jay Gold Corp.", "status": "Active", "recorded_date": "2025-02-21", "anniversary_or_expiry": "2027-02-21", "area_ha": null, "tenure_type": "Single Cell Mining Claim", "source": "Ontario MLAS operational claims (OGSEarth / LIO MapServer). Unofficial viewing data, not legal title.", "as_of": "2026-09-20", "role": "focus", "color": "#e8b040"}}, {"type": "Feature", "geometry": {"type": "Polygon", "coordinates": [[[-87.75, 49.6625], [-87.75, 49.6667], [-87.7563, 49.6667], [-87.7563, 49.6625], [-87.75, 49.6625]]]}, "properties": {"company_id": "blue-lagoon-resources", "jurisdiction": "Ontario", "claim_id": "932226", "claim_name": null, "holder": "(100) Blue Jay Gold Corp.", "status": "Active", "recorded_date": "2025-02-21", "anniversary_or_expiry": "2027-02-21", "area_ha": null, "tenure_type": "Single Cell Mining Claim", "source": "Ontario MLAS operational claims (OGSEarth / LIO MapServer). Unofficial viewing data, not legal title.", "as_of": "2026-09-20", "role": "focus", "color": "#e8b040"}}, {"type": "Feature", "geometry": {"type": "Polygon", "coordinates": [[[-87.7375, 49.6625], [-87.7375, 49.6667], [-87.7438, 49.6667], [-87.7438, 49.6625], [-87.7375, 49.6625]]]}, "properties": {"company_id": "blue-lagoon-resources", "jurisdiction": "Ontario", "claim_id": "932227", "claim_name": null, "holder": "(100) Blue Jay Gold Corp.", "status": "Active", "recorded_date": "2025-02-21", "anniversary_or_expiry": "2027-02-21", "area_ha": null, "tenure_type": "Single Cell Mining Claim", "source": "Ontario MLAS operational claims (OGSEarth / LIO MapServer). Unofficial viewing data, not legal title.", "as_of": "2026-09-20", "role": "focus", "color": "#e8b040"}}, {"type": "Feature", "geometry": {"type": "Polygon", "coordinates": [[[-87.7125, 49.6625], [-87.7125, 49.6667], [-87.7188, 49.6667], [-87.7188, 49.6625], [-87.7125, 49.6625]]]}, "properties": {"company_id": "blue-lagoon-resources", "jurisdiction": "Ontario", "claim_id": "932228", "claim_name": null, "holder": "(100) Blue Jay Gold Corp.", "status": "Active", "recorded_date": "2025-02-21", "anniversary_or_expiry": "2027-02-21", "area_ha": null, "tenure_type": "Single Cell Mining Claim", "source": "Ontario MLAS operational claims (OGSEarth / LIO MapServer). Unofficial viewing data, not legal title.", "as_of": "2026-09-20", "role": "focus", "color": "#e8b040"}}, {"type": "Feature", "geometry": {"type": "Polygon", "coordinates": [[[-87.7, 49.6625], [-87.7, 49.6667], [-87.7063, 49.6667], [-87.7063, 49.6625], [-87.7, 49.6625]]]}, "properties": {"company_id": "blue-lagoon-resources", "jurisdiction": "Ontario", "claim_id": "932229", "claim_name": null, "holder": "(100) Blue Jay Gold Corp.", "status": "Active", "recorded_date": "2025-02-21", "anniversary_or_expiry": "2027-02-21", "area_ha": null, "tenure_type": "Single Cell Mining Claim", "source": "Ontario MLAS operational claims (OGSEarth / LIO MapServer). Unofficial viewing data, not legal title.", "as_of": "2026-09-20", "role": "focus", "color": "#e8b040"}}, {"type": "Feature", "geometry": {"type": "Polygon", "coordinates": [[[-87.7563, 49.6625], [-87.7563, 49.6667], [-87.7625, 49.6667], [-87.7625, 49.6625], [-87.7563, 49.6625]]]}, "properties": {"company_id": "blue-lagoon-resources", "jurisdiction": "Ontario", "claim_id": "932230", "claim_name": null, "holder": "(100) Blue Jay Gold Corp.", "status": "Active", "recorded_date": "2025-02-21", "anniversary_or_expiry": "2027-02-21", "area_ha": null, "tenure_type": "Single Cell Mining Claim", "source": "Ontario MLAS operational claims (OGSEarth / LIO MapServer). Unofficial viewing data, not legal title.", "as_of": "2026-09-20", "role": "focus", "color": "#e8b040"}}, {"type": "Feature", "geometry": {"type": "Polygon", "coordinates": [[[-87.7438, 49.6625], [-87.7438, 49.6667], [-87.75, 49.6667], [-87.75, 49.6625], [-87.7438, 49.6625]]]}, "properties": {"company_id": "blue-lagoon-resources", "jurisdiction": "Ontario", "claim_id": "932231", "claim_name": null, "holder": "(100) Blue Jay Gold Corp.", "status": "Active", "recorded_date": "2025-02-21", "anniversary_or_expiry": "2027-02-21", "area_ha": null, "tenure_type": "Single Cell Mining Claim", "source": "Ontario MLAS operational claims (OGSEarth / LIO MapServer). Unofficial viewing data, not legal title.", "as_of": "2026-09-20", "role": "focus", "color": "#e8b040"}}, {"type": "Feature", "geometry": {"type": "Polygon", "coordinates": [[[-87.7063, 49.6625], [-87.7063, 49.6667], [-87.7125, 49.6667], [-87.7125, 49.6625], [-87.7063, 49.6625]]]}, "properties": {"company_id": "blue-lagoon-resources", "jurisdiction": "Ontario", "claim_id": "932232", "claim_name": null, "holder": "(100) Blue Jay Gold Corp.", "status": "Active", "recorded_date": "2025-02-21", "anniversary_or_expiry": "2027-02-21", "area_ha": null, "tenure_type": "Single Cell Mining Claim", "source": "Ontario MLAS operational claims (OGSEarth / LIO MapServer). Unofficial viewing data, not legal title.", "as_of": "2026-09-20", "role": "focus", "color": "#e8b040"}}, {"type": "Feature", "geometry": {"type": "Polygon", "coordinates": [[[-87.85, 49.6125], [-87.85, 49.6167], [-87.8563, 49.6167], [-87.8563, 49.6125], [-87.85, 49.6125]]]}, "properties": {"company_id": "blue-lagoon-resources", "jurisdiction": "Ontario", "claim_id": "938082", "claim_name": null, "holder": "(100) Blue Jay Gold Corp.", "status": "Active", "recorded_date": "2025-02-24", "anniversary_or_expiry": "2027-02-24", "area_ha": null, "tenure_type": "Single Cell Mining Claim", "source": "Ontario MLAS operational claims (OGSEarth / LIO MapServer). Unofficial viewing data, not legal title.", "as_of": "2026-09-20", "role": "focus", "color": "#e8b040"}}, {"type": "Feature", "geometry": {"type": "Polygon", "coordinates": [[[-87.8375, 49.6125], [-87.8375, 49.6167], [-87.8438, 49.6167], [-87.8438, 49.6125], [-87.8375, 49.6125]]]}, "properties": {"company_id": "blue-lagoon-resources", "jurisdiction": "Ontario", "claim_id": "938083", "claim_name": null, "holder": "(100) Blue Jay Gold Corp.", "status": "Active", "recorded_date": "2025-02-24", "anniversary_or_expiry": "2027-02-24", "area_ha": null, "tenure_type": "Single Cell Mining Claim", "source": "Ontario MLAS operational claims (OGSEarth / LIO MapServer). Unofficial viewing data, not legal title.", "as_of": "2026-09-20", "role": "focus", "color": "#e8b040"}}, {"type": "Feature", "geometry": {"type": "Polygon", "coordinates": [[[-87.8188, 49.6083], [-87.8188, 49.6125], [-87.825, 49.6125], [-87.825, 49.6083], [-87.8188, 49.6083]]]}, "properties": {"company_id": "blue-lagoon-resources", "jurisdiction": "Ontario", "claim_id": "938084", "claim_name": null, "holder": "(100) Blue Jay Gold Corp.", "status": "Active", "recorded_date": "2025-02-24", "anniversary_or_expiry": "2027-02-24", "area_ha": null, "tenure_type": "Single Cell Mining Claim", "source": "Ontario MLAS operational claims (OGSEarth / LIO MapServer). Unofficial viewing data, not legal title.", "as_of": "2026-09-20", "role": "focus", "color": "#e8b040"}}, {"type": "Feature", "geometry": {"type": "Polygon", "coordinates": [[[-87.825, 49.6125], [-87.825, 49.6167], [-87.8313, 49.6167], [-87.8313, 49.6125], [-87.825, 49.6125]]]}, "properties": {"company_id": "blue-lagoon-resources", "jurisdiction": "Ontario", "claim_id": "938085", "claim_name": null, "holder": "(100) Blue Jay Gold Corp.", "status": "Active", "recorded_date": "2025-02-24", "anniversary_or_expiry": "2027-02-24", "area_ha": null, "tenure_type": "Single Cell Mining Claim", "source": "Ontario MLAS operational claims (OGSEarth / LIO MapServer). Unofficial viewing data, not legal title.", "as_of": "2026-09-20", "role": "focus", "color": "#e8b040"}}, {"type": "Feature", "geometry": {"type": "Polygon", "coordinates": [[[-87.8188, 49.6125], [-87.8188, 49.6167], [-87.825, 49.6167], [-87.825, 49.6125], [-87.8188, 49.6125]]]}, "properties": {"company_id": "blue-lagoon-resources", "jurisdiction": "Ontario", "claim_id": "938086", "claim_name": null, "holder": "(100) Blue Jay Gold Corp.", "status": "Active", "recorded_date": "2025-02-24", "anniversary_or_expiry": "2027-02-24", "area_ha": null, "tenure_type": "Single Cell Mining Claim", "source": "Ontario MLAS operational claims (OGSEarth / LIO MapServer). Unofficial viewing data, not legal title.", "as_of": "2026-09-20", "role": "focus", "color": "#e8b040"}}, {"type": "Feature", "geometry": {"type": "Polygon", "coordinates": [[[-87.825, 49.6083], [-87.825, 49.6125], [-87.8313, 49.6125], [-87.8313, 49.6083], [-87.825, 49.6083]]]}, "properties": {"company_id": "blue-lagoon-resources", "jurisdiction": "Ontario", "claim_id": "938087", "claim_name": null, "holder": "(100) Blue Jay Gold Corp.", "status": "Active", "recorded_date": "2025-02-24", "anniversary_or_expiry": "2027-02-24", "area_ha": null, "tenure_type": "Single Cell Mining Claim", "source": "Ontario MLAS operational claims (OGSEarth / LIO MapServer). Unofficial viewing data, not legal title.", "as_of": "2026-09-20", "role": "focus", "color": "#e8b040"}}, {"type": "Feature", "geometry": {"type": "Polygon", "coordinates": [[[-87.8063, 49.6083], [-87.8063, 49.6125], [-87.8125, 49.6125], [-87.8125, 49.6083], [-87.8063, 49.6083]]]}, "properties": {"company_id": "blue-lagoon-resources", "jurisdiction": "Ontario", "claim_id": "938088", "claim_name": null, "holder": "(100) Blue Jay Gold Corp.", "status": "Active", "recorded_date": "2025-02-24", "anniversary_or_expiry": "2027-02-24", "area_ha": null, "tenure_type": "Single Cell Mining Claim", "source": "Ontario MLAS operational claims (OGSEarth / LIO MapServer). Unofficial viewing data, not legal title.", "as_of": "2026-09-20", "role": "focus", "color": "#e8b040"}}, {"type": "Feature", "geometry": {"type": "Polygon", "coordinates": [[[-87.8313, 49.6083], [-87.8313, 49.6125], [-87.8375, 49.6125], [-87.8375, 49.6083], [-87.8313, 49.6083]]]}, "properties": {"company_id": "blue-lagoon-resources", "jurisdiction": "Ontario", "claim_id": "938089", "claim_name": null, "holder": "(100) Blue Jay Gold Corp.", "status": "Active", "recorded_date": "2025-02-24", "anniversary_or_expiry": "2027-02-24", "area_ha": null, "tenure_type": "Single Cell Mining Claim", "source": "Ontario MLAS operational claims (OGSEarth / LIO MapServer). Unofficial viewing data, not legal title.", "as_of": "2026-09-20", "role": "focus", "color": "#e8b040"}}, {"type": "Feature", "geometry": {"type": "Polygon", "coordinates": [[[-87.8125, 49.6083], [-87.8125, 49.6125], [-87.8188, 49.6125], [-87.8188, 49.6083], [-87.8125, 49.6083]]]}, "properties": {"company_id": "blue-lagoon-resources", "jurisdiction": "Ontario", "claim_id": "938090", "claim_name": null, "holder": "(100) Blue Jay Gold Corp.", "status": "Active", "recorded_date": "2025-02-24", "anniversary_or_expiry": "2027-02-24", "area_ha": null, "tenure_type": "Single Cell Mining Claim", "source": "Ontario MLAS operational claims (OGSEarth / LIO MapServer). Unofficial viewing data, not legal title.", "as_of": "2026-09-20", "role": "focus", "color": "#e8b040"}}, {"type": "Feature", "geometry": {"type": "Polygon", "coordinates": [[[-87.8438, 49.6083], [-87.8438, 49.6125], [-87.85, 49.6125], [-87.85, 49.6083], [-87.8438, 49.6083]]]}, "properties": {"company_id": "blue-lagoon-resources", "jurisdiction": "Ontario", "claim_id": "938091", "claim_name": null, "holder": "(100) Blue Jay Gold Corp.", "status": "Active", "recorded_date": "2025-02-24", "anniversary_or_expiry": "2027-02-24", "area_ha": null, "tenure_type": "Single Cell Mining Claim", "source": "Ontario MLAS operational claims (OGSEarth / LIO MapServer). Unofficial viewing data, not legal title.", "as_of": "2026-09-20", "role": "focus", "color": "#e8b040"}}, {"type": "Feature", "geometry": {"type": "Polygon", "coordinates": [[[-87.8438, 49.6125], [-87.8438, 49.6167], [-87.85, 49.6167], [-87.85, 49.6125], [-87.8438, 49.6125]]]}, "properties": {"company_id": "blue-lagoon-resources", "jurisdiction": "Ontario", "claim_id": "938092", "claim_name": null, "holder": "(100) Blue Jay Gold Corp.", "status": "Active", "recorded_date": "2025-02-24", "anniversary_or_expiry": "2027-02-24", "area_ha": null, "tenure_type": "Single Cell Mining Claim", "source": "Ontario MLAS operational claims (OGSEarth / LIO MapServer). Unofficial viewing data, not legal title.", "as_of": "2026-09-20", "role": "focus", "color": "#e8b040"}}, {"type": "Feature", "geometry": {"type": "Polygon", "coordinates": [[[-87.8313, 49.6125], [-87.8313, 49.6167], [-87.8375, 49.6167], [-87.8375, 49.6125], [-87.8313, 49.6125]]]}, "properties": {"company_id": "blue-lagoon-resources", "jurisdiction": "Ontario", "claim_id": "938093", "claim_name": null, "holder": "(100) Blue Jay Gold Corp.", "status": "Active", "recorded_date": "2025-02-24", "anniversary_or_expiry": "2027-02-24", "area_ha": null, "tenure_type": "Single Cell Mining Claim", "source": "Ontario MLAS operational claims (OGSEarth / LIO MapServer). Unofficial viewing data, not legal title.", "as_of": "2026-09-20", "role": "focus", "color": "#e8b040"}}, {"type": "Feature", "geometry": {"type": "Polygon", "coordinates": [[[-87.8125, 49.6125], [-87.8125, 49.6167], [-87.8188, 49.6167], [-87.8188, 49.6125], [-87.8125, 49.6125]]]}, "properties": {"company_id": "blue-lagoon-resources", "jurisdiction": "Ontario", "claim_id": "938094", "claim_name": null, "holder": "(100) Blue Jay Gold Corp.", "status": "Active", "recorded_date": "2025-02-24", "anniversary_or_expiry": "2027-02-24", "area_ha": null, "tenure_type": "Single Cell Mining Claim", "source": "Ontario MLAS operational claims (OGSEarth / LIO MapServer). Unofficial viewing data, not legal title.", "as_of": "2026-09-20", "role": "focus", "color": "#e8b040"}}, {"type": "Feature", "geometry": {"type": "Polygon", "coordinates": [[[-87.8063, 49.6125], [-87.8063, 49.6167], [-87.8125, 49.6167], [-87.8125, 49.6125], [-87.8063, 49.6125]]]}, "properties": {"company_id": "blue-lagoon-resources", "jurisdiction": "Ontario", "claim_id": "938095", "claim_name": null, "holder": "(100) Blue Jay Gold Corp.", "status": "Active", "recorded_date": "2025-02-24", "anniversary_or_expiry": "2027-02-24", "area_ha": null, "tenure_type": "Single Cell Mining Claim", "source": "Ontario MLAS operational claims (OGSEarth / LIO MapServer). Unofficial viewing data, not legal title.", "as_of": "2026-09-20", "role": "focus", "color": "#e8b040"}}, {"type": "Feature", "geometry": {"type": "Polygon", "coordinates": [[[-87.85, 49.6083], [-87.85, 49.6125], [-87.8563, 49.6125], [-87.8563, 49.6083], [-87.85, 49.6083]]]}, "properties": {"company_id": "blue-lagoon-resources", "jurisdiction": "Ontario", "claim_id": "938096", "claim_name": null, "holder": "(100) Blue Jay Gold Corp.", "status": "Active", "recorded_date": "2025-02-24", "anniversary_or_expiry": "2027-02-24", "area_ha": null, "tenure_type": "Single Cell Mining Claim", "source": "Ontario MLAS operational claims (OGSEarth / LIO MapServer). Unofficial viewing data, not legal title.", "as_of": "2026-09-20", "role": "focus", "color": "#e8b040"}}, {"type": "Feature", "geometry": {"type": "Polygon", "coordinates": [[[-87.8375, 49.6083], [-87.8375, 49.6125], [-87.8438, 49.6125], [-87.8438, 49.6083], [-87.8375, 49.6083]]]}, "properties": {"company_id": "blue-lagoon-resources", "jurisdiction": "Ontario", "claim_id": "938097", "claim_name": null, "holder": "(100) Blue Jay Gold Corp.", "status": "Active", "recorded_date": "2025-02-24", "anniversary_or_expiry": "2027-02-24", "area_ha": null, "tenure_type": "Single Cell Mining Claim", "source": "Ontario MLAS operational claims (OGSEarth / LIO MapServer). Unofficial viewing data, not legal title.", "as_of": "2026-09-20", "role": "focus", "color": "#e8b040"}}, {"type": "Feature", "geometry": {"type": "Polygon", "coordinates": [[[-87.7875, 49.6167], [-87.7875, 49.6208], [-87.7938, 49.6208], [-87.7938, 49.6167], [-87.7875, 49.6167]]]}, "properties": {"company_id": "blue-lagoon-resources", "jurisdiction": "Ontario", "claim_id": "938126", "claim_name": null, "holder": "(100) Blue Jay Gold Corp.", "status": "Active", "recorded_date": "2025-02-25", "anniversary_or_expiry": "2027-02-25", "area_ha": null, "tenure_type": "Single Cell Mining Claim", "source": "Ontario MLAS operational claims (OGSEarth / LIO MapServer). Unofficial viewing data, not legal title.", "as_of": "2026-09-20", "role": "focus", "color": "#e8b040"}}, {"type": "Feature", "geometry": {"type": "Polygon", "coordinates": [[[-87.7813, 49.6167], [-87.7813, 49.6208], [-87.7875, 49.6208], [-87.7875, 49.6167], [-87.7813, 49.6167]]]}, "properties": {"company_id": "blue-lagoon-resources", "jurisdiction": "Ontario", "claim_id": "938127", "claim_name": null, "holder": "(100) Blue Jay Gold Corp.", "status": "Active", "recorded_date": "2025-02-25", "anniversary_or_expiry": "2027-02-25", "area_ha": null, "tenure_type": "Single Cell Mining Claim", "source": "Ontario MLAS operational claims (OGSEarth / LIO MapServer). Unofficial viewing data, not legal title.", "as_of": "2026-09-20", "role": "focus", "color": "#e8b040"}}, {"type": "Feature", "geometry": {"type": "Polygon", "coordinates": [[[-87.775, 49.6167], [-87.775, 49.6208], [-87.7813, 49.6208], [-87.7813, 49.6167], [-87.775, 49.6167]]]}, "properties": {"company_id": "blue-lagoon-resources", "jurisdiction": "Ontario", "claim_id": "938128", "claim_name": null, "holder": "(100) Blue Jay Gold Corp.", "status": "Active", "recorded_date": "2025-02-25", "anniversary_or_expiry": "2027-02-25", "area_ha": null, "tenure_type": "Single Cell Mining Claim", "source": "Ontario MLAS operational claims (OGSEarth / LIO MapServer). Unofficial viewing data, not legal title.", "as_of": "2026-09-20", "role": "focus", "color": "#e8b040"}}, {"type": "Feature", "geometry": {"type": "Polygon", "coordinates": [[[-87.8, 49.6125], [-87.8, 49.6167], [-87.8063, 49.6167], [-87.8063, 49.6125], [-87.8, 49.6125]]]}, "properties": {"company_id": "blue-lagoon-resources", "jurisdiction": "Ontario", "claim_id": "938129", "claim_name": null, "holder": "(100) Blue Jay Gold Corp.", "status": "Active", "recorded_date": "2025-02-25", "anniversary_or_expiry": "2027-02-25", "area_ha": null, "tenure_type": "Single Cell Mining Claim", "source": "Ontario MLAS operational claims (OGSEarth / LIO MapServer). Unofficial viewing data, not legal title.", "as_of": "2026-09-20", "role": "focus", "color": "#e8b040"}}, {"type": "Feature", "geometry": {"type": "Polygon", "coordinates": [[[-87.7938, 49.6125], [-87.7938, 49.6167], [-87.8, 49.6167], [-87.8, 49.6125], [-87.7938, 49.6125]]]}, "properties": {"company_id": "blue-lagoon-resources", "jurisdiction": "Ontario", "claim_id": "938130", "claim_name": null, "holder": "(100) Blue Jay Gold Corp.", "status": "Active", "recorded_date": "2025-02-25", "anniversary_or_expiry": "2027-02-25", "area_ha": null, "tenure_type": "Single Cell Mining Claim", "source": "Ontario MLAS operational claims (OGSEarth / LIO MapServer). Unofficial viewing data, not legal title.", "as_of": "2026-09-20", "role": "focus", "color": "#e8b040"}}, {"type": "Feature", "geometry": {"type": "Polygon", "coordinates": [[[-87.7875, 49.6125], [-87.7875, 49.6167], [-87.7938, 49.6167], [-87.7938, 49.6125], [-87.7875, 49.6125]]]}, "properties": {"company_id": "blue-lagoon-resources", "jurisdiction": "Ontario", "claim_id": "938131", "claim_name": null, "holder": "(100) Blue Jay Gold Corp.", "status": "Active", "recorded_date": "2025-02-25", "anniversary_or_expiry": "2027-02-25", "area_ha": null, "tenure_type": "Single Cell Mining Claim", "source": "Ontario MLAS operational claims (OGSEarth / LIO MapServer). Unofficial viewing data, not legal title.", "as_of": "2026-09-20", "role": "focus", "color": "#e8b040"}}, {"type": "Feature", "geometry": {"type": "Polygon", "coordinates": [[[-87.7313, 49.6208], [-87.7313, 49.625], [-87.7375, 49.625], [-87.7375, 49.6208], [-87.7313, 49.6208]]]}, "properties": {"company_id": "blue-lagoon-resources", "jurisdiction": "Ontario", "claim_id": "938132", "claim_name": null, "holder": "(100) Blue Jay Gold Corp.", "status": "Active", "recorded_date": "2025-02-25", "anniversary_or_expiry": "2027-02-25", "area_ha": null, "tenure_type": "Single Cell Mining Claim", "source": "Ontario MLAS operational claims (OGSEarth / LIO MapServer). Unofficial viewing data, not legal title.", "as_of": "2026-09-20", "role": "focus", "color": "#e8b040"}}, {"type": "Feature", "geometry": {"type": "Polygon", "coordinates": [[[-87.7688, 49.6167], [-87.7688, 49.6208], [-87.775, 49.6208], [-87.775, 49.6167], [-87.7688, 49.6167]]]}, "properties": {"company_id": "blue-lagoon-resources", "jurisdiction": "Ontario", "claim_id": "938133", "claim_name": null, "holder": "(100) Blue Jay Gold Corp.", "status": "Active", "recorded_date": "2025-02-25", "anniversary_or_expiry": "2027-02-25", "area_ha": null, "tenure_type": "Single Cell Mining Claim", "source": "Ontario MLAS operational claims (OGSEarth / LIO MapServer). Unofficial viewing data, not legal title.", "as_of": "2026-09-20", "role": "focus", "color": "#e8b040"}}, {"type": "Feature", "geometry": {"type": "Polygon", "coordinates": [[[-87.7563, 49.6208], [-87.7563, 49.625], [-87.7625, 49.625], [-87.7625, 49.6208], [-87.7563, 49.6208]]]}, "properties": {"company_id": "blue-lagoon-resources", "jurisdiction": "Ontario", "claim_id": "938134", "claim_name": null, "holder": "(100) Blue Jay Gold Corp.", "status": "Active", "recorded_date": "2025-02-25", "anniversary_or_expiry": "2027-02-25", "area_ha": null, "tenure_type": "Single Cell Mining Claim", "source": "Ontario MLAS operational claims (OGSEarth / LIO MapServer). Unofficial viewing data, not legal title.", "as_of": "2026-09-20", "role": "focus", "color": "#e8b040"}}, {"type": "Feature", "geometry": {"type": "Polygon", "coordinates": [[[-87.7625, 49.6167], [-87.7625, 49.6208], [-87.7688, 49.6208], [-87.7688, 49.6167], [-87.7625, 49.6167]]]}, "properties": {"company_id": "blue-lagoon-resources", "jurisdiction": "Ontario", "claim_id": "938135", "claim_name": null, "holder": "(100) Blue Jay Gold Corp.", "status": "Active", "recorded_date": "2025-02-25", "anniversary_or_expiry": "2027-02-25", "area_ha": null, "tenure_type": "Single Cell Mining Claim", "source": "Ontario MLAS operational claims (OGSEarth / LIO MapServer). Unofficial viewing data, not legal title.", "as_of": "2026-09-20", "role": "focus", "color": "#e8b040"}}, {"type": "Feature", "geometry": {"type": "Polygon", "coordinates": [[[-87.75, 49.6208], [-87.75, 49.625], [-87.7563, 49.625], [-87.7563, 49.6208], [-87.75, 49.6208]]]}, "properties": {"company_id": "blue-lagoon-resources", "jurisdiction": "Ontario", "claim_id": "938136", "claim_name": null, "holder": "(100) Blue Jay Gold Corp.", "status": "Active", "recorded_date": "2025-02-25", "anniversary_or_expiry": "2027-02-25", "area_ha": null, "tenure_type": "Single Cell Mining Claim", "source": "Ontario MLAS operational claims (OGSEarth / LIO MapServer). Unofficial viewing data, not legal title.", "as_of": "2026-09-20", "role": "focus", "color": "#e8b040"}}, {"type": "Feature", "geometry": {"type": "Polygon", "coordinates": [[[-87.7375, 49.6208], [-87.7375, 49.625], [-87.7438, 49.625], [-87.7438, 49.6208], [-87.7375, 49.6208]]]}, "properties": {"company_id": "blue-lagoon-resources", "jurisdiction": "Ontario", "claim_id": "938137", "claim_name": null, "holder": "(100) Blue Jay Gold Corp.", "status": "Active", "recorded_date": "2025-02-25", "anniversary_or_expiry": "2027-02-25", "area_ha": null, "tenure_type": "Single Cell Mining Claim", "source": "Ontario MLAS operational claims (OGSEarth / LIO MapServer). Unofficial viewing data, not legal title.", "as_of": "2026-09-20", "role": "focus", "color": "#e8b040"}}, {"type": "Feature", "geometry": {"type": "Polygon", "coordinates": [[[-87.7563, 49.6167], [-87.7563, 49.6208], [-87.7625, 49.6208], [-87.7625, 49.6167], [-87.7563, 49.6167]]]}, "properties": {"company_id": "blue-lagoon-resources", "jurisdiction": "Ontario", "claim_id": "938138", "claim_name": null, "holder": "(100) Blue Jay Gold Corp.", "status": "Active", "recorded_date": "2025-02-25", "anniversary_or_expiry": "2027-02-25", "area_ha": null, "tenure_type": "Single Cell Mining Claim", "source": "Ontario MLAS operational claims (OGSEarth / LIO MapServer). Unofficial viewing data, not legal title.", "as_of": "2026-09-20", "role": "focus", "color": "#e8b040"}}, {"type": "Feature", "geometry": {"type": "Polygon", "coordinates": [[[-87.7438, 49.6208], [-87.7438, 49.625], [-87.75, 49.625], [-87.75, 49.6208], [-87.7438, 49.6208]]]}, "properties": {"company_id": "blue-lagoon-resources", "jurisdiction": "Ontario", "claim_id": "938139", "claim_name": null, "holder": "(100) Blue Jay Gold Corp.", "status": "Active", "recorded_date": "2025-02-25", "anniversary_or_expiry": "2027-02-25", "area_ha": null, "tenure_type": "Single Cell Mining Claim", "source": "Ontario MLAS operational claims (OGSEarth / LIO MapServer). Unofficial viewing data, not legal title.", "as_of": "2026-09-20", "role": "focus", "color": "#e8b040"}}]}