{"type": "FeatureCollection", "features": [{"type": "Feature", "geometry": {"type": "Polygon", "coordinates": [[[-130.4222, 56.6244], [-130.4528, 56.6244], [-130.4526, 56.6243], [-130.4222, 56.6244]]]}, "properties": {"company_id": "canagold", "jurisdiction": "British Columbia", "claim_id": 252966, "claim_name": "CAL #2", "holder": "CANAGOLD RESOURCES LTD.", "status": "Mineral", "recorded_date": "6182784000", "anniversary_or_expiry": "2034-01-15", "area_ha": 500, "tenure_type": "Mineral", "source": "BC MTA Mineral, Placer and Coal Tenure Spatial View (BCGW). Open Government Licence - British Columbia. Not legal title.", "as_of": "2026-09-20", "role": "focus", "color": "#e8b040"}}, {"type": "Feature", "geometry": {"type": "Polygon", "coordinates": [[[-130.4526, 56.6129], [-130.4528, 56.6243], [-130.4528, 56.6065], [-130.4838, 56.6063], [-130.4526, 56.6063], [-130.4526, 56.6129]]]}, "properties": {"company_id": "canagold", "jurisdiction": "British Columbia", "claim_id": 252967, "claim_name": "CAL #3", "holder": "CANAGOLD RESOURCES LTD.", "status": "Mineral", "recorded_date": "6183648000", "anniversary_or_expiry": "2034-06-22", "area_ha": 400, "tenure_type": "Mineral", "source": "BC MTA Mineral, Placer and Coal Tenure Spatial View (BCGW). Open Government Licence - British Columbia. Not legal title.", "as_of": "2026-09-20", "role": "focus", "color": "#e8b040"}}, {"type": "Feature", "geometry": {"type": "MultiPolygon", "coordinates": [[[[-130.4607, 56.6469], [-130.4854, 56.6469], [-130.4854, 56.6244], [-130.4805, 56.6244], [-130.4784, 56.6258], [-130.4754, 56.6244], [-130.4729, 56.6244], [-130.4774, 56.6265], [-130.4727, 56.6296], [-130.4613, 56.6244], [-130.4528, 56.6244], [-130.4528, 56.6299], [-130.46, 56.6251], [-130.4705, 56.6304], [-130.4756, 56.6316], [-130.4696, 56.639], [-130.46, 56.6367], [-130.4611, 56.6374], [-130.4569, 56.6394], [-130.4664, 56.6428], [-130.4626, 56.6461], [-130.4563, 56.6439], [-130.4607, 56.6469]]], [[[-130.4528, 56.6387], [-130.4543, 56.6393], [-130.4528, 56.6383], [-130.4528, 56.6387]]]]}, "properties": {"company_id": "canagold", "jurisdiction": "British Columbia", "claim_id": 316357, "claim_name": null, "holder": "CANAGOLD RESOURCES LTD.", "status": "Mineral", "recorded_date": "7676640000", "anniversary_or_expiry": "2025-04-30", "area_ha": 276.7, "tenure_type": "Mineral", "source": "BC MTA Mineral, Placer and Coal Tenure Spatial View (BCGW). Open Government Licence - British Columbia. Not legal title.", "as_of": "2026-09-20", "role": "focus", "color": "#e8b040"}}, {"type": "Feature", "geometry": {"type": "MultiPolygon", "coordinates": [[[[-130.4202, 56.6464], [-130.4202, 56.6469], [-130.4323, 56.6469], [-130.4352, 56.6434], [-130.4363, 56.6437], [-130.4379, 56.6396], [-130.4394, 56.6378], [-130.4438, 56.6348], [-130.4528, 56.6387], [-130.4459, 56.6337], [-130.4509, 56.6315], [-130.4528, 56.6299], [-130.4528, 56.6244], [-130.4202, 56.6244], [-130.4202, 56.6464]]], [[[-130.4501, 56.6469], [-130.4518, 56.6469], [-130.4506, 56.6461], [-130.4501, 56.6469]]], [[[-130.4493, 56.6471], [-130.4502, 56.6471], [-130.4494, 56.647], [-130.4493, 56.6471]]]]}, "properties": {"company_id": "canagold", "jurisdiction": "British Columbia", "claim_id": 316358, "claim_name": null, "holder": "CANAGOLD RESOURCES LTD.", "status": "Mineral", "recorded_date": "7676640000", "anniversary_or_expiry": "2025-04-30", "area_ha": 367.7, "tenure_type": "Mineral", "source": "BC MTA Mineral, Placer and Coal Tenure Spatial View (BCGW). Open Government Licence - British Columbia. Not legal title.", "as_of": "2026-09-20", "role": "focus", "color": "#e8b040"}}, {"type": "Feature", "geometry": {"type": "MultiPolygon", "coordinates": [[[[-130.4729, 56.6244], [-130.4754, 56.6244], [-130.467, 56.6206], [-130.4716, 56.6175], [-130.4789, 56.611], [-130.4854, 56.6131], [-130.4854, 56.6097], [-130.4816, 56.6085], [-130.4836, 56.6064], [-130.4528, 56.6065], [-130.4528, 56.6244], [-130.4613, 56.6244], [-130.466, 56.6212], [-130.4729, 56.6244]]], [[[-130.4832, 56.6227], [-130.4805, 56.6244], [-130.4854, 56.6244], [-130.4854, 56.6209], [-130.4839, 56.6221], [-130.4745, 56.6187], [-130.4832, 56.6227]]]]}, "properties": {"company_id": "canagold", "jurisdiction": "British Columbia", "claim_id": 316359, "claim_name": null, "holder": "CANAGOLD RESOURCES LTD.", "status": "Mineral", "recorded_date": "7676640000", "anniversary_or_expiry": "2025-04-30", "area_ha": 278.7, "tenure_type": "Mineral", "source": "BC MTA Mineral, Placer and Coal Tenure Spatial View (BCGW). Open Government Licence - British Columbia. Not legal title.", "as_of": "2026-09-20", "role": "focus", "color": "#e8b040"}}]}