{"type": "FeatureCollection", "features": [{"type": "Feature", "geometry": {"type": "Polygon", "coordinates": [[[-126.859, 57.2704], [-126.8617, 57.2711], [-126.8649, 57.2674], [-126.858, 57.2656], [-126.8548, 57.2693], [-126.859, 57.2704]]]}, "properties": {"company_id": "canasil-resources", "jurisdiction": "British Columbia", "claim_id": 238271, "claim_name": "BRENDA #1", "holder": "CANASIL RESOURCES INC", "status": "Mineral", "recorded_date": "3297024000", "anniversary_or_expiry": "2028-05-30", "area_ha": 25, "tenure_type": "Mineral", "source": "BC MTA Mineral, Placer and Coal Tenure Spatial View (BCGW). Open Government Licence - British Columbia. Not legal title.", "as_of": "2026-09-20", "role": "focus", "color": "#e8b040"}}, {"type": "Feature", "geometry": {"type": "Polygon", "coordinates": [[[-126.8666, 57.2724], [-126.8685, 57.2728], [-126.8718, 57.2691], [-126.8649, 57.2674], [-126.8617, 57.2711], [-126.8666, 57.2724]]]}, "properties": {"company_id": "canasil-resources", "jurisdiction": "British Columbia", "claim_id": 238272, "claim_name": "BRENDA #4", "holder": "CANASIL RESOURCES INC", "status": "Mineral", "recorded_date": "3297024000", "anniversary_or_expiry": "2028-05-30", "area_ha": 25, "tenure_type": "Mineral", "source": "BC MTA Mineral, Placer and Coal Tenure Spatial View (BCGW). Open Government Licence - British Columbia. Not legal title.", "as_of": "2026-09-20", "role": "focus", "color": "#e8b040"}}, {"type": "Feature", "geometry": {"type": "Polygon", "coordinates": [[[-126.8685, 57.2728], [-126.8754, 57.2746], [-126.8786, 57.2709], [-126.8718, 57.2691], [-126.8685, 57.2728]]]}, "properties": {"company_id": "canasil-resources", "jurisdiction": "British Columbia", "claim_id": 238273, "claim_name": "BRENDA #5", "holder": "CANASIL RESOURCES INC", "status": "Mineral", "recorded_date": "3297024000", "anniversary_or_expiry": "2028-05-30", "area_ha": 25, "tenure_type": "Mineral", "source": "BC MTA Mineral, Placer and Coal Tenure Spatial View (BCGW). Open Government Licence - British Columbia. Not legal title.", "as_of": "2026-09-20", "role": "focus", "color": "#e8b040"}}, {"type": "Feature", "geometry": {"type": "Polygon", "coordinates": [[[-126.8718, 57.2691], [-126.8786, 57.2709], [-126.8818, 57.2672], [-126.875, 57.2654], [-126.8718, 57.2691]]]}, "properties": {"company_id": "canasil-resources", "jurisdiction": "British Columbia", "claim_id": 238274, "claim_name": "BRENDA #6", "holder": "CANASIL RESOURCES INC", "status": "Mineral", "recorded_date": "3297024000", "anniversary_or_expiry": "2028-05-30", "area_ha": 25, "tenure_type": "Mineral", "source": "BC MTA Mineral, Placer and Coal Tenure Spatial View (BCGW). Open Government Licence - British Columbia. Not legal title.", "as_of": "2026-09-20", "role": "focus", "color": "#e8b040"}}, {"type": "Feature", "geometry": {"type": "Polygon", "coordinates": [[[-126.8786, 57.2709], [-126.8855, 57.2726], [-126.8874, 57.2704], [-126.882, 57.2704], [-126.8818, 57.2672], [-126.8786, 57.2709]]]}, "properties": {"company_id": "canasil-resources", "jurisdiction": "British Columbia", "claim_id": 238275, "claim_name": "BRENDA #7", "holder": "CANASIL RESOURCES INC", "status": "Mineral", "recorded_date": "3297024000", "anniversary_or_expiry": "2028-05-30", "area_ha": 25, "tenure_type": "Mineral", "source": "BC MTA Mineral, Placer and Coal Tenure Spatial View (BCGW). Open Government Licence - British Columbia. Not legal title.", "as_of": "2026-09-20", "role": "focus", "color": "#e8b040"}}, {"type": "Feature", "geometry": {"type": "Polygon", "coordinates": [[[-126.8754, 57.2746], [-126.8822, 57.2763], [-126.8855, 57.2726], [-126.8786, 57.2709], [-126.8754, 57.2746]]]}, "properties": {"company_id": "canasil-resources", "jurisdiction": "British Columbia", "claim_id": 238276, "claim_name": "BRENDA #8", "holder": "CANASIL RESOURCES INC", "status": "Mineral", "recorded_date": "3297024000", "anniversary_or_expiry": "2028-05-30", "area_ha": 25, "tenure_type": "Mineral", "source": "BC MTA Mineral, Placer and Coal Tenure Spatial View (BCGW). Open Government Licence - British Columbia. Not legal title.", "as_of": "2026-09-20", "role": "focus", "color": "#e8b040"}}, {"type": "Feature", "geometry": {"type": "Polygon", "coordinates": [[[-126.8322, 57.2699], [-126.8322, 57.2704], [-126.8571, 57.2704], [-126.8571, 57.2699], [-126.8548, 57.2693], [-126.8571, 57.2667], [-126.8571, 57.2546], [-126.8655, 57.2546], [-126.8654, 57.2524], [-126.8444, 57.2523], [-126.8444, 57.26], [-126.8322, 57.26], [-126.8322, 57.2699]]]}, "properties": {"company_id": "canasil-resources", "jurisdiction": "British Columbia", "claim_id": 239522, "claim_name": "POCK", "holder": "CANASIL RESOURCES INC", "status": "Mineral", "recorded_date": "5525280000", "anniversary_or_expiry": "2028-05-30", "area_ha": 400, "tenure_type": "Mineral", "source": "BC MTA Mineral, Placer and Coal Tenure Spatial View (BCGW). Open Government Licence - British Columbia. Not legal title.", "as_of": "2026-09-20", "role": "focus", "color": "#e8b040"}}, {"type": "Feature", "geometry": {"type": "Polygon", "coordinates": [[[-126.9151, 57.2614], [-126.9151, 57.2625], [-126.9317, 57.2625], [-126.9317, 57.2524], [-126.9151, 57.2525], [-126.9151, 57.2614]]]}, "properties": {"company_id": "canasil-resources", "jurisdiction": "British Columbia", "claim_id": 239523, "claim_name": "HANS", "holder": "CANASIL RESOURCES INC", "status": "Mineral", "recorded_date": "5525280000", "anniversary_or_expiry": "2028-05-30", "area_ha": 150, "tenure_type": "Mineral", "source": "BC MTA Mineral, Placer and Coal Tenure Spatial View (BCGW). Open Government Licence - British Columbia. Not legal title.", "as_of": "2026-09-20", "role": "focus", "color": "#e8b040"}}, {"type": "Feature", "geometry": {"type": "Polygon", "coordinates": [[[-126.8444, 57.2523], [-126.8527, 57.2523], [-126.8527, 57.2344], [-126.8444, 57.2344], [-126.8444, 57.2523]]]}, "properties": {"company_id": "canasil-resources", "jurisdiction": "British Columbia", "claim_id": 239100, "claim_name": "JAN 6", "holder": "CANASIL RESOURCES INC", "status": "Mineral", "recorded_date": "5099328000", "anniversary_or_expiry": "2028-05-30", "area_ha": 100, "tenure_type": "Mineral", "source": "BC MTA Mineral, Placer and Coal Tenure Spatial View (BCGW). Open Government Licence - British Columbia. Not legal title.", "as_of": "2026-09-20", "role": "focus", "color": "#e8b040"}}, {"type": "Feature", "geometry": {"type": "Polygon", "coordinates": [[[-126.8444, 57.2289], [-126.8444, 57.2344], [-126.8775, 57.2344], [-126.8775, 57.2322], [-126.87, 57.2322], [-126.87, 57.2143], [-126.8609, 57.2143], [-126.8609, 57.2164], [-126.8444, 57.2164], [-126.8444, 57.2289]]]}, "properties": {"company_id": "canasil-resources", "jurisdiction": "British Columbia", "claim_id": 239101, "claim_name": "JAN 7", "holder": "CANASIL RESOURCES INC", "status": "Mineral", "recorded_date": "5099328000", "anniversary_or_expiry": "2028-05-30", "area_ha": 500, "tenure_type": "Mineral", "source": "BC MTA Mineral, Placer and Coal Tenure Spatial View (BCGW). Open Government Licence - British Columbia. Not legal title.", "as_of": "2026-09-20", "role": "focus", "color": "#e8b040"}}, {"type": "Feature", "geometry": {"type": "Polygon", "coordinates": [[[-126.8444, 57.2289], [-126.8444, 57.2164], [-126.8278, 57.2163], [-126.8278, 57.2289], [-126.8444, 57.2289]]]}, "properties": {"company_id": "canasil-resources", "jurisdiction": "British Columbia", "claim_id": 239102, "claim_name": "JAN 8", "holder": "CANASIL RESOURCES INC", "status": "Mineral", "recorded_date": "5099328000", "anniversary_or_expiry": "2028-05-30", "area_ha": 250, "tenure_type": "Mineral", "source": "BC MTA Mineral, Placer and Coal Tenure Spatial View (BCGW). Open Government Licence - British Columbia. Not legal title.", "as_of": "2026-09-20", "role": "focus", "color": "#e8b040"}}, {"type": "Feature", "geometry": {"type": "Polygon", "coordinates": [[[-126.8903, 57.2614], [-126.9151, 57.2614], [-126.9151, 57.2525], [-126.8903, 57.2525], [-126.8903, 57.2614]]]}, "properties": {"company_id": "canasil-resources", "jurisdiction": "British Columbia", "claim_id": 238770, "claim_name": "JAN 1", "holder": "CANASIL RESOURCES INC", "status": "Mineral", "recorded_date": "4493664000", "anniversary_or_expiry": "2028-05-30", "area_ha": 150, "tenure_type": "Mineral", "source": "BC MTA Mineral, Placer and Coal Tenure Spatial View (BCGW). Open Government Licence - British Columbia. Not legal title.", "as_of": "2026-09-20", "role": "focus", "color": "#e8b040"}}, {"type": "Feature", "geometry": {"type": "MultiPolygon", "coordinates": [[[[-126.8818, 57.2672], [-126.882, 57.2704], [-126.8903, 57.2704], [-126.8903, 57.2525], [-126.8822, 57.2525], [-126.882, 57.259], [-126.8694, 57.2591], [-126.8694, 57.2546], [-126.8571, 57.2546], [-126.8571, 57.2667], [-126.858, 57.2656], [-126.8718, 57.2691], [-126.875, 57.2654], [-126.8818, 57.2672]]], [[[-126.8571, 57.2704], [-126.859, 57.2704], [-126.8571, 57.2699], [-126.8571, 57.2704]]]]}, "properties": {"company_id": "canasil-resources", "jurisdiction": "British Columbia", "claim_id": 238771, "claim_name": "JAN 2", "holder": "CANASIL RESOURCES INC", "status": "Mineral", "recorded_date": "4493664000", "anniversary_or_expiry": "2028-05-30", "area_ha": 400, "tenure_type": "Mineral", "source": "BC MTA Mineral, Placer and Coal Tenure Spatial View (BCGW). Open Government Licence - British Columbia. Not legal title.", "as_of": "2026-09-20", "role": "focus", "color": "#e8b040"}}, {"type": "Feature", "geometry": {"type": "Polygon", "coordinates": [[[-126.9151, 57.2481], [-126.9151, 57.2525], [-126.9227, 57.2524], [-126.9227, 57.2481], [-126.9151, 57.2481]]]}, "properties": {"company_id": "canasil-resources", "jurisdiction": "British Columbia", "claim_id": 238872, "claim_name": "MAX NO. 1", "holder": "CANASIL RESOURCES INC", "status": "Mineral", "recorded_date": "4618944000", "anniversary_or_expiry": "2028-05-30", "area_ha": 25, "tenure_type": "Mineral", "source": "BC MTA Mineral, Placer and Coal Tenure Spatial View (BCGW). Open Government Licence - British Columbia. Not legal title.", "as_of": "2026-09-20", "role": "focus", "color": "#e8b040"}}, {"type": "Feature", "geometry": {"type": "Polygon", "coordinates": [[[-126.9227, 57.2481], [-126.9227, 57.244], [-126.9151, 57.244], [-126.9151, 57.2481], [-126.9227, 57.2481]]]}, "properties": {"company_id": "canasil-resources", "jurisdiction": "British Columbia", "claim_id": 238873, "claim_name": "MAX 2", "holder": "CANASIL RESOURCES INC", "status": "Mineral", "recorded_date": "4618944000", "anniversary_or_expiry": "2028-05-30", "area_ha": 25, "tenure_type": "Mineral", "source": "BC MTA Mineral, Placer and Coal Tenure Spatial View (BCGW). Open Government Licence - British Columbia. Not legal title.", "as_of": "2026-09-20", "role": "focus", "color": "#e8b040"}}, {"type": "Feature", "geometry": {"type": "Polygon", "coordinates": [[[-126.9227, 57.244], [-126.9227, 57.2399], [-126.9151, 57.2399], [-126.9151, 57.244], [-126.9227, 57.244]]]}, "properties": {"company_id": "canasil-resources", "jurisdiction": "British Columbia", "claim_id": 238874, "claim_name": "MAX 3", "holder": "CANASIL RESOURCES INC", "status": "Mineral", "recorded_date": "4618944000", "anniversary_or_expiry": "2028-05-30", "area_ha": 25, "tenure_type": "Mineral", "source": "BC MTA Mineral, Placer and Coal Tenure Spatial View (BCGW). Open Government Licence - British Columbia. Not legal title.", "as_of": "2026-09-20", "role": "focus", "color": "#e8b040"}}, {"type": "Feature", "geometry": {"type": "Polygon", "coordinates": [[[-126.8655, 57.2546], [-126.8694, 57.2546], [-126.8694, 57.2591], [-126.882, 57.259], [-126.8822, 57.2525], [-126.8654, 57.2524], [-126.8655, 57.2546]]]}, "properties": {"company_id": "canasil-resources", "jurisdiction": "British Columbia", "claim_id": 239993, "claim_name": "TOM 4", "holder": "CANASIL RESOURCES INC", "status": "Mineral", "recorded_date": "5810400000", "anniversary_or_expiry": "2028-05-30", "area_ha": 150, "tenure_type": "Mineral", "source": "BC MTA Mineral, Placer and Coal Tenure Spatial View (BCGW). Open Government Licence - British Columbia. Not legal title.", "as_of": "2026-09-20", "role": "focus", "color": "#e8b040"}}, {"type": "Feature", "geometry": {"type": "Polygon", "coordinates": [[[-126.8278, 57.2632], [-126.8322, 57.2632], [-126.8322, 57.26], [-126.8444, 57.26], [-126.8444, 57.2289], [-126.8278, 57.2289], [-126.8278, 57.2632]]]}, "properties": {"company_id": "canasil-resources", "jurisdiction": "British Columbia", "claim_id": 240972, "claim_name": "JAN #9", "holder": "CANASIL RESOURCES INC", "status": "Mineral", "recorded_date": "6156864000", "anniversary_or_expiry": "2028-05-30", "area_ha": 400, "tenure_type": "Mineral", "source": "BC MTA Mineral, Placer and Coal Tenure Spatial View (BCGW). Open Government Licence - British Columbia. Not legal title.", "as_of": "2026-09-20", "role": "focus", "color": "#e8b040"}}, {"type": "Feature", "geometry": {"type": "Polygon", "coordinates": [[[-126.8903, 57.2525], [-126.9151, 57.2524], [-126.9151, 57.239], [-126.8903, 57.239], [-126.8903, 57.2525]]]}, "properties": {"company_id": "canasil-resources", "jurisdiction": "British Columbia", "claim_id": 306720, "claim_name": "TOM 3", "holder": "CANASIL RESOURCES INC", "status": "Mineral", "recorded_date": "5810400000", "anniversary_or_expiry": "2028-05-30", "area_ha": 225, "tenure_type": "Mineral", "source": "BC MTA Mineral, Placer and Coal Tenure Spatial View (BCGW). Open Government Licence - British Columbia. Not legal title.", "as_of": "2026-09-20", "role": "focus", "color": "#e8b040"}}, {"type": "Feature", "geometry": {"type": "Polygon", "coordinates": [[[-126.8527, 57.2523], [-126.8903, 57.2525], [-126.8903, 57.2345], [-126.8527, 57.2345], [-126.8527, 57.2523]]]}, "properties": {"company_id": "canasil-resources", "jurisdiction": "British Columbia", "claim_id": 306721, "claim_name": "TOM 5", "holder": "CANASIL RESOURCES INC", "status": "Mineral", "recorded_date": "5810400000", "anniversary_or_expiry": "2028-05-30", "area_ha": 500, "tenure_type": "Mineral", "source": "BC MTA Mineral, Placer and Coal Tenure Spatial View (BCGW). Open Government Licence - British Columbia. Not legal title.", "as_of": "2026-09-20", "role": "focus", "color": "#e8b040"}}, {"type": "Feature", "geometry": {"type": "Polygon", "coordinates": [[[-126.8212, 57.2699], [-126.8322, 57.2699], [-126.8322, 57.2632], [-126.8278, 57.2632], [-126.8278, 57.2519], [-126.7963, 57.2519], [-126.7964, 57.2699], [-126.8212, 57.2699]]]}, "properties": {"company_id": "canasil-resources", "jurisdiction": "British Columbia", "claim_id": 319655, "claim_name": "KATH 1", "holder": "CANASIL RESOURCES INC", "status": "Mineral", "recorded_date": "7430400000", "anniversary_or_expiry": "2028-05-30", "area_ha": 500, "tenure_type": "Mineral", "source": "BC MTA Mineral, Placer and Coal Tenure Spatial View (BCGW). Open Government Licence - British Columbia. Not legal title.", "as_of": "2026-09-20", "role": "focus", "color": "#e8b040"}}, {"type": "Feature", "geometry": {"type": "Polygon", "coordinates": [[[-126.7963, 57.2519], [-126.8278, 57.2519], [-126.8278, 57.2295], [-126.7987, 57.2295], [-126.7987, 57.2402], [-126.7963, 57.2402], [-126.7963, 57.2519]]]}, "properties": {"company_id": "canasil-resources", "jurisdiction": "British Columbia", "claim_id": 319657, "claim_name": "KATH 3", "holder": "CANASIL RESOURCES INC", "status": "Mineral", "recorded_date": "7431264000", "anniversary_or_expiry": "2028-05-30", "area_ha": 500, "tenure_type": "Mineral", "source": "BC MTA Mineral, Placer and Coal Tenure Spatial View (BCGW). Open Government Licence - British Columbia. Not legal title.", "as_of": "2026-09-20", "role": "focus", "color": "#e8b040"}}]}