{"type": "FeatureCollection", "features": [{"type": "Feature", "geometry": {"type": "Polygon", "coordinates": [[[-82.1438, 47.6292], [-82.1438, 47.6333], [-82.15, 47.6333], [-82.15, 47.6292], [-82.1438, 47.6292]]]}, "properties": {"company_id": "cardinal-energy", "jurisdiction": "Ontario", "claim_id": "653132", "claim_name": null, "holder": "(20) Patrick  Jutras, (16) Roger  Quenneville, (16) Pierre R Joly, (16) Denis A Cardinal, (16) Charles J Beaudry, (16) Alain  Robillard", "status": "Active", "recorded_date": "2021-04-25", "anniversary_or_expiry": "2029-04-25", "area_ha": null, "tenure_type": "Single Cell Mining Claim", "source": "Ontario MLAS operational claims (OGSEarth / LIO MapServer). Unofficial viewing data, not legal title.", "as_of": "2026-09-20", "role": "focus", "color": "#e8b040"}}, {"type": "Feature", "geometry": {"type": "Polygon", "coordinates": [[[-79.8875, 47.5167], [-79.8875, 47.5208], [-79.8938, 47.5208], [-79.8938, 47.5167], [-79.8875, 47.5167]]]}, "properties": {"company_id": "cardinal-energy", "jurisdiction": "Ontario", "claim_id": "1052506", "claim_name": null, "holder": "(100) THOMAS  VON CARDINAL", "status": "Active", "recorded_date": "2026-06-29", "anniversary_or_expiry": "2028-06-29", "area_ha": null, "tenure_type": "Single Cell Mining Claim", "source": "Ontario MLAS operational claims (OGSEarth / LIO MapServer). Unofficial viewing data, not legal title.", "as_of": "2026-09-20", "role": "focus", "color": "#e8b040"}}, {"type": "Feature", "geometry": {"type": "Polygon", "coordinates": [[[-79.8875, 47.5125], [-79.8875, 47.5167], [-79.8938, 47.5167], [-79.8938, 47.5125], [-79.8875, 47.5125]]]}, "properties": {"company_id": "cardinal-energy", "jurisdiction": "Ontario", "claim_id": "1052507", "claim_name": null, "holder": "(100) THOMAS  VON CARDINAL", "status": "Active", "recorded_date": "2026-06-29", "anniversary_or_expiry": "2028-06-29", "area_ha": null, "tenure_type": "Single Cell Mining Claim", "source": "Ontario MLAS operational claims (OGSEarth / LIO MapServer). Unofficial viewing data, not legal title.", "as_of": "2026-09-20", "role": "focus", "color": "#e8b040"}}, {"type": "Feature", "geometry": {"type": "Polygon", "coordinates": [[[-79.9125, 47.5208], [-79.9125, 47.525], [-79.9188, 47.525], [-79.9188, 47.5208], [-79.9125, 47.5208]]]}, "properties": {"company_id": "cardinal-energy", "jurisdiction": "Ontario", "claim_id": "1052636", "claim_name": null, "holder": "(100) THOMAS  VON CARDINAL", "status": "Active", "recorded_date": "2026-06-29", "anniversary_or_expiry": "2028-06-29", "area_ha": null, "tenure_type": "Single Cell Mining Claim", "source": "Ontario MLAS operational claims (OGSEarth / LIO MapServer). Unofficial viewing data, not legal title.", "as_of": "2026-09-20", "role": "focus", "color": "#e8b040"}}, {"type": "Feature", "geometry": {"type": "Polygon", "coordinates": [[[-79.9125, 47.5167], [-79.9125, 47.5208], [-79.9188, 47.5208], [-79.9188, 47.5167], [-79.9125, 47.5167]]]}, "properties": {"company_id": "cardinal-energy", "jurisdiction": "Ontario", "claim_id": "1052637", "claim_name": null, "holder": "(100) THOMAS  VON CARDINAL", "status": "Active", "recorded_date": "2026-06-29", "anniversary_or_expiry": "2028-06-29", "area_ha": null, "tenure_type": "Single Cell Mining Claim", "source": "Ontario MLAS operational claims (OGSEarth / LIO MapServer). Unofficial viewing data, not legal title.", "as_of": "2026-09-20", "role": "focus", "color": "#e8b040"}}, {"type": "Feature", "geometry": {"type": "Polygon", "coordinates": [[[-79.9063, 47.5167], [-79.9063, 47.5208], [-79.9125, 47.5208], [-79.9125, 47.5167], [-79.9063, 47.5167]]]}, "properties": {"company_id": "cardinal-energy", "jurisdiction": "Ontario", "claim_id": "1067207", "claim_name": null, "holder": "(100) THOMAS  VON CARDINAL", "status": "Active", "recorded_date": "2026-08-25", "anniversary_or_expiry": "2028-08-25", "area_ha": null, "tenure_type": "Single Cell Mining Claim", "source": "Ontario MLAS operational claims (OGSEarth / LIO MapServer). Unofficial viewing data, not legal title.", "as_of": "2026-09-20", "role": "focus", "color": "#e8b040"}}, {"type": "Feature", "geometry": {"type": "Polygon", "coordinates": [[[-79.9, 47.5167], [-79.9, 47.5208], [-79.9063, 47.5208], [-79.9063, 47.5167], [-79.9, 47.5167]]]}, "properties": {"company_id": "cardinal-energy", "jurisdiction": "Ontario", "claim_id": "1067208", "claim_name": null, "holder": "(100) THOMAS  VON CARDINAL", "status": "Active", "recorded_date": "2026-08-25", "anniversary_or_expiry": "2028-08-25", "area_ha": null, "tenure_type": "Single Cell Mining Claim", "source": "Ontario MLAS operational claims (OGSEarth / LIO MapServer). Unofficial viewing data, not legal title.", "as_of": "2026-09-20", "role": "focus", "color": "#e8b040"}}, {"type": "Feature", "geometry": {"type": "Polygon", "coordinates": [[[-79.8938, 47.5167], [-79.8938, 47.5208], [-79.9, 47.5208], [-79.9, 47.5167], [-79.8938, 47.5167]]]}, "properties": {"company_id": "cardinal-energy", "jurisdiction": "Ontario", "claim_id": "1067209", "claim_name": null, "holder": "(100) THOMAS  VON CARDINAL", "status": "Active", "recorded_date": "2026-08-25", "anniversary_or_expiry": "2028-08-25", "area_ha": null, "tenure_type": "Single Cell Mining Claim", "source": "Ontario MLAS operational claims (OGSEarth / LIO MapServer). Unofficial viewing data, not legal title.", "as_of": "2026-09-20", "role": "focus", "color": "#e8b040"}}]}