{"type": "FeatureCollection", "features": [{"type": "Feature", "geometry": {"type": "Polygon", "coordinates": [[[-129.6623, 59.2858], [-129.6867, 59.2858], [-129.6867, 59.2818], [-129.6843, 59.2831], [-129.6777, 59.2818], [-129.6791, 59.28], [-129.6659, 59.2774], [-129.6667, 59.2764], [-129.6623, 59.2764], [-129.6623, 59.2858]]]}, "properties": {"company_id": "cassiar-gold", "jurisdiction": "British Columbia", "claim_id": 221900, "claim_name": "PORTAL 2", "holder": "CASSIAR GOLD (2020) CORP.", "status": "Mineral", "recorded_date": "3082752000", "anniversary_or_expiry": "2027-12-31", "area_ha": 225, "tenure_type": "Mineral", "source": "BC MTA Mineral, Placer and Coal Tenure Spatial View (BCGW). Open Government Licence - British Columbia. Not legal title.", "as_of": "2026-09-20", "role": "focus", "color": "#e8b040"}}, {"type": "Feature", "geometry": {"type": "Polygon", "coordinates": [[[-129.6867, 59.2858], [-129.7306, 59.2858], [-129.7306, 59.2724], [-129.7129, 59.2723], [-129.7156, 59.2742], [-129.711, 59.2763], [-129.7177, 59.2751], [-129.7222, 59.282], [-129.7088, 59.2843], [-129.7067, 59.281], [-129.7042, 59.2852], [-129.6907, 59.2832], [-129.6936, 59.2782], [-129.6867, 59.2818], [-129.6867, 59.2858]]]}, "properties": {"company_id": "cassiar-gold", "jurisdiction": "British Columbia", "claim_id": 221901, "claim_name": "PORTAL 1", "holder": "CASSIAR GOLD (2020) CORP.", "status": "Mineral", "recorded_date": "3082752000", "anniversary_or_expiry": "2027-12-31", "area_ha": 375, "tenure_type": "Mineral", "source": "BC MTA Mineral, Placer and Coal Tenure Spatial View (BCGW). Open Government Licence - British Columbia. Not legal title.", "as_of": "2026-09-20", "role": "focus", "color": "#e8b040"}}, {"type": "Feature", "geometry": {"type": "Polygon", "coordinates": [[[-129.6983, 59.2766], [-129.6976, 59.2767], [-129.7009, 59.2772], [-129.6998, 59.2765], [-129.7003, 59.2762], [-129.6983, 59.2766]]]}, "properties": {"company_id": "cassiar-gold", "jurisdiction": "British Columbia", "claim_id": 222080, "claim_name": "MM 1 FR.", "holder": "CASSIAR GOLD (2020) CORP.", "status": "Mineral", "recorded_date": "3442176000", "anniversary_or_expiry": "2027-12-31", "area_ha": 25, "tenure_type": "Mineral", "source": "BC MTA Mineral, Placer and Coal Tenure Spatial View (BCGW). Open Government Licence - British Columbia. Not legal title.", "as_of": "2026-09-20", "role": "focus", "color": "#e8b040"}}, {"type": "Feature", "geometry": {"type": "MultiPolygon", "coordinates": [[[[-129.676, 59.2217], [-129.6766, 59.2224], [-129.6889, 59.2224], [-129.6889, 59.2162], [-129.6777, 59.2183], [-129.6767, 59.2169], [-129.6625, 59.22], [-129.661, 59.218], [-129.6539, 59.218], [-129.6539, 59.2224], [-129.6695, 59.2224], [-129.6679, 59.2206], [-129.6726, 59.2195], [-129.6756, 59.2194], [-129.6774, 59.2214], [-129.676, 59.2217]]], [[[-129.6807, 59.2134], [-129.6746, 59.2134], [-129.6754, 59.2144], [-129.6807, 59.2134]]]]}, "properties": {"company_id": "cassiar-gold", "jurisdiction": "British Columbia", "claim_id": 221632, "claim_name": "SUN", "holder": "CASSIAR GOLD (2020) CORP.", "status": "Mineral", "recorded_date": "1742688000", "anniversary_or_expiry": "2027-12-31", "area_ha": 200, "tenure_type": "Mineral", "source": "BC MTA Mineral, Placer and Coal Tenure Spatial View (BCGW). Open Government Licence - British Columbia. Not legal title.", "as_of": "2026-09-20", "role": "focus", "color": "#e8b040"}}, {"type": "Feature", "geometry": {"type": "MultiPolygon", "coordinates": [[[[-129.6788, 59.2245], [-129.6795, 59.2253], [-129.6736, 59.2268], [-129.6977, 59.2268], [-129.6977, 59.2224], [-129.6766, 59.2224], [-129.6788, 59.2245]]], [[[-129.6701, 59.2231], [-129.6695, 59.2224], [-129.6539, 59.2224], [-129.6539, 59.2268], [-129.6721, 59.2268], [-129.6687, 59.2235], [-129.6701, 59.2231]]]]}, "properties": {"company_id": "cassiar-gold", "jurisdiction": "British Columbia", "claim_id": 221633, "claim_name": "UP", "holder": "CASSIAR GOLD (2020) CORP.", "status": "Mineral", "recorded_date": "1742688000", "anniversary_or_expiry": "2027-12-31", "area_ha": 125, "tenure_type": "Mineral", "source": "BC MTA Mineral, Placer and Coal Tenure Spatial View (BCGW). Open Government Licence - British Columbia. Not legal title.", "as_of": "2026-09-20", "role": "focus", "color": "#e8b040"}}, {"type": "Feature", "geometry": {"type": "Polygon", "coordinates": [[[-129.6532, 59.2764], [-129.6667, 59.2764], [-129.6711, 59.2707], [-129.6755, 59.2716], [-129.6717, 59.27], [-129.6755, 59.267], [-129.6755, 59.2629], [-129.6492, 59.2629], [-129.6491, 59.2692], [-129.6513, 59.2693], [-129.6513, 59.272], [-129.6582, 59.272], [-129.6582, 59.2738], [-129.6532, 59.2738], [-129.6532, 59.2764]]]}, "properties": {"company_id": "cassiar-gold", "jurisdiction": "British Columbia", "claim_id": 221785, "claim_name": "HANNA 9", "holder": "CASSIAR GOLD (2020) CORP.", "status": "Mineral", "recorded_date": "2750112000", "anniversary_or_expiry": "2027-12-31", "area_ha": 225, "tenure_type": "Mineral", "source": "BC MTA Mineral, Placer and Coal Tenure Spatial View (BCGW). Open Government Licence - British Columbia. Not legal title.", "as_of": "2026-09-20", "role": "focus", "color": "#e8b040"}}, {"type": "Feature", "geometry": {"type": "Polygon", "coordinates": [[[-129.6974, 59.2842], [-129.7042, 59.2852], [-129.7062, 59.2818], [-129.6994, 59.2807], [-129.6974, 59.2842]]]}, "properties": {"company_id": "cassiar-gold", "jurisdiction": "British Columbia", "claim_id": 227201, "claim_name": "ROY 1", "holder": "CASSIAR GOLD (2020) CORP.", "status": "Mineral", "recorded_date": "5365440000", "anniversary_or_expiry": "2027-12-31", "area_ha": 25, "tenure_type": "Mineral", "source": "BC MTA Mineral, Placer and Coal Tenure Spatial View (BCGW). Open Government Licence - British Columbia. Not legal title.", "as_of": "2026-09-20", "role": "focus", "color": "#e8b040"}}, {"type": "Feature", "geometry": {"type": "Polygon", "coordinates": [[[-129.6907, 59.2832], [-129.6974, 59.2842], [-129.6994, 59.2807], [-129.6927, 59.2797], [-129.6907, 59.2832]]]}, "properties": {"company_id": "cassiar-gold", "jurisdiction": "British Columbia", "claim_id": 227202, "claim_name": "ROY 2", "holder": "CASSIAR GOLD (2020) CORP.", "status": "Mineral", "recorded_date": "5365440000", "anniversary_or_expiry": "2027-12-31", "area_ha": 25, "tenure_type": "Mineral", "source": "BC MTA Mineral, Placer and Coal Tenure Spatial View (BCGW). Open Government Licence - British Columbia. Not legal title.", "as_of": "2026-09-20", "role": "focus", "color": "#e8b040"}}, {"type": "Feature", "geometry": {"type": "Polygon", "coordinates": [[[-129.6994, 59.2807], [-129.7062, 59.2818], [-129.7082, 59.2783], [-129.7065, 59.278], [-129.7038, 59.2791], [-129.7013, 59.2775], [-129.6994, 59.2807]]]}, "properties": {"company_id": "cassiar-gold", "jurisdiction": "British Columbia", "claim_id": 227203, "claim_name": "ROY 3", "holder": "CASSIAR GOLD (2020) CORP.", "status": "Mineral", "recorded_date": "5365440000", "anniversary_or_expiry": "2027-12-31", "area_ha": 25, "tenure_type": "Mineral", "source": "BC MTA Mineral, Placer and Coal Tenure Spatial View (BCGW). Open Government Licence - British Columbia. Not legal title.", "as_of": "2026-09-20", "role": "focus", "color": "#e8b040"}}, {"type": "Feature", "geometry": {"type": "Polygon", "coordinates": [[[-129.6941, 59.2772], [-129.6927, 59.2797], [-129.6994, 59.2807], [-129.7013, 59.2775], [-129.6976, 59.2767], [-129.6941, 59.2772]]]}, "properties": {"company_id": "cassiar-gold", "jurisdiction": "British Columbia", "claim_id": 227204, "claim_name": "ROY 4", "holder": "CASSIAR GOLD (2020) CORP.", "status": "Mineral", "recorded_date": "5365440000", "anniversary_or_expiry": "2027-12-31", "area_ha": 25, "tenure_type": "Mineral", "source": "BC MTA Mineral, Placer and Coal Tenure Spatial View (BCGW). Open Government Licence - British Columbia. Not legal title.", "as_of": "2026-09-20", "role": "focus", "color": "#e8b040"}}, {"type": "Feature", "geometry": {"type": "Polygon", "coordinates": [[[-129.8752, 59.2837], [-129.8731, 59.2836], [-129.868, 59.2853], [-129.8656, 59.2834], [-129.8208, 59.2839], [-129.8203, 59.2921], [-129.8743, 59.2919], [-129.8752, 59.2837]]]}, "properties": {"company_id": "cassiar-gold", "jurisdiction": "British Columbia", "claim_id": 226130, "claim_name": null, "holder": "CASSIAR JADE CONTRACTING INC.", "status": "Mineral", "recorded_date": "2411424000", "anniversary_or_expiry": "2025-08-23", "area_ha": 242.144, "tenure_type": "Mineral", "source": "BC MTA Mineral, Placer and Coal Tenure Spatial View (BCGW). Open Government Licence - British Columbia. Not legal title.", "as_of": "2026-09-20", "role": "focus", "color": "#e8b040"}}, {"type": "Feature", "geometry": {"type": "Polygon", "coordinates": [[[-129.7945, 59.3204], [-129.7946, 59.3253], [-129.8003, 59.3252], [-129.8083, 59.3234], [-129.8063, 59.3211], [-129.8136, 59.3194], [-129.7945, 59.3191], [-129.7945, 59.3204]]]}, "properties": {"company_id": "cassiar-gold", "jurisdiction": "British Columbia", "claim_id": 226137, "claim_name": null, "holder": "CASSIAR JADE CONTRACTING INC.", "status": "Mineral", "recorded_date": "-142992000", "anniversary_or_expiry": "2025-06-21", "area_ha": 49.65, "tenure_type": "Mineral", "source": "BC MTA Mineral, Placer and Coal Tenure Spatial View (BCGW). Open Government Licence - British Columbia. Not legal title.", "as_of": "2026-09-20", "role": "focus", "color": "#e8b040"}}, {"type": "Feature", "geometry": {"type": "Polygon", "coordinates": [[[-129.807, 59.3109], [-129.7946, 59.3109], [-129.7945, 59.3191], [-129.8056, 59.319], [-129.8059, 59.3161], [-129.8098, 59.3162], [-129.8085, 59.3127], [-129.8074, 59.3121], [-129.807, 59.3109]]]}, "properties": {"company_id": "cassiar-gold", "jurisdiction": "British Columbia", "claim_id": 226138, "claim_name": null, "holder": "CASSIAR JADE CONTRACTING INC.", "status": "Mineral", "recorded_date": "-107827200", "anniversary_or_expiry": "2025-08-02", "area_ha": 67.76, "tenure_type": "Mineral", "source": "BC MTA Mineral, Placer and Coal Tenure Spatial View (BCGW). Open Government Licence - British Columbia. Not legal title.", "as_of": "2026-09-20", "role": "focus", "color": "#e8b040"}}, {"type": "Feature", "geometry": {"type": "Polygon", "coordinates": [[[-129.8003, 59.3252], [-129.7946, 59.3253], [-129.7946, 59.3294], [-129.7976, 59.3293], [-129.7968, 59.3282], [-129.8011, 59.3274], [-129.7994, 59.3254], [-129.8003, 59.3252]]]}, "properties": {"company_id": "cassiar-gold", "jurisdiction": "British Columbia", "claim_id": 226139, "claim_name": null, "holder": "CASSIAR JADE CONTRACTING INC.", "status": "Mineral", "recorded_date": "-107827200", "anniversary_or_expiry": "2025-08-02", "area_ha": 11.64, "tenure_type": "Mineral", "source": "BC MTA Mineral, Placer and Coal Tenure Spatial View (BCGW). Open Government Licence - British Columbia. Not legal title.", "as_of": "2026-09-20", "role": "focus", "color": "#e8b040"}}, {"type": "Feature", "geometry": {"type": "Polygon", "coordinates": [[[-129.6986, 59.2708], [-129.6956, 59.272], [-129.7015, 59.2748], [-129.7051, 59.2734], [-129.7002, 59.2702], [-129.6986, 59.2708]]]}, "properties": {"company_id": "cassiar-gold", "jurisdiction": "British Columbia", "claim_id": 226142, "claim_name": "MACK #1", "holder": "CASSIAR GOLD (2020) CORP.", "status": "Mineral", "recorded_date": "-111240000", "anniversary_or_expiry": "2027-12-31", "area_ha": 25, "tenure_type": "Mineral", "source": "BC MTA Mineral, Placer and Coal Tenure Spatial View (BCGW). Open Government Licence - British Columbia. Not legal title.", "as_of": "2026-09-20", "role": "focus", "color": "#e8b040"}}, {"type": "Feature", "geometry": {"type": "Polygon", "coordinates": [[[-129.7015, 59.2748], [-129.7022, 59.2752], [-129.6998, 59.2765], [-129.7038, 59.2791], [-129.7099, 59.2767], [-129.7051, 59.2734], [-129.7015, 59.2748]]]}, "properties": {"company_id": "cassiar-gold", "jurisdiction": "British Columbia", "claim_id": 226143, "claim_name": "MACK #2", "holder": "CASSIAR GOLD (2020) CORP.", "status": "Mineral", "recorded_date": "-111240000", "anniversary_or_expiry": "2027-12-31", "area_ha": 25, "tenure_type": "Mineral", "source": "BC MTA Mineral, Placer and Coal Tenure Spatial View (BCGW). Open Government Licence - British Columbia. Not legal title.", "as_of": "2026-09-20", "role": "focus", "color": "#e8b040"}}, {"type": "Feature", "geometry": {"type": "Polygon", "coordinates": [[[-129.7051, 59.2734], [-129.7108, 59.2709], [-129.7083, 59.2693], [-129.703, 59.2716], [-129.7002, 59.2702], [-129.7051, 59.2734]]]}, "properties": {"company_id": "cassiar-gold", "jurisdiction": "British Columbia", "claim_id": 226144, "claim_name": "MACK #3", "holder": "CASSIAR GOLD (2020) CORP.", "status": "Mineral", "recorded_date": "-111240000", "anniversary_or_expiry": "2027-12-31", "area_ha": 25, "tenure_type": "Mineral", "source": "BC MTA Mineral, Placer and Coal Tenure Spatial View (BCGW). Open Government Licence - British Columbia. Not legal title.", "as_of": "2026-09-20", "role": "focus", "color": "#e8b040"}}, {"type": "Feature", "geometry": {"type": "Polygon", "coordinates": [[[-129.7092, 59.2716], [-129.7051, 59.2734], [-129.7099, 59.2767], [-129.7156, 59.2742], [-129.7108, 59.2709], [-129.7092, 59.2716]]]}, "properties": {"company_id": "cassiar-gold", "jurisdiction": "British Columbia", "claim_id": 226145, "claim_name": "MACK #4", "holder": "CASSIAR GOLD (2020) CORP.", "status": "Mineral", "recorded_date": "-111240000", "anniversary_or_expiry": "2027-12-31", "area_ha": 25, "tenure_type": "Mineral", "source": "BC MTA Mineral, Placer and Coal Tenure Spatial View (BCGW). Open Government Licence - British Columbia. Not legal title.", "as_of": "2026-09-20", "role": "focus", "color": "#e8b040"}}, {"type": "Feature", "geometry": {"type": "Polygon", "coordinates": [[[-129.6951, 59.2643], [-129.6925, 59.2654], [-129.6978, 59.2685], [-129.7038, 59.2658], [-129.6986, 59.2627], [-129.6951, 59.2643]]]}, "properties": {"company_id": "cassiar-gold", "jurisdiction": "British Columbia", "claim_id": 226146, "claim_name": "HOPEFULL #1", "holder": "CASSIAR GOLD (2020) CORP.", "status": "Mineral", "recorded_date": "-111240000", "anniversary_or_expiry": "2027-12-31", "area_ha": 25, "tenure_type": "Mineral", "source": "BC MTA Mineral, Placer and Coal Tenure Spatial View (BCGW). Open Government Licence - British Columbia. Not legal title.", "as_of": "2026-09-20", "role": "focus", "color": "#e8b040"}}, {"type": "Feature", "geometry": {"type": "Polygon", "coordinates": [[[-129.6978, 59.2685], [-129.703, 59.2716], [-129.7091, 59.2689], [-129.7038, 59.2658], [-129.6978, 59.2685]]]}, "properties": {"company_id": "cassiar-gold", "jurisdiction": "British Columbia", "claim_id": 226147, "claim_name": "HOPEFULL #2", "holder": "CASSIAR GOLD (2020) CORP.", "status": "Mineral", "recorded_date": "-111240000", "anniversary_or_expiry": "2027-12-31", "area_ha": 25, "tenure_type": "Mineral", "source": "BC MTA Mineral, Placer and Coal Tenure Spatial View (BCGW). Open Government Licence - British Columbia. Not legal title.", "as_of": "2026-09-20", "role": "focus", "color": "#e8b040"}}, {"type": "Feature", "geometry": {"type": "Polygon", "coordinates": [[[-129.7029, 59.2607], [-129.701, 59.2616], [-129.7063, 59.2646], [-129.7123, 59.2619], [-129.7069, 59.2588], [-129.7029, 59.2607]]]}, "properties": {"company_id": "cassiar-gold", "jurisdiction": "British Columbia", "claim_id": 226148, "claim_name": "HOPEFULL #3", "holder": "CASSIAR GOLD (2020) CORP.", "status": "Mineral", "recorded_date": "-111240000", "anniversary_or_expiry": "2027-12-31", "area_ha": 25, "tenure_type": "Mineral", "source": "BC MTA Mineral, Placer and Coal Tenure Spatial View (BCGW). Open Government Licence - British Columbia. Not legal title.", "as_of": "2026-09-20", "role": "focus", "color": "#e8b040"}}, {"type": "Feature", "geometry": {"type": "Polygon", "coordinates": [[[-129.7107, 59.2626], [-129.7063, 59.2646], [-129.7117, 59.2677], [-129.7176, 59.2649], [-129.7123, 59.2619], [-129.7107, 59.2626]]]}, "properties": {"company_id": "cassiar-gold", "jurisdiction": "British Columbia", "claim_id": 226149, "claim_name": "HOPEFULL #4", "holder": "CASSIAR GOLD (2020) CORP.", "status": "Mineral", "recorded_date": "-111240000", "anniversary_or_expiry": "2027-12-31", "area_ha": 25, "tenure_type": "Mineral", "source": "BC MTA Mineral, Placer and Coal Tenure Spatial View (BCGW). Open Government Licence - British Columbia. Not legal title.", "as_of": "2026-09-20", "role": "focus", "color": "#e8b040"}}, {"type": "Feature", "geometry": {"type": "Polygon", "coordinates": [[[-129.6956, 59.2672], [-129.6938, 59.2688], [-129.6999, 59.2698], [-129.6956, 59.2672]]]}, "properties": {"company_id": "cassiar-gold", "jurisdiction": "British Columbia", "claim_id": 226150, "claim_name": "HILLSIDE", "holder": "CASSIAR GOLD (2020) CORP.", "status": "Mineral", "recorded_date": "-104656320", "anniversary_or_expiry": "2027-12-31", "area_ha": 25, "tenure_type": "Mineral", "source": "BC MTA Mineral, Placer and Coal Tenure Spatial View (BCGW). Open Government Licence - British Columbia. Not legal title.", "as_of": "2026-09-20", "role": "focus", "color": "#e8b040"}}, {"type": "Feature", "geometry": {"type": "Polygon", "coordinates": [[[-129.6937, 59.269], [-129.6927, 59.2706], [-129.6956, 59.272], [-129.7004, 59.2701], [-129.6937, 59.269]]]}, "properties": {"company_id": "cassiar-gold", "jurisdiction": "British Columbia", "claim_id": 226151, "claim_name": "HIGHGRADE", "holder": "CASSIAR GOLD (2020) CORP.", "status": "Mineral", "recorded_date": "-104656320", "anniversary_or_expiry": "2027-12-31", "area_ha": 25, "tenure_type": "Mineral", "source": "BC MTA Mineral, Placer and Coal Tenure Spatial View (BCGW). Open Government Licence - British Columbia. Not legal title.", "as_of": "2026-09-20", "role": "focus", "color": "#e8b040"}}, {"type": "Feature", "geometry": {"type": "Polygon", "coordinates": [[[-129.666, 59.2095], [-129.6664, 59.2135], [-129.6736, 59.2135], [-129.6736, 59.2094], [-129.666, 59.2095]]]}, "properties": {"company_id": "cassiar-gold", "jurisdiction": "British Columbia", "claim_id": 226156, "claim_name": "RED HILL NO.5", "holder": "CASSIAR GOLD (2020) CORP.", "status": "Mineral", "recorded_date": "-516153600", "anniversary_or_expiry": "2027-12-31", "area_ha": 25, "tenure_type": "Mineral", "source": "BC MTA Mineral, Placer and Coal Tenure Spatial View (BCGW). Open Government Licence - British Columbia. Not legal title.", "as_of": "2026-09-20", "role": "focus", "color": "#e8b040"}}, {"type": "Feature", "geometry": {"type": "Polygon", "coordinates": [[[-129.6664, 59.2135], [-129.6655, 59.2138], [-129.6656, 59.2152], [-129.6671, 59.2149], [-129.6681, 59.2161], [-129.6681, 59.2152], [-129.6736, 59.2151], [-129.6736, 59.2135], [-129.6664, 59.2135]]]}, "properties": {"company_id": "cassiar-gold", "jurisdiction": "British Columbia", "claim_id": 226157, "claim_name": "RED HILL NO.6", "holder": "CASSIAR GOLD (2020) CORP.", "status": "Mineral", "recorded_date": "-516153600", "anniversary_or_expiry": "2027-12-31", "area_ha": 25, "tenure_type": "Mineral", "source": "BC MTA Mineral, Placer and Coal Tenure Spatial View (BCGW). Open Government Licence - British Columbia. Not legal title.", "as_of": "2026-09-20", "role": "focus", "color": "#e8b040"}}, {"type": "Feature", "geometry": {"type": "Polygon", "coordinates": [[[-129.676, 59.2217], [-129.6687, 59.2235], [-129.6724, 59.2272], [-129.6795, 59.2253], [-129.676, 59.2217]]]}, "properties": {"company_id": "cassiar-gold", "jurisdiction": "British Columbia", "claim_id": 226193, "claim_name": "JENNIE EXTENSION #4", "holder": "CASSIAR GOLD (2020) CORP.", "status": "Mineral", "recorded_date": "-416966400", "anniversary_or_expiry": "2027-12-31", "area_ha": 25, "tenure_type": "Mineral", "source": "BC MTA Mineral, Placer and Coal Tenure Spatial View (BCGW). Open Government Licence - British Columbia. Not legal title.", "as_of": "2026-09-20", "role": "focus", "color": "#e8b040"}}, {"type": "Feature", "geometry": {"type": "Polygon", "coordinates": [[[-129.6749, 59.2145], [-129.6777, 59.2183], [-129.6852, 59.2169], [-129.6824, 59.213], [-129.6749, 59.2145]]]}, "properties": {"company_id": "cassiar-gold", "jurisdiction": "British Columbia", "claim_id": 226194, "claim_name": "JENNIE EXTENSION #1", "holder": "CASSIAR GOLD (2020) CORP.", "status": "Mineral", "recorded_date": "-419299200", "anniversary_or_expiry": "2027-12-31", "area_ha": 25, "tenure_type": "Mineral", "source": "BC MTA Mineral, Placer and Coal Tenure Spatial View (BCGW). Open Government Licence - British Columbia. Not legal title.", "as_of": "2026-09-20", "role": "focus", "color": "#e8b040"}}, {"type": "Feature", "geometry": {"type": "Polygon", "coordinates": [[[-129.6825, 59.213], [-129.6852, 59.2169], [-129.6927, 59.2155], [-129.6899, 59.2116], [-129.6825, 59.213]]]}, "properties": {"company_id": "cassiar-gold", "jurisdiction": "British Columbia", "claim_id": 226195, "claim_name": "JENNIE EXTENSION #2", "holder": "CASSIAR GOLD (2020) CORP.", "status": "Mineral", "recorded_date": "-419299200", "anniversary_or_expiry": "2027-12-31", "area_ha": 25, "tenure_type": "Mineral", "source": "BC MTA Mineral, Placer and Coal Tenure Spatial View (BCGW). Open Government Licence - British Columbia. Not legal title.", "as_of": "2026-09-20", "role": "focus", "color": "#e8b040"}}, {"type": "Feature", "geometry": {"type": "Polygon", "coordinates": [[[-129.6756, 59.2194], [-129.6679, 59.2206], [-129.6701, 59.2231], [-129.6774, 59.2214], [-129.6756, 59.2194]]]}, "properties": {"company_id": "cassiar-gold", "jurisdiction": "British Columbia", "claim_id": 226196, "claim_name": "JENNIE EXTENSION #3", "holder": "CASSIAR GOLD (2020) CORP.", "status": "Mineral", "recorded_date": "-419299200", "anniversary_or_expiry": "2027-12-31", "area_ha": 25, "tenure_type": "Mineral", "source": "BC MTA Mineral, Placer and Coal Tenure Spatial View (BCGW). Open Government Licence - British Columbia. Not legal title.", "as_of": "2026-09-20", "role": "focus", "color": "#e8b040"}}, {"type": "Feature", "geometry": {"type": "Polygon", "coordinates": [[[-129.6846, 59.2676], [-129.6826, 59.2706], [-129.6883, 59.2716], [-129.691, 59.2676], [-129.6853, 59.2666], [-129.6846, 59.2676]]]}, "properties": {"company_id": "cassiar-gold", "jurisdiction": "British Columbia", "claim_id": 226207, "claim_name": "THRUSH", "holder": "CASSIAR GOLD (2020) CORP.", "status": "Mineral", "recorded_date": "-356832000", "anniversary_or_expiry": "2027-12-31", "area_ha": 25, "tenure_type": "Mineral", "source": "BC MTA Mineral, Placer and Coal Tenure Spatial View (BCGW). Open Government Licence - British Columbia. Not legal title.", "as_of": "2026-09-20", "role": "focus", "color": "#e8b040"}}, {"type": "Feature", "geometry": {"type": "Polygon", "coordinates": [[[-129.6908, 59.2735], [-129.6869, 59.2741], [-129.6893, 59.278], [-129.6944, 59.2772], [-129.692, 59.2733], [-129.6908, 59.2735]]]}, "properties": {"company_id": "cassiar-gold", "jurisdiction": "British Columbia", "claim_id": 226208, "claim_name": "COPCO #1", "holder": "CASSIAR GOLD (2020) CORP.", "status": "Mineral", "recorded_date": "-323740800", "anniversary_or_expiry": "2027-12-31", "area_ha": 25, "tenure_type": "Mineral", "source": "BC MTA Mineral, Placer and Coal Tenure Spatial View (BCGW). Open Government Licence - British Columbia. Not legal title.", "as_of": "2026-09-20", "role": "focus", "color": "#e8b040"}}, {"type": "Feature", "geometry": {"type": "Polygon", "coordinates": [[[-129.6866, 59.2737], [-129.692, 59.2733], [-129.6894, 59.2699], [-129.6883, 59.2716], [-129.6845, 59.2709], [-129.6866, 59.2737]]]}, "properties": {"company_id": "cassiar-gold", "jurisdiction": "British Columbia", "claim_id": 226209, "claim_name": "COPCO #2", "holder": "CASSIAR GOLD (2020) CORP.", "status": "Mineral", "recorded_date": "-323740800", "anniversary_or_expiry": "2027-12-31", "area_ha": 25, "tenure_type": "Mineral", "source": "BC MTA Mineral, Placer and Coal Tenure Spatial View (BCGW). Open Government Licence - British Columbia. Not legal title.", "as_of": "2026-09-20", "role": "focus", "color": "#e8b040"}}, {"type": "Feature", "geometry": {"type": "Polygon", "coordinates": [[[-129.6959, 59.2726], [-129.6983, 59.2766], [-129.7022, 59.2752], [-129.6959, 59.2726]]]}, "properties": {"company_id": "cassiar-gold", "jurisdiction": "British Columbia", "claim_id": 226210, "claim_name": "COPCO #3", "holder": "CASSIAR GOLD (2020) CORP.", "status": "Mineral", "recorded_date": "-323740800", "anniversary_or_expiry": "2027-12-31", "area_ha": 25, "tenure_type": "Mineral", "source": "BC MTA Mineral, Placer and Coal Tenure Spatial View (BCGW). Open Government Licence - British Columbia. Not legal title.", "as_of": "2026-09-20", "role": "focus", "color": "#e8b040"}}, {"type": "Feature", "geometry": {"type": "Polygon", "coordinates": [[[-129.6955, 59.2719], [-129.6959, 59.2726], [-129.6967, 59.2725], [-129.6955, 59.2719]]]}, "properties": {"company_id": "cassiar-gold", "jurisdiction": "British Columbia", "claim_id": 226211, "claim_name": "COPCO #4", "holder": "CASSIAR GOLD (2020) CORP.", "status": "Mineral", "recorded_date": "-323740800", "anniversary_or_expiry": "2027-12-31", "area_ha": 25, "tenure_type": "Mineral", "source": "BC MTA Mineral, Placer and Coal Tenure Spatial View (BCGW). Open Government Licence - British Columbia. Not legal title.", "as_of": "2026-09-20", "role": "focus", "color": "#e8b040"}}, {"type": "Feature", "geometry": {"type": "Polygon", "coordinates": [[[-129.692, 59.2733], [-129.6944, 59.2772], [-129.6983, 59.2766], [-129.6959, 59.2726], [-129.692, 59.2733]]]}, "properties": {"company_id": "cassiar-gold", "jurisdiction": "British Columbia", "claim_id": 226212, "claim_name": "COPCO #5", "holder": "CASSIAR GOLD (2020) CORP.", "status": "Mineral", "recorded_date": "-323740800", "anniversary_or_expiry": "2027-12-31", "area_ha": 25, "tenure_type": "Mineral", "source": "BC MTA Mineral, Placer and Coal Tenure Spatial View (BCGW). Open Government Licence - British Columbia. Not legal title.", "as_of": "2026-09-20", "role": "focus", "color": "#e8b040"}}, {"type": "Feature", "geometry": {"type": "Polygon", "coordinates": [[[-129.6899, 59.2693], [-129.6894, 59.2699], [-129.692, 59.2733], [-129.6959, 59.2726], [-129.6927, 59.2706], [-129.6935, 59.2687], [-129.6899, 59.2693]]]}, "properties": {"company_id": "cassiar-gold", "jurisdiction": "British Columbia", "claim_id": 226213, "claim_name": "COPCO #6", "holder": "CASSIAR GOLD (2020) CORP.", "status": "Mineral", "recorded_date": "-323740800", "anniversary_or_expiry": "2027-12-31", "area_ha": 25, "tenure_type": "Mineral", "source": "BC MTA Mineral, Placer and Coal Tenure Spatial View (BCGW). Open Government Licence - British Columbia. Not legal title.", "as_of": "2026-09-20", "role": "focus", "color": "#e8b040"}}, {"type": "Feature", "geometry": {"type": "Polygon", "coordinates": [[[-129.6831, 59.2611], [-129.6794, 59.264], [-129.6854, 59.2659], [-129.6872, 59.2645], [-129.686, 59.2619], [-129.6831, 59.2611]]]}, "properties": {"company_id": "cassiar-gold", "jurisdiction": "British Columbia", "claim_id": 227694, "claim_name": "ATLAS #1", "holder": "CASSIAR GOLD (2020) CORP.", "status": "Mineral", "recorded_date": "1015200000", "anniversary_or_expiry": "2027-12-31", "area_ha": 25, "tenure_type": "Mineral", "source": "BC MTA Mineral, Placer and Coal Tenure Spatial View (BCGW). Open Government Licence - British Columbia. Not legal title.", "as_of": "2026-09-20", "role": "focus", "color": "#e8b040"}}, {"type": "Feature", "geometry": {"type": "Polygon", "coordinates": [[[-129.689, 59.2672], [-129.6913, 59.2679], [-129.6936, 59.2661], [-129.6882, 59.2667], [-129.6872, 59.2645], [-129.6854, 59.2659], [-129.689, 59.2672]]]}, "properties": {"company_id": "cassiar-gold", "jurisdiction": "British Columbia", "claim_id": 227695, "claim_name": "ATLAS #2", "holder": "CASSIAR GOLD (2020) CORP.", "status": "Mineral", "recorded_date": "1015200000", "anniversary_or_expiry": "2027-12-31", "area_ha": 25, "tenure_type": "Mineral", "source": "BC MTA Mineral, Placer and Coal Tenure Spatial View (BCGW). Open Government Licence - British Columbia. Not legal title.", "as_of": "2026-09-20", "role": "focus", "color": "#e8b040"}}, {"type": "Feature", "geometry": {"type": "Polygon", "coordinates": [[[-129.6766, 59.2662], [-129.6756, 59.267], [-129.6815, 59.269], [-129.6854, 59.2659], [-129.6794, 59.264], [-129.6766, 59.2662]]]}, "properties": {"company_id": "cassiar-gold", "jurisdiction": "British Columbia", "claim_id": 227696, "claim_name": "ATLAS #3", "holder": "CASSIAR GOLD (2020) CORP.", "status": "Mineral", "recorded_date": "1015200000", "anniversary_or_expiry": "2027-12-31", "area_ha": 25, "tenure_type": "Mineral", "source": "BC MTA Mineral, Placer and Coal Tenure Spatial View (BCGW). Open Government Licence - British Columbia. Not legal title.", "as_of": "2026-09-20", "role": "focus", "color": "#e8b040"}}, {"type": "Feature", "geometry": {"type": "Polygon", "coordinates": [[[-129.6838, 59.2671], [-129.6815, 59.269], [-129.6833, 59.2696], [-129.6853, 59.2666], [-129.6897, 59.2674], [-129.6854, 59.2659], [-129.6838, 59.2671]]]}, "properties": {"company_id": "cassiar-gold", "jurisdiction": "British Columbia", "claim_id": 227697, "claim_name": "ATLAS #4", "holder": "CASSIAR GOLD (2020) CORP.", "status": "Mineral", "recorded_date": "1015200000", "anniversary_or_expiry": "2027-12-31", "area_ha": 25, "tenure_type": "Mineral", "source": "BC MTA Mineral, Placer and Coal Tenure Spatial View (BCGW). Open Government Licence - British Columbia. Not legal title.", "as_of": "2026-09-20", "role": "focus", "color": "#e8b040"}}, {"type": "Feature", "geometry": {"type": "Polygon", "coordinates": [[[-129.6718, 59.27], [-129.6776, 59.272], [-129.6815, 59.269], [-129.6756, 59.267], [-129.6718, 59.27]]]}, "properties": {"company_id": "cassiar-gold", "jurisdiction": "British Columbia", "claim_id": 227698, "claim_name": "ATLAS #5", "holder": "CASSIAR GOLD (2020) CORP.", "status": "Mineral", "recorded_date": "1015200000", "anniversary_or_expiry": "2027-12-31", "area_ha": 25, "tenure_type": "Mineral", "source": "BC MTA Mineral, Placer and Coal Tenure Spatial View (BCGW). Open Government Licence - British Columbia. Not legal title.", "as_of": "2026-09-20", "role": "focus", "color": "#e8b040"}}, {"type": "Feature", "geometry": {"type": "Polygon", "coordinates": [[[-129.6788, 59.2711], [-129.6776, 59.272], [-129.6821, 59.2734], [-129.681, 59.2706], [-129.6826, 59.2706], [-129.6833, 59.2696], [-129.6815, 59.269], [-129.6788, 59.2711]]]}, "properties": {"company_id": "cassiar-gold", "jurisdiction": "British Columbia", "claim_id": 227699, "claim_name": "ATLAS #6", "holder": "CASSIAR GOLD (2020) CORP.", "status": "Mineral", "recorded_date": "1015200000", "anniversary_or_expiry": "2027-12-31", "area_ha": 25, "tenure_type": "Mineral", "source": "BC MTA Mineral, Placer and Coal Tenure Spatial View (BCGW). Open Government Licence - British Columbia. Not legal title.", "as_of": "2026-09-20", "role": "focus", "color": "#e8b040"}}, {"type": "Feature", "geometry": {"type": "Polygon", "coordinates": [[[-129.6685, 59.274], [-129.6751, 59.2754], [-129.6776, 59.272], [-129.6711, 59.2707], [-129.6685, 59.274]]]}, "properties": {"company_id": "cassiar-gold", "jurisdiction": "British Columbia", "claim_id": 227700, "claim_name": "ATLAS #7", "holder": "CASSIAR GOLD (2020) CORP.", "status": "Mineral", "recorded_date": "1015200000", "anniversary_or_expiry": "2027-12-31", "area_ha": 25, "tenure_type": "Mineral", "source": "BC MTA Mineral, Placer and Coal Tenure Spatial View (BCGW). Open Government Licence - British Columbia. Not legal title.", "as_of": "2026-09-20", "role": "focus", "color": "#e8b040"}}, {"type": "Feature", "geometry": {"type": "Polygon", "coordinates": [[[-129.6751, 59.2754], [-129.6794, 59.2762], [-129.6803, 59.2732], [-129.6821, 59.2734], [-129.6776, 59.272], [-129.6751, 59.2754]]]}, "properties": {"company_id": "cassiar-gold", "jurisdiction": "British Columbia", "claim_id": 227701, "claim_name": "ATLAS #8", "holder": "CASSIAR GOLD (2020) CORP.", "status": "Mineral", "recorded_date": "1015200000", "anniversary_or_expiry": "2027-12-31", "area_ha": 25, "tenure_type": "Mineral", "source": "BC MTA Mineral, Placer and Coal Tenure Spatial View (BCGW). Open Government Licence - British Columbia. Not legal title.", "as_of": "2026-09-20", "role": "focus", "color": "#e8b040"}}, {"type": "Feature", "geometry": {"type": "Polygon", "coordinates": [[[-129.6725, 59.2787], [-129.6791, 59.28], [-129.6812, 59.2773], [-129.6791, 59.2772], [-129.6794, 59.2762], [-129.6751, 59.2754], [-129.6725, 59.2787]]]}, "properties": {"company_id": "cassiar-gold", "jurisdiction": "British Columbia", "claim_id": 227702, "claim_name": "ATLAS #9", "holder": "CASSIAR GOLD (2020) CORP.", "status": "Mineral", "recorded_date": "1015200000", "anniversary_or_expiry": "2027-12-31", "area_ha": 25, "tenure_type": "Mineral", "source": "BC MTA Mineral, Placer and Coal Tenure Spatial View (BCGW). Open Government Licence - British Columbia. Not legal title.", "as_of": "2026-09-20", "role": "focus", "color": "#e8b040"}}, {"type": "Feature", "geometry": {"type": "Polygon", "coordinates": [[[-129.6791, 59.28], [-129.6777, 59.2818], [-129.6843, 59.2831], [-129.6869, 59.2797], [-129.6803, 59.2784], [-129.6791, 59.28]]]}, "properties": {"company_id": "cassiar-gold", "jurisdiction": "British Columbia", "claim_id": 227703, "claim_name": "ATLAS #10", "holder": "CASSIAR GOLD (2020) CORP.", "status": "Mineral", "recorded_date": "1015200000", "anniversary_or_expiry": "2027-12-31", "area_ha": 25, "tenure_type": "Mineral", "source": "BC MTA Mineral, Placer and Coal Tenure Spatial View (BCGW). Open Government Licence - British Columbia. Not legal title.", "as_of": "2026-09-20", "role": "focus", "color": "#e8b040"}}, {"type": "Feature", "geometry": {"type": "Polygon", "coordinates": [[[-129.6803, 59.2784], [-129.6869, 59.2797], [-129.6883, 59.2778], [-129.6812, 59.2773], [-129.6803, 59.2784]]]}, "properties": {"company_id": "cassiar-gold", "jurisdiction": "British Columbia", "claim_id": 227704, "claim_name": "ATLAS #11", "holder": "CASSIAR GOLD (2020) CORP.", "status": "Mineral", "recorded_date": "1015200000", "anniversary_or_expiry": "2027-12-31", "area_ha": 25, "tenure_type": "Mineral", "source": "BC MTA Mineral, Placer and Coal Tenure Spatial View (BCGW). Open Government Licence - British Columbia. Not legal title.", "as_of": "2026-09-20", "role": "focus", "color": "#e8b040"}}, {"type": "Feature", "geometry": {"type": "Polygon", "coordinates": [[[-129.6869, 59.2797], [-129.6843, 59.2831], [-129.6936, 59.2782], [-129.6883, 59.2778], [-129.6869, 59.2797]]]}, "properties": {"company_id": "cassiar-gold", "jurisdiction": "British Columbia", "claim_id": 227705, "claim_name": "ATLAS #12 FRACTIONAL", "holder": "CASSIAR GOLD (2020) CORP.", "status": "Mineral", "recorded_date": "1015200000", "anniversary_or_expiry": "2027-12-31", "area_ha": 25, "tenure_type": "Mineral", "source": "BC MTA Mineral, Placer and Coal Tenure Spatial View (BCGW). Open Government Licence - British Columbia. Not legal title.", "as_of": "2026-09-20", "role": "focus", "color": "#e8b040"}}, {"type": "Feature", "geometry": {"type": "Polygon", "coordinates": [[[-129.6667, 59.2764], [-129.6659, 59.2774], [-129.6725, 59.2787], [-129.6751, 59.2754], [-129.6685, 59.274], [-129.6667, 59.2764]]]}, "properties": {"company_id": "cassiar-gold", "jurisdiction": "British Columbia", "claim_id": 227708, "claim_name": "DOR #1", "holder": "CASSIAR GOLD (2020) CORP.", "status": "Mineral", "recorded_date": "1035072000", "anniversary_or_expiry": "2027-12-31", "area_ha": 25, "tenure_type": "Mineral", "source": "BC MTA Mineral, Placer and Coal Tenure Spatial View (BCGW). Open Government Licence - British Columbia. Not legal title.", "as_of": "2026-09-20", "role": "focus", "color": "#e8b040"}}, {"type": "Feature", "geometry": {"type": "MultiPolygon", "coordinates": [[[[-129.6871, 59.2777], [-129.6892, 59.2779], [-129.6877, 59.2754], [-129.6871, 59.2777]]], [[[-129.6898, 59.2779], [-129.6936, 59.2782], [-129.6941, 59.2772], [-129.6898, 59.2779]]]]}, "properties": {"company_id": "cassiar-gold", "jurisdiction": "British Columbia", "claim_id": 227536, "claim_name": "TOD #7", "holder": "CASSIAR GOLD (2020) CORP.", "status": "Mineral", "recorded_date": "5676480000", "anniversary_or_expiry": "2027-12-31", "area_ha": 25, "tenure_type": "Mineral", "source": "BC MTA Mineral, Placer and Coal Tenure Spatial View (BCGW). Open Government Licence - British Columbia. Not legal title.", "as_of": "2026-09-20", "role": "focus", "color": "#e8b040"}}, {"type": "Feature", "geometry": {"type": "Polygon", "coordinates": [[[-129.6794, 59.2762], [-129.6791, 59.2772], [-129.6871, 59.2777], [-129.6877, 59.2754], [-129.6867, 59.2737], [-129.6803, 59.2732], [-129.6794, 59.2762]]]}, "properties": {"company_id": "cassiar-gold", "jurisdiction": "British Columbia", "claim_id": 227537, "claim_name": "TOD #8", "holder": "CASSIAR GOLD (2020) CORP.", "status": "Mineral", "recorded_date": "5676480000", "anniversary_or_expiry": "2027-12-31", "area_ha": 25, "tenure_type": "Mineral", "source": "BC MTA Mineral, Placer and Coal Tenure Spatial View (BCGW). Open Government Licence - British Columbia. Not legal title.", "as_of": "2026-09-20", "role": "focus", "color": "#e8b040"}}, {"type": "Feature", "geometry": {"type": "Polygon", "coordinates": [[[-128.6512, 58.2752], [-128.6468, 58.2755], [-128.6468, 58.2795], [-128.6553, 58.2795], [-128.6553, 58.2752], [-128.6512, 58.2752]]]}, "properties": {"company_id": "cassiar-gold", "jurisdiction": "British Columbia", "claim_id": 325717, "claim_name": "EAGLE ROOST #1", "holder": "CASSIAR JADE CONTRACTING INC.", "status": "Mineral", "recorded_date": "7694784000", "anniversary_or_expiry": "2024-11-21", "area_ha": 25, "tenure_type": "Mineral", "source": "BC MTA Mineral, Placer and Coal Tenure Spatial View (BCGW). Open Government Licence - British Columbia. Not legal title.", "as_of": "2026-09-20", "role": "focus", "color": "#e8b040"}}, {"type": "Feature", "geometry": {"type": "Polygon", "coordinates": [[[-128.6468, 58.2755], [-128.6388, 58.2755], [-128.6388, 58.2794], [-128.6468, 58.2795], [-128.6468, 58.2755]]]}, "properties": {"company_id": "cassiar-gold", "jurisdiction": "British Columbia", "claim_id": 325718, "claim_name": "EAGLE ROOST #2", "holder": "CASSIAR JADE CONTRACTING INC.", "status": "Mineral", "recorded_date": "7694784000", "anniversary_or_expiry": "2024-11-21", "area_ha": 25, "tenure_type": "Mineral", "source": "BC MTA Mineral, Placer and Coal Tenure Spatial View (BCGW). Open Government Licence - British Columbia. Not legal title.", "as_of": "2026-09-20", "role": "focus", "color": "#e8b040"}}, {"type": "Feature", "geometry": {"type": "Polygon", "coordinates": [[[-128.654, 58.2571], [-128.6545, 58.2571], [-128.6545, 58.2537], [-128.6569, 58.2537], [-128.6569, 58.2528], [-128.6228, 58.2527], [-128.6228, 58.2662], [-128.6569, 58.2662], [-128.6569, 58.2616], [-128.654, 58.2616], [-128.654, 58.2571]], [[-128.6332, 58.2539], [-128.6332, 58.2629], [-128.6247, 58.2629], [-128.6247, 58.2539], [-128.6332, 58.2539]], [[-128.6528, 58.254], [-128.6528, 58.2585], [-128.6358, 58.2585], [-128.6358, 58.254], [-128.6528, 58.254]]]}, "properties": {"company_id": "cassiar-gold", "jurisdiction": "British Columbia", "claim_id": 325719, "claim_name": "BLUE J II", "holder": "CASSIAR JADE CONTRACTING INC.", "status": "Mineral", "recorded_date": "7694784000", "anniversary_or_expiry": "2026-06-20", "area_ha": 300, "tenure_type": "Mineral", "source": "BC MTA Mineral, Placer and Coal Tenure Spatial View (BCGW). Open Government Licence - British Columbia. Not legal title.", "as_of": "2026-09-20", "role": "focus", "color": "#e8b040"}}, {"type": "Feature", "geometry": {"type": "MultiPolygon", "coordinates": [[[[-129.7102, 59.2607], [-129.7174, 59.2647], [-129.7204, 59.2647], [-129.7204, 59.2607], [-129.7102, 59.2607]]], [[[-129.6924, 59.2671], [-129.6953, 59.2671], [-129.6936, 59.2661], [-129.6924, 59.2671]]]]}, "properties": {"company_id": "cassiar-gold", "jurisdiction": "British Columbia", "claim_id": 332630, "claim_name": "TOR 2", "holder": "CASSIAR GOLD (2020) CORP.", "status": "Mineral", "recorded_date": "7838208000", "anniversary_or_expiry": "2027-12-31", "area_ha": 450, "tenure_type": "Mineral", "source": "BC MTA Mineral, Placer and Coal Tenure Spatial View (BCGW). Open Government Licence - British Columbia. Not legal title.", "as_of": "2026-09-20", "role": "focus", "color": "#e8b040"}}, {"type": "Feature", "geometry": {"type": "Polygon", "coordinates": [[[-129.8413, 59.3321], [-129.8272, 59.331], [-129.8278, 59.3323], [-129.8277, 59.342], [-129.8413, 59.342], [-129.8413, 59.3321]]]}, "properties": {"company_id": "cassiar-gold", "jurisdiction": "British Columbia", "claim_id": 377590, "claim_name": null, "holder": "CASSIAR JADE CONTRACTING INC.", "status": "Mineral", "recorded_date": "9852192000", "anniversary_or_expiry": "2025-03-22", "area_ha": 89.2, "tenure_type": "Mineral", "source": "BC MTA Mineral, Placer and Coal Tenure Spatial View (BCGW). Open Government Licence - British Columbia. Not legal title.", "as_of": "2026-09-20", "role": "focus", "color": "#e8b040"}}, {"type": "Feature", "geometry": {"type": "Polygon", "coordinates": [[[-129.6153, 59.2127], [-129.6155, 59.2134], [-129.6226, 59.2129], [-129.6219, 59.2088], [-129.6137, 59.2089], [-129.6137, 59.2098], [-129.6146, 59.2099], [-129.6153, 59.2127]]]}, "properties": {"company_id": "cassiar-gold", "jurisdiction": "British Columbia", "claim_id": 387811, "claim_name": "WILDCAT 2", "holder": "CASSIAR GOLD (2020) CORP.", "status": "Mineral", "recorded_date": "9930816000", "anniversary_or_expiry": "2027-12-31", "area_ha": 25, "tenure_type": "Mineral", "source": "BC MTA Mineral, Placer and Coal Tenure Spatial View (BCGW). Open Government Licence - British Columbia. Not legal title.", "as_of": "2026-09-20", "role": "focus", "color": "#e8b040"}}, {"type": "Feature", "geometry": {"type": "Polygon", "coordinates": [[[-129.6219, 59.2088], [-129.6226, 59.2129], [-129.6217, 59.2133], [-129.6305, 59.2134], [-129.6305, 59.2123], [-129.6292, 59.2123], [-129.6286, 59.2089], [-129.6219, 59.2088]]]}, "properties": {"company_id": "cassiar-gold", "jurisdiction": "British Columbia", "claim_id": 392766, "claim_name": "WILDCAT 1", "holder": "CASSIAR GOLD (2020) CORP.", "status": "Mineral", "recorded_date": "2002-04-14", "anniversary_or_expiry": "2027-12-31", "area_ha": 25, "tenure_type": "Mineral", "source": "BC MTA Mineral, Placer and Coal Tenure Spatial View (BCGW). Open Government Licence - British Columbia. Not legal title.", "as_of": "2026-09-20", "role": "focus", "color": "#e8b040"}}, {"type": "Feature", "geometry": {"type": "MultiPolygon", "coordinates": [[[[-129.6886, 59.265], [-129.6875, 59.2651], [-129.6882, 59.2667], [-129.6936, 59.2661], [-129.6925, 59.2654], [-129.6945, 59.2645], [-129.6886, 59.265]]], [[[-129.6899, 59.2693], [-129.6937, 59.269], [-129.6956, 59.2672], [-129.6924, 59.2671], [-129.6909, 59.2678], [-129.6899, 59.2693]]]]}, "properties": {"company_id": "cassiar-gold", "jurisdiction": "British Columbia", "claim_id": 394659, "claim_name": "WING GOLD 1", "holder": "CASSIAR GOLD (2020) CORP.", "status": "Mineral", "recorded_date": "2002-06-28", "anniversary_or_expiry": "2027-12-31", "area_ha": 25, "tenure_type": "Mineral", "source": "BC MTA Mineral, Placer and Coal Tenure Spatial View (BCGW). Open Government Licence - British Columbia. Not legal title.", "as_of": "2026-09-20", "role": "focus", "color": "#e8b040"}}, {"type": "Feature", "geometry": {"type": "Polygon", "coordinates": [[[-129.6921, 59.26], [-129.6855, 59.2607], [-129.6875, 59.2651], [-129.6944, 59.2643], [-129.6921, 59.26]]]}, "properties": {"company_id": "cassiar-gold", "jurisdiction": "British Columbia", "claim_id": 394660, "claim_name": "WING GOLD 2", "holder": "CASSIAR GOLD (2020) CORP.", "status": "Mineral", "recorded_date": "2002-06-28", "anniversary_or_expiry": "2027-12-31", "area_ha": 25, "tenure_type": "Mineral", "source": "BC MTA Mineral, Placer and Coal Tenure Spatial View (BCGW). Open Government Licence - British Columbia. Not legal title.", "as_of": "2026-09-20", "role": "focus", "color": "#e8b040"}}, {"type": "Feature", "geometry": {"type": "Polygon", "coordinates": [[[-129.6913, 59.2589], [-129.6851, 59.2596], [-129.6855, 59.2607], [-129.6924, 59.2599], [-129.6919, 59.2588], [-129.6913, 59.2589]]]}, "properties": {"company_id": "cassiar-gold", "jurisdiction": "British Columbia", "claim_id": 394661, "claim_name": "WING GOLD 3", "holder": "CASSIAR GOLD (2020) CORP.", "status": "Mineral", "recorded_date": "2002-06-28", "anniversary_or_expiry": "2027-12-31", "area_ha": 25, "tenure_type": "Mineral", "source": "BC MTA Mineral, Placer and Coal Tenure Spatial View (BCGW). Open Government Licence - British Columbia. Not legal title.", "as_of": "2026-09-20", "role": "focus", "color": "#e8b040"}}, {"type": "Feature", "geometry": {"type": "Polygon", "coordinates": [[[-129.6811, 59.2709], [-129.6821, 59.2734], [-129.6866, 59.2737], [-129.6845, 59.2709], [-129.6811, 59.2709]]]}, "properties": {"company_id": "cassiar-gold", "jurisdiction": "British Columbia", "claim_id": 395270, "claim_name": "FIREWEED", "holder": "CASSIAR GOLD (2020) CORP.", "status": "Mineral", "recorded_date": "2002-07-25", "anniversary_or_expiry": "2027-12-31", "area_ha": 25, "tenure_type": "Mineral", "source": "BC MTA Mineral, Placer and Coal Tenure Spatial View (BCGW). Open Government Licence - British Columbia. Not legal title.", "as_of": "2026-09-20", "role": "focus", "color": "#e8b040"}}, {"type": "Feature", "geometry": {"type": "Polygon", "coordinates": [[[-129.658, 59.2956], [-129.658, 59.2914], [-129.6392, 59.2914], [-129.6392, 59.2998], [-129.658, 59.2998], [-129.658, 59.2956]]]}, "properties": {"company_id": "cassiar-gold", "jurisdiction": "British Columbia", "claim_id": 501587, "claim_name": "Darcy", "holder": "CASSIAR GOLD (2020) CORP.", "status": "Mineral", "recorded_date": "2005-01-12", "anniversary_or_expiry": "2027-12-31", "area_ha": 99.186, "tenure_type": "Mineral", "source": "BC MTA Mineral, Placer and Coal Tenure Spatial View (BCGW). Open Government Licence - British Columbia. Not legal title.", "as_of": "2026-09-20", "role": "focus", "color": "#e8b040"}}, {"type": "Feature", "geometry": {"type": "Polygon", "coordinates": [[[-129.7392, 59.2539], [-129.7392, 59.2498], [-129.733, 59.2498], [-129.733, 59.2456], [-129.6955, 59.2456], [-129.6955, 59.2498], [-129.6705, 59.2498], [-129.6705, 59.2706], [-129.6767, 59.2706], [-129.6767, 59.2664], [-129.683, 59.2664], [-129.683, 59.2623], [-129.6892, 59.2623], [-129.6892, 59.2664], [-129.7017, 59.2664], [-129.7017, 59.2706], [-129.708, 59.2706], [-129.708, 59.2748], [-129.7392, 59.2748], [-129.7392, 59.2539]]]}, "properties": {"company_id": "cassiar-gold", "jurisdiction": "British Columbia", "claim_id": 510750, "claim_name": null, "holder": "CASSIAR GOLD (2020) CORP.", "status": "Mineral", "recorded_date": "2005-04-14", "anniversary_or_expiry": "2027-12-31", "area_ha": 1009.488, "tenure_type": "Mineral", "source": "BC MTA Mineral, Placer and Coal Tenure Spatial View (BCGW). Open Government Licence - British Columbia. Not legal title.", "as_of": "2026-09-20", "role": "focus", "color": "#e8b040"}}, {"type": "Feature", "geometry": {"type": "Polygon", "coordinates": [[[-129.7205, 59.2789], [-129.7142, 59.2789], [-129.7142, 59.2748], [-129.7017, 59.2748], [-129.7017, 59.2831], [-129.708, 59.2831], [-129.708, 59.2873], [-129.7205, 59.2873], [-129.7205, 59.2831], [-129.7267, 59.2831], [-129.7267, 59.2789], [-129.7205, 59.2789]]]}, "properties": {"company_id": "cassiar-gold", "jurisdiction": "British Columbia", "claim_id": 510751, "claim_name": null, "holder": "CASSIAR GOLD (2020) CORP.", "status": "Mineral", "recorded_date": "2005-04-14", "anniversary_or_expiry": "2027-12-31", "area_ha": 132.30700000000002, "tenure_type": "Mineral", "source": "BC MTA Mineral, Placer and Coal Tenure Spatial View (BCGW). Open Government Licence - British Columbia. Not legal title.", "as_of": "2026-09-20", "role": "focus", "color": "#e8b040"}}, {"type": "Feature", "geometry": {"type": "Polygon", "coordinates": [[[-129.7767, 59.2748], [-129.7767, 59.2706], [-129.7392, 59.2706], [-129.7392, 59.2748], [-129.7267, 59.2748], [-129.7267, 59.2914], [-129.7517, 59.2914], [-129.7517, 59.2956], [-129.758, 59.2956], [-129.758, 59.2998], [-129.7767, 59.2998], [-129.7767, 59.2748]]]}, "properties": {"company_id": "cassiar-gold", "jurisdiction": "British Columbia", "claim_id": 510766, "claim_name": null, "holder": "CASSIAR GOLD (2020) CORP.", "status": "Mineral", "recorded_date": "2005-04-14", "anniversary_or_expiry": "2027-12-31", "area_ha": 744.168, "tenure_type": "Mineral", "source": "BC MTA Mineral, Placer and Coal Tenure Spatial View (BCGW). Open Government Licence - British Columbia. Not legal title.", "as_of": "2026-09-20", "role": "focus", "color": "#e8b040"}}, {"type": "Feature", "geometry": {"type": "Polygon", "coordinates": [[[-129.7205, 59.2873], [-129.6705, 59.2873], [-129.6705, 59.2914], [-129.7267, 59.2914], [-129.7267, 59.2873], [-129.7205, 59.2873]]]}, "properties": {"company_id": "cassiar-gold", "jurisdiction": "British Columbia", "claim_id": 510768, "claim_name": "OLE' 1-9", "holder": "CASSIAR GOLD (2020) CORP.", "status": "Mineral", "recorded_date": "2005-04-14", "anniversary_or_expiry": "2027-12-31", "area_ha": 148.809, "tenure_type": "Mineral", "source": "BC MTA Mineral, Placer and Coal Tenure Spatial View (BCGW). Open Government Licence - British Columbia. Not legal title.", "as_of": "2026-09-20", "role": "focus", "color": "#e8b040"}}, {"type": "Feature", "geometry": {"type": "Polygon", "coordinates": [[[-129.7767, 59.2539], [-129.7767, 59.2498], [-129.7392, 59.2498], [-129.7392, 59.2706], [-129.7767, 59.2706], [-129.7767, 59.2539]]]}, "properties": {"company_id": "cassiar-gold", "jurisdiction": "British Columbia", "claim_id": 511229, "claim_name": null, "holder": "CASSIAR GOLD (2020) CORP.", "status": "Mineral", "recorded_date": "2005-04-20", "anniversary_or_expiry": "2027-12-31", "area_ha": 496.45500000000004, "tenure_type": "Mineral", "source": "BC MTA Mineral, Placer and Coal Tenure Spatial View (BCGW). Open Government Licence - British Columbia. Not legal title.", "as_of": "2026-09-20", "role": "focus", "color": "#e8b040"}}, {"type": "Feature", "geometry": {"type": "Polygon", "coordinates": [[[-129.7455, 59.2248], [-129.7455, 59.2206], [-129.7205, 59.2206], [-129.7205, 59.2289], [-129.7142, 59.2289], [-129.7142, 59.2456], [-129.733, 59.2456], [-129.733, 59.2498], [-129.7392, 59.2498], [-129.7392, 59.2331], [-129.7455, 59.2331], [-129.7455, 59.2248]]]}, "properties": {"company_id": "cassiar-gold", "jurisdiction": "British Columbia", "claim_id": 511346, "claim_name": null, "holder": "CASSIAR GOLD (2020) CORP.", "status": "Mineral", "recorded_date": "2005-04-21", "anniversary_or_expiry": "2027-12-31", "area_ha": 430.59200000000004, "tenure_type": "Mineral", "source": "BC MTA Mineral, Placer and Coal Tenure Spatial View (BCGW). Open Government Licence - British Columbia. Not legal title.", "as_of": "2026-09-20", "role": "focus", "color": "#e8b040"}}, {"type": "Feature", "geometry": {"type": "Polygon", "coordinates": [[[-129.7705, 59.2456], [-129.7705, 59.2414], [-129.7392, 59.2414], [-129.7392, 59.2498], [-129.7705, 59.2498], [-129.7705, 59.2456]]]}, "properties": {"company_id": "cassiar-gold", "jurisdiction": "British Columbia", "claim_id": 511352, "claim_name": "REDER 1-10", "holder": "CASSIAR GOLD (2020) CORP.", "status": "Mineral", "recorded_date": "2005-04-21", "anniversary_or_expiry": "2027-12-31", "area_ha": 165.554, "tenure_type": "Mineral", "source": "BC MTA Mineral, Placer and Coal Tenure Spatial View (BCGW). Open Government Licence - British Columbia. Not legal title.", "as_of": "2026-09-20", "role": "focus", "color": "#e8b040"}}, {"type": "Feature", "geometry": {"type": "Polygon", "coordinates": [[[-129.6517, 59.2623], [-129.6517, 59.2581], [-129.6267, 59.2581], [-129.6205, 59.2581], [-129.6205, 59.2623], [-129.5955, 59.2623], [-129.5955, 59.2873], [-129.633, 59.2873], [-129.633, 59.2706], [-129.6517, 59.2706], [-129.6517, 59.2623]]]}, "properties": {"company_id": "cassiar-gold", "jurisdiction": "British Columbia", "claim_id": 511359, "claim_name": null, "holder": "CASSIAR GOLD (2020) CORP.", "status": "Mineral", "recorded_date": "2005-04-21", "anniversary_or_expiry": "2027-12-31", "area_ha": 777.5, "tenure_type": "Mineral", "source": "BC MTA Mineral, Placer and Coal Tenure Spatial View (BCGW). Open Government Licence - British Columbia. Not legal title.", "as_of": "2026-09-20", "role": "focus", "color": "#e8b040"}}, {"type": "Feature", "geometry": {"type": "Polygon", "coordinates": [[[-129.6455, 59.2414], [-129.6455, 59.2373], [-129.633, 59.2373], [-129.633, 59.2331], [-129.608, 59.2331], [-129.608, 59.2123], [-129.583, 59.2123], [-129.583, 59.2164], [-129.5455, 59.2164], [-129.5455, 59.2289], [-129.5642, 59.2289], [-129.5642, 59.2498], [-129.5955, 59.2498], [-129.5955, 59.2539], [-129.6142, 59.2539], [-129.6142, 59.2414], [-129.6392, 59.2414], [-129.6392, 59.2456], [-129.6455, 59.2456], [-129.6455, 59.2414]]]}, "properties": {"company_id": "cassiar-gold", "jurisdiction": "British Columbia", "claim_id": 511365, "claim_name": null, "holder": "CASSIAR GOLD (2020) CORP.", "status": "Mineral", "recorded_date": "2005-04-21", "anniversary_or_expiry": "2027-12-31", "area_ha": 1407.703, "tenure_type": "Mineral", "source": "BC MTA Mineral, Placer and Coal Tenure Spatial View (BCGW). Open Government Licence - British Columbia. Not legal title.", "as_of": "2026-09-20", "role": "focus", "color": "#e8b040"}}, {"type": "Feature", "geometry": {"type": "Polygon", "coordinates": [[[-129.6017, 59.2581], [-129.6017, 59.2539], [-129.5955, 59.2539], [-129.5955, 59.2623], [-129.6017, 59.2623], [-129.6017, 59.2581]]]}, "properties": {"company_id": "cassiar-gold", "jurisdiction": "British Columbia", "claim_id": 511368, "claim_name": "GRAB 1-2", "holder": "CASSIAR GOLD (2020) CORP.", "status": "Mineral", "recorded_date": "2005-04-21", "anniversary_or_expiry": "2027-12-31", "area_ha": 33.099000000000004, "tenure_type": "Mineral", "source": "BC MTA Mineral, Placer and Coal Tenure Spatial View (BCGW). Open Government Licence - British Columbia. Not legal title.", "as_of": "2026-09-20", "role": "focus", "color": "#e8b040"}}, {"type": "Feature", "geometry": {"type": "Polygon", "coordinates": [[[-129.5455, 59.2206], [-129.5455, 59.2164], [-129.5205, 59.2164], [-129.5205, 59.2123], [-129.5142, 59.2123], [-129.5142, 59.2289], [-129.5455, 59.2289], [-129.5455, 59.2206]]]}, "properties": {"company_id": "cassiar-gold", "jurisdiction": "British Columbia", "claim_id": 511371, "claim_name": null, "holder": "CASSIAR GOLD (2020) CORP.", "status": "Mineral", "recorded_date": "2005-04-21", "anniversary_or_expiry": "2027-12-31", "area_ha": 265.058, "tenure_type": "Mineral", "source": "BC MTA Mineral, Placer and Coal Tenure Spatial View (BCGW). Open Government Licence - British Columbia. Not legal title.", "as_of": "2026-09-20", "role": "focus", "color": "#e8b040"}}, {"type": "Feature", "geometry": {"type": "Polygon", "coordinates": [[[-129.608, 59.2039], [-129.608, 59.1998], [-129.5642, 59.1998], [-129.5642, 59.1914], [-129.5517, 59.1914], [-129.5517, 59.1831], [-129.5455, 59.1831], [-129.5455, 59.1665], [-129.5142, 59.1665], [-129.5142, 59.1873], [-129.5267, 59.1873], [-129.5267, 59.1998], [-129.533, 59.1998], [-129.533, 59.2039], [-129.558, 59.2039], [-129.558, 59.2164], [-129.583, 59.2164], [-129.583, 59.2123], [-129.608, 59.2123], [-129.608, 59.2039]]]}, "properties": {"company_id": "cassiar-gold", "jurisdiction": "British Columbia", "claim_id": 511380, "claim_name": null, "holder": "CASSIAR GOLD (2020) CORP.", "status": "Mineral", "recorded_date": "2005-04-21", "anniversary_or_expiry": "2027-12-31", "area_ha": 1226.938, "tenure_type": "Mineral", "source": "BC MTA Mineral, Placer and Coal Tenure Spatial View (BCGW). Open Government Licence - British Columbia. Not legal title.", "as_of": "2026-09-20", "role": "focus", "color": "#e8b040"}}, {"type": "Feature", "geometry": {"type": "Polygon", "coordinates": [[[-129.658, 59.1831], [-129.658, 59.179], [-129.583, 59.179], [-129.583, 59.1998], [-129.608, 59.1998], [-129.608, 59.2081], [-129.633, 59.2081], [-129.633, 59.2039], [-129.6392, 59.2039], [-129.6392, 59.2081], [-129.658, 59.2081], [-129.658, 59.1831]]]}, "properties": {"company_id": "cassiar-gold", "jurisdiction": "British Columbia", "claim_id": 511385, "claim_name": null, "holder": "CASSIAR GOLD (2020) CORP.", "status": "Mineral", "recorded_date": "2005-04-21", "anniversary_or_expiry": "2027-12-31", "area_ha": 1243.5810000000001, "tenure_type": "Mineral", "source": "BC MTA Mineral, Placer and Coal Tenure Spatial View (BCGW). Open Government Licence - British Columbia. Not legal title.", "as_of": "2026-09-20", "role": "focus", "color": "#e8b040"}}, {"type": "Feature", "geometry": {"type": "Polygon", "coordinates": [[[-129.583, 59.1831], [-129.583, 59.179], [-129.5455, 59.179], [-129.5455, 59.1831], [-129.5517, 59.1831], [-129.5517, 59.1914], [-129.5642, 59.1914], [-129.5642, 59.1998], [-129.583, 59.1998], [-129.583, 59.1831]]]}, "properties": {"company_id": "cassiar-gold", "jurisdiction": "British Columbia", "claim_id": 511387, "claim_name": "TRACKER 1-20", "holder": "CASSIAR GOLD (2020) CORP.", "status": "Mineral", "recorded_date": "2005-04-21", "anniversary_or_expiry": "2027-12-31", "area_ha": 364.82500000000005, "tenure_type": "Mineral", "source": "BC MTA Mineral, Placer and Coal Tenure Spatial View (BCGW). Open Government Licence - British Columbia. Not legal title.", "as_of": "2026-09-20", "role": "focus", "color": "#e8b040"}}, {"type": "Feature", "geometry": {"type": "Polygon", "coordinates": [[[-129.558, 59.2081], [-129.558, 59.2039], [-129.533, 59.2039], [-129.533, 59.1998], [-129.5267, 59.1998], [-129.5267, 59.1873], [-129.5142, 59.1873], [-129.5142, 59.1915], [-129.5205, 59.1915], [-129.5205, 59.2081], [-129.5142, 59.2081], [-129.5142, 59.2123], [-129.5205, 59.2123], [-129.5205, 59.2164], [-129.558, 59.2164], [-129.558, 59.2081]]]}, "properties": {"company_id": "cassiar-gold", "jurisdiction": "British Columbia", "claim_id": 511394, "claim_name": "EASTER 1-25", "holder": "CASSIAR GOLD (2020) CORP.", "status": "Mineral", "recorded_date": "2005-04-21", "anniversary_or_expiry": "2027-12-31", "area_ha": 414.343, "tenure_type": "Mineral", "source": "BC MTA Mineral, Placer and Coal Tenure Spatial View (BCGW). Open Government Licence - British Columbia. Not legal title.", "as_of": "2026-09-20", "role": "focus", "color": "#e8b040"}}, {"type": "Feature", "geometry": {"type": "Polygon", "coordinates": [[[-128.5893, 58.3331], [-128.5955, 58.3331], [-128.5955, 58.3289], [-128.5893, 58.3289], [-128.5893, 58.3331]]]}, "properties": {"company_id": "cassiar-gold", "jurisdiction": "British Columbia", "claim_id": 509909, "claim_name": "Michael", "holder": "CASSIAR JADE CONTRACTING INC.", "status": "Placer", "recorded_date": "2005-03-31", "anniversary_or_expiry": "2027-05-01", "area_ha": 16.997, "tenure_type": "Placer", "source": "BC MTA Mineral, Placer and Coal Tenure Spatial View (BCGW). Open Government Licence - British Columbia. Not legal title.", "as_of": "2026-09-20", "role": "focus", "color": "#e8b040"}}, {"type": "Feature", "geometry": {"type": "Polygon", "coordinates": [[[-117.1324, 49.1541], [-117.1386, 49.1541], [-117.1386, 49.1499], [-117.1261, 49.1499], [-117.1261, 49.1541], [-117.1324, 49.1541]]]}, "properties": {"company_id": "cassiar-gold", "jurisdiction": "British Columbia", "claim_id": 508405, "claim_name": "Creek 10", "holder": "CASSIAR GOLD CORP.", "status": "Mineral", "recorded_date": "2005-03-08", "anniversary_or_expiry": "2026-01-01", "area_ha": 42.260400000000004, "tenure_type": "Mineral", "source": "BC MTA Mineral, Placer and Coal Tenure Spatial View (BCGW). Open Government Licence - British Columbia. Not legal title.", "as_of": "2026-09-20", "role": "focus", "color": "#e8b040"}}, {"type": "Feature", "geometry": {"type": "Polygon", "coordinates": [[[-129.7705, 59.1831], [-129.7705, 59.1789], [-129.7642, 59.1789], [-129.7642, 59.1706], [-129.708, 59.1706], [-129.708, 59.1748], [-129.7017, 59.1748], [-129.7017, 59.1873], [-129.708, 59.1873], [-129.708, 59.1956], [-129.7642, 59.1956], [-129.7642, 59.1914], [-129.7705, 59.1914], [-129.7705, 59.1831]]]}, "properties": {"company_id": "cassiar-gold", "jurisdiction": "British Columbia", "claim_id": 514057, "claim_name": null, "holder": "CASSIAR GOLD (2020) CORP.", "status": "Mineral", "recorded_date": "2005-06-07", "anniversary_or_expiry": "2027-12-31", "area_ha": 995.1310000000001, "tenure_type": "Mineral", "source": "BC MTA Mineral, Placer and Coal Tenure Spatial View (BCGW). Open Government Licence - British Columbia. Not legal title.", "as_of": "2026-09-20", "role": "focus", "color": "#e8b040"}}, {"type": "Feature", "geometry": {"type": "Polygon", "coordinates": [[[-129.708, 59.154], [-129.708, 59.1498], [-129.683, 59.1498], [-129.683, 59.1456], [-129.6642, 59.1456], [-129.6642, 59.1498], [-129.6517, 59.1498], [-129.6517, 59.1581], [-129.6642, 59.1581], [-129.6642, 59.179], [-129.7017, 59.1789], [-129.7017, 59.1748], [-129.708, 59.1748], [-129.708, 59.154]]]}, "properties": {"company_id": "cassiar-gold", "jurisdiction": "British Columbia", "claim_id": 514088, "claim_name": null, "holder": "CASSIAR GOLD (2020) CORP.", "status": "Mineral", "recorded_date": "2005-06-07", "anniversary_or_expiry": "2027-12-31", "area_ha": 912.74, "tenure_type": "Mineral", "source": "BC MTA Mineral, Placer and Coal Tenure Spatial View (BCGW). Open Government Licence - British Columbia. Not legal title.", "as_of": "2026-09-20", "role": "focus", "color": "#e8b040"}}, {"type": "Feature", "geometry": {"type": "Polygon", "coordinates": [[[-129.708, 59.1914], [-129.708, 59.1873], [-129.7017, 59.1873], [-129.7017, 59.1789], [-129.6642, 59.179], [-129.6642, 59.1748], [-129.6517, 59.1748], [-129.6517, 59.179], [-129.658, 59.179], [-129.658, 59.2081], [-129.6642, 59.2081], [-129.6642, 59.2039], [-129.6767, 59.2039], [-129.6767, 59.2081], [-129.7017, 59.2081], [-129.7017, 59.2123], [-129.708, 59.2123], [-129.708, 59.1914]]]}, "properties": {"company_id": "cassiar-gold", "jurisdiction": "British Columbia", "claim_id": 514497, "claim_name": null, "holder": "CASSIAR GOLD (2020) CORP.", "status": "Mineral", "recorded_date": "2005-06-14", "anniversary_or_expiry": "2027-12-31", "area_ha": 911.936, "tenure_type": "Mineral", "source": "BC MTA Mineral, Placer and Coal Tenure Spatial View (BCGW). Open Government Licence - British Columbia. Not legal title.", "as_of": "2026-09-20", "role": "focus", "color": "#e8b040"}}, {"type": "Feature", "geometry": {"type": "Polygon", "coordinates": [[[-116.9761, 49.1499], [-116.9761, 49.1458], [-116.9699, 49.1458], [-116.9699, 49.1416], [-116.9636, 49.1416], [-116.9636, 49.1458], [-116.9574, 49.1458], [-116.9574, 49.1583], [-116.9636, 49.1583], [-116.9636, 49.1541], [-116.9761, 49.1541], [-116.9761, 49.1499]]]}, "properties": {"company_id": "cassiar-gold", "jurisdiction": "British Columbia", "claim_id": 516608, "claim_name": null, "holder": "CASSIAR GOLD CORP.", "status": "Mineral", "recorded_date": "2005-07-10", "anniversary_or_expiry": "2028-11-30", "area_ha": 169.0369, "tenure_type": "Mineral", "source": "BC MTA Mineral, Placer and Coal Tenure Spatial View (BCGW). Open Government Licence - British Columbia. Not legal title.", "as_of": "2026-09-20", "role": "focus", "color": "#e8b040"}}, {"type": "Feature", "geometry": {"type": "Polygon", "coordinates": [[[-116.9511, 49.1583], [-116.9574, 49.1583], [-116.9574, 49.1541], [-116.9511, 49.1541], [-116.9511, 49.1583]]]}, "properties": {"company_id": "cassiar-gold", "jurisdiction": "British Columbia", "claim_id": 516612, "claim_name": null, "holder": "CASSIAR GOLD CORP.", "status": "Mineral", "recorded_date": "2005-07-10", "anniversary_or_expiry": "2028-11-30", "area_ha": 21.127100000000002, "tenure_type": "Mineral", "source": "BC MTA Mineral, Placer and Coal Tenure Spatial View (BCGW). Open Government Licence - British Columbia. Not legal title.", "as_of": "2026-09-20", "role": "focus", "color": "#e8b040"}}, {"type": "Feature", "geometry": {"type": "Polygon", "coordinates": [[[-116.9449, 49.1583], [-116.9511, 49.1583], [-116.9511, 49.1541], [-116.9449, 49.1541], [-116.9449, 49.1583]]]}, "properties": {"company_id": "cassiar-gold", "jurisdiction": "British Columbia", "claim_id": 516613, "claim_name": null, "holder": "CASSIAR GOLD CORP.", "status": "Mineral", "recorded_date": "2005-07-10", "anniversary_or_expiry": "2028-11-30", "area_ha": 21.127000000000002, "tenure_type": "Mineral", "source": "BC MTA Mineral, Placer and Coal Tenure Spatial View (BCGW). Open Government Licence - British Columbia. Not legal title.", "as_of": "2026-09-20", "role": "focus", "color": "#e8b040"}}, {"type": "Feature", "geometry": {"type": "Polygon", "coordinates": [[[-129.7017, 59.2123], [-129.7017, 59.2081], [-129.6705, 59.2081], [-129.6705, 59.2123], [-129.6767, 59.2123], [-129.6767, 59.2164], [-129.7017, 59.2164], [-129.7017, 59.2123]]]}, "properties": {"company_id": "cassiar-gold", "jurisdiction": "British Columbia", "claim_id": 514508, "claim_name": null, "holder": "CASSIAR GOLD (2020) CORP.", "status": "Mineral", "recorded_date": "2005-06-14", "anniversary_or_expiry": "2027-12-31", "area_ha": 149.144, "tenure_type": "Mineral", "source": "BC MTA Mineral, Placer and Coal Tenure Spatial View (BCGW). Open Government Licence - British Columbia. Not legal title.", "as_of": "2026-09-20", "role": "focus", "color": "#e8b040"}}, {"type": "Feature", "geometry": {"type": "Polygon", "coordinates": [[[-129.7142, 59.2748], [-129.7142, 59.2789], [-129.7205, 59.2789], [-129.7205, 59.2748], [-129.7142, 59.2748]]]}, "properties": {"company_id": "cassiar-gold", "jurisdiction": "British Columbia", "claim_id": 517020, "claim_name": "NC3", "holder": "CASSIAR GOLD (2020) CORP.", "status": "Mineral", "recorded_date": "2005-07-12", "anniversary_or_expiry": "2027-12-31", "area_ha": 16.54, "tenure_type": "Mineral", "source": "BC MTA Mineral, Placer and Coal Tenure Spatial View (BCGW). Open Government Licence - British Columbia. Not legal title.", "as_of": "2026-09-20", "role": "focus", "color": "#e8b040"}}, {"type": "Feature", "geometry": {"type": "Polygon", "coordinates": [[[-129.6517, 59.2706], [-129.6455, 59.2706], [-129.6455, 59.2748], [-129.658, 59.2748], [-129.658, 59.2706], [-129.6517, 59.2706]]]}, "properties": {"company_id": "cassiar-gold", "jurisdiction": "British Columbia", "claim_id": 517048, "claim_name": "AUREX", "holder": "CASSIAR GOLD (2020) CORP.", "status": "Mineral", "recorded_date": "2005-07-12", "anniversary_or_expiry": "2027-12-31", "area_ha": 33.084, "tenure_type": "Mineral", "source": "BC MTA Mineral, Placer and Coal Tenure Spatial View (BCGW). Open Government Licence - British Columbia. Not legal title.", "as_of": "2026-09-20", "role": "focus", "color": "#e8b040"}}, {"type": "Feature", "geometry": {"type": "Polygon", "coordinates": [[[-129.608, 59.2581], [-129.608, 59.2539], [-129.6017, 59.2539], [-129.6017, 59.2623], [-129.608, 59.2623], [-129.608, 59.2581]]]}, "properties": {"company_id": "cassiar-gold", "jurisdiction": "British Columbia", "claim_id": 517063, "claim_name": "ARGOLD", "holder": "CASSIAR GOLD (2020) CORP.", "status": "Mineral", "recorded_date": "2005-07-12", "anniversary_or_expiry": "2027-12-31", "area_ha": 33.099000000000004, "tenure_type": "Mineral", "source": "BC MTA Mineral, Placer and Coal Tenure Spatial View (BCGW). Open Government Licence - British Columbia. Not legal title.", "as_of": "2026-09-20", "role": "focus", "color": "#e8b040"}}, {"type": "Feature", "geometry": {"type": "Polygon", "coordinates": [[[-129.7205, 59.2831], [-129.7205, 59.2873], [-129.7267, 59.2873], [-129.7267, 59.2831], [-129.7205, 59.2831]]]}, "properties": {"company_id": "cassiar-gold", "jurisdiction": "British Columbia", "claim_id": 517075, "claim_name": "OLEW", "holder": "CASSIAR GOLD (2020) CORP.", "status": "Mineral", "recorded_date": "2005-07-12", "anniversary_or_expiry": "2027-12-31", "area_ha": 16.536, "tenure_type": "Mineral", "source": "BC MTA Mineral, Placer and Coal Tenure Spatial View (BCGW). Open Government Licence - British Columbia. Not legal title.", "as_of": "2026-09-20", "role": "focus", "color": "#e8b040"}}, {"type": "Feature", "geometry": {"type": "Polygon", "coordinates": [[[-129.7017, 59.2831], [-129.6705, 59.2831], [-129.6705, 59.2873], [-129.708, 59.2873], [-129.708, 59.2831], [-129.7017, 59.2831]]]}, "properties": {"company_id": "cassiar-gold", "jurisdiction": "British Columbia", "claim_id": 517092, "claim_name": "OLEE", "holder": "CASSIAR GOLD (2020) CORP.", "status": "Mineral", "recorded_date": "2005-07-12", "anniversary_or_expiry": "2027-12-31", "area_ha": 99.218, "tenure_type": "Mineral", "source": "BC MTA Mineral, Placer and Coal Tenure Spatial View (BCGW). Open Government Licence - British Columbia. Not legal title.", "as_of": "2026-09-20", "role": "focus", "color": "#e8b040"}}, {"type": "Feature", "geometry": {"type": "Polygon", "coordinates": [[[-129.7455, 59.2373], [-129.7455, 59.2331], [-129.7392, 59.2331], [-129.7392, 59.2414], [-129.7455, 59.2414], [-129.7455, 59.2373]]]}, "properties": {"company_id": "cassiar-gold", "jurisdiction": "British Columbia", "claim_id": 517109, "claim_name": "WATT", "holder": "CASSIAR GOLD (2020) CORP.", "status": "Mineral", "recorded_date": "2005-07-12", "anniversary_or_expiry": "2027-12-31", "area_ha": 33.119, "tenure_type": "Mineral", "source": "BC MTA Mineral, Placer and Coal Tenure Spatial View (BCGW). Open Government Licence - British Columbia. Not legal title.", "as_of": "2026-09-20", "role": "focus", "color": "#e8b040"}}, {"type": "Feature", "geometry": {"type": "Polygon", "coordinates": [[[-129.7767, 59.2456], [-129.7767, 59.2414], [-129.7705, 59.2414], [-129.7705, 59.2498], [-129.7767, 59.2498], [-129.7767, 59.2456]]]}, "properties": {"company_id": "cassiar-gold", "jurisdiction": "British Columbia", "claim_id": 517124, "claim_name": "AMP", "holder": "CASSIAR GOLD (2020) CORP.", "status": "Mineral", "recorded_date": "2005-07-12", "anniversary_or_expiry": "2027-12-31", "area_ha": 33.111000000000004, "tenure_type": "Mineral", "source": "BC MTA Mineral, Placer and Coal Tenure Spatial View (BCGW). Open Government Licence - British Columbia. Not legal title.", "as_of": "2026-09-20", "role": "focus", "color": "#e8b040"}}, {"type": "Feature", "geometry": {"type": "Polygon", "coordinates": [[[-129.658, 59.2206], [-129.658, 59.2164], [-129.6517, 59.2164], [-129.6517, 59.2123], [-129.6392, 59.2123], [-129.6392, 59.2039], [-129.633, 59.2039], [-129.633, 59.2081], [-129.608, 59.2081], [-129.608, 59.2206], [-129.6205, 59.2206], [-129.6205, 59.2164], [-129.6267, 59.2164], [-129.633, 59.2164], [-129.633, 59.2248], [-129.658, 59.2248], [-129.658, 59.2206]]]}, "properties": {"company_id": "cassiar-gold", "jurisdiction": "British Columbia", "claim_id": 514943, "claim_name": null, "holder": "CASSIAR GOLD (2020) CORP.", "status": "Mineral", "recorded_date": "2005-06-21", "anniversary_or_expiry": "2027-12-31", "area_ha": 381.10400000000004, "tenure_type": "Mineral", "source": "BC MTA Mineral, Placer and Coal Tenure Spatial View (BCGW). Open Government Licence - British Columbia. Not legal title.", "as_of": "2026-09-20", "role": "focus", "color": "#e8b040"}}, {"type": "Feature", "geometry": {"type": "Polygon", "coordinates": [[[-128.6205, 58.2706], [-128.6268, 58.2706], [-128.6268, 58.2664], [-128.6205, 58.2664], [-128.6205, 58.2706]]]}, "properties": {"company_id": "cassiar-gold", "jurisdiction": "British Columbia", "claim_id": 517278, "claim_name": "BLUE JAY", "holder": "CASSIAR JADE CONTRACTING INC.", "status": "Mineral", "recorded_date": "2005-07-12", "anniversary_or_expiry": "2029-09-30", "area_ha": 17.025000000000002, "tenure_type": "Mineral", "source": "BC MTA Mineral, Placer and Coal Tenure Spatial View (BCGW). Open Government Licence - British Columbia. Not legal title.", "as_of": "2026-09-20", "role": "focus", "color": "#e8b040"}}, {"type": "Feature", "geometry": {"type": "Polygon", "coordinates": [[[-129.6767, 59.2164], [-129.6767, 59.2123], [-129.658, 59.2123], [-129.658, 59.2206], [-129.6767, 59.2206], [-129.6767, 59.2164]]]}, "properties": {"company_id": "cassiar-gold", "jurisdiction": "British Columbia", "claim_id": 533464, "claim_name": "JENNIE VEIN", "holder": "CASSIAR GOLD (2020) CORP.", "status": "Mineral", "recorded_date": "2006-05-03", "anniversary_or_expiry": "2027-12-31", "area_ha": 99.41600000000001, "tenure_type": "Mineral", "source": "BC MTA Mineral, Placer and Coal Tenure Spatial View (BCGW). Open Government Licence - British Columbia. Not legal title.", "as_of": "2026-09-20", "role": "focus", "color": "#e8b040"}}, {"type": "Feature", "geometry": {"type": "Polygon", "coordinates": [[[-117.1386, 49.1458], [-117.1386, 49.1416], [-117.1324, 49.1416], [-117.1324, 49.1374], [-117.1261, 49.1374], [-117.1261, 49.1499], [-117.1386, 49.1499], [-117.1386, 49.1458]]]}, "properties": {"company_id": "cassiar-gold", "jurisdiction": "British Columbia", "claim_id": 508435, "claim_name": null, "holder": "CASSIAR GOLD CORP.", "status": "Mineral", "recorded_date": "2005-03-08", "anniversary_or_expiry": "2026-01-01", "area_ha": 105.6657, "tenure_type": "Mineral", "source": "BC MTA Mineral, Placer and Coal Tenure Spatial View (BCGW). Open Government Licence - British Columbia. Not legal title.", "as_of": "2026-09-20", "role": "focus", "color": "#e8b040"}}, {"type": "Feature", "geometry": {"type": "Polygon", "coordinates": [[[-129.6705, 59.2039], [-129.6642, 59.2039], [-129.6642, 59.2123], [-129.6705, 59.2123], [-129.6705, 59.2081], [-129.6767, 59.2081], [-129.6767, 59.2039], [-129.6705, 59.2039]]]}, "properties": {"company_id": "cassiar-gold", "jurisdiction": "British Columbia", "claim_id": 514509, "claim_name": null, "holder": "CASSIAR GOLD (2020) CORP.", "status": "Mineral", "recorded_date": "2005-06-14", "anniversary_or_expiry": "2027-12-31", "area_ha": 49.721000000000004, "tenure_type": "Mineral", "source": "BC MTA Mineral, Placer and Coal Tenure Spatial View (BCGW). Open Government Licence - British Columbia. Not legal title.", "as_of": "2026-09-20", "role": "focus", "color": "#e8b040"}}, {"type": "Feature", "geometry": {"type": "Polygon", "coordinates": [[[-129.8267, 59.3373], [-129.8267, 59.3331], [-129.8017, 59.3331], [-129.8017, 59.3373], [-129.8205, 59.3373], [-129.8205, 59.3414], [-129.8267, 59.3414], [-129.8267, 59.3373]]]}, "properties": {"company_id": "cassiar-gold", "jurisdiction": "British Columbia", "claim_id": 535755, "claim_name": "STEVE", "holder": "CASSIAR JADE CONTRACTING INC.", "status": "Mineral", "recorded_date": "2006-06-15", "anniversary_or_expiry": "2026-08-31", "area_ha": 82.5596, "tenure_type": "Mineral", "source": "BC MTA Mineral, Placer and Coal Tenure Spatial View (BCGW). Open Government Licence - British Columbia. Not legal title.", "as_of": "2026-09-20", "role": "focus", "color": "#e8b040"}}]}