{"type":"FeatureCollection","name":"centerra-gold-bc","features":[{"type":"Feature","geometry":{"type":"Polygon","coordinates":[[[-125.1871,54.0586],[-125.1873,54.0621],[-125.1934,54.062],[-125.1933,54.0584],[-125.1871,54.0586]]]},"properties":{"jurisdiction":"British Columbia","claim_id":244772,"claim_name":"SAM 18","holder":"THOMPSON CREEK METALS COMPANY INC.","status":"Mineral","recorded_date":"1260-11-18","anniversary_or_expiry":"2029-12-11","area_ha":25,"tenure_type":"Mineral","source":"BC MTA Mineral, Placer and Coal Tenure Spatial View (BCGW). Open Government Licence – British Columbia. Not legal title.","as_of":"2026-09-17","role":"focus","color":"#e8b040"}},{"type":"Feature","geometry":{"type":"Polygon","coordinates":[[[-125.1873,54.0621],[-125.1874,54.0657],[-125.1936,54.0657],[-125.1934,54.062],[-125.1873,54.0621]]]},"properties":{"jurisdiction":"British Columbia","claim_id":244774,"claim_name":"SAM 20","holder":"THOMPSON CREEK METALS COMPANY INC.","status":"Mineral","recorded_date":"1260-11-18","anniversary_or_expiry":"2029-12-11","area_ha":25,"tenure_type":"Mineral","source":"BC MTA Mineral, Placer and Coal Tenure Spatial View (BCGW). Open Government Licence – British Columbia. Not legal title.","as_of":"2026-09-17","role":"focus","color":"#e8b040"}},{"type":"Feature","geometry":{"type":"Polygon","coordinates":[[[-125.1874,54.0657],[-125.1875,54.0694],[-125.1937,54.0693],[-125.1936,54.0657],[-125.1874,54.0657]]]},"properties":{"jurisdiction":"British Columbia","claim_id":244776,"claim_name":"SAM 22","holder":"THOMPSON CREEK METALS COMPANY INC.","status":"Mineral","recorded_date":"1260-11-18","anniversary_or_expiry":"2029-12-11","area_ha":25,"tenure_type":"Mineral","source":"BC MTA Mineral, Placer and Coal Tenure Spatial View (BCGW). Open Government Licence – British Columbia. Not legal title.","as_of":"2026-09-17","role":"focus","color":"#e8b040"}},{"type":"Feature","geometry":{"type":"Polygon","coordinates":[[[-125.1875,54.0694],[-125.1877,54.073],[-125.1938,54.0729],[-125.1937,54.0693],[-125.1875,54.0694]]]},"properties":{"jurisdiction":"British Columbia","claim_id":244778,"claim_name":"SAM 24","holder":"THOMPSON CREEK METALS COMPANY INC.","status":"Mineral","recorded_date":"1260-11-18","anniversary_or_expiry":"2029-12-11","area_ha":25,"tenure_type":"Mineral","source":"BC MTA Mineral, Placer and Coal Tenure Spatial View (BCGW). Open Government Licence – British Columbia. Not legal title.","as_of":"2026-09-17","role":"focus","color":"#e8b040"}},{"type":"Feature","geometry":{"type":"Polygon","coordinates":[[[-125.1878,54.0748],[-125.1878,54.0766],[-125.194,54.0765],[-125.1938,54.0729],[-125.1877,54.073],[-125.1878,54.0748]]]},"properties":{"jurisdiction":"British Columbia","claim_id":244780,"claim_name":"SAM 26","holder":"THOMPSON CREEK METALS COMPANY INC.","status":"Mineral","recorded_date":"1260-11-18","anniversary_or_expiry":"2029-12-11","area_ha":25,"tenure_type":"Mineral","source":"BC MTA Mineral, Placer and Coal Tenure Spatial View (BCGW). Open Government Licence – British Columbia. Not legal title.","as_of":"2026-09-17","role":"focus","color":"#e8b040"}},{"type":"Feature","geometry":{"type":"Polygon","coordinates":[[[-125.1806,54.0551],[-125.1807,54.0587],[-125.1868,54.0586],[-125.1867,54.055],[-125.1806,54.0551]]]},"properties":{"jurisdiction":"British Columbia","claim_id":244913,"claim_name":"SAM 80","holder":"THOMPSON CREEK METALS COMPANY INC.","status":"Mineral","recorded_date":"1666-02-03","anniversary_or_expiry":"2029-12-11","area_ha":25,"tenure_type":"Mineral","source":"BC MTA Mineral, Placer and Coal Tenure Spatial View (BCGW). Open Government Licence – British Columbia. Not legal title.","as_of":"2026-09-17","role":"focus","color":"#e8b040"}},{"type":"Feature","geometry":{"type":"Polygon","coordinates":[[[-125.1867,54.055],[-125.1868,54.0586],[-125.1929,54.0584],[-125.1929,54.055],[-125.1867,54.055]]]},"properties":{"jurisdiction":"British Columbia","claim_id":244915,"claim_name":"SAM 82","holder":"THOMPSON CREEK METALS COMPANY INC.","status":"Mineral","recorded_date":"1666-02-03","anniversary_or_expiry":"2029-12-11","area_ha":25,"tenure_type":"Mineral","source":"BC MTA Mineral, Placer and Coal Tenure Spatial View (BCGW). Open Government Licence – British Columbia. Not legal title.","as_of":"2026-09-17","role":"focus","color":"#e8b040"}},{"type":"Feature","geometry":{"type":"Polygon","coordinates":[[[-125.1324,54.0462],[-125.1364,54.0475],[-125.1333,54.0515],[-125.146,54.0549],[-125.1552,54.044],[-125.1361,54.0382],[-125.1348,54.0421],[-125.1327,54.0419],[-125.1323,54.0424],[-125.1324,54.0462]]]},"properties":{"jurisdiction":"British Columbia","claim_id":243448,"claim_name":null,"holder":"THOMPSON CREEK METALS COMPANY INC.","status":"Mineral","recorded_date":"9313-01-25","anniversary_or_expiry":"2025-05-06","area_ha":164.53,"tenure_type":"Mineral","source":"BC MTA Mineral, Placer and Coal Tenure Spatial View (BCGW). Open Government Licence – British Columbia. Not legal title.","as_of":"2026-09-17","role":"focus","color":"#e8b040"}},{"type":"Feature","geometry":{"type":"Polygon","coordinates":[[[-125.146,54.0549],[-125.1446,54.0566],[-125.1534,54.0564],[-125.1528,54.0516],[-125.1668,54.051],[-125.1667,54.0503],[-125.1528,54.051],[-125.1522,54.0474],[-125.146,54.0549]]]},"properties":{"jurisdiction":"British Columbia","claim_id":243450,"claim_name":null,"holder":"THOMPSON CREEK METALS COMPANY INC.","status":"Mineral","recorded_date":"3054240000","anniversary_or_expiry":"2025-09-06","area_ha":36.92,"tenure_type":"Mineral","source":"BC MTA Mineral, Placer and Coal Tenure Spatial View (BCGW). Open Government Licence – British Columbia. Not legal title.","as_of":"2026-09-17","role":"focus","color":"#e8b040"}},{"type":"Feature","geometry":{"type":"Polygon","coordinates":[[[-125.1176,54.0336],[-125.1111,54.0338],[-125.1114,54.0379],[-125.1169,54.0377],[-125.1166,54.0366],[-125.1182,54.0365],[-125.118,54.0336],[-125.1176,54.0336]]]},"properties":{"jurisdiction":"British Columbia","claim_id":243457,"claim_name":null,"holder":"THOMPSON CREEK METALS COMPANY INC.","status":"Mineral","recorded_date":"-166406400","anniversary_or_expiry":"2025-09-23","area_ha":19.55,"tenure_type":"Mineral","source":"BC MTA Mineral, Placer and Coal Tenure Spatial View (BCGW). Open Government Licence – British Columbia. Not legal title.","as_of":"2026-09-17","role":"focus","color":"#e8b040"}},{"type":"Feature","geometry":{"type":"Polygon","coordinates":[[[-125.1116,54.0416],[-125.1186,54.0418],[-125.1185,54.0402],[-125.1173,54.0402],[-125.1169,54.0377],[-125.1114,54.0379],[-125.1116,54.0416]]]},"properties":{"jurisdiction":"British Columbia","claim_id":243458,"claim_name":null,"holder":"THOMPSON CREEK METALS COMPANY INC.","status":"Mineral","recorded_date":"-166406400","anniversary_or_expiry":"2025-09-23","area_ha":18.52,"tenure_type":"Mineral","source":"BC MTA Mineral, Placer and Coal Tenure Spatial View (BCGW). Open Government Licence – British Columbia. Not legal title.","as_of":"2026-09-17","role":"focus","color":"#e8b040"}},{"type":"Feature","geometry":{"type":"Polygon","coordinates":[[[-125.1304,54.0374],[-125.1239,54.0376],[-125.1239,54.0417],[-125.1307,54.0415],[-125.1304,54.0374]]]},"properties":{"jurisdiction":"British Columbia","claim_id":243459,"claim_name":null,"holder":"THOMPSON CREEK METALS COMPANY INC.","status":"Mineral","recorded_date":"-166406400","anniversary_or_expiry":"2025-09-23","area_ha":19.75,"tenure_type":"Mineral","source":"BC MTA Mineral, Placer and Coal Tenure Spatial View (BCGW). Open Government Licence – British Columbia. Not legal title.","as_of":"2026-09-17","role":"focus","color":"#e8b040"}},{"type":"Feature","geometry":{"type":"Polygon","coordinates":[[[-125.106,54.034],[-125.1037,54.0341],[-125.1043,54.0382],[-125.1112,54.0379],[-125.1107,54.0338],[-125.106,54.034]]]},"properties":{"jurisdiction":"British Columbia","claim_id":243460,"claim_name":null,"holder":"THOMPSON CREEK METALS COMPANY INC.","status":"Mineral","recorded_date":"-166406400","anniversary_or_expiry":"2025-09-23","area_ha":20.900000000000002,"tenure_type":"Mineral","source":"BC MTA Mineral, Placer and Coal Tenure Spatial View (BCGW). Open Government Licence – British Columbia. Not legal title.","as_of":"2026-09-17","role":"focus","color":"#e8b040"}},{"type":"Feature","geometry":{"type":"Polygon","coordinates":[[[-125.1044,54.039],[-125.1048,54.0423],[-125.1116,54.042],[-125.1112,54.0379],[-125.1043,54.0382],[-125.1044,54.039]]]},"properties":{"jurisdiction":"British Columbia","claim_id":243461,"claim_name":null,"holder":"THOMPSON CREEK METALS COMPANY INC.","status":"Mineral","recorded_date":"-166406400","anniversary_or_expiry":"2025-09-23","area_ha":20.81,"tenure_type":"Mineral","source":"BC MTA Mineral, Placer and Coal Tenure Spatial View (BCGW). Open Government Licence – British Columbia. Not legal title.","as_of":"2026-09-17","role":"focus","color":"#e8b040"}},{"type":"Feature","geometry":{"type":"Polygon","coordinates":[[[-125.1108,54.0345],[-125.1115,54.04],[-125.1111,54.0344],[-125.1108,54.0345]]]},"properties":{"jurisdiction":"British Columbia","claim_id":243462,"claim_name":null,"holder":"THOMPSON CREEK METALS COMPANY INC.","status":"Mineral","recorded_date":"-166406400","anniversary_or_expiry":"2025-09-23","area_ha":0.73,"tenure_type":"Mineral","source":"BC MTA Mineral, Placer and Coal Tenure Spatial View (BCGW). Open Government Licence – British Columbia. Not legal title.","as_of":"2026-09-17","role":"focus","color":"#e8b040"}},{"type":"Feature","geometry":{"type":"Polygon","coordinates":[[[-125.1025,54.035],[-125.1038,54.0349],[-125.1037,54.0341],[-125.106,54.034],[-125.1054,54.0307],[-125.0984,54.0311],[-125.0991,54.0347],[-125.1021,54.0342],[-125.1025,54.035]]]},"properties":{"jurisdiction":"British Columbia","claim_id":243463,"claim_name":null,"holder":"THOMPSON CREEK METALS COMPANY INC.","status":"Mineral","recorded_date":"-166406400","anniversary_or_expiry":"2025-09-23","area_ha":18.19,"tenure_type":"Mineral","source":"BC MTA Mineral, Placer and Coal Tenure Spatial View (BCGW). Open Government Licence – British Columbia. Not legal title.","as_of":"2026-09-17","role":"focus","color":"#e8b040"}},{"type":"Feature","geometry":{"type":"Polygon","coordinates":[[[-125.1173,54.0402],[-125.1243,54.0398],[-125.1236,54.0361],[-125.1166,54.0366],[-125.1173,54.0402]]]},"properties":{"jurisdiction":"British Columbia","claim_id":243464,"claim_name":null,"holder":"THOMPSON CREEK METALS COMPANY INC.","status":"Mineral","recorded_date":"-166406400","anniversary_or_expiry":"2025-09-23","area_ha":18.84,"tenure_type":"Mineral","source":"BC MTA Mineral, Placer and Coal Tenure Spatial View (BCGW). Open Government Licence – British Columbia. Not legal title.","as_of":"2026-09-17","role":"focus","color":"#e8b040"}},{"type":"Feature","geometry":{"type":"Polygon","coordinates":[[[-125.1025,54.035],[-125.1044,54.039],[-125.1038,54.0349],[-125.1025,54.035]]]},"properties":{"jurisdiction":"British Columbia","claim_id":243465,"claim_name":null,"holder":"THOMPSON CREEK METALS COMPANY INC.","status":"Mineral","recorded_date":"-166406400","anniversary_or_expiry":"2025-09-23","area_ha":2.05,"tenure_type":"Mineral","source":"BC MTA Mineral, Placer and Coal Tenure Spatial View (BCGW). Open Government Licence – British Columbia. Not legal title.","as_of":"2026-09-17","role":"focus","color":"#e8b040"}},{"type":"Feature","geometry":{"type":"Polygon","coordinates":[[[-125.1191,54.0418],[-125.1251,54.0423],[-125.1253,54.0417],[-125.1239,54.0417],[-125.1237,54.0398],[-125.1195,54.0401],[-125.1191,54.0418]]]},"properties":{"jurisdiction":"British Columbia","claim_id":243466,"claim_name":null,"holder":"THOMPSON CREEK METALS COMPANY INC.","status":"Mineral","recorded_date":"-166406400","anniversary_or_expiry":"2025-09-23","area_ha":7.12,"tenure_type":"Mineral","source":"BC MTA Mineral, Placer and Coal Tenure Spatial View (BCGW). Open Government Licence – British Columbia. Not legal title.","as_of":"2026-09-17","role":"focus","color":"#e8b040"}},{"type":"Feature","geometry":{"type":"Polygon","coordinates":[[[-125.0991,54.0347],[-125.0967,54.0351],[-125.0986,54.0391],[-125.104,54.0382],[-125.1021,54.0342],[-125.0991,54.0347]]]},"properties":{"jurisdiction":"British Columbia","claim_id":243467,"claim_name":null,"holder":"THOMPSON CREEK METALS COMPANY INC.","status":"Mineral","recorded_date":"-166406400","anniversary_or_expiry":"2025-09-23","area_ha":16.78,"tenure_type":"Mineral","source":"BC MTA Mineral, Placer and Coal Tenure Spatial View (BCGW). Open Government Licence – British Columbia. Not legal title.","as_of":"2026-09-17","role":"focus","color":"#e8b040"}},{"type":"Feature","geometry":{"type":"Polygon","coordinates":[[[-125.1108,54.0345],[-125.1111,54.0338],[-125.1129,54.0337],[-125.1123,54.0302],[-125.1055,54.0307],[-125.106,54.034],[-125.1107,54.0338],[-125.1108,54.0345]]]},"properties":{"jurisdiction":"British Columbia","claim_id":243468,"claim_name":null,"holder":"THOMPSON CREEK METALS COMPANY INC.","status":"Mineral","recorded_date":"-166406400","anniversary_or_expiry":"2025-09-23","area_ha":17.26,"tenure_type":"Mineral","source":"BC MTA Mineral, Placer and Coal Tenure Spatial View (BCGW). Open Government Licence – British Columbia. Not legal title.","as_of":"2026-09-17","role":"focus","color":"#e8b040"}},{"type":"Feature","geometry":{"type":"Polygon","coordinates":[[[-125.1054,54.0307],[-125.106,54.034],[-125.1055,54.0307],[-125.1054,54.0307]]]},"properties":{"jurisdiction":"British Columbia","claim_id":243469,"claim_name":null,"holder":"THOMPSON CREEK METALS COMPANY INC.","status":"Mineral","recorded_date":"-166406400","anniversary_or_expiry":"2025-09-23","area_ha":0.2,"tenure_type":"Mineral","source":"BC MTA Mineral, Placer and Coal Tenure Spatial View (BCGW). Open Government Licence – British Columbia. Not legal title.","as_of":"2026-09-17","role":"focus","color":"#e8b040"}},{"type":"Feature","geometry":{"type":"Polygon","coordinates":[[[-125.1238,54.0374],[-125.1304,54.0374],[-125.1301,54.0333],[-125.1233,54.0335],[-125.1238,54.0374]]]},"properties":{"jurisdiction":"British Columbia","claim_id":243470,"claim_name":null,"holder":"THOMPSON CREEK METALS COMPANY INC.","status":"Mineral","recorded_date":"-943488000","anniversary_or_expiry":"2025-01-05","area_ha":20.19,"tenure_type":"Mineral","source":"BC MTA Mineral, Placer and Coal Tenure Spatial View (BCGW). Open Government Licence – British Columbia. Not legal title.","as_of":"2026-09-17","role":"focus","color":"#e8b040"}},{"type":"Feature","geometry":{"type":"Polygon","coordinates":[[[-125.1181,54.0351],[-125.1234,54.0351],[-125.123,54.032],[-125.1174,54.0323],[-125.1181,54.0351]]]},"properties":{"jurisdiction":"British Columbia","claim_id":243471,"claim_name":null,"holder":"THOMPSON CREEK METALS COMPANY INC.","status":"Mineral","recorded_date":"-943488000","anniversary_or_expiry":"2025-01-05","area_ha":16.25,"tenure_type":"Mineral","source":"BC MTA Mineral, Placer and Coal Tenure Spatial View (BCGW). Open Government Licence – British Columbia. Not legal title.","as_of":"2026-09-17","role":"focus","color":"#e8b040"}},{"type":"Feature","geometry":{"type":"Polygon","coordinates":[[[-125.1182,54.0364],[-125.1235,54.0361],[-125.1234,54.0351],[-125.1181,54.0351],[-125.1182,54.0364]]]},"properties":{"jurisdiction":"British Columbia","claim_id":243472,"claim_name":null,"holder":"THOMPSON CREEK METALS COMPANY INC.","status":"Mineral","recorded_date":"-943488000","anniversary_or_expiry":"2025-01-05","area_ha":0.09,"tenure_type":"Mineral","source":"BC MTA Mineral, Placer and Coal Tenure Spatial View (BCGW). Open Government Licence – British Columbia. Not legal title.","as_of":"2026-09-17","role":"focus","color":"#e8b040"}},{"type":"Feature","geometry":{"type":"Polygon","coordinates":[[[-125.119,54.0297],[-125.1123,54.0302],[-125.1129,54.0337],[-125.1176,54.0336],[-125.1174,54.0323],[-125.1196,54.0322],[-125.119,54.0297]]]},"properties":{"jurisdiction":"British Columbia","claim_id":243473,"claim_name":null,"holder":"THOMPSON CREEK METALS COMPANY INC.","status":"Mineral","recorded_date":"-943488000","anniversary_or_expiry":"2025-01-05","area_ha":16.3,"tenure_type":"Mineral","source":"BC MTA Mineral, Placer and Coal Tenure Spatial View (BCGW). Open Government Licence – British Columbia. Not legal title.","as_of":"2026-09-17","role":"focus","color":"#e8b040"}},{"type":"Feature","geometry":{"type":"Polygon","coordinates":[[[-125.1186,54.0418],[-125.1186,54.0423],[-125.1244,54.0422],[-125.1191,54.0418],[-125.1195,54.0401],[-125.1185,54.0402],[-125.1186,54.0418]]]},"properties":{"jurisdiction":"British Columbia","claim_id":243474,"claim_name":null,"holder":"THOMPSON CREEK METALS COMPANY INC.","status":"Mineral","recorded_date":"-943488000","anniversary_or_expiry":"2025-01-05","area_ha":2.06,"tenure_type":"Mineral","source":"BC MTA Mineral, Placer and Coal Tenure Spatial View (BCGW). Open Government Licence – British Columbia. Not legal title.","as_of":"2026-09-17","role":"focus","color":"#e8b040"}},{"type":"Feature","geometry":{"type":"Polygon","coordinates":[[[-125.1253,54.0417],[-125.1251,54.0422],[-125.1323,54.0424],[-125.1327,54.0419],[-125.1253,54.0417]]]},"properties":{"jurisdiction":"British Columbia","claim_id":243482,"claim_name":null,"holder":"THOMPSON CREEK METALS COMPANY INC.","status":"Mineral","recorded_date":"3045-12-31","anniversary_or_expiry":"2025-01-29","area_ha":2.72,"tenure_type":"Mineral","source":"BC MTA Mineral, Placer and Coal Tenure Spatial View (BCGW). Open Government Licence – British Columbia. Not legal title.","as_of":"2026-09-17","role":"focus","color":"#e8b040"}},{"type":"Feature","geometry":{"type":"Polygon","coordinates":[[[-125.1304,54.0374],[-125.1307,54.0415],[-125.1299,54.0415],[-125.1348,54.0421],[-125.1361,54.0381],[-125.1304,54.0374]]]},"properties":{"jurisdiction":"British Columbia","claim_id":243483,"claim_name":null,"holder":"THOMPSON CREEK METALS COMPANY INC.","status":"Mineral","recorded_date":"3045-12-31","anniversary_or_expiry":"2025-01-29","area_ha":15.08,"tenure_type":"Mineral","source":"BC MTA Mineral, Placer and Coal Tenure Spatial View (BCGW). Open Government Licence – British Columbia. Not legal title.","as_of":"2026-09-17","role":"focus","color":"#e8b040"}},{"type":"Feature","geometry":{"type":"Polygon","coordinates":[[[-125.1304,54.0374],[-125.1361,54.0381],[-125.1375,54.0341],[-125.1301,54.0333],[-125.1304,54.0374]]]},"properties":{"jurisdiction":"British Columbia","claim_id":243484,"claim_name":null,"holder":"THOMPSON CREEK METALS COMPANY INC.","status":"Mineral","recorded_date":"3045-12-31","anniversary_or_expiry":"2025-01-29","area_ha":19.96,"tenure_type":"Mineral","source":"BC MTA Mineral, Placer and Coal Tenure Spatial View (BCGW). Open Government Licence – British Columbia. Not legal title.","as_of":"2026-09-17","role":"focus","color":"#e8b040"}},{"type":"Feature","geometry":{"type":"Polygon","coordinates":[[[-125.1186,54.0423],[-125.1186,54.0464],[-125.1255,54.0463],[-125.1254,54.0422],[-125.1186,54.0423]]]},"properties":{"jurisdiction":"British Columbia","claim_id":243485,"claim_name":null,"holder":"THOMPSON CREEK METALS COMPANY INC.","status":"Mineral","recorded_date":"3045-12-31","anniversary_or_expiry":"2025-01-29","area_ha":20.85,"tenure_type":"Mineral","source":"BC MTA Mineral, Placer and Coal Tenure Spatial View (BCGW). Open Government Licence – British Columbia. Not legal title.","as_of":"2026-09-17","role":"focus","color":"#e8b040"}},{"type":"Feature","geometry":{"type":"Polygon","coordinates":[[[-125.1254,54.0443],[-125.1255,54.0463],[-125.1324,54.0462],[-125.1323,54.0421],[-125.1254,54.0422],[-125.1254,54.0443]]]},"properties":{"jurisdiction":"British Columbia","claim_id":243486,"claim_name":null,"holder":"THOMPSON CREEK METALS COMPANY INC.","status":"Mineral","recorded_date":"3045-12-31","anniversary_or_expiry":"2025-01-29","area_ha":20.7,"tenure_type":"Mineral","source":"BC MTA Mineral, Placer and Coal Tenure Spatial View (BCGW). Open Government Licence – British Columbia. Not legal title.","as_of":"2026-09-17","role":"focus","color":"#e8b040"}},{"type":"Feature","geometry":{"type":"Polygon","coordinates":[[[-124.0953,55.1624],[-124.0953,55.1458],[-124.0703,55.1458],[-124.0703,55.1666],[-124.0953,55.1666],[-124.0953,55.1624]]]},"properties":{"jurisdiction":"British Columbia","claim_id":512884,"claim_name":null,"holder":"THOMPSON CREEK METALS COMPANY INC.","status":"Mineral","recorded_date":"2005-05-18","anniversary_or_expiry":"2032-03-18","area_ha":369.632,"tenure_type":"Mineral","source":"BC MTA Mineral, Placer and Coal Tenure Spatial View (BCGW). Open Government Licence – British Columbia. Not legal title.","as_of":"2026-09-17","role":"focus","color":"#e8b040"}},{"type":"Feature","geometry":{"type":"Polygon","coordinates":[[[-124.0953,55.1416],[-124.0953,55.1291],[-124.0703,55.1291],[-124.0703,55.1458],[-124.0953,55.1458],[-124.0953,55.1416]]]},"properties":{"jurisdiction":"British Columbia","claim_id":512887,"claim_name":null,"holder":"THOMPSON CREEK METALS COMPANY INC.","status":"Mineral","recorded_date":"2005-05-18","anniversary_or_expiry":"2032-03-18","area_ha":295.844,"tenure_type":"Mineral","source":"BC MTA Mineral, Placer and Coal Tenure Spatial View (BCGW). Open Government Licence – British Columbia. Not legal title.","as_of":"2026-09-17","role":"focus","color":"#e8b040"}},{"type":"Feature","geometry":{"type":"Polygon","coordinates":[[[-124.0953,55.1249],[-124.0953,55.1083],[-124.0703,55.1083],[-124.0703,55.1291],[-124.0953,55.1291],[-124.0953,55.1249]]]},"properties":{"jurisdiction":"British Columbia","claim_id":512888,"claim_name":null,"holder":"THOMPSON CREEK METALS COMPANY INC.","status":"Mineral","recorded_date":"2005-05-18","anniversary_or_expiry":"2032-03-18","area_ha":369.97900000000004,"tenure_type":"Mineral","source":"BC MTA Mineral, Placer and Coal Tenure Spatial View (BCGW). Open Government Licence – British Columbia. Not legal title.","as_of":"2026-09-17","role":"focus","color":"#e8b040"}},{"type":"Feature","geometry":{"type":"Polygon","coordinates":[[[-124.0953,55.1041],[-124.0953,55.0916],[-124.0703,55.0916],[-124.0703,55.1083],[-124.0953,55.1083],[-124.0953,55.1041]]]},"properties":{"jurisdiction":"British Columbia","claim_id":512890,"claim_name":null,"holder":"THOMPSON CREEK METALS COMPANY INC.","status":"Mineral","recorded_date":"2005-05-18","anniversary_or_expiry":"2032-03-18","area_ha":296.12100000000004,"tenure_type":"Mineral","source":"BC MTA Mineral, Placer and Coal Tenure Spatial View (BCGW). Open Government Licence – British Columbia. Not legal title.","as_of":"2026-09-17","role":"focus","color":"#e8b040"}},{"type":"Feature","geometry":{"type":"Polygon","coordinates":[[[-124.0516,55.1749],[-124.0516,55.1666],[-124.0078,55.1666],[-124.0078,55.1708],[-124.0016,55.1708],[-124.0016,55.1791],[-124.0516,55.1791],[-124.0516,55.1749]]]},"properties":{"jurisdiction":"British Columbia","claim_id":512907,"claim_name":null,"holder":"THOMPSON CREEK METALS COMPANY INC.","status":"Mineral","recorded_date":"2005-05-18","anniversary_or_expiry":"2032-03-18","area_ha":424.903,"tenure_type":"Mineral","source":"BC MTA Mineral, Placer and Coal Tenure Spatial View (BCGW). Open Government Licence – British Columbia. Not legal title.","as_of":"2026-09-17","role":"focus","color":"#e8b040"}},{"type":"Feature","geometry":{"type":"Polygon","coordinates":[[[-123.9828,55.1708],[-123.9828,55.1499],[-123.9453,55.1499],[-123.9453,55.1749],[-123.9828,55.1749],[-123.9828,55.1708]]]},"properties":{"jurisdiction":"British Columbia","claim_id":512913,"claim_name":null,"holder":"THOMPSON CREEK METALS COMPANY INC.","status":"Mineral","recorded_date":"2005-05-18","anniversary_or_expiry":"2032-03-18","area_ha":665.236,"tenure_type":"Mineral","source":"BC MTA Mineral, Placer and Coal Tenure Spatial View (BCGW). Open Government Licence – British Columbia. Not legal title.","as_of":"2026-09-17","role":"focus","color":"#e8b040"}},{"type":"Feature","geometry":{"type":"Polygon","coordinates":[[[-124.0328,55.0916],[-124.0328,55.0791],[-123.9953,55.0791],[-123.9953,55.0958],[-124.0328,55.0958],[-124.0328,55.0916]]]},"properties":{"jurisdiction":"British Columbia","claim_id":512919,"claim_name":null,"holder":"THOMPSON CREEK METALS COMPANY INC.","status":"Mineral","recorded_date":"2005-05-18","anniversary_or_expiry":"2032-03-18","area_ha":444.319,"tenure_type":"Mineral","source":"BC MTA Mineral, Placer and Coal Tenure Spatial View (BCGW). Open Government Licence – British Columbia. Not legal title.","as_of":"2026-09-17","role":"focus","color":"#e8b040"}},{"type":"Feature","geometry":{"type":"Polygon","coordinates":[[[-123.9953,55.0916],[-123.9953,55.0791],[-123.9516,55.0791],[-123.9516,55.0958],[-123.9953,55.0958],[-123.9953,55.0916]]]},"properties":{"jurisdiction":"British Columbia","claim_id":512921,"claim_name":null,"holder":"THOMPSON CREEK METALS COMPANY INC.","status":"Mineral","recorded_date":"2005-05-18","anniversary_or_expiry":"2032-03-18","area_ha":518.369,"tenure_type":"Mineral","source":"BC MTA Mineral, Placer and Coal Tenure Spatial View (BCGW). Open Government Licence – British Columbia. Not legal title.","as_of":"2026-09-17","role":"focus","color":"#e8b040"}},{"type":"Feature","geometry":{"type":"Polygon","coordinates":[[[-123.9203,55.1874],[-123.9203,55.1791],[-123.8828,55.1791],[-123.8828,55.1916],[-123.9203,55.1916],[-123.9203,55.1874]]]},"properties":{"jurisdiction":"British Columbia","claim_id":512923,"claim_name":null,"holder":"THOMPSON CREEK METALS COMPANY INC.","status":"Mineral","recorded_date":"2005-05-18","anniversary_or_expiry":"2032-03-18","area_ha":332.428,"tenure_type":"Mineral","source":"BC MTA Mineral, Placer and Coal Tenure Spatial View (BCGW). Open Government Licence – British Columbia. Not legal title.","as_of":"2026-09-17","role":"focus","color":"#e8b040"}},{"type":"Feature","geometry":{"type":"Polygon","coordinates":[[[-123.9203,55.1749],[-123.9203,55.1541],[-123.8828,55.1541],[-123.8828,55.1791],[-123.9203,55.1791],[-123.9203,55.1749]]]},"properties":{"jurisdiction":"British Columbia","claim_id":512924,"claim_name":null,"holder":"THOMPSON CREEK METALS COMPANY INC.","status":"Mineral","recorded_date":"2005-05-18","anniversary_or_expiry":"2032-03-18","area_ha":665.1650000000001,"tenure_type":"Mineral","source":"BC MTA Mineral, Placer and Coal Tenure Spatial View (BCGW). Open Government Licence – British Columbia. Not legal title.","as_of":"2026-09-17","role":"focus","color":"#e8b040"}},{"type":"Feature","geometry":{"type":"Polygon","coordinates":[[[-123.9203,55.1374],[-123.9203,55.1333],[-123.9078,55.1333],[-123.9078,55.1416],[-123.9203,55.1416],[-123.9203,55.1374]]]},"properties":{"jurisdiction":"British Columbia","claim_id":512925,"claim_name":null,"holder":"THOMPSON CREEK METALS COMPANY INC.","status":"Mineral","recorded_date":"2005-05-18","anniversary_or_expiry":"2032-03-18","area_ha":73.961,"tenure_type":"Mineral","source":"BC MTA Mineral, Placer and Coal Tenure Spatial View (BCGW). Open Government Licence – British Columbia. Not legal title.","as_of":"2026-09-17","role":"focus","color":"#e8b040"}},{"type":"Feature","geometry":{"type":"Polygon","coordinates":[[[-123.9203,55.1499],[-123.9203,55.1416],[-123.9078,55.1416],[-123.9078,55.1374],[-123.8828,55.1374],[-123.8828,55.1541],[-123.9203,55.1541],[-123.9203,55.1499]]]},"properties":{"jurisdiction":"British Columbia","claim_id":512927,"claim_name":null,"holder":"THOMPSON CREEK METALS COMPANY INC.","status":"Mineral","recorded_date":"2005-05-18","anniversary_or_expiry":"2032-03-18","area_ha":406.695,"tenure_type":"Mineral","source":"BC MTA Mineral, Placer and Coal Tenure Spatial View (BCGW). Open Government Licence – British Columbia. Not legal title.","as_of":"2026-09-17","role":"focus","color":"#e8b040"}},{"type":"Feature","geometry":{"type":"Polygon","coordinates":[[[-123.9516,55.1791],[-123.9516,55.1749],[-123.9453,55.1749],[-123.9453,55.1583],[-123.9203,55.1583],[-123.9203,55.1833],[-123.9516,55.1833],[-123.9516,55.1791]]]},"properties":{"jurisdiction":"British Columbia","claim_id":512931,"claim_name":null,"holder":"THOMPSON CREEK METALS COMPANY INC.","status":"Mineral","recorded_date":"2005-05-18","anniversary_or_expiry":"2032-03-18","area_ha":480.341,"tenure_type":"Mineral","source":"BC MTA Mineral, Placer and Coal Tenure Spatial View (BCGW). Open Government Licence – British Columbia. Not legal title.","as_of":"2026-09-17","role":"focus","color":"#e8b040"}},{"type":"Feature","geometry":{"type":"Polygon","coordinates":[[[-123.9453,55.1874],[-123.9516,55.1874],[-123.9516,55.1833],[-123.9203,55.1833],[-123.9203,55.1874],[-123.9453,55.1874]]]},"properties":{"jurisdiction":"British Columbia","claim_id":512932,"claim_name":null,"holder":"THOMPSON CREEK METALS COMPANY INC.","status":"Mineral","recorded_date":"2005-05-18","anniversary_or_expiry":"2032-03-18","area_ha":92.34100000000001,"tenure_type":"Mineral","source":"BC MTA Mineral, Placer and Coal Tenure Spatial View (BCGW). Open Government Licence – British Columbia. Not legal title.","as_of":"2026-09-17","role":"focus","color":"#e8b040"}},{"type":"Feature","geometry":{"type":"Polygon","coordinates":[[[-123.8828,55.1874],[-123.8828,55.1749],[-123.8391,55.1749],[-123.8391,55.1916],[-123.8828,55.1916],[-123.8828,55.1874]]]},"properties":{"jurisdiction":"British Columbia","claim_id":512933,"claim_name":null,"holder":"THOMPSON CREEK METALS COMPANY INC.","status":"Mineral","recorded_date":"2005-05-18","anniversary_or_expiry":"2032-03-18","area_ha":517.134,"tenure_type":"Mineral","source":"BC MTA Mineral, Placer and Coal Tenure Spatial View (BCGW). Open Government Licence – British Columbia. Not legal title.","as_of":"2026-09-17","role":"focus","color":"#e8b040"}},{"type":"Feature","geometry":{"type":"Polygon","coordinates":[[[-123.8828,55.1708],[-123.8828,55.1541],[-123.8453,55.1541],[-123.8453,55.1749],[-123.8828,55.1749],[-123.8828,55.1708]]]},"properties":{"jurisdiction":"British Columbia","claim_id":512934,"claim_name":null,"holder":"THOMPSON CREEK METALS COMPANY INC.","status":"Mineral","recorded_date":"2005-05-18","anniversary_or_expiry":"2032-03-18","area_ha":554.332,"tenure_type":"Mineral","source":"BC MTA Mineral, Placer and Coal Tenure Spatial View (BCGW). Open Government Licence – British Columbia. Not legal title.","as_of":"2026-09-17","role":"focus","color":"#e8b040"}},{"type":"Feature","geometry":{"type":"Polygon","coordinates":[[[-123.8828,55.1499],[-123.8828,55.1374],[-123.8453,55.1374],[-123.8453,55.1541],[-123.8828,55.1541],[-123.8828,55.1499]]]},"properties":{"jurisdiction":"British Columbia","claim_id":512935,"claim_name":null,"holder":"THOMPSON CREEK METALS COMPANY INC.","status":"Mineral","recorded_date":"2005-05-18","anniversary_or_expiry":"2032-03-18","area_ha":443.673,"tenure_type":"Mineral","source":"BC MTA Mineral, Placer and Coal Tenure Spatial View (BCGW). Open Government Licence – British Columbia. Not legal title.","as_of":"2026-09-17","role":"focus","color":"#e8b040"}},{"type":"Feature","geometry":{"type":"Polygon","coordinates":[[[-123.7953,55.1708],[-123.7953,55.1583],[-123.7516,55.1583],[-123.7516,55.1749],[-123.7953,55.1749],[-123.7953,55.1708]]]},"properties":{"jurisdiction":"British Columbia","claim_id":512937,"claim_name":null,"holder":"THOMPSON CREEK METALS COMPANY INC.","status":"Mineral","recorded_date":"2005-05-18","anniversary_or_expiry":"2032-03-18","area_ha":517.346,"tenure_type":"Mineral","source":"BC MTA Mineral, Placer and Coal Tenure Spatial View (BCGW). Open Government Licence – British Columbia. Not legal title.","as_of":"2026-09-17","role":"focus","color":"#e8b040"}},{"type":"Feature","geometry":{"type":"Polygon","coordinates":[[[-123.8453,55.1541],[-123.8453,55.1374],[-123.8141,55.1374],[-123.8141,55.1583],[-123.8453,55.1583],[-123.8453,55.1541]]]},"properties":{"jurisdiction":"British Columbia","claim_id":512938,"claim_name":null,"holder":"THOMPSON CREEK METALS COMPANY INC.","status":"Mineral","recorded_date":"2005-05-18","anniversary_or_expiry":"2032-03-18","area_ha":462.136,"tenure_type":"Mineral","source":"BC MTA Mineral, Placer and Coal Tenure Spatial View (BCGW). Open Government Licence – British Columbia. Not legal title.","as_of":"2026-09-17","role":"focus","color":"#e8b040"}},{"type":"Feature","geometry":{"type":"Polygon","coordinates":[[[-123.8141,55.1541],[-123.8141,55.1374],[-123.7828,55.1374],[-123.7828,55.1583],[-123.8141,55.1583],[-123.8141,55.1541]]]},"properties":{"jurisdiction":"British Columbia","claim_id":512939,"claim_name":null,"holder":"THOMPSON CREEK METALS COMPANY INC.","status":"Mineral","recorded_date":"2005-05-18","anniversary_or_expiry":"2032-03-18","area_ha":462.13500000000005,"tenure_type":"Mineral","source":"BC MTA Mineral, Placer and Coal Tenure Spatial View (BCGW). Open Government Licence – British Columbia. Not legal title.","as_of":"2026-09-17","role":"focus","color":"#e8b040"}},{"type":"Feature","geometry":{"type":"Polygon","coordinates":[[[-123.7828,55.1541],[-123.7828,55.1374],[-123.7516,55.1374],[-123.7516,55.1583],[-123.7828,55.1583],[-123.7828,55.1541]]]},"properties":{"jurisdiction":"British Columbia","claim_id":512940,"claim_name":null,"holder":"THOMPSON CREEK METALS COMPANY INC.","status":"Mineral","recorded_date":"2005-05-18","anniversary_or_expiry":"2032-03-18","area_ha":462.134,"tenure_type":"Mineral","source":"BC MTA Mineral, Placer and Coal Tenure Spatial View (BCGW). Open Government Licence – British Columbia. Not legal title.","as_of":"2026-09-17","role":"focus","color":"#e8b040"}},{"type":"Feature","geometry":{"type":"Polygon","coordinates":[[[-123.8203,55.1333],[-123.8203,55.1124],[-123.7828,55.1124],[-123.7828,55.1374],[-123.8203,55.1374],[-123.8203,55.1333]]]},"properties":{"jurisdiction":"British Columbia","claim_id":512941,"claim_name":null,"holder":"THOMPSON CREEK METALS COMPANY INC.","status":"Mineral","recorded_date":"2005-05-18","anniversary_or_expiry":"2032-03-18","area_ha":665.851,"tenure_type":"Mineral","source":"BC MTA Mineral, Placer and Coal Tenure Spatial View (BCGW). Open Government Licence – British Columbia. Not legal title.","as_of":"2026-09-17","role":"focus","color":"#e8b040"}},{"type":"Feature","geometry":{"type":"Polygon","coordinates":[[[-123.8141,55.1083],[-123.8141,55.1041],[-123.7516,55.1041],[-123.7516,55.1124],[-123.8141,55.1124],[-123.8141,55.1083]]]},"properties":{"jurisdiction":"British Columbia","claim_id":512943,"claim_name":null,"holder":"THOMPSON CREEK METALS COMPANY INC.","status":"Mineral","recorded_date":"2005-05-18","anniversary_or_expiry":"2032-03-18","area_ha":370.069,"tenure_type":"Mineral","source":"BC MTA Mineral, Placer and Coal Tenure Spatial View (BCGW). Open Government Licence – British Columbia. Not legal title.","as_of":"2026-09-17","role":"focus","color":"#e8b040"}},{"type":"Feature","geometry":{"type":"Polygon","coordinates":[[[-123.7516,55.1374],[-123.7516,55.1208],[-123.7266,55.1208],[-123.7266,55.1416],[-123.7516,55.1416],[-123.7516,55.1374]]]},"properties":{"jurisdiction":"British Columbia","claim_id":512944,"claim_name":null,"holder":"THOMPSON CREEK METALS COMPANY INC.","status":"Mineral","recorded_date":"2005-05-18","anniversary_or_expiry":"2032-03-18","area_ha":369.861,"tenure_type":"Mineral","source":"BC MTA Mineral, Placer and Coal Tenure Spatial View (BCGW). Open Government Licence – British Columbia. Not legal title.","as_of":"2026-09-17","role":"focus","color":"#e8b040"}},{"type":"Feature","geometry":{"type":"Polygon","coordinates":[[[-123.7266,55.1374],[-123.7266,55.1208],[-123.6953,55.1208],[-123.6953,55.1416],[-123.7266,55.1416],[-123.7266,55.1374]]]},"properties":{"jurisdiction":"British Columbia","claim_id":512945,"claim_name":null,"holder":"THOMPSON CREEK METALS COMPANY INC.","status":"Mineral","recorded_date":"2005-05-18","anniversary_or_expiry":"2032-03-18","area_ha":462.324,"tenure_type":"Mineral","source":"BC MTA Mineral, Placer and Coal Tenure Spatial View (BCGW). Open Government Licence – British Columbia. Not legal title.","as_of":"2026-09-17","role":"focus","color":"#e8b040"}},{"type":"Feature","geometry":{"type":"Polygon","coordinates":[[[-123.8641,55.1374],[-123.8703,55.1374],[-123.8703,55.1333],[-123.8266,55.1333],[-123.8266,55.1208],[-123.8203,55.1208],[-123.8203,55.1374],[-123.8641,55.1374]]]},"properties":{"jurisdiction":"British Columbia","claim_id":512960,"claim_name":null,"holder":"THOMPSON CREEK METALS COMPANY INC.","status":"Mineral","recorded_date":"2005-05-18","anniversary_or_expiry":"2032-03-18","area_ha":203.41400000000002,"tenure_type":"Mineral","source":"BC MTA Mineral, Placer and Coal Tenure Spatial View (BCGW). Open Government Licence – British Columbia. Not legal title.","as_of":"2026-09-17","role":"focus","color":"#e8b040"}},{"type":"Feature","geometry":{"type":"Polygon","coordinates":[[[-125.0391,54.0458],[-125.0391,54.0416],[-125.0204,54.0416],[-125.0204,54.0458],[-125.0079,54.0458],[-125.0079,54.0499],[-125.0391,54.0499],[-125.0391,54.0458]]]},"properties":{"jurisdiction":"British Columbia","claim_id":507165,"claim_name":null,"holder":"THOMPSON CREEK METALS COMPANY INC.","status":"Mineral","recorded_date":"2005-02-15","anniversary_or_expiry":"2029-12-11","area_ha":151.905,"tenure_type":"Mineral","source":"BC MTA Mineral, Placer and Coal Tenure Spatial View (BCGW). Open Government Licence – British Columbia. Not legal title.","as_of":"2026-09-17","role":"focus","color":"#e8b040"}},{"type":"Feature","geometry":{"type":"Polygon","coordinates":[[[-125.0391,54.0374],[-125.0391,54.0333],[-125.0266,54.0333],[-125.0266,54.0416],[-125.0391,54.0416],[-125.0391,54.0374]]]},"properties":{"jurisdiction":"British Columbia","claim_id":507191,"claim_name":null,"holder":"THOMPSON CREEK METALS COMPANY INC.","status":"Mineral","recorded_date":"2005-02-15","anniversary_or_expiry":"2029-12-11","area_ha":75.968,"tenure_type":"Mineral","source":"BC MTA Mineral, Placer and Coal Tenure Spatial View (BCGW). Open Government Licence – British Columbia. Not legal title.","as_of":"2026-09-17","role":"focus","color":"#e8b040"}},{"type":"Feature","geometry":{"type":"Polygon","coordinates":[[[-125.2079,54.0583],[-125.2079,54.0499],[-125.1766,54.0499],[-125.1766,54.0583],[-125.1891,54.0583],[-125.1891,54.0624],[-125.2079,54.0624],[-125.2079,54.0583]]]},"properties":{"jurisdiction":"British Columbia","claim_id":507228,"claim_name":null,"holder":"THOMPSON CREEK METALS COMPANY INC.","status":"Mineral","recorded_date":"2005-02-15","anniversary_or_expiry":"2029-12-11","area_ha":246.781,"tenure_type":"Mineral","source":"BC MTA Mineral, Placer and Coal Tenure Spatial View (BCGW). Open Government Licence – British Columbia. Not legal title.","as_of":"2026-09-17","role":"focus","color":"#e8b040"}},{"type":"Feature","geometry":{"type":"Polygon","coordinates":[[[-125.0579,54.0624],[-125.0641,54.0624],[-125.0641,54.0583],[-125.0391,54.0583],[-125.0391,54.0499],[-125.0016,54.0499],[-125.0016,54.0583],[-125.0079,54.0583],[-125.0079,54.0624],[-125.0579,54.0624]]]},"properties":{"jurisdiction":"British Columbia","claim_id":507246,"claim_name":null,"holder":"THOMPSON CREEK METALS COMPANY INC.","status":"Mineral","recorded_date":"2005-02-15","anniversary_or_expiry":"2029-12-11","area_ha":398.653,"tenure_type":"Mineral","source":"BC MTA Mineral, Placer and Coal Tenure Spatial View (BCGW). Open Government Licence – British Columbia. Not legal title.","as_of":"2026-09-17","role":"focus","color":"#e8b040"}},{"type":"Feature","geometry":{"type":"Polygon","coordinates":[[[-125.2329,54.0833],[-125.2329,54.0708],[-125.2266,54.0708],[-125.2266,54.0624],[-125.2141,54.0624],[-125.2141,54.0541],[-125.2079,54.0541],[-125.2079,54.0624],[-125.1891,54.0624],[-125.1891,54.0749],[-125.1829,54.0749],[-125.1829,54.0874],[-125.2016,54.0874],[-125.2016,54.0833],[-125.2079,54.0833],[-125.2079,54.0874],[-125.2329,54.0874],[-125.2329,54.0833]]]},"properties":{"jurisdiction":"British Columbia","claim_id":507250,"claim_name":null,"holder":"THOMPSON CREEK METALS COMPANY INC.","status":"Mineral","recorded_date":"2005-02-15","anniversary_or_expiry":"2029-12-11","area_ha":834.8770000000001,"tenure_type":"Mineral","source":"BC MTA Mineral, Placer and Coal Tenure Spatial View (BCGW). Open Government Licence – British Columbia. Not legal title.","as_of":"2026-09-17","role":"focus","color":"#e8b040"}},{"type":"Feature","geometry":{"type":"Polygon","coordinates":[[[-125.1829,54.0458],[-125.1829,54.0416],[-125.1766,54.0416],[-125.1766,54.0374],[-125.1704,54.0374],[-125.1704,54.0583],[-125.1766,54.0583],[-125.1766,54.0499],[-125.1829,54.0499],[-125.1829,54.0458]]]},"properties":{"jurisdiction":"British Columbia","claim_id":507253,"claim_name":null,"holder":"THOMPSON CREEK METALS COMPANY INC.","status":"Mineral","recorded_date":"2005-02-15","anniversary_or_expiry":"2029-12-11","area_ha":132.91,"tenure_type":"Mineral","source":"BC MTA Mineral, Placer and Coal Tenure Spatial View (BCGW). Open Government Licence – British Columbia. Not legal title.","as_of":"2026-09-17","role":"focus","color":"#e8b040"}},{"type":"Feature","geometry":{"type":"Polygon","coordinates":[[[-125.1516,54.0708],[-125.1579,54.0708],[-125.1579,54.0666],[-125.1454,54.0666],[-125.1454,54.0708],[-125.1516,54.0708]]]},"properties":{"jurisdiction":"British Columbia","claim_id":507254,"claim_name":null,"holder":"THOMPSON CREEK METALS COMPANY INC.","status":"Mineral","recorded_date":"2005-02-15","anniversary_or_expiry":"2031-02-15","area_ha":37.956,"tenure_type":"Mineral","source":"BC MTA Mineral, Placer and Coal Tenure Spatial View (BCGW). Open Government Licence – British Columbia. Not legal title.","as_of":"2026-09-17","role":"focus","color":"#e8b040"}},{"type":"Feature","geometry":{"type":"Polygon","coordinates":[[[-125.1391,54.0749],[-125.1391,54.0666],[-125.1329,54.0666],[-125.1329,54.0624],[-125.1079,54.0624],[-125.1079,54.0666],[-125.0704,54.0666],[-125.0704,54.0791],[-125.0829,54.0791],[-125.0829,54.0833],[-125.1204,54.0833],[-125.1204,54.0791],[-125.1391,54.0791],[-125.1391,54.0749]]]},"properties":{"jurisdiction":"British Columbia","claim_id":507269,"claim_name":null,"holder":"THOMPSON CREEK METALS COMPANY INC.","status":"Mineral","recorded_date":"2005-02-15","anniversary_or_expiry":"2029-12-11","area_ha":815.9730000000001,"tenure_type":"Mineral","source":"BC MTA Mineral, Placer and Coal Tenure Spatial View (BCGW). Open Government Licence – British Columbia. Not legal title.","as_of":"2026-09-17","role":"focus","color":"#e8b040"}},{"type":"Feature","geometry":{"type":"Polygon","coordinates":[[[-123.9078,55.1333],[-123.9078,55.1208],[-123.8828,55.1208],[-123.8828,55.1333],[-123.8703,55.1333],[-123.8703,55.1374],[-123.9078,55.1374],[-123.9078,55.1333]]]},"properties":{"jurisdiction":"British Columbia","claim_id":521164,"claim_name":"MILL 1","holder":"THOMPSON CREEK METALS COMPANY INC.","status":"Mineral","recorded_date":"2005-10-14","anniversary_or_expiry":"2032-03-18","area_ha":332.887,"tenure_type":"Mineral","source":"BC MTA Mineral, Placer and Coal Tenure Spatial View (BCGW). Open Government Licence – British Columbia. Not legal title.","as_of":"2026-09-17","role":"focus","color":"#e8b040"}},{"type":"Feature","geometry":{"type":"Polygon","coordinates":[[[-123.9453,55.1291],[-123.9453,55.1166],[-123.9078,55.1166],[-123.9078,55.1333],[-123.9453,55.1333],[-123.9453,55.1291]]]},"properties":{"jurisdiction":"British Columbia","claim_id":521165,"claim_name":"MILL 2","holder":"THOMPSON CREEK METALS COMPANY INC.","status":"Mineral","recorded_date":"2005-10-14","anniversary_or_expiry":"2032-03-18","area_ha":443.90500000000003,"tenure_type":"Mineral","source":"BC MTA Mineral, Placer and Coal Tenure Spatial View (BCGW). Open Government Licence – British Columbia. Not legal title.","as_of":"2026-09-17","role":"focus","color":"#e8b040"}},{"type":"Feature","geometry":{"type":"Polygon","coordinates":[[[-123.9453,55.1124],[-123.9453,55.0999],[-123.9078,55.0999],[-123.9078,55.1166],[-123.9453,55.1166],[-123.9453,55.1124]]]},"properties":{"jurisdiction":"British Columbia","claim_id":521177,"claim_name":"MILL 3","holder":"THOMPSON CREEK METALS COMPANY INC.","status":"Mineral","recorded_date":"2005-10-14","anniversary_or_expiry":"2032-03-18","area_ha":444.089,"tenure_type":"Mineral","source":"BC MTA Mineral, Placer and Coal Tenure Spatial View (BCGW). Open Government Licence – British Columbia. Not legal title.","as_of":"2026-09-17","role":"focus","color":"#e8b040"}},{"type":"Feature","geometry":{"type":"Polygon","coordinates":[[[-123.9078,55.1166],[-123.9078,55.0999],[-123.8891,55.0999],[-123.8891,55.1208],[-123.9078,55.1208],[-123.9078,55.1166]]]},"properties":{"jurisdiction":"British Columbia","claim_id":521178,"claim_name":"MILL 4","holder":"THOMPSON CREEK METALS COMPANY INC.","status":"Mineral","recorded_date":"2005-10-14","anniversary_or_expiry":"2032-03-18","area_ha":277.539,"tenure_type":"Mineral","source":"BC MTA Mineral, Placer and Coal Tenure Spatial View (BCGW). Open Government Licence – British Columbia. Not legal title.","as_of":"2026-09-17","role":"focus","color":"#e8b040"}},{"type":"Feature","geometry":{"type":"Polygon","coordinates":[[[-123.8891,55.0999],[-123.8891,55.0833],[-123.8578,55.0833],[-123.8578,55.1041],[-123.8891,55.1041],[-123.8891,55.0999]]]},"properties":{"jurisdiction":"British Columbia","claim_id":521179,"claim_name":"MILL 5","holder":"THOMPSON CREEK METALS COMPANY INC.","status":"Mineral","recorded_date":"2005-10-14","anniversary_or_expiry":"2032-03-18","area_ha":462.75600000000003,"tenure_type":"Mineral","source":"BC MTA Mineral, Placer and Coal Tenure Spatial View (BCGW). Open Government Licence – British Columbia. Not legal title.","as_of":"2026-09-17","role":"focus","color":"#e8b040"}},{"type":"Feature","geometry":{"type":"Polygon","coordinates":[[[-123.9203,55.0958],[-123.9203,55.0833],[-123.8891,55.0833],[-123.8891,55.0999],[-123.9203,55.0999],[-123.9203,55.0958]]]},"properties":{"jurisdiction":"British Columbia","claim_id":521180,"claim_name":"MILL 6","holder":"THOMPSON CREEK METALS COMPANY INC.","status":"Mineral","recorded_date":"2005-10-14","anniversary_or_expiry":"2032-03-18","area_ha":370.225,"tenure_type":"Mineral","source":"BC MTA Mineral, Placer and Coal Tenure Spatial View (BCGW). Open Government Licence – British Columbia. Not legal title.","as_of":"2026-09-17","role":"focus","color":"#e8b040"}},{"type":"Feature","geometry":{"type":"Polygon","coordinates":[[[-123.9516,55.0916],[-123.9516,55.0833],[-123.9203,55.0833],[-123.9203,55.0999],[-123.9453,55.0999],[-123.9453,55.0958],[-123.9516,55.0958],[-123.9516,55.0916]]]},"properties":{"jurisdiction":"British Columbia","claim_id":521181,"claim_name":"MILL 7","holder":"THOMPSON CREEK METALS COMPANY INC.","status":"Mineral","recorded_date":"2005-10-14","anniversary_or_expiry":"2032-03-18","area_ha":351.719,"tenure_type":"Mineral","source":"BC MTA Mineral, Placer and Coal Tenure Spatial View (BCGW). Open Government Licence – British Columbia. Not legal title.","as_of":"2026-09-17","role":"focus","color":"#e8b040"}},{"type":"Feature","geometry":{"type":"Polygon","coordinates":[[[-123.8953,55.0791],[-123.8953,55.0666],[-123.8578,55.0666],[-123.8578,55.0833],[-123.8953,55.0833],[-123.8953,55.0791]]]},"properties":{"jurisdiction":"British Columbia","claim_id":521182,"claim_name":"MILL 8","holder":"THOMPSON CREEK METALS COMPANY INC.","status":"Mineral","recorded_date":"2005-10-14","anniversary_or_expiry":"2032-03-18","area_ha":444.449,"tenure_type":"Mineral","source":"BC MTA Mineral, Placer and Coal Tenure Spatial View (BCGW). Open Government Licence – British Columbia. Not legal title.","as_of":"2026-09-17","role":"focus","color":"#e8b040"}},{"type":"Feature","geometry":{"type":"Polygon","coordinates":[[[-123.9266,55.0791],[-123.9266,55.0666],[-123.8953,55.0666],[-123.8953,55.0833],[-123.9266,55.0833],[-123.9266,55.0791]]]},"properties":{"jurisdiction":"British Columbia","claim_id":521183,"claim_name":"MILL 9","holder":"THOMPSON CREEK METALS COMPANY INC.","status":"Mineral","recorded_date":"2005-10-14","anniversary_or_expiry":"2032-03-18","area_ha":370.374,"tenure_type":"Mineral","source":"BC MTA Mineral, Placer and Coal Tenure Spatial View (BCGW). Open Government Licence – British Columbia. Not legal title.","as_of":"2026-09-17","role":"focus","color":"#e8b040"}},{"type":"Feature","geometry":{"type":"Polygon","coordinates":[[[-123.9516,55.0791],[-123.9516,55.0666],[-123.9266,55.0666],[-123.9266,55.0833],[-123.9516,55.0833],[-123.9516,55.0791]]]},"properties":{"jurisdiction":"British Columbia","claim_id":521184,"claim_name":"MILL10","holder":"THOMPSON CREEK METALS COMPANY INC.","status":"Mineral","recorded_date":"2005-10-14","anniversary_or_expiry":"2032-03-18","area_ha":296.301,"tenure_type":"Mineral","source":"BC MTA Mineral, Placer and Coal Tenure Spatial View (BCGW). Open Government Licence – British Columbia. Not legal title.","as_of":"2026-09-17","role":"focus","color":"#e8b040"}},{"type":"Feature","geometry":{"type":"Polygon","coordinates":[[[-124.0016,55.0749],[-124.0016,55.0666],[-123.9516,55.0666],[-123.9516,55.0791],[-124.0016,55.0791],[-124.0016,55.0749]]]},"properties":{"jurisdiction":"British Columbia","claim_id":521185,"claim_name":"MILL 11","holder":"THOMPSON CREEK METALS COMPANY INC.","status":"Mineral","recorded_date":"2005-10-14","anniversary_or_expiry":"2032-03-18","area_ha":444.471,"tenure_type":"Mineral","source":"BC MTA Mineral, Placer and Coal Tenure Spatial View (BCGW). Open Government Licence – British Columbia. Not legal title.","as_of":"2026-09-17","role":"focus","color":"#e8b040"}},{"type":"Feature","geometry":{"type":"Polygon","coordinates":[[[-124.0391,55.0749],[-124.0391,55.0624],[-124.0016,55.0624],[-124.0016,55.0791],[-124.0391,55.0791],[-124.0391,55.0749]]]},"properties":{"jurisdiction":"British Columbia","claim_id":521186,"claim_name":"MILL 12","holder":"THOMPSON CREEK METALS COMPANY INC.","status":"Mineral","recorded_date":"2005-10-14","anniversary_or_expiry":"2032-03-18","area_ha":444.49600000000004,"tenure_type":"Mineral","source":"BC MTA Mineral, Placer and Coal Tenure Spatial View (BCGW). Open Government Licence – British Columbia. Not legal title.","as_of":"2026-09-17","role":"focus","color":"#e8b040"}},{"type":"Feature","geometry":{"type":"Polygon","coordinates":[[[-124.0391,55.0583],[-124.0391,55.0499],[-123.9953,55.0499],[-123.9953,55.0666],[-124.0016,55.0666],[-124.0016,55.0624],[-124.0391,55.0624],[-124.0391,55.0583]]]},"properties":{"jurisdiction":"British Columbia","claim_id":521187,"claim_name":"MILL 13","holder":"THOMPSON CREEK METALS COMPANY INC.","status":"Mineral","recorded_date":"2005-10-14","anniversary_or_expiry":"2032-03-18","area_ha":407.598,"tenure_type":"Mineral","source":"BC MTA Mineral, Placer and Coal Tenure Spatial View (BCGW). Open Government Licence – British Columbia. Not legal title.","as_of":"2026-09-17","role":"focus","color":"#e8b040"}},{"type":"Feature","geometry":{"type":"Polygon","coordinates":[[[-124.0703,55.0541],[-124.0703,55.0291],[-124.0578,55.0291],[-124.0578,55.0499],[-124.0391,55.0499],[-124.0391,55.0583],[-124.0703,55.0583],[-124.0703,55.0541]]]},"properties":{"jurisdiction":"British Columbia","claim_id":521189,"claim_name":"MILL 14","holder":"THOMPSON CREEK METALS COMPANY INC.","status":"Mineral","recorded_date":"2005-10-14","anniversary_or_expiry":"2032-03-18","area_ha":370.632,"tenure_type":"Mineral","source":"BC MTA Mineral, Placer and Coal Tenure Spatial View (BCGW). Open Government Licence – British Columbia. Not legal title.","as_of":"2026-09-17","role":"focus","color":"#e8b040"}},{"type":"Feature","geometry":{"type":"Polygon","coordinates":[[[-124.1016,55.0749],[-124.1016,55.0583],[-124.0703,55.0583],[-124.0703,55.0791],[-124.1016,55.0791],[-124.1016,55.0749]]]},"properties":{"jurisdiction":"British Columbia","claim_id":521190,"claim_name":"MILL 15","holder":"THOMPSON CREEK METALS COMPANY INC.","status":"Mineral","recorded_date":"2005-10-14","anniversary_or_expiry":"2032-03-18","area_ha":463.03700000000003,"tenure_type":"Mineral","source":"BC MTA Mineral, Placer and Coal Tenure Spatial View (BCGW). Open Government Licence – British Columbia. Not legal title.","as_of":"2026-09-17","role":"focus","color":"#e8b040"}},{"type":"Feature","geometry":{"type":"Polygon","coordinates":[[[-124.1329,55.0749],[-124.1329,55.0583],[-124.1016,55.0583],[-124.1016,55.0791],[-124.1329,55.0791],[-124.1329,55.0749]]]},"properties":{"jurisdiction":"British Columbia","claim_id":521191,"claim_name":"MILL 16","holder":"THOMPSON CREEK METALS COMPANY INC.","status":"Mineral","recorded_date":"2005-10-14","anniversary_or_expiry":"2032-03-18","area_ha":463.038,"tenure_type":"Mineral","source":"BC MTA Mineral, Placer and Coal Tenure Spatial View (BCGW). Open Government Licence – British Columbia. Not legal title.","as_of":"2026-09-17","role":"focus","color":"#e8b040"}},{"type":"Feature","geometry":{"type":"Polygon","coordinates":[[[-124.1579,55.0749],[-124.1579,55.0583],[-124.1329,55.0583],[-124.1329,55.0791],[-124.1579,55.0791],[-124.1579,55.0749]]]},"properties":{"jurisdiction":"British Columbia","claim_id":521192,"claim_name":"MILL 17","holder":"THOMPSON CREEK METALS COMPANY INC.","status":"Mineral","recorded_date":"2005-10-14","anniversary_or_expiry":"2032-03-18","area_ha":370.43100000000004,"tenure_type":"Mineral","source":"BC MTA Mineral, Placer and Coal Tenure Spatial View (BCGW). Open Government Licence – British Columbia. Not legal title.","as_of":"2026-09-17","role":"focus","color":"#e8b040"}},{"type":"Feature","geometry":{"type":"Polygon","coordinates":[[[-124.1579,55.0541],[-124.1579,55.0374],[-124.1329,55.0374],[-124.1329,55.0583],[-124.1579,55.0583],[-124.1579,55.0541]]]},"properties":{"jurisdiction":"British Columbia","claim_id":521193,"claim_name":"MILL 18","holder":"THOMPSON CREEK METALS COMPANY INC.","status":"Mineral","recorded_date":"2005-10-14","anniversary_or_expiry":"2032-03-18","area_ha":370.62100000000004,"tenure_type":"Mineral","source":"BC MTA Mineral, Placer and Coal Tenure Spatial View (BCGW). Open Government Licence – British Columbia. Not legal title.","as_of":"2026-09-17","role":"focus","color":"#e8b040"}},{"type":"Feature","geometry":{"type":"Polygon","coordinates":[[[-124.1329,55.0541],[-124.1329,55.0374],[-124.1016,55.0374],[-124.1016,55.0583],[-124.1329,55.0583],[-124.1329,55.0541]]]},"properties":{"jurisdiction":"British Columbia","claim_id":521194,"claim_name":"MILL 19","holder":"THOMPSON CREEK METALS COMPANY INC.","status":"Mineral","recorded_date":"2005-10-14","anniversary_or_expiry":"2032-03-18","area_ha":463.276,"tenure_type":"Mineral","source":"BC MTA Mineral, Placer and Coal Tenure Spatial View (BCGW). Open Government Licence – British Columbia. Not legal title.","as_of":"2026-09-17","role":"focus","color":"#e8b040"}},{"type":"Feature","geometry":{"type":"Polygon","coordinates":[[[-124.1016,55.0541],[-124.1016,55.0374],[-124.0703,55.0374],[-124.0703,55.0583],[-124.1016,55.0583],[-124.1016,55.0541]]]},"properties":{"jurisdiction":"British Columbia","claim_id":521195,"claim_name":"MILL 20","holder":"THOMPSON CREEK METALS COMPANY INC.","status":"Mineral","recorded_date":"2005-10-14","anniversary_or_expiry":"2032-03-18","area_ha":463.276,"tenure_type":"Mineral","source":"BC MTA Mineral, Placer and Coal Tenure Spatial View (BCGW). Open Government Licence – British Columbia. Not legal title.","as_of":"2026-09-17","role":"focus","color":"#e8b040"}},{"type":"Feature","geometry":{"type":"Polygon","coordinates":[[[-123.9953,55.0624],[-123.9953,55.0499],[-123.9578,55.0499],[-123.9578,55.0666],[-123.9953,55.0666],[-123.9953,55.0624]]]},"properties":{"jurisdiction":"British Columbia","claim_id":521196,"claim_name":"MILL 21","holder":"THOMPSON CREEK METALS COMPANY INC.","status":"Mineral","recorded_date":"2005-10-14","anniversary_or_expiry":"2032-03-18","area_ha":444.632,"tenure_type":"Mineral","source":"BC MTA Mineral, Placer and Coal Tenure Spatial View (BCGW). Open Government Licence – British Columbia. Not legal title.","as_of":"2026-09-17","role":"focus","color":"#e8b040"}},{"type":"Feature","geometry":{"type":"Polygon","coordinates":[[[-123.9578,55.0624],[-123.9578,55.0499],[-123.9203,55.0499],[-123.9203,55.0666],[-123.9578,55.0666],[-123.9578,55.0624]]]},"properties":{"jurisdiction":"British Columbia","claim_id":521197,"claim_name":"MILL 22","holder":"THOMPSON CREEK METALS COMPANY INC.","status":"Mineral","recorded_date":"2005-10-14","anniversary_or_expiry":"2032-03-18","area_ha":444.63500000000005,"tenure_type":"Mineral","source":"BC MTA Mineral, Placer and Coal Tenure Spatial View (BCGW). Open Government Licence – British Columbia. Not legal title.","as_of":"2026-09-17","role":"focus","color":"#e8b040"}},{"type":"Feature","geometry":{"type":"Polygon","coordinates":[[[-124.0266,55.0458],[-124.0266,55.0291],[-123.9953,55.0291],[-123.9953,55.0499],[-124.0266,55.0499],[-124.0266,55.0458]]]},"properties":{"jurisdiction":"British Columbia","claim_id":521198,"claim_name":"MILL 23","holder":"THOMPSON CREEK METALS COMPANY INC.","status":"Mineral","recorded_date":"2005-10-14","anniversary_or_expiry":"2032-03-18","area_ha":463.375,"tenure_type":"Mineral","source":"BC MTA Mineral, Placer and Coal Tenure Spatial View (BCGW). Open Government Licence – British Columbia. Not legal title.","as_of":"2026-09-17","role":"focus","color":"#e8b040"}},{"type":"Feature","geometry":{"type":"Polygon","coordinates":[[[-123.9953,55.0458],[-123.9953,55.0291],[-123.9641,55.0291],[-123.9641,55.0499],[-123.9953,55.0499],[-123.9953,55.0458]]]},"properties":{"jurisdiction":"British Columbia","claim_id":521199,"claim_name":"MILL 24","holder":"THOMPSON CREEK METALS COMPANY INC.","status":"Mineral","recorded_date":"2005-10-14","anniversary_or_expiry":"2032-03-18","area_ha":463.374,"tenure_type":"Mineral","source":"BC MTA Mineral, Placer and Coal Tenure Spatial View (BCGW). Open Government Licence – British Columbia. Not legal title.","as_of":"2026-09-17","role":"focus","color":"#e8b040"}},{"type":"Feature","geometry":{"type":"Polygon","coordinates":[[[-123.9641,55.0458],[-123.9641,55.0291],[-123.9328,55.0291],[-123.9328,55.0499],[-123.9641,55.0499],[-123.9641,55.0458]]]},"properties":{"jurisdiction":"British Columbia","claim_id":521200,"claim_name":"MILL 25","holder":"THOMPSON CREEK METALS COMPANY INC.","status":"Mineral","recorded_date":"2005-10-14","anniversary_or_expiry":"2032-03-18","area_ha":463.377,"tenure_type":"Mineral","source":"BC MTA Mineral, Placer and Coal Tenure Spatial View (BCGW). Open Government Licence – British Columbia. Not legal title.","as_of":"2026-09-17","role":"focus","color":"#e8b040"}},{"type":"Feature","geometry":{"type":"Polygon","coordinates":[[[-123.9328,55.0458],[-123.9328,55.0291],[-123.9203,55.0291],[-123.9203,55.0499],[-123.9328,55.0499],[-123.9328,55.0458]]]},"properties":{"jurisdiction":"British Columbia","claim_id":521201,"claim_name":"MILL 26","holder":"THOMPSON CREEK METALS COMPANY INC.","status":"Mineral","recorded_date":"2005-10-14","anniversary_or_expiry":"2032-03-18","area_ha":185.351,"tenure_type":"Mineral","source":"BC MTA Mineral, Placer and Coal Tenure Spatial View (BCGW). Open Government Licence – British Columbia. Not legal title.","as_of":"2026-09-17","role":"focus","color":"#e8b040"}},{"type":"Feature","geometry":{"type":"Polygon","coordinates":[[[-124.0703,55.0249],[-124.0703,55.0124],[-124.0328,55.0124],[-124.0328,55.0291],[-124.0703,55.0291],[-124.0703,55.0249]]]},"properties":{"jurisdiction":"British Columbia","claim_id":521202,"claim_name":"MILL 27","holder":"THOMPSON CREEK METALS COMPANY INC.","status":"Mineral","recorded_date":"2005-10-14","anniversary_or_expiry":"2032-03-18","area_ha":445.045,"tenure_type":"Mineral","source":"BC MTA Mineral, Placer and Coal Tenure Spatial View (BCGW). Open Government Licence – British Columbia. Not legal title.","as_of":"2026-09-17","role":"focus","color":"#e8b040"}},{"type":"Feature","geometry":{"type":"Polygon","coordinates":[[[-124.0328,55.0249],[-124.0328,55.0124],[-123.9953,55.0124],[-123.9953,55.0291],[-124.0328,55.0291],[-124.0328,55.0249]]]},"properties":{"jurisdiction":"British Columbia","claim_id":521203,"claim_name":"MILL 28","holder":"THOMPSON CREEK METALS COMPANY INC.","status":"Mineral","recorded_date":"2005-10-14","anniversary_or_expiry":"2032-03-18","area_ha":445.047,"tenure_type":"Mineral","source":"BC MTA Mineral, Placer and Coal Tenure Spatial View (BCGW). Open Government Licence – British Columbia. Not legal title.","as_of":"2026-09-17","role":"focus","color":"#e8b040"}},{"type":"Feature","geometry":{"type":"Polygon","coordinates":[[[-123.9953,55.0249],[-123.9953,55.0124],[-123.9578,55.0124],[-123.9578,55.0291],[-123.9953,55.0291],[-123.9953,55.0249]]]},"properties":{"jurisdiction":"British Columbia","claim_id":521204,"claim_name":"MILL 29","holder":"THOMPSON CREEK METALS COMPANY INC.","status":"Mineral","recorded_date":"2005-10-14","anniversary_or_expiry":"2032-03-18","area_ha":445.047,"tenure_type":"Mineral","source":"BC MTA Mineral, Placer and Coal Tenure Spatial View (BCGW). Open Government Licence – British Columbia. Not legal title.","as_of":"2026-09-17","role":"focus","color":"#e8b040"}},{"type":"Feature","geometry":{"type":"Polygon","coordinates":[[[-123.9578,55.0249],[-123.9578,55.0124],[-123.9203,55.0124],[-123.9203,55.0291],[-123.9578,55.0291],[-123.9578,55.0249]]]},"properties":{"jurisdiction":"British Columbia","claim_id":521205,"claim_name":"MILL 30","holder":"THOMPSON CREEK METALS COMPANY INC.","status":"Mineral","recorded_date":"2005-10-14","anniversary_or_expiry":"2032-03-18","area_ha":445.04900000000004,"tenure_type":"Mineral","source":"BC MTA Mineral, Placer and Coal Tenure Spatial View (BCGW). Open Government Licence – British Columbia. Not legal title.","as_of":"2026-09-17","role":"focus","color":"#e8b040"}},{"type":"Feature","geometry":{"type":"Polygon","coordinates":[[[-123.9203,55.0291],[-123.9203,55.0124],[-123.8891,55.0124],[-123.8891,55.0333],[-123.9203,55.0333],[-123.9203,55.0291]]]},"properties":{"jurisdiction":"British Columbia","claim_id":521206,"claim_name":"MILL 31","holder":"THOMPSON CREEK METALS COMPANY INC.","status":"Mineral","recorded_date":"2005-10-14","anniversary_or_expiry":"2032-03-18","area_ha":463.565,"tenure_type":"Mineral","source":"BC MTA Mineral, Placer and Coal Tenure Spatial View (BCGW). Open Government Licence – British Columbia. Not legal title.","as_of":"2026-09-17","role":"focus","color":"#e8b040"}},{"type":"Feature","geometry":{"type":"Polygon","coordinates":[[[-123.8891,55.0291],[-123.8891,55.0124],[-123.8641,55.0124],[-123.8641,55.0333],[-123.8891,55.0333],[-123.8891,55.0291]]]},"properties":{"jurisdiction":"British Columbia","claim_id":521207,"claim_name":"MILL 32","holder":"THOMPSON CREEK METALS COMPANY INC.","status":"Mineral","recorded_date":"2005-10-14","anniversary_or_expiry":"2032-03-18","area_ha":370.85200000000003,"tenure_type":"Mineral","source":"BC MTA Mineral, Placer and Coal Tenure Spatial View (BCGW). Open Government Licence – British Columbia. Not legal title.","as_of":"2026-09-17","role":"focus","color":"#e8b040"}},{"type":"Feature","geometry":{"type":"Polygon","coordinates":[[[-124.0703,55.0083],[-124.0704,54.9999],[-124.0203,54.9999],[-124.0203,55.0124],[-124.0703,55.0124],[-124.0703,55.0083]]]},"properties":{"jurisdiction":"British Columbia","claim_id":521208,"claim_name":"MILL 33","holder":"THOMPSON CREEK METALS COMPANY INC.","status":"Mineral","recorded_date":"2005-10-14","anniversary_or_expiry":"2032-03-18","area_ha":445.206,"tenure_type":"Mineral","source":"BC MTA Mineral, Placer and Coal Tenure Spatial View (BCGW). Open Government Licence – British Columbia. Not legal title.","as_of":"2026-09-17","role":"focus","color":"#e8b040"}},{"type":"Feature","geometry":{"type":"Polygon","coordinates":[[[-123.9703,55.0083],[-123.9703,54.9999],[-123.9203,54.9999],[-123.9203,55.0124],[-123.9703,55.0124],[-123.9703,55.0083]]]},"properties":{"jurisdiction":"British Columbia","claim_id":521210,"claim_name":"MILL 35","holder":"THOMPSON CREEK METALS COMPANY INC.","status":"Mineral","recorded_date":"2005-10-14","anniversary_or_expiry":"2032-03-18","area_ha":445.21000000000004,"tenure_type":"Mineral","source":"BC MTA Mineral, Placer and Coal Tenure Spatial View (BCGW). Open Government Licence – British Columbia. Not legal title.","as_of":"2026-09-17","role":"focus","color":"#e8b040"}},{"type":"Feature","geometry":{"type":"Polygon","coordinates":[[[-123.9203,55.0083],[-123.9203,54.9999],[-123.8828,54.9999],[-123.8828,55.0124],[-123.9203,55.0124],[-123.9203,55.0083]]]},"properties":{"jurisdiction":"British Columbia","claim_id":521212,"claim_name":"MILL 36","holder":"THOMPSON CREEK METALS COMPANY INC.","status":"Mineral","recorded_date":"2005-10-14","anniversary_or_expiry":"2032-03-18","area_ha":333.90500000000003,"tenure_type":"Mineral","source":"BC MTA Mineral, Placer and Coal Tenure Spatial View (BCGW). Open Government Licence – British Columbia. Not legal title.","as_of":"2026-09-17","role":"focus","color":"#e8b040"}},{"type":"Feature","geometry":{"type":"Polygon","coordinates":[[[-123.8828,55.0083],[-123.8828,54.9999],[-123.8641,54.9999],[-123.8641,55.0124],[-123.8828,55.0124],[-123.8828,55.0083]]]},"properties":{"jurisdiction":"British Columbia","claim_id":521213,"claim_name":"MILL 37","holder":"THOMPSON CREEK METALS COMPANY INC.","status":"Mineral","recorded_date":"2005-10-14","anniversary_or_expiry":"2032-03-18","area_ha":166.952,"tenure_type":"Mineral","source":"BC MTA Mineral, Placer and Coal Tenure Spatial View (BCGW). Open Government Licence – British Columbia. Not legal title.","as_of":"2026-09-17","role":"focus","color":"#e8b040"}},{"type":"Feature","geometry":{"type":"Polygon","coordinates":[[[-124.0703,55.0749],[-124.0703,55.0583],[-124.0391,55.0583],[-124.0391,55.0791],[-124.0703,55.0791],[-124.0703,55.0749]]]},"properties":{"jurisdiction":"British Columbia","claim_id":524891,"claim_name":"ARM","holder":"THOMPSON CREEK METALS COMPANY INC.","status":"Mineral","recorded_date":"2006-01-08","anniversary_or_expiry":"2032-03-18","area_ha":463.03900000000004,"tenure_type":"Mineral","source":"BC MTA Mineral, Placer and Coal Tenure Spatial View (BCGW). Open Government Licence – British Columbia. Not legal title.","as_of":"2026-09-17","role":"focus","color":"#e8b040"}},{"type":"Feature","geometry":{"type":"Polygon","coordinates":[[[-124.0578,55.0458],[-124.0578,55.0291],[-124.0266,55.0291],[-124.0266,55.0499],[-124.0578,55.0499],[-124.0578,55.0458]]]},"properties":{"jurisdiction":"British Columbia","claim_id":524892,"claim_name":"STRONG","holder":"THOMPSON CREEK METALS COMPANY INC.","status":"Mineral","recorded_date":"2006-01-08","anniversary_or_expiry":"2032-03-18","area_ha":463.374,"tenure_type":"Mineral","source":"BC MTA Mineral, Placer and Coal Tenure Spatial View (BCGW). Open Government Licence – British Columbia. Not legal title.","as_of":"2026-09-17","role":"focus","color":"#e8b040"}},{"type":"Feature","geometry":{"type":"Polygon","coordinates":[[[-125.0329,54.0291],[-125.0329,54.0249],[-124.9954,54.0249],[-124.9954,54.0374],[-125.0016,54.0374],[-125.0016,54.0499],[-125.0079,54.0499],[-125.0079,54.0458],[-125.0204,54.0458],[-125.0204,54.0416],[-125.0266,54.0416],[-125.0266,54.0333],[-125.0329,54.0333],[-125.0329,54.0291]]]},"properties":{"jurisdiction":"British Columbia","claim_id":507245,"claim_name":null,"holder":"THOMPSON CREEK METALS COMPANY INC.","status":"Mineral","recorded_date":"2005-02-15","anniversary_or_expiry":"2029-12-11","area_ha":474.83500000000004,"tenure_type":"Mineral","source":"BC MTA Mineral, Placer and Coal Tenure Spatial View (BCGW). Open Government Licence – British Columbia. Not legal title.","as_of":"2026-09-17","role":"focus","color":"#e8b040"}},{"type":"Feature","geometry":{"type":"Polygon","coordinates":[[[-124.0703,55.1624],[-124.0703,55.1458],[-124.0328,55.1458],[-124.0328,55.1666],[-124.0703,55.1666],[-124.0703,55.1624]]]},"properties":{"jurisdiction":"British Columbia","claim_id":512891,"claim_name":null,"holder":"THOMPSON CREEK METALS COMPANY INC.","status":"Mineral","recorded_date":"2005-05-18","anniversary_or_expiry":"2032-03-18","area_ha":554.4490000000001,"tenure_type":"Mineral","source":"BC MTA Mineral, Placer and Coal Tenure Spatial View (BCGW). Open Government Licence – British Columbia. Not legal title.","as_of":"2026-09-17","role":"focus","color":"#e8b040"}},{"type":"Feature","geometry":{"type":"Polygon","coordinates":[[[-124.0828,55.0874],[-124.0828,55.0791],[-124.0328,55.0791],[-124.0328,55.0916],[-124.0828,55.0916],[-124.0828,55.0874]]]},"properties":{"jurisdiction":"British Columbia","claim_id":512897,"claim_name":null,"holder":"THOMPSON CREEK METALS COMPANY INC.","status":"Mineral","recorded_date":"2005-05-18","anniversary_or_expiry":"2032-03-18","area_ha":444.34000000000003,"tenure_type":"Mineral","source":"BC MTA Mineral, Placer and Coal Tenure Spatial View (BCGW). Open Government Licence – British Columbia. Not legal title.","as_of":"2026-09-17","role":"focus","color":"#e8b040"}},{"type":"Feature","geometry":{"type":"Polygon","coordinates":[[[-124.0078,55.1666],[-124.0016,55.1666],[-124.0016,55.1499],[-123.9828,55.1499],[-123.9828,55.1749],[-124.0016,55.1749],[-124.0016,55.1708],[-124.0078,55.1708],[-124.0078,55.1666]]]},"properties":{"jurisdiction":"British Columbia","claim_id":512909,"claim_name":null,"holder":"THOMPSON CREEK METALS COMPANY INC.","status":"Mineral","recorded_date":"2005-05-18","anniversary_or_expiry":"2032-03-18","area_ha":351.094,"tenure_type":"Mineral","source":"BC MTA Mineral, Placer and Coal Tenure Spatial View (BCGW). Open Government Licence – British Columbia. Not legal title.","as_of":"2026-09-17","role":"focus","color":"#e8b040"}},{"type":"Feature","geometry":{"type":"Polygon","coordinates":[[[-123.9516,55.1458],[-123.9516,55.1416],[-123.9453,55.1416],[-123.9453,55.1333],[-123.9203,55.1333],[-123.9203,55.1583],[-123.9453,55.1583],[-123.9453,55.1499],[-123.9516,55.1499],[-123.9516,55.1458]]]},"properties":{"jurisdiction":"British Columbia","claim_id":512930,"claim_name":null,"holder":"THOMPSON CREEK METALS COMPANY INC.","status":"Mineral","recorded_date":"2005-05-18","anniversary_or_expiry":"2032-03-18","area_ha":480.648,"tenure_type":"Mineral","source":"BC MTA Mineral, Placer and Coal Tenure Spatial View (BCGW). Open Government Licence – British Columbia. Not legal title.","as_of":"2026-09-17","role":"focus","color":"#e8b040"}},{"type":"Feature","geometry":{"type":"Polygon","coordinates":[[[-123.8453,55.1708],[-123.8453,55.1583],[-123.7953,55.1583],[-123.7953,55.1791],[-123.8391,55.1791],[-123.8391,55.1749],[-123.8453,55.1749],[-123.8453,55.1708]]]},"properties":{"jurisdiction":"British Columbia","claim_id":512936,"claim_name":null,"holder":"THOMPSON CREEK METALS COMPANY INC.","status":"Mineral","recorded_date":"2005-05-18","anniversary_or_expiry":"2032-03-18","area_ha":720.5590000000001,"tenure_type":"Mineral","source":"BC MTA Mineral, Placer and Coal Tenure Spatial View (BCGW). Open Government Licence – British Columbia. Not legal title.","as_of":"2026-09-17","role":"focus","color":"#e8b040"}},{"type":"Feature","geometry":{"type":"Polygon","coordinates":[[[-123.7828,55.1333],[-123.7828,55.1124],[-123.7516,55.1124],[-123.7516,55.1374],[-123.7828,55.1374],[-123.7828,55.1333]]]},"properties":{"jurisdiction":"British Columbia","claim_id":512942,"claim_name":null,"holder":"THOMPSON CREEK METALS COMPANY INC.","status":"Mineral","recorded_date":"2005-05-18","anniversary_or_expiry":"2032-03-18","area_ha":554.875,"tenure_type":"Mineral","source":"BC MTA Mineral, Placer and Coal Tenure Spatial View (BCGW). Open Government Licence – British Columbia. Not legal title.","as_of":"2026-09-17","role":"focus","color":"#e8b040"}},{"type":"Feature","geometry":{"type":"Polygon","coordinates":[[[-124.0203,55.0083],[-124.0203,54.9999],[-123.9703,54.9999],[-123.9703,55.0124],[-124.0203,55.0124],[-124.0203,55.0083]]]},"properties":{"jurisdiction":"British Columbia","claim_id":521209,"claim_name":"MILL 34","holder":"THOMPSON CREEK METALS COMPANY INC.","status":"Mineral","recorded_date":"2005-10-14","anniversary_or_expiry":"2032-03-18","area_ha":445.207,"tenure_type":"Mineral","source":"BC MTA Mineral, Placer and Coal Tenure Spatial View (BCGW). Open Government Licence – British Columbia. Not legal title.","as_of":"2026-09-17","role":"focus","color":"#e8b040"}}]}