{"type": "FeatureCollection", "features": [{"type": "Feature", "geometry": {"type": "Polygon", "coordinates": [[[-93.1, 49.775], [-93.1, 49.7792], [-93.1063, 49.7792], [-93.1063, 49.775], [-93.1, 49.775]]]}, "properties": {"company_id": "champion-iron", "jurisdiction": "Ontario", "claim_id": "101227", "claim_name": null, "holder": "(100) CHAMPION BEAR RESOURCES LTD.", "status": "Active", "recorded_date": "2018-04-10", "anniversary_or_expiry": "2027-01-24", "area_ha": null, "tenure_type": "Single Cell Mining Claim", "source": "Ontario MLAS operational claims (OGSEarth / LIO MapServer). Unofficial viewing data, not legal title.", "as_of": "2026-09-20", "role": "focus", "color": "#e8b040"}}, {"type": "Feature", "geometry": {"type": "Polygon", "coordinates": [[[-93.1438, 49.7625], [-93.1438, 49.7667], [-93.15, 49.7667], [-93.15, 49.7625], [-93.1438, 49.7625]]]}, "properties": {"company_id": "champion-iron", "jurisdiction": "Ontario", "claim_id": "101881", "claim_name": null, "holder": "(100) CHAMPION BEAR RESOURCES LTD.", "status": "Active", "recorded_date": "2018-04-10", "anniversary_or_expiry": "2027-01-17", "area_ha": null, "tenure_type": "Single Cell Mining Claim", "source": "Ontario MLAS operational claims (OGSEarth / LIO MapServer). Unofficial viewing data, not legal title.", "as_of": "2026-09-20", "role": "focus", "color": "#e8b040"}}, {"type": "Feature", "geometry": {"type": "Polygon", "coordinates": [[[-80.8375, 46.8708], [-80.8375, 46.875], [-80.8438, 46.875], [-80.8438, 46.8708], [-80.8375, 46.8708]]]}, "properties": {"company_id": "champion-iron", "jurisdiction": "Ontario", "claim_id": "108716", "claim_name": null, "holder": "(100) CHAMPION BEAR RESOURCES LTD.", "status": "Active", "recorded_date": "2018-04-10", "anniversary_or_expiry": "2027-08-21", "area_ha": null, "tenure_type": "Boundary Cell Mining Claim", "source": "Ontario MLAS operational claims (OGSEarth / LIO MapServer). Unofficial viewing data, not legal title.", "as_of": "2026-09-20", "role": "focus", "color": "#e8b040"}}, {"type": "Feature", "geometry": {"type": "Polygon", "coordinates": [[[-80.85, 46.8292], [-80.85, 46.8333], [-80.8563, 46.8333], [-80.8563, 46.8292], [-80.85, 46.8292]]]}, "properties": {"company_id": "champion-iron", "jurisdiction": "Ontario", "claim_id": "107640", "claim_name": null, "holder": "(100) CHAMPION BEAR RESOURCES LTD.", "status": "Active", "recorded_date": "2018-04-10", "anniversary_or_expiry": "2027-10-18", "area_ha": null, "tenure_type": "Boundary Cell Mining Claim", "source": "Ontario MLAS operational claims (OGSEarth / LIO MapServer). Unofficial viewing data, not legal title.", "as_of": "2026-09-20", "role": "focus", "color": "#e8b040"}}, {"type": "Feature", "geometry": {"type": "Polygon", "coordinates": [[[-93.125, 49.7708], [-93.125, 49.775], [-93.1313, 49.775], [-93.1313, 49.7708], [-93.125, 49.7708]]]}, "properties": {"company_id": "champion-iron", "jurisdiction": "Ontario", "claim_id": "115956", "claim_name": null, "holder": "(100) CHAMPION BEAR RESOURCES LTD.", "status": "Active", "recorded_date": "2018-04-10", "anniversary_or_expiry": "2027-01-24", "area_ha": null, "tenure_type": "Single Cell Mining Claim", "source": "Ontario MLAS operational claims (OGSEarth / LIO MapServer). Unofficial viewing data, not legal title.", "as_of": "2026-09-20", "role": "focus", "color": "#e8b040"}}, {"type": "Feature", "geometry": {"type": "Polygon", "coordinates": [[[-93.1313, 49.7708], [-93.1313, 49.775], [-93.1375, 49.775], [-93.1375, 49.7708], [-93.1313, 49.7708]]]}, "properties": {"company_id": "champion-iron", "jurisdiction": "Ontario", "claim_id": "115957", "claim_name": null, "holder": "(100) CHAMPION BEAR RESOURCES LTD.", "status": "Active", "recorded_date": "2018-04-10", "anniversary_or_expiry": "2027-08-13", "area_ha": null, "tenure_type": "Single Cell Mining Claim", "source": "Ontario MLAS operational claims (OGSEarth / LIO MapServer). Unofficial viewing data, not legal title.", "as_of": "2026-09-20", "role": "focus", "color": "#e8b040"}}, {"type": "Feature", "geometry": {"type": "Polygon", "coordinates": [[[-93.15, 49.7708], [-93.15, 49.775], [-93.1563, 49.775], [-93.1563, 49.7708], [-93.15, 49.7708]]]}, "properties": {"company_id": "champion-iron", "jurisdiction": "Ontario", "claim_id": "115965", "claim_name": null, "holder": "(100) CHAMPION BEAR RESOURCES LTD.", "status": "Active", "recorded_date": "2018-04-10", "anniversary_or_expiry": "2027-01-17", "area_ha": null, "tenure_type": "Single Cell Mining Claim", "source": "Ontario MLAS operational claims (OGSEarth / LIO MapServer). Unofficial viewing data, not legal title.", "as_of": "2026-09-20", "role": "focus", "color": "#e8b040"}}, {"type": "Feature", "geometry": {"type": "Polygon", "coordinates": [[[-93.1125, 49.7625], [-93.1125, 49.7667], [-93.1188, 49.7667], [-93.1188, 49.7625], [-93.1125, 49.7625]]]}, "properties": {"company_id": "champion-iron", "jurisdiction": "Ontario", "claim_id": "117657", "claim_name": null, "holder": "(100) CHAMPION BEAR RESOURCES LTD.", "status": "Active", "recorded_date": "2018-04-10", "anniversary_or_expiry": "2027-03-06", "area_ha": null, "tenure_type": "Single Cell Mining Claim", "source": "Ontario MLAS operational claims (OGSEarth / LIO MapServer). Unofficial viewing data, not legal title.", "as_of": "2026-09-20", "role": "focus", "color": "#e8b040"}}, {"type": "Feature", "geometry": {"type": "Polygon", "coordinates": [[[-93.125, 49.7625], [-93.125, 49.7667], [-93.1313, 49.7667], [-93.1313, 49.7625], [-93.125, 49.7625]]]}, "properties": {"company_id": "champion-iron", "jurisdiction": "Ontario", "claim_id": "117164", "claim_name": null, "holder": "(100) CHAMPION BEAR RESOURCES LTD.", "status": "Active", "recorded_date": "2018-04-10", "anniversary_or_expiry": "2027-03-06", "area_ha": null, "tenure_type": "Single Cell Mining Claim", "source": "Ontario MLAS operational claims (OGSEarth / LIO MapServer). Unofficial viewing data, not legal title.", "as_of": "2026-09-20", "role": "focus", "color": "#e8b040"}}, {"type": "Feature", "geometry": {"type": "Polygon", "coordinates": [[[-93.1438, 49.7708], [-93.1438, 49.775], [-93.15, 49.775], [-93.15, 49.7708], [-93.1438, 49.7708]]]}, "properties": {"company_id": "champion-iron", "jurisdiction": "Ontario", "claim_id": "117196", "claim_name": null, "holder": "(100) CHAMPION BEAR RESOURCES LTD.", "status": "Active", "recorded_date": "2018-04-10", "anniversary_or_expiry": "2027-01-17", "area_ha": null, "tenure_type": "Single Cell Mining Claim", "source": "Ontario MLAS operational claims (OGSEarth / LIO MapServer). Unofficial viewing data, not legal title.", "as_of": "2026-09-20", "role": "focus", "color": "#e8b040"}}, {"type": "Feature", "geometry": {"type": "Polygon", "coordinates": [[[-93.1188, 49.7583], [-93.1188, 49.7625], [-93.125, 49.7625], [-93.125, 49.7583], [-93.1188, 49.7583]]]}, "properties": {"company_id": "champion-iron", "jurisdiction": "Ontario", "claim_id": "123706", "claim_name": null, "holder": "(100) CHAMPION BEAR RESOURCES LTD.", "status": "Active", "recorded_date": "2018-04-10", "anniversary_or_expiry": "2027-03-06", "area_ha": null, "tenure_type": "Single Cell Mining Claim", "source": "Ontario MLAS operational claims (OGSEarth / LIO MapServer). Unofficial viewing data, not legal title.", "as_of": "2026-09-20", "role": "focus", "color": "#e8b040"}}, {"type": "Feature", "geometry": {"type": "Polygon", "coordinates": [[[-80.8438, 46.8417], [-80.8438, 46.8458], [-80.85, 46.8458], [-80.85, 46.8417], [-80.8438, 46.8417]]]}, "properties": {"company_id": "champion-iron", "jurisdiction": "Ontario", "claim_id": "126781", "claim_name": null, "holder": "(100) CHAMPION BEAR RESOURCES LTD.", "status": "Active", "recorded_date": "2018-04-10", "anniversary_or_expiry": "2027-09-05", "area_ha": null, "tenure_type": "Boundary Cell Mining Claim", "source": "Ontario MLAS operational claims (OGSEarth / LIO MapServer). Unofficial viewing data, not legal title.", "as_of": "2026-09-20", "role": "focus", "color": "#e8b040"}}, {"type": "Feature", "geometry": {"type": "Polygon", "coordinates": [[[-93.125, 49.7667], [-93.125, 49.7708], [-93.1313, 49.7708], [-93.1313, 49.7667], [-93.125, 49.7667]]]}, "properties": {"company_id": "champion-iron", "jurisdiction": "Ontario", "claim_id": "128951", "claim_name": null, "holder": "(100) CHAMPION BEAR RESOURCES LTD.", "status": "Active", "recorded_date": "2018-04-10", "anniversary_or_expiry": "2027-08-13", "area_ha": null, "tenure_type": "Single Cell Mining Claim", "source": "Ontario MLAS operational claims (OGSEarth / LIO MapServer). Unofficial viewing data, not legal title.", "as_of": "2026-09-20", "role": "focus", "color": "#e8b040"}}, {"type": "Feature", "geometry": {"type": "Polygon", "coordinates": [[[-81.6125, 46.6125], [-81.6125, 46.6167], [-81.6188, 46.6167], [-81.6188, 46.6125], [-81.6125, 46.6125]]]}, "properties": {"company_id": "champion-iron", "jurisdiction": "Ontario", "claim_id": "133565", "claim_name": null, "holder": "(50) CHAMPION BEAR RESOURCES LTD., (50) URSA MAJOR MINERALS INCORPORATED", "status": "Active", "recorded_date": "2018-04-10", "anniversary_or_expiry": "2027-03-18", "area_ha": null, "tenure_type": "Boundary Cell Mining Claim", "source": "Ontario MLAS operational claims (OGSEarth / LIO MapServer). Unofficial viewing data, not legal title.", "as_of": "2026-09-20", "role": "focus", "color": "#e8b040"}}, {"type": "Feature", "geometry": {"type": "Polygon", "coordinates": [[[-81.6188, 46.6083], [-81.6188, 46.6125], [-81.625, 46.6125], [-81.625, 46.6083], [-81.6188, 46.6083]]]}, "properties": {"company_id": "champion-iron", "jurisdiction": "Ontario", "claim_id": "133566", "claim_name": null, "holder": "(50) CHAMPION BEAR RESOURCES LTD., (50) URSA MAJOR MINERALS INCORPORATED", "status": "Active", "recorded_date": "2018-04-10", "anniversary_or_expiry": "2027-03-18", "area_ha": null, "tenure_type": "Boundary Cell Mining Claim", "source": "Ontario MLAS operational claims (OGSEarth / LIO MapServer). Unofficial viewing data, not legal title.", "as_of": "2026-09-20", "role": "focus", "color": "#e8b040"}}, {"type": "Feature", "geometry": {"type": "Polygon", "coordinates": [[[-80.8438, 46.8333], [-80.8438, 46.8375], [-80.85, 46.8375], [-80.85, 46.8333], [-80.8438, 46.8333]]]}, "properties": {"company_id": "champion-iron", "jurisdiction": "Ontario", "claim_id": "136115", "claim_name": null, "holder": "(100) CHAMPION BEAR RESOURCES LTD.", "status": "Active", "recorded_date": "2018-04-10", "anniversary_or_expiry": "2027-10-18", "area_ha": null, "tenure_type": "Boundary Cell Mining Claim", "source": "Ontario MLAS operational claims (OGSEarth / LIO MapServer). Unofficial viewing data, not legal title.", "as_of": "2026-09-20", "role": "focus", "color": "#e8b040"}}, {"type": "Feature", "geometry": {"type": "Polygon", "coordinates": [[[-80.8375, 46.8792], [-80.8375, 46.8833], [-80.8438, 46.8833], [-80.8438, 46.8792], [-80.8375, 46.8792]]]}, "properties": {"company_id": "champion-iron", "jurisdiction": "Ontario", "claim_id": "142940", "claim_name": null, "holder": "(100) CHAMPION BEAR RESOURCES LTD.", "status": "Active", "recorded_date": "2018-04-10", "anniversary_or_expiry": "2027-12-30", "area_ha": null, "tenure_type": "Boundary Cell Mining Claim", "source": "Ontario MLAS operational claims (OGSEarth / LIO MapServer). Unofficial viewing data, not legal title.", "as_of": "2026-09-20", "role": "focus", "color": "#e8b040"}}, {"type": "Feature", "geometry": {"type": "Polygon", "coordinates": [[[-93.1688, 49.7667], [-93.1688, 49.7708], [-93.175, 49.7708], [-93.175, 49.7667], [-93.1688, 49.7667]]]}, "properties": {"company_id": "champion-iron", "jurisdiction": "Ontario", "claim_id": "145476", "claim_name": null, "holder": "(100) CHAMPION BEAR RESOURCES LTD.", "status": "Active", "recorded_date": "2018-04-10", "anniversary_or_expiry": "2027-01-17", "area_ha": null, "tenure_type": "Single Cell Mining Claim", "source": "Ontario MLAS operational claims (OGSEarth / LIO MapServer). Unofficial viewing data, not legal title.", "as_of": "2026-09-20", "role": "focus", "color": "#e8b040"}}, {"type": "Feature", "geometry": {"type": "Polygon", "coordinates": [[[-80.8438, 46.8458], [-80.8438, 46.85], [-80.85, 46.85], [-80.85, 46.8458], [-80.8438, 46.8458]]]}, "properties": {"company_id": "champion-iron", "jurisdiction": "Ontario", "claim_id": "145085", "claim_name": null, "holder": "(100) CHAMPION BEAR RESOURCES LTD.", "status": "Active", "recorded_date": "2018-04-10", "anniversary_or_expiry": "2027-09-05", "area_ha": null, "tenure_type": "Boundary Cell Mining Claim", "source": "Ontario MLAS operational claims (OGSEarth / LIO MapServer). Unofficial viewing data, not legal title.", "as_of": "2026-09-20", "role": "focus", "color": "#e8b040"}}, {"type": "Feature", "geometry": {"type": "Polygon", "coordinates": [[[-93.1125, 49.775], [-93.1125, 49.7792], [-93.1188, 49.7792], [-93.1188, 49.775], [-93.1125, 49.775]]]}, "properties": {"company_id": "champion-iron", "jurisdiction": "Ontario", "claim_id": "152250", "claim_name": null, "holder": "(100) CHAMPION BEAR RESOURCES LTD.", "status": "Active", "recorded_date": "2018-04-10", "anniversary_or_expiry": "2027-01-24", "area_ha": null, "tenure_type": "Single Cell Mining Claim", "source": "Ontario MLAS operational claims (OGSEarth / LIO MapServer). Unofficial viewing data, not legal title.", "as_of": "2026-09-20", "role": "focus", "color": "#e8b040"}}, {"type": "Feature", "geometry": {"type": "Polygon", "coordinates": [[[-93.1, 49.7708], [-93.1, 49.775], [-93.1063, 49.775], [-93.1063, 49.7708], [-93.1, 49.7708]]]}, "properties": {"company_id": "champion-iron", "jurisdiction": "Ontario", "claim_id": "152251", "claim_name": null, "holder": "(100) CHAMPION BEAR RESOURCES LTD.", "status": "Active", "recorded_date": "2018-04-10", "anniversary_or_expiry": "2027-01-24", "area_ha": null, "tenure_type": "Single Cell Mining Claim", "source": "Ontario MLAS operational claims (OGSEarth / LIO MapServer). Unofficial viewing data, not legal title.", "as_of": "2026-09-20", "role": "focus", "color": "#e8b040"}}, {"type": "Feature", "geometry": {"type": "Polygon", "coordinates": [[[-81.575, 46.575], [-81.575, 46.5792], [-81.5813, 46.5792], [-81.5813, 46.575], [-81.575, 46.575]]]}, "properties": {"company_id": "champion-iron", "jurisdiction": "Ontario", "claim_id": "155589", "claim_name": null, "holder": "(50) CHAMPION BEAR RESOURCES LTD., (50) URSA MAJOR MINERALS INCORPORATED", "status": "Active", "recorded_date": "2018-04-10", "anniversary_or_expiry": "2027-05-06", "area_ha": null, "tenure_type": "Boundary Cell Mining Claim", "source": "Ontario MLAS operational claims (OGSEarth / LIO MapServer). Unofficial viewing data, not legal title.", "as_of": "2026-09-20", "role": "focus", "color": "#e8b040"}}, {"type": "Feature", "geometry": {"type": "Polygon", "coordinates": [[[-93.1625, 49.7667], [-93.1625, 49.7708], [-93.1688, 49.7708], [-93.1688, 49.7667], [-93.1625, 49.7667]]]}, "properties": {"company_id": "champion-iron", "jurisdiction": "Ontario", "claim_id": "158236", "claim_name": null, "holder": "(100) CHAMPION BEAR RESOURCES LTD.", "status": "Active", "recorded_date": "2018-04-10", "anniversary_or_expiry": "2027-01-17", "area_ha": null, "tenure_type": "Single Cell Mining Claim", "source": "Ontario MLAS operational claims (OGSEarth / LIO MapServer). Unofficial viewing data, not legal title.", "as_of": "2026-09-20", "role": "focus", "color": "#e8b040"}}, {"type": "Feature", "geometry": {"type": "Polygon", "coordinates": [[[-80.8688, 46.8375], [-80.8688, 46.8417], [-80.875, 46.8417], [-80.875, 46.8375], [-80.8688, 46.8375]]]}, "properties": {"company_id": "champion-iron", "jurisdiction": "Ontario", "claim_id": "166495", "claim_name": null, "holder": "(100) CHAMPION BEAR RESOURCES LTD.", "status": "Active", "recorded_date": "2018-04-10", "anniversary_or_expiry": "2027-09-02", "area_ha": null, "tenure_type": "Boundary Cell Mining Claim", "source": "Ontario MLAS operational claims (OGSEarth / LIO MapServer). Unofficial viewing data, not legal title.", "as_of": "2026-09-20", "role": "focus", "color": "#e8b040"}}, {"type": "Feature", "geometry": {"type": "Polygon", "coordinates": [[[-81.6188, 46.6125], [-81.6188, 46.6167], [-81.625, 46.6167], [-81.625, 46.6125], [-81.6188, 46.6125]]]}, "properties": {"company_id": "champion-iron", "jurisdiction": "Ontario", "claim_id": "166555", "claim_name": null, "holder": "(50) CHAMPION BEAR RESOURCES LTD., (50) URSA MAJOR MINERALS INCORPORATED", "status": "Active", "recorded_date": "2018-04-10", "anniversary_or_expiry": "2027-03-18", "area_ha": null, "tenure_type": "Boundary Cell Mining Claim", "source": "Ontario MLAS operational claims (OGSEarth / LIO MapServer). Unofficial viewing data, not legal title.", "as_of": "2026-09-20", "role": "focus", "color": "#e8b040"}}, {"type": "Feature", "geometry": {"type": "Polygon", "coordinates": [[[-81.6188, 46.6042], [-81.6188, 46.6083], [-81.625, 46.6083], [-81.625, 46.6042], [-81.6188, 46.6042]]]}, "properties": {"company_id": "champion-iron", "jurisdiction": "Ontario", "claim_id": "166556", "claim_name": null, "holder": "(50) CHAMPION BEAR RESOURCES LTD., (50) URSA MAJOR MINERALS INCORPORATED", "status": "Active", "recorded_date": "2018-04-10", "anniversary_or_expiry": "2027-03-18", "area_ha": null, "tenure_type": "Boundary Cell Mining Claim", "source": "Ontario MLAS operational claims (OGSEarth / LIO MapServer). Unofficial viewing data, not legal title.", "as_of": "2026-09-20", "role": "focus", "color": "#e8b040"}}, {"type": "Feature", "geometry": {"type": "Polygon", "coordinates": [[[-81.5813, 46.5667], [-81.5813, 46.5708], [-81.5875, 46.5708], [-81.5875, 46.5667], [-81.5813, 46.5667]]]}, "properties": {"company_id": "champion-iron", "jurisdiction": "Ontario", "claim_id": "177001", "claim_name": null, "holder": "(50) CHAMPION BEAR RESOURCES LTD., (50) URSA MAJOR MINERALS INCORPORATED", "status": "Active", "recorded_date": "2018-04-10", "anniversary_or_expiry": "2027-08-23", "area_ha": null, "tenure_type": "Boundary Cell Mining Claim", "source": "Ontario MLAS operational claims (OGSEarth / LIO MapServer). Unofficial viewing data, not legal title.", "as_of": "2026-09-20", "role": "focus", "color": "#e8b040"}}, {"type": "Feature", "geometry": {"type": "Polygon", "coordinates": [[[-81.6188, 46.6], [-81.6188, 46.6042], [-81.625, 46.6042], [-81.625, 46.6], [-81.6188, 46.6]]]}, "properties": {"company_id": "champion-iron", "jurisdiction": "Ontario", "claim_id": "178780", "claim_name": null, "holder": "(50) CHAMPION BEAR RESOURCES LTD., (50) URSA MAJOR MINERALS INCORPORATED", "status": "Active", "recorded_date": "2018-04-10", "anniversary_or_expiry": "2027-03-18", "area_ha": null, "tenure_type": "Boundary Cell Mining Claim", "source": "Ontario MLAS operational claims (OGSEarth / LIO MapServer). Unofficial viewing data, not legal title.", "as_of": "2026-09-20", "role": "focus", "color": "#e8b040"}}, {"type": "Feature", "geometry": {"type": "Polygon", "coordinates": [[[-81.6188, 46.5958], [-81.6188, 46.6], [-81.625, 46.6], [-81.625, 46.5958], [-81.6188, 46.5958]]]}, "properties": {"company_id": "champion-iron", "jurisdiction": "Ontario", "claim_id": "178781", "claim_name": null, "holder": "(50) CHAMPION BEAR RESOURCES LTD., (50) URSA MAJOR MINERALS INCORPORATED", "status": "Active", "recorded_date": "2018-04-10", "anniversary_or_expiry": "2027-03-18", "area_ha": null, "tenure_type": "Boundary Cell Mining Claim", "source": "Ontario MLAS operational claims (OGSEarth / LIO MapServer). Unofficial viewing data, not legal title.", "as_of": "2026-09-20", "role": "focus", "color": "#e8b040"}}, {"type": "Feature", "geometry": {"type": "Polygon", "coordinates": [[[-93.125, 49.7583], [-93.125, 49.7625], [-93.1313, 49.7625], [-93.1313, 49.7583], [-93.125, 49.7583]]]}, "properties": {"company_id": "champion-iron", "jurisdiction": "Ontario", "claim_id": "181127", "claim_name": null, "holder": "(100) CHAMPION BEAR RESOURCES LTD.", "status": "Active", "recorded_date": "2018-04-10", "anniversary_or_expiry": "2027-03-06", "area_ha": null, "tenure_type": "Single Cell Mining Claim", "source": "Ontario MLAS operational claims (OGSEarth / LIO MapServer). Unofficial viewing data, not legal title.", "as_of": "2026-09-20", "role": "focus", "color": "#e8b040"}}, {"type": "Feature", "geometry": {"type": "Polygon", "coordinates": [[[-80.8438, 46.8292], [-80.8438, 46.8333], [-80.85, 46.8333], [-80.85, 46.8292], [-80.8438, 46.8292]]]}, "properties": {"company_id": "champion-iron", "jurisdiction": "Ontario", "claim_id": "180802", "claim_name": null, "holder": "(100) CHAMPION BEAR RESOURCES LTD.", "status": "Active", "recorded_date": "2018-04-10", "anniversary_or_expiry": "2027-10-18", "area_ha": null, "tenure_type": "Boundary Cell Mining Claim", "source": "Ontario MLAS operational claims (OGSEarth / LIO MapServer). Unofficial viewing data, not legal title.", "as_of": "2026-09-20", "role": "focus", "color": "#e8b040"}}, {"type": "Feature", "geometry": {"type": "Polygon", "coordinates": [[[-80.8438, 46.85], [-80.8438, 46.8542], [-80.85, 46.8542], [-80.85, 46.85], [-80.8438, 46.85]]]}, "properties": {"company_id": "champion-iron", "jurisdiction": "Ontario", "claim_id": "181407", "claim_name": null, "holder": "(100) CHAMPION BEAR RESOURCES LTD.", "status": "Active", "recorded_date": "2018-04-10", "anniversary_or_expiry": "2027-09-05", "area_ha": null, "tenure_type": "Boundary Cell Mining Claim", "source": "Ontario MLAS operational claims (OGSEarth / LIO MapServer). Unofficial viewing data, not legal title.", "as_of": "2026-09-20", "role": "focus", "color": "#e8b040"}}, {"type": "Feature", "geometry": {"type": "Polygon", "coordinates": [[[-93.1375, 49.7542], [-93.1375, 49.7583], [-93.1438, 49.7583], [-93.1438, 49.7542], [-93.1375, 49.7542]]]}, "properties": {"company_id": "champion-iron", "jurisdiction": "Ontario", "claim_id": "188482", "claim_name": null, "holder": "(100) CHAMPION BEAR RESOURCES LTD.", "status": "Active", "recorded_date": "2018-04-10", "anniversary_or_expiry": "2027-03-06", "area_ha": null, "tenure_type": "Single Cell Mining Claim", "source": "Ontario MLAS operational claims (OGSEarth / LIO MapServer). Unofficial viewing data, not legal title.", "as_of": "2026-09-20", "role": "focus", "color": "#e8b040"}}, {"type": "Feature", "geometry": {"type": "Polygon", "coordinates": [[[-80.8688, 46.8292], [-80.8688, 46.8333], [-80.875, 46.8333], [-80.875, 46.8292], [-80.8688, 46.8292]]]}, "properties": {"company_id": "champion-iron", "jurisdiction": "Ontario", "claim_id": "188896", "claim_name": null, "holder": "(100) CHAMPION BEAR RESOURCES LTD.", "status": "Active", "recorded_date": "2018-04-10", "anniversary_or_expiry": "2027-03-30", "area_ha": null, "tenure_type": "Boundary Cell Mining Claim", "source": "Ontario MLAS operational claims (OGSEarth / LIO MapServer). Unofficial viewing data, not legal title.", "as_of": "2026-09-20", "role": "focus", "color": "#e8b040"}}, {"type": "Feature", "geometry": {"type": "Polygon", "coordinates": [[[-80.8438, 46.8625], [-80.8438, 46.8667], [-80.85, 46.8667], [-80.85, 46.8625], [-80.8438, 46.8625]]]}, "properties": {"company_id": "champion-iron", "jurisdiction": "Ontario", "claim_id": "192075", "claim_name": null, "holder": "(100) CHAMPION BEAR RESOURCES LTD.", "status": "Active", "recorded_date": "2018-04-10", "anniversary_or_expiry": "2027-08-21", "area_ha": null, "tenure_type": "Boundary Cell Mining Claim", "source": "Ontario MLAS operational claims (OGSEarth / LIO MapServer). Unofficial viewing data, not legal title.", "as_of": "2026-09-20", "role": "focus", "color": "#e8b040"}}, {"type": "Feature", "geometry": {"type": "Polygon", "coordinates": [[[-80.8688, 46.8458], [-80.8688, 46.85], [-80.875, 46.85], [-80.875, 46.8458], [-80.8688, 46.8458]]]}, "properties": {"company_id": "champion-iron", "jurisdiction": "Ontario", "claim_id": "195859", "claim_name": null, "holder": "(100) CHAMPION BEAR RESOURCES LTD.", "status": "Active", "recorded_date": "2018-04-10", "anniversary_or_expiry": "2027-09-02", "area_ha": null, "tenure_type": "Boundary Cell Mining Claim", "source": "Ontario MLAS operational claims (OGSEarth / LIO MapServer). Unofficial viewing data, not legal title.", "as_of": "2026-09-20", "role": "focus", "color": "#e8b040"}}, {"type": "Feature", "geometry": {"type": "Polygon", "coordinates": [[[-93.1188, 49.775], [-93.1188, 49.7792], [-93.125, 49.7792], [-93.125, 49.775], [-93.1188, 49.775]]]}, "properties": {"company_id": "champion-iron", "jurisdiction": "Ontario", "claim_id": "198263", "claim_name": null, "holder": "(100) CHAMPION BEAR RESOURCES LTD.", "status": "Active", "recorded_date": "2018-04-10", "anniversary_or_expiry": "2027-01-24", "area_ha": null, "tenure_type": "Single Cell Mining Claim", "source": "Ontario MLAS operational claims (OGSEarth / LIO MapServer). Unofficial viewing data, not legal title.", "as_of": "2026-09-20", "role": "focus", "color": "#e8b040"}}, {"type": "Feature", "geometry": {"type": "Polygon", "coordinates": [[[-93.1563, 49.775], [-93.1563, 49.7792], [-93.1625, 49.7792], [-93.1625, 49.775], [-93.1563, 49.775]]]}, "properties": {"company_id": "champion-iron", "jurisdiction": "Ontario", "claim_id": "204047", "claim_name": null, "holder": "(100) CHAMPION BEAR RESOURCES LTD.", "status": "Active", "recorded_date": "2018-04-10", "anniversary_or_expiry": "2027-02-02", "area_ha": null, "tenure_type": "Single Cell Mining Claim", "source": "Ontario MLAS operational claims (OGSEarth / LIO MapServer). Unofficial viewing data, not legal title.", "as_of": "2026-09-20", "role": "focus", "color": "#e8b040"}}, {"type": "Feature", "geometry": {"type": "Polygon", "coordinates": [[[-93.1688, 49.775], [-93.1688, 49.7792], [-93.175, 49.7792], [-93.175, 49.775], [-93.1688, 49.775]]]}, "properties": {"company_id": "champion-iron", "jurisdiction": "Ontario", "claim_id": "204048", "claim_name": null, "holder": "(100) CHAMPION BEAR RESOURCES LTD.", "status": "Active", "recorded_date": "2018-04-10", "anniversary_or_expiry": "2027-02-02", "area_ha": null, "tenure_type": "Single Cell Mining Claim", "source": "Ontario MLAS operational claims (OGSEarth / LIO MapServer). Unofficial viewing data, not legal title.", "as_of": "2026-09-20", "role": "focus", "color": "#e8b040"}}, {"type": "Feature", "geometry": {"type": "Polygon", "coordinates": [[[-93.15, 49.7625], [-93.15, 49.7667], [-93.1563, 49.7667], [-93.1563, 49.7625], [-93.15, 49.7625]]]}, "properties": {"company_id": "champion-iron", "jurisdiction": "Ontario", "claim_id": "204049", "claim_name": null, "holder": "(100) CHAMPION BEAR RESOURCES LTD.", "status": "Active", "recorded_date": "2018-04-10", "anniversary_or_expiry": "2027-01-17", "area_ha": null, "tenure_type": "Single Cell Mining Claim", "source": "Ontario MLAS operational claims (OGSEarth / LIO MapServer). Unofficial viewing data, not legal title.", "as_of": "2026-09-20", "role": "focus", "color": "#e8b040"}}, {"type": "Feature", "geometry": {"type": "Polygon", "coordinates": [[[-93.1563, 49.7625], [-93.1563, 49.7667], [-93.1625, 49.7667], [-93.1625, 49.7625], [-93.1563, 49.7625]]]}, "properties": {"company_id": "champion-iron", "jurisdiction": "Ontario", "claim_id": "204050", "claim_name": null, "holder": "(100) CHAMPION BEAR RESOURCES LTD.", "status": "Active", "recorded_date": "2018-04-10", "anniversary_or_expiry": "2027-01-17", "area_ha": null, "tenure_type": "Single Cell Mining Claim", "source": "Ontario MLAS operational claims (OGSEarth / LIO MapServer). Unofficial viewing data, not legal title.", "as_of": "2026-09-20", "role": "focus", "color": "#e8b040"}}, {"type": "Feature", "geometry": {"type": "Polygon", "coordinates": [[[-93.1438, 49.7667], [-93.1438, 49.7708], [-93.15, 49.7708], [-93.15, 49.7667], [-93.1438, 49.7667]]]}, "properties": {"company_id": "champion-iron", "jurisdiction": "Ontario", "claim_id": "211539", "claim_name": null, "holder": "(100) CHAMPION BEAR RESOURCES LTD.", "status": "Active", "recorded_date": "2018-04-10", "anniversary_or_expiry": "2027-01-17", "area_ha": null, "tenure_type": "Single Cell Mining Claim", "source": "Ontario MLAS operational claims (OGSEarth / LIO MapServer). Unofficial viewing data, not legal title.", "as_of": "2026-09-20", "role": "focus", "color": "#e8b040"}}, {"type": "Feature", "geometry": {"type": "Polygon", "coordinates": [[[-93.1563, 49.7708], [-93.1563, 49.775], [-93.1625, 49.775], [-93.1625, 49.7708], [-93.1563, 49.7708]]]}, "properties": {"company_id": "champion-iron", "jurisdiction": "Ontario", "claim_id": "212149", "claim_name": null, "holder": "(100) CHAMPION BEAR RESOURCES LTD.", "status": "Active", "recorded_date": "2018-04-10", "anniversary_or_expiry": "2027-02-02", "area_ha": null, "tenure_type": "Single Cell Mining Claim", "source": "Ontario MLAS operational claims (OGSEarth / LIO MapServer). Unofficial viewing data, not legal title.", "as_of": "2026-09-20", "role": "focus", "color": "#e8b040"}}, {"type": "Feature", "geometry": {"type": "Polygon", "coordinates": [[[-93.1625, 49.7625], [-93.1625, 49.7667], [-93.1688, 49.7667], [-93.1688, 49.7625], [-93.1625, 49.7625]]]}, "properties": {"company_id": "champion-iron", "jurisdiction": "Ontario", "claim_id": "223677", "claim_name": null, "holder": "(100) CHAMPION BEAR RESOURCES LTD.", "status": "Active", "recorded_date": "2018-04-10", "anniversary_or_expiry": "2027-01-17", "area_ha": null, "tenure_type": "Single Cell Mining Claim", "source": "Ontario MLAS operational claims (OGSEarth / LIO MapServer). Unofficial viewing data, not legal title.", "as_of": "2026-09-20", "role": "focus", "color": "#e8b040"}}, {"type": "Feature", "geometry": {"type": "Polygon", "coordinates": [[[-80.8375, 46.8625], [-80.8375, 46.8667], [-80.8438, 46.8667], [-80.8438, 46.8625], [-80.8375, 46.8625]]]}, "properties": {"company_id": "champion-iron", "jurisdiction": "Ontario", "claim_id": "224121", "claim_name": null, "holder": "(100) CHAMPION BEAR RESOURCES LTD.", "status": "Active", "recorded_date": "2018-04-10", "anniversary_or_expiry": "2027-08-12", "area_ha": null, "tenure_type": "Boundary Cell Mining Claim", "source": "Ontario MLAS operational claims (OGSEarth / LIO MapServer). Unofficial viewing data, not legal title.", "as_of": "2026-09-20", "role": "focus", "color": "#e8b040"}}, {"type": "Feature", "geometry": {"type": "Polygon", "coordinates": [[[-93.1313, 49.7625], [-93.1313, 49.7667], [-93.1375, 49.7667], [-93.1375, 49.7625], [-93.1313, 49.7625]]]}, "properties": {"company_id": "champion-iron", "jurisdiction": "Ontario", "claim_id": "223566", "claim_name": null, "holder": "(100) CHAMPION BEAR RESOURCES LTD.", "status": "Active", "recorded_date": "2018-04-10", "anniversary_or_expiry": "2027-03-06", "area_ha": null, "tenure_type": "Single Cell Mining Claim", "source": "Ontario MLAS operational claims (OGSEarth / LIO MapServer). Unofficial viewing data, not legal title.", "as_of": "2026-09-20", "role": "focus", "color": "#e8b040"}}, {"type": "Feature", "geometry": {"type": "Polygon", "coordinates": [[[-93.1375, 49.7667], [-93.1375, 49.7708], [-93.1438, 49.7708], [-93.1438, 49.7667], [-93.1375, 49.7667]]]}, "properties": {"company_id": "champion-iron", "jurisdiction": "Ontario", "claim_id": "223588", "claim_name": null, "holder": "(100) CHAMPION BEAR RESOURCES LTD.", "status": "Active", "recorded_date": "2018-04-10", "anniversary_or_expiry": "2027-01-17", "area_ha": null, "tenure_type": "Single Cell Mining Claim", "source": "Ontario MLAS operational claims (OGSEarth / LIO MapServer). Unofficial viewing data, not legal title.", "as_of": "2026-09-20", "role": "focus", "color": "#e8b040"}}, {"type": "Feature", "geometry": {"type": "Polygon", "coordinates": [[[-93.1188, 49.7542], [-93.1188, 49.7583], [-93.125, 49.7583], [-93.125, 49.7542], [-93.1188, 49.7542]]]}, "properties": {"company_id": "champion-iron", "jurisdiction": "Ontario", "claim_id": "226385", "claim_name": null, "holder": "(100) CHAMPION BEAR RESOURCES LTD.", "status": "Active", "recorded_date": "2018-04-10", "anniversary_or_expiry": "2027-03-06", "area_ha": null, "tenure_type": "Single Cell Mining Claim", "source": "Ontario MLAS operational claims (OGSEarth / LIO MapServer). Unofficial viewing data, not legal title.", "as_of": "2026-09-20", "role": "focus", "color": "#e8b040"}}, {"type": "Feature", "geometry": {"type": "Polygon", "coordinates": [[[-80.8688, 46.825], [-80.8688, 46.8292], [-80.875, 46.8292], [-80.875, 46.825], [-80.8688, 46.825]]]}, "properties": {"company_id": "champion-iron", "jurisdiction": "Ontario", "claim_id": "227398", "claim_name": null, "holder": "(100) CHAMPION BEAR RESOURCES LTD.", "status": "Active", "recorded_date": "2018-04-10", "anniversary_or_expiry": "2028-01-31", "area_ha": null, "tenure_type": "Boundary Cell Mining Claim", "source": "Ontario MLAS operational claims (OGSEarth / LIO MapServer). Unofficial viewing data, not legal title.", "as_of": "2026-09-20", "role": "focus", "color": "#e8b040"}}, {"type": "Feature", "geometry": {"type": "Polygon", "coordinates": [[[-93.1313, 49.7667], [-93.1313, 49.7708], [-93.1375, 49.7708], [-93.1375, 49.7667], [-93.1313, 49.7667]]]}, "properties": {"company_id": "champion-iron", "jurisdiction": "Ontario", "claim_id": "230940", "claim_name": null, "holder": "(100) CHAMPION BEAR RESOURCES LTD.", "status": "Active", "recorded_date": "2018-04-10", "anniversary_or_expiry": "2027-08-13", "area_ha": null, "tenure_type": "Single Cell Mining Claim", "source": "Ontario MLAS operational claims (OGSEarth / LIO MapServer). Unofficial viewing data, not legal title.", "as_of": "2026-09-20", "role": "focus", "color": "#e8b040"}}, {"type": "Feature", "geometry": {"type": "Polygon", "coordinates": [[[-93.1625, 49.7708], [-93.1625, 49.775], [-93.1688, 49.775], [-93.1688, 49.7708], [-93.1625, 49.7708]]]}, "properties": {"company_id": "champion-iron", "jurisdiction": "Ontario", "claim_id": "230948", "claim_name": null, "holder": "(100) CHAMPION BEAR RESOURCES LTD.", "status": "Active", "recorded_date": "2018-04-10", "anniversary_or_expiry": "2027-02-02", "area_ha": null, "tenure_type": "Single Cell Mining Claim", "source": "Ontario MLAS operational claims (OGSEarth / LIO MapServer). Unofficial viewing data, not legal title.", "as_of": "2026-09-20", "role": "focus", "color": "#e8b040"}}, {"type": "Feature", "geometry": {"type": "Polygon", "coordinates": [[[-80.8688, 46.8417], [-80.8688, 46.8458], [-80.875, 46.8458], [-80.875, 46.8417], [-80.8688, 46.8417]]]}, "properties": {"company_id": "champion-iron", "jurisdiction": "Ontario", "claim_id": "233285", "claim_name": null, "holder": "(100) CHAMPION BEAR RESOURCES LTD.", "status": "Active", "recorded_date": "2018-04-10", "anniversary_or_expiry": "2027-09-02", "area_ha": null, "tenure_type": "Boundary Cell Mining Claim", "source": "Ontario MLAS operational claims (OGSEarth / LIO MapServer). Unofficial viewing data, not legal title.", "as_of": "2026-09-20", "role": "focus", "color": "#e8b040"}}, {"type": "Feature", "geometry": {"type": "Polygon", "coordinates": [[[-93.1063, 49.7708], [-93.1063, 49.775], [-93.1125, 49.775], [-93.1125, 49.7708], [-93.1063, 49.7708]]]}, "properties": {"company_id": "champion-iron", "jurisdiction": "Ontario", "claim_id": "235595", "claim_name": null, "holder": "(100) CHAMPION BEAR RESOURCES LTD.", "status": "Active", "recorded_date": "2018-04-10", "anniversary_or_expiry": "2027-01-24", "area_ha": null, "tenure_type": "Single Cell Mining Claim", "source": "Ontario MLAS operational claims (OGSEarth / LIO MapServer). Unofficial viewing data, not legal title.", "as_of": "2026-09-20", "role": "focus", "color": "#e8b040"}}, {"type": "Feature", "geometry": {"type": "Polygon", "coordinates": [[[-80.8438, 46.8542], [-80.8438, 46.8583], [-80.85, 46.8583], [-80.85, 46.8542], [-80.8438, 46.8542]]]}, "properties": {"company_id": "champion-iron", "jurisdiction": "Ontario", "claim_id": "236834", "claim_name": null, "holder": "(100) CHAMPION BEAR RESOURCES LTD.", "status": "Active", "recorded_date": "2018-04-10", "anniversary_or_expiry": "2027-09-05", "area_ha": null, "tenure_type": "Boundary Cell Mining Claim", "source": "Ontario MLAS operational claims (OGSEarth / LIO MapServer). Unofficial viewing data, not legal title.", "as_of": "2026-09-20", "role": "focus", "color": "#e8b040"}}, {"type": "Feature", "geometry": {"type": "Polygon", "coordinates": [[[-80.8375, 46.875], [-80.8375, 46.8792], [-80.8438, 46.8792], [-80.8438, 46.875], [-80.8375, 46.875]]]}, "properties": {"company_id": "champion-iron", "jurisdiction": "Ontario", "claim_id": "247796", "claim_name": null, "holder": "(100) CHAMPION BEAR RESOURCES LTD.", "status": "Active", "recorded_date": "2018-04-10", "anniversary_or_expiry": "2027-08-21", "area_ha": null, "tenure_type": "Boundary Cell Mining Claim", "source": "Ontario MLAS operational claims (OGSEarth / LIO MapServer). Unofficial viewing data, not legal title.", "as_of": "2026-09-20", "role": "focus", "color": "#e8b040"}}, {"type": "Feature", "geometry": {"type": "Polygon", "coordinates": [[[-93.1125, 49.7542], [-93.1125, 49.7583], [-93.1188, 49.7583], [-93.1188, 49.7542], [-93.1125, 49.7542]]]}, "properties": {"company_id": "champion-iron", "jurisdiction": "Ontario", "claim_id": "265659", "claim_name": null, "holder": "(100) CHAMPION BEAR RESOURCES LTD.", "status": "Active", "recorded_date": "2018-04-10", "anniversary_or_expiry": "2027-03-06", "area_ha": null, "tenure_type": "Single Cell Mining Claim", "source": "Ontario MLAS operational claims (OGSEarth / LIO MapServer). Unofficial viewing data, not legal title.", "as_of": "2026-09-20", "role": "focus", "color": "#e8b040"}}, {"type": "Feature", "geometry": {"type": "Polygon", "coordinates": [[[-81.5813, 46.5708], [-81.5813, 46.575], [-81.5875, 46.575], [-81.5875, 46.5708], [-81.5813, 46.5708]]]}, "properties": {"company_id": "champion-iron", "jurisdiction": "Ontario", "claim_id": "269318", "claim_name": null, "holder": "(50) CHAMPION BEAR RESOURCES LTD., (50) URSA MAJOR MINERALS INCORPORATED", "status": "Active", "recorded_date": "2018-04-10", "anniversary_or_expiry": "2027-08-23", "area_ha": null, "tenure_type": "Boundary Cell Mining Claim", "source": "Ontario MLAS operational claims (OGSEarth / LIO MapServer). Unofficial viewing data, not legal title.", "as_of": "2026-09-20", "role": "focus", "color": "#e8b040"}}, {"type": "Feature", "geometry": {"type": "Polygon", "coordinates": [[[-93.1375, 49.7583], [-93.1375, 49.7625], [-93.1438, 49.7625], [-93.1438, 49.7583], [-93.1375, 49.7583]]]}, "properties": {"company_id": "champion-iron", "jurisdiction": "Ontario", "claim_id": "273608", "claim_name": null, "holder": "(100) CHAMPION BEAR RESOURCES LTD.", "status": "Active", "recorded_date": "2018-04-10", "anniversary_or_expiry": "2027-03-06", "area_ha": null, "tenure_type": "Single Cell Mining Claim", "source": "Ontario MLAS operational claims (OGSEarth / LIO MapServer). Unofficial viewing data, not legal title.", "as_of": "2026-09-20", "role": "focus", "color": "#e8b040"}}, {"type": "Feature", "geometry": {"type": "Polygon", "coordinates": [[[-93.1375, 49.7708], [-93.1375, 49.775], [-93.1438, 49.775], [-93.1438, 49.7708], [-93.1375, 49.7708]]]}, "properties": {"company_id": "champion-iron", "jurisdiction": "Ontario", "claim_id": "279592", "claim_name": null, "holder": "(100) CHAMPION BEAR RESOURCES LTD.", "status": "Active", "recorded_date": "2018-04-10", "anniversary_or_expiry": "2027-01-17", "area_ha": null, "tenure_type": "Single Cell Mining Claim", "source": "Ontario MLAS operational claims (OGSEarth / LIO MapServer). Unofficial viewing data, not legal title.", "as_of": "2026-09-20", "role": "focus", "color": "#e8b040"}}, {"type": "Feature", "geometry": {"type": "Polygon", "coordinates": [[[-93.1375, 49.7625], [-93.1375, 49.7667], [-93.1438, 49.7667], [-93.1438, 49.7625], [-93.1375, 49.7625]]]}, "properties": {"company_id": "champion-iron", "jurisdiction": "Ontario", "claim_id": "277532", "claim_name": null, "holder": "(100) CHAMPION BEAR RESOURCES LTD.", "status": "Active", "recorded_date": "2018-04-10", "anniversary_or_expiry": "2027-01-17", "area_ha": null, "tenure_type": "Single Cell Mining Claim", "source": "Ontario MLAS operational claims (OGSEarth / LIO MapServer). Unofficial viewing data, not legal title.", "as_of": "2026-09-20", "role": "focus", "color": "#e8b040"}}, {"type": "Feature", "geometry": {"type": "Polygon", "coordinates": [[[-93.1688, 49.7708], [-93.1688, 49.775], [-93.175, 49.775], [-93.175, 49.7708], [-93.1688, 49.7708]]]}, "properties": {"company_id": "champion-iron", "jurisdiction": "Ontario", "claim_id": "278172", "claim_name": null, "holder": "(100) CHAMPION BEAR RESOURCES LTD.", "status": "Active", "recorded_date": "2018-04-10", "anniversary_or_expiry": "2027-02-02", "area_ha": null, "tenure_type": "Single Cell Mining Claim", "source": "Ontario MLAS operational claims (OGSEarth / LIO MapServer). Unofficial viewing data, not legal title.", "as_of": "2026-09-20", "role": "focus", "color": "#e8b040"}}, {"type": "Feature", "geometry": {"type": "Polygon", "coordinates": [[[-93.1625, 49.775], [-93.1625, 49.7792], [-93.1688, 49.7792], [-93.1688, 49.775], [-93.1625, 49.775]]]}, "properties": {"company_id": "champion-iron", "jurisdiction": "Ontario", "claim_id": "279681", "claim_name": null, "holder": "(100) CHAMPION BEAR RESOURCES LTD.", "status": "Active", "recorded_date": "2018-04-10", "anniversary_or_expiry": "2027-02-02", "area_ha": null, "tenure_type": "Single Cell Mining Claim", "source": "Ontario MLAS operational claims (OGSEarth / LIO MapServer). Unofficial viewing data, not legal title.", "as_of": "2026-09-20", "role": "focus", "color": "#e8b040"}}, {"type": "Feature", "geometry": {"type": "Polygon", "coordinates": [[[-80.8688, 46.8333], [-80.8688, 46.8375], [-80.875, 46.8375], [-80.875, 46.8333], [-80.8688, 46.8333]]]}, "properties": {"company_id": "champion-iron", "jurisdiction": "Ontario", "claim_id": "284702", "claim_name": null, "holder": "(100) CHAMPION BEAR RESOURCES LTD.", "status": "Active", "recorded_date": "2018-04-10", "anniversary_or_expiry": "2027-09-02", "area_ha": null, "tenure_type": "Boundary Cell Mining Claim", "source": "Ontario MLAS operational claims (OGSEarth / LIO MapServer). Unofficial viewing data, not legal title.", "as_of": "2026-09-20", "role": "focus", "color": "#e8b040"}}, {"type": "Feature", "geometry": {"type": "Polygon", "coordinates": [[[-80.8375, 46.8833], [-80.8375, 46.8875], [-80.8438, 46.8875], [-80.8438, 46.8833], [-80.8375, 46.8833]]]}, "properties": {"company_id": "champion-iron", "jurisdiction": "Ontario", "claim_id": "284734", "claim_name": null, "holder": "(100) CHAMPION BEAR RESOURCES LTD.", "status": "Active", "recorded_date": "2018-04-10", "anniversary_or_expiry": "2027-12-30", "area_ha": null, "tenure_type": "Boundary Cell Mining Claim", "source": "Ontario MLAS operational claims (OGSEarth / LIO MapServer). Unofficial viewing data, not legal title.", "as_of": "2026-09-20", "role": "focus", "color": "#e8b040"}}, {"type": "Feature", "geometry": {"type": "Polygon", "coordinates": [[[-93.1188, 49.7625], [-93.1188, 49.7667], [-93.125, 49.7667], [-93.125, 49.7625], [-93.1188, 49.7625]]]}, "properties": {"company_id": "champion-iron", "jurisdiction": "Ontario", "claim_id": "291111", "claim_name": null, "holder": "(100) CHAMPION BEAR RESOURCES LTD.", "status": "Active", "recorded_date": "2018-04-10", "anniversary_or_expiry": "2027-03-06", "area_ha": null, "tenure_type": "Single Cell Mining Claim", "source": "Ontario MLAS operational claims (OGSEarth / LIO MapServer). Unofficial viewing data, not legal title.", "as_of": "2026-09-20", "role": "focus", "color": "#e8b040"}}, {"type": "Feature", "geometry": {"type": "Polygon", "coordinates": [[[-80.8438, 46.8583], [-80.8438, 46.8625], [-80.85, 46.8625], [-80.85, 46.8583], [-80.8438, 46.8583]]]}, "properties": {"company_id": "champion-iron", "jurisdiction": "Ontario", "claim_id": "291519", "claim_name": null, "holder": "(100) CHAMPION BEAR RESOURCES LTD.", "status": "Active", "recorded_date": "2018-04-10", "anniversary_or_expiry": "2027-08-21", "area_ha": null, "tenure_type": "Boundary Cell Mining Claim", "source": "Ontario MLAS operational claims (OGSEarth / LIO MapServer). Unofficial viewing data, not legal title.", "as_of": "2026-09-20", "role": "focus", "color": "#e8b040"}}, {"type": "Feature", "geometry": {"type": "Polygon", "coordinates": [[[-80.8438, 46.8375], [-80.8438, 46.8417], [-80.85, 46.8417], [-80.85, 46.8375], [-80.8438, 46.8375]]]}, "properties": {"company_id": "champion-iron", "jurisdiction": "Ontario", "claim_id": "294132", "claim_name": null, "holder": "(100) CHAMPION BEAR RESOURCES LTD.", "status": "Active", "recorded_date": "2018-04-10", "anniversary_or_expiry": "2027-09-05", "area_ha": null, "tenure_type": "Boundary Cell Mining Claim", "source": "Ontario MLAS operational claims (OGSEarth / LIO MapServer). Unofficial viewing data, not legal title.", "as_of": "2026-09-20", "role": "focus", "color": "#e8b040"}}, {"type": "Feature", "geometry": {"type": "Polygon", "coordinates": [[[-81.5938, 46.5958], [-81.5938, 46.6], [-81.6, 46.6], [-81.6, 46.5958], [-81.5938, 46.5958]]]}, "properties": {"company_id": "champion-iron", "jurisdiction": "Ontario", "claim_id": "296222", "claim_name": null, "holder": "(50) CHAMPION BEAR RESOURCES LTD., (50) URSA MAJOR MINERALS INCORPORATED", "status": "Active", "recorded_date": "2018-04-10", "anniversary_or_expiry": "2027-08-23", "area_ha": null, "tenure_type": "Single Cell Mining Claim", "source": "Ontario MLAS operational claims (OGSEarth / LIO MapServer). Unofficial viewing data, not legal title.", "as_of": "2026-09-20", "role": "focus", "color": "#e8b040"}}, {"type": "Feature", "geometry": {"type": "Polygon", "coordinates": [[[-93.15, 49.7667], [-93.15, 49.7708], [-93.1563, 49.7708], [-93.1563, 49.7667], [-93.15, 49.7667]]]}, "properties": {"company_id": "champion-iron", "jurisdiction": "Ontario", "claim_id": "296980", "claim_name": null, "holder": "(100) CHAMPION BEAR RESOURCES LTD.", "status": "Active", "recorded_date": "2018-04-10", "anniversary_or_expiry": "2027-01-17", "area_ha": null, "tenure_type": "Single Cell Mining Claim", "source": "Ontario MLAS operational claims (OGSEarth / LIO MapServer). Unofficial viewing data, not legal title.", "as_of": "2026-09-20", "role": "focus", "color": "#e8b040"}}, {"type": "Feature", "geometry": {"type": "Polygon", "coordinates": [[[-93.1563, 49.7667], [-93.1563, 49.7708], [-93.1625, 49.7708], [-93.1625, 49.7667], [-93.1563, 49.7667]]]}, "properties": {"company_id": "champion-iron", "jurisdiction": "Ontario", "claim_id": "296981", "claim_name": null, "holder": "(100) CHAMPION BEAR RESOURCES LTD.", "status": "Active", "recorded_date": "2018-04-10", "anniversary_or_expiry": "2027-01-17", "area_ha": null, "tenure_type": "Single Cell Mining Claim", "source": "Ontario MLAS operational claims (OGSEarth / LIO MapServer). Unofficial viewing data, not legal title.", "as_of": "2026-09-20", "role": "focus", "color": "#e8b040"}}, {"type": "Feature", "geometry": {"type": "Polygon", "coordinates": [[[-80.8375, 46.8667], [-80.8375, 46.8708], [-80.8438, 46.8708], [-80.8438, 46.8667], [-80.8375, 46.8667]]]}, "properties": {"company_id": "champion-iron", "jurisdiction": "Ontario", "claim_id": "301705", "claim_name": null, "holder": "(100) CHAMPION BEAR RESOURCES LTD.", "status": "Active", "recorded_date": "2018-04-10", "anniversary_or_expiry": "2027-08-21", "area_ha": null, "tenure_type": "Boundary Cell Mining Claim", "source": "Ontario MLAS operational claims (OGSEarth / LIO MapServer). Unofficial viewing data, not legal title.", "as_of": "2026-09-20", "role": "focus", "color": "#e8b040"}}, {"type": "Feature", "geometry": {"type": "Polygon", "coordinates": [[[-80.8438, 46.8667], [-80.8438, 46.8708], [-80.85, 46.8708], [-80.85, 46.8667], [-80.8438, 46.8667]]]}, "properties": {"company_id": "champion-iron", "jurisdiction": "Ontario", "claim_id": "308652", "claim_name": null, "holder": "(100) CHAMPION BEAR RESOURCES LTD.", "status": "Active", "recorded_date": "2018-04-10", "anniversary_or_expiry": "2027-08-21", "area_ha": null, "tenure_type": "Boundary Cell Mining Claim", "source": "Ontario MLAS operational claims (OGSEarth / LIO MapServer). Unofficial viewing data, not legal title.", "as_of": "2026-09-20", "role": "focus", "color": "#e8b040"}}, {"type": "Feature", "geometry": {"type": "Polygon", "coordinates": [[[-81.5875, 46.5875], [-81.5875, 46.5917], [-81.5938, 46.5917], [-81.5938, 46.5875], [-81.5875, 46.5875]]]}, "properties": {"company_id": "champion-iron", "jurisdiction": "Ontario", "claim_id": "311445", "claim_name": null, "holder": "(50) CHAMPION BEAR RESOURCES LTD., (50) URSA MAJOR MINERALS INCORPORATED", "status": "Active", "recorded_date": "2018-04-10", "anniversary_or_expiry": "2027-05-06", "area_ha": null, "tenure_type": "Single Cell Mining Claim", "source": "Ontario MLAS operational claims (OGSEarth / LIO MapServer). Unofficial viewing data, not legal title.", "as_of": "2026-09-20", "role": "focus", "color": "#e8b040"}}, {"type": "Feature", "geometry": {"type": "Polygon", "coordinates": [[[-93.125, 49.7542], [-93.125, 49.7583], [-93.1313, 49.7583], [-93.1313, 49.7542], [-93.125, 49.7542]]]}, "properties": {"company_id": "champion-iron", "jurisdiction": "Ontario", "claim_id": "321732", "claim_name": null, "holder": "(100) CHAMPION BEAR RESOURCES LTD.", "status": "Active", "recorded_date": "2018-04-10", "anniversary_or_expiry": "2027-03-06", "area_ha": null, "tenure_type": "Single Cell Mining Claim", "source": "Ontario MLAS operational claims (OGSEarth / LIO MapServer). Unofficial viewing data, not legal title.", "as_of": "2026-09-20", "role": "focus", "color": "#e8b040"}}, {"type": "Feature", "geometry": {"type": "Polygon", "coordinates": [[[-93.1313, 49.7542], [-93.1313, 49.7583], [-93.1375, 49.7583], [-93.1375, 49.7542], [-93.1313, 49.7542]]]}, "properties": {"company_id": "champion-iron", "jurisdiction": "Ontario", "claim_id": "321733", "claim_name": null, "holder": "(100) CHAMPION BEAR RESOURCES LTD.", "status": "Active", "recorded_date": "2018-04-10", "anniversary_or_expiry": "2027-03-06", "area_ha": null, "tenure_type": "Single Cell Mining Claim", "source": "Ontario MLAS operational claims (OGSEarth / LIO MapServer). Unofficial viewing data, not legal title.", "as_of": "2026-09-20", "role": "focus", "color": "#e8b040"}}, {"type": "Feature", "geometry": {"type": "Polygon", "coordinates": [[[-81.5813, 46.575], [-81.5813, 46.5792], [-81.5875, 46.5792], [-81.5875, 46.575], [-81.5813, 46.575]]]}, "properties": {"company_id": "champion-iron", "jurisdiction": "Ontario", "claim_id": "324160", "claim_name": null, "holder": "(50) CHAMPION BEAR RESOURCES LTD., (50) URSA MAJOR MINERALS INCORPORATED", "status": "Active", "recorded_date": "2018-04-10", "anniversary_or_expiry": "2027-08-23", "area_ha": null, "tenure_type": "Boundary Cell Mining Claim", "source": "Ontario MLAS operational claims (OGSEarth / LIO MapServer). Unofficial viewing data, not legal title.", "as_of": "2026-09-20", "role": "focus", "color": "#e8b040"}}, {"type": "Feature", "geometry": {"type": "Polygon", "coordinates": [[[-93.1688, 49.7625], [-93.1688, 49.7667], [-93.175, 49.7667], [-93.175, 49.7625], [-93.1688, 49.7625]]]}, "properties": {"company_id": "champion-iron", "jurisdiction": "Ontario", "claim_id": "326765", "claim_name": null, "holder": "(100) CHAMPION BEAR RESOURCES LTD.", "status": "Active", "recorded_date": "2018-04-10", "anniversary_or_expiry": "2027-01-17", "area_ha": null, "tenure_type": "Single Cell Mining Claim", "source": "Ontario MLAS operational claims (OGSEarth / LIO MapServer). Unofficial viewing data, not legal title.", "as_of": "2026-09-20", "role": "focus", "color": "#e8b040"}}, {"type": "Feature", "geometry": {"type": "Polygon", "coordinates": [[[-93.1125, 49.7583], [-93.1125, 49.7625], [-93.1188, 49.7625], [-93.1188, 49.7583], [-93.1125, 49.7583]]]}, "properties": {"company_id": "champion-iron", "jurisdiction": "Ontario", "claim_id": "330867", "claim_name": null, "holder": "(100) CHAMPION BEAR RESOURCES LTD.", "status": "Active", "recorded_date": "2018-04-10", "anniversary_or_expiry": "2027-03-06", "area_ha": null, "tenure_type": "Single Cell Mining Claim", "source": "Ontario MLAS operational claims (OGSEarth / LIO MapServer). Unofficial viewing data, not legal title.", "as_of": "2026-09-20", "role": "focus", "color": "#e8b040"}}, {"type": "Feature", "geometry": {"type": "Polygon", "coordinates": [[[-93.125, 49.775], [-93.125, 49.7792], [-93.1313, 49.7792], [-93.1313, 49.775], [-93.125, 49.775]]]}, "properties": {"company_id": "champion-iron", "jurisdiction": "Ontario", "claim_id": "330909", "claim_name": null, "holder": "(100) CHAMPION BEAR RESOURCES LTD.", "status": "Active", "recorded_date": "2018-04-10", "anniversary_or_expiry": "2027-01-24", "area_ha": null, "tenure_type": "Single Cell Mining Claim", "source": "Ontario MLAS operational claims (OGSEarth / LIO MapServer). Unofficial viewing data, not legal title.", "as_of": "2026-09-20", "role": "focus", "color": "#e8b040"}}, {"type": "Feature", "geometry": {"type": "Polygon", "coordinates": [[[-93.1125, 49.7708], [-93.1125, 49.775], [-93.1188, 49.775], [-93.1188, 49.7708], [-93.1125, 49.7708]]]}, "properties": {"company_id": "champion-iron", "jurisdiction": "Ontario", "claim_id": "330910", "claim_name": null, "holder": "(100) CHAMPION BEAR RESOURCES LTD.", "status": "Active", "recorded_date": "2018-04-10", "anniversary_or_expiry": "2027-01-24", "area_ha": null, "tenure_type": "Single Cell Mining Claim", "source": "Ontario MLAS operational claims (OGSEarth / LIO MapServer). Unofficial viewing data, not legal title.", "as_of": "2026-09-20", "role": "focus", "color": "#e8b040"}}, {"type": "Feature", "geometry": {"type": "Polygon", "coordinates": [[[-93.1188, 49.7708], [-93.1188, 49.775], [-93.125, 49.775], [-93.125, 49.7708], [-93.1188, 49.7708]]]}, "properties": {"company_id": "champion-iron", "jurisdiction": "Ontario", "claim_id": "330911", "claim_name": null, "holder": "(100) CHAMPION BEAR RESOURCES LTD.", "status": "Active", "recorded_date": "2018-04-10", "anniversary_or_expiry": "2027-01-24", "area_ha": null, "tenure_type": "Single Cell Mining Claim", "source": "Ontario MLAS operational claims (OGSEarth / LIO MapServer). Unofficial viewing data, not legal title.", "as_of": "2026-09-20", "role": "focus", "color": "#e8b040"}}, {"type": "Feature", "geometry": {"type": "Polygon", "coordinates": [[[-81.6063, 46.6125], [-81.6063, 46.6167], [-81.6125, 46.6167], [-81.6125, 46.6125], [-81.6063, 46.6125]]]}, "properties": {"company_id": "champion-iron", "jurisdiction": "Ontario", "claim_id": "340328", "claim_name": null, "holder": "(50) CHAMPION BEAR RESOURCES LTD., (50) URSA MAJOR MINERALS INCORPORATED", "status": "Active", "recorded_date": "2018-04-10", "anniversary_or_expiry": "2027-03-18", "area_ha": null, "tenure_type": "Boundary Cell Mining Claim", "source": "Ontario MLAS operational claims (OGSEarth / LIO MapServer). Unofficial viewing data, not legal title.", "as_of": "2026-09-20", "role": "focus", "color": "#e8b040"}}, {"type": "Feature", "geometry": {"type": "Polygon", "coordinates": [[[-93.1313, 49.7583], [-93.1313, 49.7625], [-93.1375, 49.7625], [-93.1375, 49.7583], [-93.1313, 49.7583]]]}, "properties": {"company_id": "champion-iron", "jurisdiction": "Ontario", "claim_id": "343227", "claim_name": null, "holder": "(100) CHAMPION BEAR RESOURCES LTD.", "status": "Active", "recorded_date": "2018-04-10", "anniversary_or_expiry": "2027-03-06", "area_ha": null, "tenure_type": "Single Cell Mining Claim", "source": "Ontario MLAS operational claims (OGSEarth / LIO MapServer). Unofficial viewing data, not legal title.", "as_of": "2026-09-20", "role": "focus", "color": "#e8b040"}}, {"type": "Feature", "geometry": {"type": "Polygon", "coordinates": [[[-93.1063, 49.775], [-93.1063, 49.7792], [-93.1125, 49.7792], [-93.1125, 49.775], [-93.1063, 49.775]]]}, "properties": {"company_id": "champion-iron", "jurisdiction": "Ontario", "claim_id": "343266", "claim_name": null, "holder": "(100) CHAMPION BEAR RESOURCES LTD.", "status": "Active", "recorded_date": "2018-04-10", "anniversary_or_expiry": "2027-01-24", "area_ha": null, "tenure_type": "Single Cell Mining Claim", "source": "Ontario MLAS operational claims (OGSEarth / LIO MapServer). Unofficial viewing data, not legal title.", "as_of": "2026-09-20", "role": "focus", "color": "#e8b040"}}, {"type": "Feature", "geometry": {"type": "Polygon", "coordinates": [[[-81.6188, 46.6042], [-81.6188, 46.6], [-81.6063, 46.6], [-81.6063, 46.6125], [-81.6188, 46.6125], [-81.6188, 46.6042]]]}, "properties": {"company_id": "champion-iron", "jurisdiction": "Ontario", "claim_id": "553172", "claim_name": null, "holder": "(50) CHAMPION BEAR RESOURCES LTD., (50) URSA MAJOR MINERALS INCORPORATED", "status": "Active", "recorded_date": "2019-07-04", "anniversary_or_expiry": "2027-03-18", "area_ha": null, "tenure_type": "Multi-cell Mining Claim", "source": "Ontario MLAS operational claims (OGSEarth / LIO MapServer). Unofficial viewing data, not legal title.", "as_of": "2026-09-20", "role": "focus", "color": "#e8b040"}}, {"type": "Feature", "geometry": {"type": "Polygon", "coordinates": [[[-81.6188, 46.5917], [-81.6188, 46.5875], [-81.6063, 46.5875], [-81.6063, 46.6], [-81.6188, 46.6], [-81.6188, 46.5917]]]}, "properties": {"company_id": "champion-iron", "jurisdiction": "Ontario", "claim_id": "553173", "claim_name": null, "holder": "(50) CHAMPION BEAR RESOURCES LTD., (50) URSA MAJOR MINERALS INCORPORATED", "status": "Active", "recorded_date": "2019-07-04", "anniversary_or_expiry": "2027-08-23", "area_ha": null, "tenure_type": "Multi-cell Mining Claim", "source": "Ontario MLAS operational claims (OGSEarth / LIO MapServer). Unofficial viewing data, not legal title.", "as_of": "2026-09-20", "role": "focus", "color": "#e8b040"}}, {"type": "Feature", "geometry": {"type": "Polygon", "coordinates": [[[-81.6063, 46.5917], [-81.6063, 46.5875], [-81.5938, 46.5875], [-81.5938, 46.5958], [-81.6, 46.5958], [-81.6, 46.6], [-81.6063, 46.6], [-81.6063, 46.5917]]]}, "properties": {"company_id": "champion-iron", "jurisdiction": "Ontario", "claim_id": "553174", "claim_name": null, "holder": "(50) CHAMPION BEAR RESOURCES LTD., (50) URSA MAJOR MINERALS INCORPORATED", "status": "Active", "recorded_date": "2019-07-04", "anniversary_or_expiry": "2027-08-23", "area_ha": null, "tenure_type": "Multi-cell Mining Claim", "source": "Ontario MLAS operational claims (OGSEarth / LIO MapServer). Unofficial viewing data, not legal title.", "as_of": "2026-09-20", "role": "focus", "color": "#e8b040"}}, {"type": "Feature", "geometry": {"type": "Polygon", "coordinates": [[[-81.6125, 46.5833], [-81.6063, 46.5833], [-81.6063, 46.5792], [-81.5938, 46.5792], [-81.5938, 46.5875], [-81.6125, 46.5875], [-81.6125, 46.5833]]]}, "properties": {"company_id": "champion-iron", "jurisdiction": "Ontario", "claim_id": "553175", "claim_name": null, "holder": "(50) CHAMPION BEAR RESOURCES LTD., (50) URSA MAJOR MINERALS INCORPORATED", "status": "Active", "recorded_date": "2019-07-04", "anniversary_or_expiry": "2027-08-23", "area_ha": null, "tenure_type": "Multi-cell Mining Claim", "source": "Ontario MLAS operational claims (OGSEarth / LIO MapServer). Unofficial viewing data, not legal title.", "as_of": "2026-09-20", "role": "focus", "color": "#e8b040"}}, {"type": "Feature", "geometry": {"type": "Polygon", "coordinates": [[[-81.5938, 46.5833], [-81.5938, 46.5792], [-81.575, 46.5792], [-81.575, 46.5833], [-81.5813, 46.5833], [-81.5813, 46.5875], [-81.5938, 46.5875], [-81.5938, 46.5833]]]}, "properties": {"company_id": "champion-iron", "jurisdiction": "Ontario", "claim_id": "553176", "claim_name": null, "holder": "(50) CHAMPION BEAR RESOURCES LTD., (50) URSA MAJOR MINERALS INCORPORATED", "status": "Active", "recorded_date": "2019-07-04", "anniversary_or_expiry": "2027-05-06", "area_ha": null, "tenure_type": "Multi-cell Mining Claim", "source": "Ontario MLAS operational claims (OGSEarth / LIO MapServer). Unofficial viewing data, not legal title.", "as_of": "2026-09-20", "role": "focus", "color": "#e8b040"}}, {"type": "Feature", "geometry": {"type": "Polygon", "coordinates": [[[-81.6, 46.575], [-81.6, 46.5708], [-81.5938, 46.5708], [-81.5938, 46.5667], [-81.5875, 46.5667], [-81.5875, 46.5792], [-81.6, 46.5792], [-81.6, 46.575]]]}, "properties": {"company_id": "champion-iron", "jurisdiction": "Ontario", "claim_id": "553177", "claim_name": null, "holder": "(50) CHAMPION BEAR RESOURCES LTD., (50) URSA MAJOR MINERALS INCORPORATED", "status": "Active", "recorded_date": "2019-07-04", "anniversary_or_expiry": "2027-08-23", "area_ha": null, "tenure_type": "Multi-cell Mining Claim", "source": "Ontario MLAS operational claims (OGSEarth / LIO MapServer). Unofficial viewing data, not legal title.", "as_of": "2026-09-20", "role": "focus", "color": "#e8b040"}}, {"type": "Feature", "geometry": {"type": "Polygon", "coordinates": [[[-80.8563, 46.875], [-80.8563, 46.8708], [-80.8438, 46.8708], [-80.8438, 46.8833], [-80.85, 46.8833], [-80.85, 46.8792], [-80.8563, 46.8792], [-80.8563, 46.875]]]}, "properties": {"company_id": "champion-iron", "jurisdiction": "Ontario", "claim_id": "557538", "claim_name": null, "holder": "(100) CHAMPION BEAR RESOURCES LTD.", "status": "Active", "recorded_date": "2019-09-11", "anniversary_or_expiry": "2027-08-21", "area_ha": null, "tenure_type": "Multi-cell Mining Claim", "source": "Ontario MLAS operational claims (OGSEarth / LIO MapServer). Unofficial viewing data, not legal title.", "as_of": "2026-09-20", "role": "focus", "color": "#e8b040"}}, {"type": "Feature", "geometry": {"type": "Polygon", "coordinates": [[[-80.8625, 46.8667], [-80.8625, 46.8625], [-80.85, 46.8625], [-80.85, 46.8708], [-80.8625, 46.8708], [-80.8625, 46.8667]]]}, "properties": {"company_id": "champion-iron", "jurisdiction": "Ontario", "claim_id": "557539", "claim_name": null, "holder": "(100) CHAMPION BEAR RESOURCES LTD.", "status": "Active", "recorded_date": "2019-09-11", "anniversary_or_expiry": "2027-08-21", "area_ha": null, "tenure_type": "Multi-cell Mining Claim", "source": "Ontario MLAS operational claims (OGSEarth / LIO MapServer). Unofficial viewing data, not legal title.", "as_of": "2026-09-20", "role": "focus", "color": "#e8b040"}}, {"type": "Feature", "geometry": {"type": "Polygon", "coordinates": [[[-80.8688, 46.8583], [-80.8688, 46.8542], [-80.85, 46.8542], [-80.85, 46.8625], [-80.8688, 46.8625], [-80.8688, 46.8583]]]}, "properties": {"company_id": "champion-iron", "jurisdiction": "Ontario", "claim_id": "557540", "claim_name": null, "holder": "(100) CHAMPION BEAR RESOURCES LTD.", "status": "Active", "recorded_date": "2019-09-11", "anniversary_or_expiry": "2027-08-21", "area_ha": null, "tenure_type": "Multi-cell Mining Claim", "source": "Ontario MLAS operational claims (OGSEarth / LIO MapServer). Unofficial viewing data, not legal title.", "as_of": "2026-09-20", "role": "focus", "color": "#e8b040"}}, {"type": "Feature", "geometry": {"type": "Polygon", "coordinates": [[[-80.8688, 46.85], [-80.8688, 46.8458], [-80.85, 46.8458], [-80.85, 46.8542], [-80.8688, 46.8542], [-80.8688, 46.85]]]}, "properties": {"company_id": "champion-iron", "jurisdiction": "Ontario", "claim_id": "557541", "claim_name": null, "holder": "(100) CHAMPION BEAR RESOURCES LTD.", "status": "Active", "recorded_date": "2019-09-11", "anniversary_or_expiry": "2027-09-05", "area_ha": null, "tenure_type": "Multi-cell Mining Claim", "source": "Ontario MLAS operational claims (OGSEarth / LIO MapServer). Unofficial viewing data, not legal title.", "as_of": "2026-09-20", "role": "focus", "color": "#e8b040"}}, {"type": "Feature", "geometry": {"type": "Polygon", "coordinates": [[[-80.8688, 46.8417], [-80.8688, 46.8375], [-80.85, 46.8375], [-80.85, 46.8458], [-80.8688, 46.8458], [-80.8688, 46.8417]]]}, "properties": {"company_id": "champion-iron", "jurisdiction": "Ontario", "claim_id": "557545", "claim_name": null, "holder": "(100) CHAMPION BEAR RESOURCES LTD.", "status": "Active", "recorded_date": "2019-09-11", "anniversary_or_expiry": "2027-09-02", "area_ha": null, "tenure_type": "Multi-cell Mining Claim", "source": "Ontario MLAS operational claims (OGSEarth / LIO MapServer). Unofficial viewing data, not legal title.", "as_of": "2026-09-20", "role": "focus", "color": "#e8b040"}}, {"type": "Feature", "geometry": {"type": "Polygon", "coordinates": [[[-80.8688, 46.8292], [-80.8688, 46.825], [-80.8563, 46.825], [-80.8563, 46.8333], [-80.85, 46.8333], [-80.85, 46.8375], [-80.8688, 46.8375], [-80.8688, 46.8292]]]}, "properties": {"company_id": "champion-iron", "jurisdiction": "Ontario", "claim_id": "557546", "claim_name": null, "holder": "(100) CHAMPION BEAR RESOURCES LTD.", "status": "Active", "recorded_date": "2019-09-11", "anniversary_or_expiry": "2028-02-05", "area_ha": null, "tenure_type": "Multi-cell Mining Claim", "source": "Ontario MLAS operational claims (OGSEarth / LIO MapServer). Unofficial viewing data, not legal title.", "as_of": "2026-09-20", "role": "focus", "color": "#e8b040"}}, {"type": "Feature", "geometry": {"type": "Polygon", "coordinates": [[[-92.6563, 49.2167], [-92.6563, 49.2208], [-92.6625, 49.2208], [-92.6625, 49.2167], [-92.6563, 49.2167]]]}, "properties": {"company_id": "champion-iron", "jurisdiction": "Ontario", "claim_id": "621865", "claim_name": null, "holder": "(99) CHAMPION BEAR RESOURCES LTD., (1) Gravel Ridge Resources Ltd.", "status": "Active", "recorded_date": "2020-12-02", "anniversary_or_expiry": "2026-12-02", "area_ha": null, "tenure_type": "Single Cell Mining Claim", "source": "Ontario MLAS operational claims (OGSEarth / LIO MapServer). Unofficial viewing data, not legal title.", "as_of": "2026-09-20", "role": "focus", "color": "#e8b040"}}, {"type": "Feature", "geometry": {"type": "Polygon", "coordinates": [[[-92.6375, 49.2167], [-92.6375, 49.2208], [-92.6438, 49.2208], [-92.6438, 49.2167], [-92.6375, 49.2167]]]}, "properties": {"company_id": "champion-iron", "jurisdiction": "Ontario", "claim_id": "621866", "claim_name": null, "holder": "(100) CHAMPION BEAR RESOURCES LTD.", "status": "Active", "recorded_date": "2020-12-02", "anniversary_or_expiry": "2026-12-02", "area_ha": null, "tenure_type": "Single Cell Mining Claim", "source": "Ontario MLAS operational claims (OGSEarth / LIO MapServer). Unofficial viewing data, not legal title.", "as_of": "2026-09-20", "role": "focus", "color": "#e8b040"}}, {"type": "Feature", "geometry": {"type": "Polygon", "coordinates": [[[-92.6438, 49.2167], [-92.6438, 49.2208], [-92.65, 49.2208], [-92.65, 49.2167], [-92.6438, 49.2167]]]}, "properties": {"company_id": "champion-iron", "jurisdiction": "Ontario", "claim_id": "621867", "claim_name": null, "holder": "(100) CHAMPION BEAR RESOURCES LTD.", "status": "Active", "recorded_date": "2020-12-02", "anniversary_or_expiry": "2026-12-02", "area_ha": null, "tenure_type": "Single Cell Mining Claim", "source": "Ontario MLAS operational claims (OGSEarth / LIO MapServer). Unofficial viewing data, not legal title.", "as_of": "2026-09-20", "role": "focus", "color": "#e8b040"}}, {"type": "Feature", "geometry": {"type": "Polygon", "coordinates": [[[-92.6313, 49.2167], [-92.6313, 49.2208], [-92.6375, 49.2208], [-92.6375, 49.2167], [-92.6313, 49.2167]]]}, "properties": {"company_id": "champion-iron", "jurisdiction": "Ontario", "claim_id": "621868", "claim_name": null, "holder": "(100) CHAMPION BEAR RESOURCES LTD.", "status": "Active", "recorded_date": "2020-12-02", "anniversary_or_expiry": "2026-12-02", "area_ha": null, "tenure_type": "Single Cell Mining Claim", "source": "Ontario MLAS operational claims (OGSEarth / LIO MapServer). Unofficial viewing data, not legal title.", "as_of": "2026-09-20", "role": "focus", "color": "#e8b040"}}, {"type": "Feature", "geometry": {"type": "Polygon", "coordinates": [[[-92.6375, 49.2125], [-92.6375, 49.2167], [-92.6438, 49.2167], [-92.6438, 49.2125], [-92.6375, 49.2125]]]}, "properties": {"company_id": "champion-iron", "jurisdiction": "Ontario", "claim_id": "621869", "claim_name": null, "holder": "(100) CHAMPION BEAR RESOURCES LTD.", "status": "Active", "recorded_date": "2020-12-02", "anniversary_or_expiry": "2026-12-02", "area_ha": null, "tenure_type": "Single Cell Mining Claim", "source": "Ontario MLAS operational claims (OGSEarth / LIO MapServer). Unofficial viewing data, not legal title.", "as_of": "2026-09-20", "role": "focus", "color": "#e8b040"}}, {"type": "Feature", "geometry": {"type": "Polygon", "coordinates": [[[-92.65, 49.2167], [-92.65, 49.2208], [-92.6563, 49.2208], [-92.6563, 49.2167], [-92.65, 49.2167]]]}, "properties": {"company_id": "champion-iron", "jurisdiction": "Ontario", "claim_id": "621870", "claim_name": null, "holder": "(100) CHAMPION BEAR RESOURCES LTD.", "status": "Active", "recorded_date": "2020-12-02", "anniversary_or_expiry": "2026-12-02", "area_ha": null, "tenure_type": "Single Cell Mining Claim", "source": "Ontario MLAS operational claims (OGSEarth / LIO MapServer). Unofficial viewing data, not legal title.", "as_of": "2026-09-20", "role": "focus", "color": "#e8b040"}}, {"type": "Feature", "geometry": {"type": "Polygon", "coordinates": [[[-92.6313, 49.2125], [-92.6313, 49.2167], [-92.6375, 49.2167], [-92.6375, 49.2125], [-92.6313, 49.2125]]]}, "properties": {"company_id": "champion-iron", "jurisdiction": "Ontario", "claim_id": "621871", "claim_name": null, "holder": "(100) CHAMPION BEAR RESOURCES LTD.", "status": "Active", "recorded_date": "2020-12-02", "anniversary_or_expiry": "2026-12-02", "area_ha": null, "tenure_type": "Single Cell Mining Claim", "source": "Ontario MLAS operational claims (OGSEarth / LIO MapServer). Unofficial viewing data, not legal title.", "as_of": "2026-09-20", "role": "focus", "color": "#e8b040"}}, {"type": "Feature", "geometry": {"type": "Polygon", "coordinates": [[[-92.7063, 49.175], [-92.7063, 49.1792], [-92.7125, 49.1792], [-92.7125, 49.175], [-92.7063, 49.175]]]}, "properties": {"company_id": "champion-iron", "jurisdiction": "Ontario", "claim_id": "865388", "claim_name": null, "holder": "(100) CHAMPION BEAR RESOURCES LTD.", "status": "Active", "recorded_date": "2023-10-28", "anniversary_or_expiry": "2025-10-28", "area_ha": null, "tenure_type": "Single Cell Mining Claim", "source": "Ontario MLAS operational claims (OGSEarth / LIO MapServer). Unofficial viewing data, not legal title.", "as_of": "2026-09-20", "role": "focus", "color": "#e8b040"}}, {"type": "Feature", "geometry": {"type": "Polygon", "coordinates": [[[-92.7063, 49.1792], [-92.7063, 49.1833], [-92.7125, 49.1833], [-92.7125, 49.1792], [-92.7063, 49.1792]]]}, "properties": {"company_id": "champion-iron", "jurisdiction": "Ontario", "claim_id": "865389", "claim_name": null, "holder": "(100) CHAMPION BEAR RESOURCES LTD.", "status": "Active", "recorded_date": "2023-10-28", "anniversary_or_expiry": "2025-10-28", "area_ha": null, "tenure_type": "Single Cell Mining Claim", "source": "Ontario MLAS operational claims (OGSEarth / LIO MapServer). Unofficial viewing data, not legal title.", "as_of": "2026-09-20", "role": "focus", "color": "#e8b040"}}, {"type": "Feature", "geometry": {"type": "Polygon", "coordinates": [[[-92.6875, 49.1625], [-92.6875, 49.1667], [-92.6938, 49.1667], [-92.6938, 49.1625], [-92.6875, 49.1625]]]}, "properties": {"company_id": "champion-iron", "jurisdiction": "Ontario", "claim_id": "865390", "claim_name": null, "holder": "(100) CHAMPION BEAR RESOURCES LTD.", "status": "Active", "recorded_date": "2023-10-28", "anniversary_or_expiry": "2025-10-28", "area_ha": null, "tenure_type": "Single Cell Mining Claim", "source": "Ontario MLAS operational claims (OGSEarth / LIO MapServer). Unofficial viewing data, not legal title.", "as_of": "2026-09-20", "role": "focus", "color": "#e8b040"}}, {"type": "Feature", "geometry": {"type": "Polygon", "coordinates": [[[-92.6875, 49.1667], [-92.6875, 49.1708], [-92.6938, 49.1708], [-92.6938, 49.1667], [-92.6875, 49.1667]]]}, "properties": {"company_id": "champion-iron", "jurisdiction": "Ontario", "claim_id": "865391", "claim_name": null, "holder": "(100) CHAMPION BEAR RESOURCES LTD.", "status": "Active", "recorded_date": "2023-10-28", "anniversary_or_expiry": "2025-10-28", "area_ha": null, "tenure_type": "Single Cell Mining Claim", "source": "Ontario MLAS operational claims (OGSEarth / LIO MapServer). Unofficial viewing data, not legal title.", "as_of": "2026-09-20", "role": "focus", "color": "#e8b040"}}, {"type": "Feature", "geometry": {"type": "Polygon", "coordinates": [[[-92.6875, 49.175], [-92.6875, 49.1792], [-92.6938, 49.1792], [-92.6938, 49.175], [-92.6875, 49.175]]]}, "properties": {"company_id": "champion-iron", "jurisdiction": "Ontario", "claim_id": "865392", "claim_name": null, "holder": "(100) CHAMPION BEAR RESOURCES LTD.", "status": "Active", "recorded_date": "2023-10-28", "anniversary_or_expiry": "2025-10-28", "area_ha": null, "tenure_type": "Single Cell Mining Claim", "source": "Ontario MLAS operational claims (OGSEarth / LIO MapServer). Unofficial viewing data, not legal title.", "as_of": "2026-09-20", "role": "focus", "color": "#e8b040"}}, {"type": "Feature", "geometry": {"type": "Polygon", "coordinates": [[[-92.6875, 49.1833], [-92.6875, 49.1875], [-92.6938, 49.1875], [-92.6938, 49.1833], [-92.6875, 49.1833]]]}, "properties": {"company_id": "champion-iron", "jurisdiction": "Ontario", "claim_id": "865393", "claim_name": null, "holder": "(100) CHAMPION BEAR RESOURCES LTD.", "status": "Active", "recorded_date": "2023-10-28", "anniversary_or_expiry": "2025-10-28", "area_ha": null, "tenure_type": "Single Cell Mining Claim", "source": "Ontario MLAS operational claims (OGSEarth / LIO MapServer). Unofficial viewing data, not legal title.", "as_of": "2026-09-20", "role": "focus", "color": "#e8b040"}}, {"type": "Feature", "geometry": {"type": "Polygon", "coordinates": [[[-92.675, 49.1625], [-92.675, 49.1667], [-92.6813, 49.1667], [-92.6813, 49.1625], [-92.675, 49.1625]]]}, "properties": {"company_id": "champion-iron", "jurisdiction": "Ontario", "claim_id": "865394", "claim_name": null, "holder": "(100) CHAMPION BEAR RESOURCES LTD.", "status": "Active", "recorded_date": "2023-10-28", "anniversary_or_expiry": "2025-10-28", "area_ha": null, "tenure_type": "Single Cell Mining Claim", "source": "Ontario MLAS operational claims (OGSEarth / LIO MapServer). Unofficial viewing data, not legal title.", "as_of": "2026-09-20", "role": "focus", "color": "#e8b040"}}, {"type": "Feature", "geometry": {"type": "Polygon", "coordinates": [[[-92.675, 49.1667], [-92.675, 49.1708], [-92.6813, 49.1708], [-92.6813, 49.1667], [-92.675, 49.1667]]]}, "properties": {"company_id": "champion-iron", "jurisdiction": "Ontario", "claim_id": "865395", "claim_name": null, "holder": "(100) CHAMPION BEAR RESOURCES LTD.", "status": "Active", "recorded_date": "2023-10-28", "anniversary_or_expiry": "2025-10-28", "area_ha": null, "tenure_type": "Single Cell Mining Claim", "source": "Ontario MLAS operational claims (OGSEarth / LIO MapServer). Unofficial viewing data, not legal title.", "as_of": "2026-09-20", "role": "focus", "color": "#e8b040"}}, {"type": "Feature", "geometry": {"type": "Polygon", "coordinates": [[[-92.7, 49.1833], [-92.7, 49.1875], [-92.7063, 49.1875], [-92.7063, 49.1833], [-92.7, 49.1833]]]}, "properties": {"company_id": "champion-iron", "jurisdiction": "Ontario", "claim_id": "865396", "claim_name": null, "holder": "(100) CHAMPION BEAR RESOURCES LTD.", "status": "Active", "recorded_date": "2023-10-28", "anniversary_or_expiry": "2025-10-28", "area_ha": null, "tenure_type": "Single Cell Mining Claim", "source": "Ontario MLAS operational claims (OGSEarth / LIO MapServer). Unofficial viewing data, not legal title.", "as_of": "2026-09-20", "role": "focus", "color": "#e8b040"}}, {"type": "Feature", "geometry": {"type": "Polygon", "coordinates": [[[-92.6938, 49.1875], [-92.6938, 49.1917], [-92.7, 49.1917], [-92.7, 49.1875], [-92.6938, 49.1875]]]}, "properties": {"company_id": "champion-iron", "jurisdiction": "Ontario", "claim_id": "865397", "claim_name": null, "holder": "(100) CHAMPION BEAR RESOURCES LTD.", "status": "Active", "recorded_date": "2023-10-28", "anniversary_or_expiry": "2025-10-28", "area_ha": null, "tenure_type": "Single Cell Mining Claim", "source": "Ontario MLAS operational claims (OGSEarth / LIO MapServer). Unofficial viewing data, not legal title.", "as_of": "2026-09-20", "role": "focus", "color": "#e8b040"}}, {"type": "Feature", "geometry": {"type": "Polygon", "coordinates": [[[-92.7125, 49.1708], [-92.7125, 49.175], [-92.7188, 49.175], [-92.7188, 49.1708], [-92.7125, 49.1708]]]}, "properties": {"company_id": "champion-iron", "jurisdiction": "Ontario", "claim_id": "865398", "claim_name": null, "holder": "(100) CHAMPION BEAR RESOURCES LTD.", "status": "Active", "recorded_date": "2023-10-28", "anniversary_or_expiry": "2025-10-28", "area_ha": null, "tenure_type": "Single Cell Mining Claim", "source": "Ontario MLAS operational claims (OGSEarth / LIO MapServer). Unofficial viewing data, not legal title.", "as_of": "2026-09-20", "role": "focus", "color": "#e8b040"}}, {"type": "Feature", "geometry": {"type": "Polygon", "coordinates": [[[-92.7, 49.1792], [-92.7, 49.1833], [-92.7063, 49.1833], [-92.7063, 49.1792], [-92.7, 49.1792]]]}, "properties": {"company_id": "champion-iron", "jurisdiction": "Ontario", "claim_id": "865399", "claim_name": null, "holder": "(100) CHAMPION BEAR RESOURCES LTD.", "status": "Active", "recorded_date": "2023-10-28", "anniversary_or_expiry": "2025-10-28", "area_ha": null, "tenure_type": "Single Cell Mining Claim", "source": "Ontario MLAS operational claims (OGSEarth / LIO MapServer). Unofficial viewing data, not legal title.", "as_of": "2026-09-20", "role": "focus", "color": "#e8b040"}}, {"type": "Feature", "geometry": {"type": "Polygon", "coordinates": [[[-92.675, 49.1583], [-92.675, 49.1625], [-92.6813, 49.1625], [-92.6813, 49.1583], [-92.675, 49.1583]]]}, "properties": {"company_id": "champion-iron", "jurisdiction": "Ontario", "claim_id": "865400", "claim_name": null, "holder": "(100) CHAMPION BEAR RESOURCES LTD.", "status": "Active", "recorded_date": "2023-10-28", "anniversary_or_expiry": "2025-10-28", "area_ha": null, "tenure_type": "Single Cell Mining Claim", "source": "Ontario MLAS operational claims (OGSEarth / LIO MapServer). Unofficial viewing data, not legal title.", "as_of": "2026-09-20", "role": "focus", "color": "#e8b040"}}, {"type": "Feature", "geometry": {"type": "Polygon", "coordinates": [[[-92.7063, 49.1708], [-92.7063, 49.175], [-92.7125, 49.175], [-92.7125, 49.1708], [-92.7063, 49.1708]]]}, "properties": {"company_id": "champion-iron", "jurisdiction": "Ontario", "claim_id": "865401", "claim_name": null, "holder": "(100) CHAMPION BEAR RESOURCES LTD.", "status": "Active", "recorded_date": "2023-10-28", "anniversary_or_expiry": "2025-10-28", "area_ha": null, "tenure_type": "Single Cell Mining Claim", "source": "Ontario MLAS operational claims (OGSEarth / LIO MapServer). Unofficial viewing data, not legal title.", "as_of": "2026-09-20", "role": "focus", "color": "#e8b040"}}, {"type": "Feature", "geometry": {"type": "Polygon", "coordinates": [[[-92.6875, 49.1875], [-92.6875, 49.1917], [-92.6938, 49.1917], [-92.6938, 49.1875], [-92.6875, 49.1875]]]}, "properties": {"company_id": "champion-iron", "jurisdiction": "Ontario", "claim_id": "865402", "claim_name": null, "holder": "(100) CHAMPION BEAR RESOURCES LTD.", "status": "Active", "recorded_date": "2023-10-28", "anniversary_or_expiry": "2025-10-28", "area_ha": null, "tenure_type": "Single Cell Mining Claim", "source": "Ontario MLAS operational claims (OGSEarth / LIO MapServer). Unofficial viewing data, not legal title.", "as_of": "2026-09-20", "role": "focus", "color": "#e8b040"}}, {"type": "Feature", "geometry": {"type": "Polygon", "coordinates": [[[-92.6813, 49.1667], [-92.6813, 49.1708], [-92.6875, 49.1708], [-92.6875, 49.1667], [-92.6813, 49.1667]]]}, "properties": {"company_id": "champion-iron", "jurisdiction": "Ontario", "claim_id": "865403", "claim_name": null, "holder": "(100) CHAMPION BEAR RESOURCES LTD.", "status": "Active", "recorded_date": "2023-10-28", "anniversary_or_expiry": "2025-10-28", "area_ha": null, "tenure_type": "Single Cell Mining Claim", "source": "Ontario MLAS operational claims (OGSEarth / LIO MapServer). Unofficial viewing data, not legal title.", "as_of": "2026-09-20", "role": "focus", "color": "#e8b040"}}, {"type": "Feature", "geometry": {"type": "Polygon", "coordinates": [[[-92.6813, 49.1833], [-92.6813, 49.1875], [-92.6875, 49.1875], [-92.6875, 49.1833], [-92.6813, 49.1833]]]}, "properties": {"company_id": "champion-iron", "jurisdiction": "Ontario", "claim_id": "865404", "claim_name": null, "holder": "(100) CHAMPION BEAR RESOURCES LTD.", "status": "Active", "recorded_date": "2023-10-28", "anniversary_or_expiry": "2025-10-28", "area_ha": null, "tenure_type": "Single Cell Mining Claim", "source": "Ontario MLAS operational claims (OGSEarth / LIO MapServer). Unofficial viewing data, not legal title.", "as_of": "2026-09-20", "role": "focus", "color": "#e8b040"}}, {"type": "Feature", "geometry": {"type": "Polygon", "coordinates": [[[-92.6688, 49.1708], [-92.6688, 49.175], [-92.675, 49.175], [-92.675, 49.1708], [-92.6688, 49.1708]]]}, "properties": {"company_id": "champion-iron", "jurisdiction": "Ontario", "claim_id": "865405", "claim_name": null, "holder": "(100) CHAMPION BEAR RESOURCES LTD.", "status": "Active", "recorded_date": "2023-10-28", "anniversary_or_expiry": "2025-10-28", "area_ha": null, "tenure_type": "Single Cell Mining Claim", "source": "Ontario MLAS operational claims (OGSEarth / LIO MapServer). Unofficial viewing data, not legal title.", "as_of": "2026-09-20", "role": "focus", "color": "#e8b040"}}, {"type": "Feature", "geometry": {"type": "Polygon", "coordinates": [[[-92.6688, 49.175], [-92.6688, 49.1792], [-92.675, 49.1792], [-92.675, 49.175], [-92.6688, 49.175]]]}, "properties": {"company_id": "champion-iron", "jurisdiction": "Ontario", "claim_id": "865406", "claim_name": null, "holder": "(100) CHAMPION BEAR RESOURCES LTD.", "status": "Active", "recorded_date": "2023-10-28", "anniversary_or_expiry": "2025-10-28", "area_ha": null, "tenure_type": "Single Cell Mining Claim", "source": "Ontario MLAS operational claims (OGSEarth / LIO MapServer). Unofficial viewing data, not legal title.", "as_of": "2026-09-20", "role": "focus", "color": "#e8b040"}}, {"type": "Feature", "geometry": {"type": "Polygon", "coordinates": [[[-92.6938, 49.1833], [-92.6938, 49.1875], [-92.7, 49.1875], [-92.7, 49.1833], [-92.6938, 49.1833]]]}, "properties": {"company_id": "champion-iron", "jurisdiction": "Ontario", "claim_id": "865407", "claim_name": null, "holder": "(100) CHAMPION BEAR RESOURCES LTD.", "status": "Active", "recorded_date": "2023-10-28", "anniversary_or_expiry": "2025-10-28", "area_ha": null, "tenure_type": "Single Cell Mining Claim", "source": "Ontario MLAS operational claims (OGSEarth / LIO MapServer). Unofficial viewing data, not legal title.", "as_of": "2026-09-20", "role": "focus", "color": "#e8b040"}}, {"type": "Feature", "geometry": {"type": "Polygon", "coordinates": [[[-92.6813, 49.1625], [-92.6813, 49.1667], [-92.6875, 49.1667], [-92.6875, 49.1625], [-92.6813, 49.1625]]]}, "properties": {"company_id": "champion-iron", "jurisdiction": "Ontario", "claim_id": "865408", "claim_name": null, "holder": "(100) CHAMPION BEAR RESOURCES LTD.", "status": "Active", "recorded_date": "2023-10-28", "anniversary_or_expiry": "2025-10-28", "area_ha": null, "tenure_type": "Single Cell Mining Claim", "source": "Ontario MLAS operational claims (OGSEarth / LIO MapServer). Unofficial viewing data, not legal title.", "as_of": "2026-09-20", "role": "focus", "color": "#e8b040"}}, {"type": "Feature", "geometry": {"type": "Polygon", "coordinates": [[[-92.6813, 49.1708], [-92.6813, 49.175], [-92.6875, 49.175], [-92.6875, 49.1708], [-92.6813, 49.1708]]]}, "properties": {"company_id": "champion-iron", "jurisdiction": "Ontario", "claim_id": "865409", "claim_name": null, "holder": "(100) CHAMPION BEAR RESOURCES LTD.", "status": "Active", "recorded_date": "2023-10-28", "anniversary_or_expiry": "2025-10-28", "area_ha": null, "tenure_type": "Single Cell Mining Claim", "source": "Ontario MLAS operational claims (OGSEarth / LIO MapServer). Unofficial viewing data, not legal title.", "as_of": "2026-09-20", "role": "focus", "color": "#e8b040"}}, {"type": "Feature", "geometry": {"type": "Polygon", "coordinates": [[[-92.6813, 49.175], [-92.6813, 49.1792], [-92.6875, 49.1792], [-92.6875, 49.175], [-92.6813, 49.175]]]}, "properties": {"company_id": "champion-iron", "jurisdiction": "Ontario", "claim_id": "865410", "claim_name": null, "holder": "(100) CHAMPION BEAR RESOURCES LTD.", "status": "Active", "recorded_date": "2023-10-28", "anniversary_or_expiry": "2025-10-28", "area_ha": null, "tenure_type": "Single Cell Mining Claim", "source": "Ontario MLAS operational claims (OGSEarth / LIO MapServer). Unofficial viewing data, not legal title.", "as_of": "2026-09-20", "role": "focus", "color": "#e8b040"}}, {"type": "Feature", "geometry": {"type": "Polygon", "coordinates": [[[-92.675, 49.1708], [-92.675, 49.175], [-92.6813, 49.175], [-92.6813, 49.1708], [-92.675, 49.1708]]]}, "properties": {"company_id": "champion-iron", "jurisdiction": "Ontario", "claim_id": "865411", "claim_name": null, "holder": "(100) CHAMPION BEAR RESOURCES LTD.", "status": "Active", "recorded_date": "2023-10-28", "anniversary_or_expiry": "2025-10-28", "area_ha": null, "tenure_type": "Single Cell Mining Claim", "source": "Ontario MLAS operational claims (OGSEarth / LIO MapServer). Unofficial viewing data, not legal title.", "as_of": "2026-09-20", "role": "focus", "color": "#e8b040"}}, {"type": "Feature", "geometry": {"type": "Polygon", "coordinates": [[[-92.6688, 49.1583], [-92.6688, 49.1625], [-92.675, 49.1625], [-92.675, 49.1583], [-92.6688, 49.1583]]]}, "properties": {"company_id": "champion-iron", "jurisdiction": "Ontario", "claim_id": "865412", "claim_name": null, "holder": "(100) CHAMPION BEAR RESOURCES LTD.", "status": "Active", "recorded_date": "2023-10-28", "anniversary_or_expiry": "2025-10-28", "area_ha": null, "tenure_type": "Single Cell Mining Claim", "source": "Ontario MLAS operational claims (OGSEarth / LIO MapServer). Unofficial viewing data, not legal title.", "as_of": "2026-09-20", "role": "focus", "color": "#e8b040"}}, {"type": "Feature", "geometry": {"type": "Polygon", "coordinates": [[[-92.7, 49.1708], [-92.7, 49.175], [-92.7063, 49.175], [-92.7063, 49.1708], [-92.7, 49.1708]]]}, "properties": {"company_id": "champion-iron", "jurisdiction": "Ontario", "claim_id": "865413", "claim_name": null, "holder": "(100) CHAMPION BEAR RESOURCES LTD.", "status": "Active", "recorded_date": "2023-10-28", "anniversary_or_expiry": "2025-10-28", "area_ha": null, "tenure_type": "Single Cell Mining Claim", "source": "Ontario MLAS operational claims (OGSEarth / LIO MapServer). Unofficial viewing data, not legal title.", "as_of": "2026-09-20", "role": "focus", "color": "#e8b040"}}, {"type": "Feature", "geometry": {"type": "Polygon", "coordinates": [[[-92.6875, 49.1708], [-92.6875, 49.175], [-92.6938, 49.175], [-92.6938, 49.1708], [-92.6875, 49.1708]]]}, "properties": {"company_id": "champion-iron", "jurisdiction": "Ontario", "claim_id": "865414", "claim_name": null, "holder": "(100) CHAMPION BEAR RESOURCES LTD.", "status": "Active", "recorded_date": "2023-10-28", "anniversary_or_expiry": "2025-10-28", "area_ha": null, "tenure_type": "Single Cell Mining Claim", "source": "Ontario MLAS operational claims (OGSEarth / LIO MapServer). Unofficial viewing data, not legal title.", "as_of": "2026-09-20", "role": "focus", "color": "#e8b040"}}, {"type": "Feature", "geometry": {"type": "Polygon", "coordinates": [[[-92.6688, 49.1625], [-92.6688, 49.1667], [-92.675, 49.1667], [-92.675, 49.1625], [-92.6688, 49.1625]]]}, "properties": {"company_id": "champion-iron", "jurisdiction": "Ontario", "claim_id": "865415", "claim_name": null, "holder": "(100) CHAMPION BEAR RESOURCES LTD.", "status": "Active", "recorded_date": "2023-10-28", "anniversary_or_expiry": "2025-10-28", "area_ha": null, "tenure_type": "Single Cell Mining Claim", "source": "Ontario MLAS operational claims (OGSEarth / LIO MapServer). Unofficial viewing data, not legal title.", "as_of": "2026-09-20", "role": "focus", "color": "#e8b040"}}, {"type": "Feature", "geometry": {"type": "Polygon", "coordinates": [[[-92.7125, 49.175], [-92.7125, 49.1792], [-92.7188, 49.1792], [-92.7188, 49.175], [-92.7125, 49.175]]]}, "properties": {"company_id": "champion-iron", "jurisdiction": "Ontario", "claim_id": "865416", "claim_name": null, "holder": "(100) CHAMPION BEAR RESOURCES LTD.", "status": "Active", "recorded_date": "2023-10-28", "anniversary_or_expiry": "2025-10-28", "area_ha": null, "tenure_type": "Single Cell Mining Claim", "source": "Ontario MLAS operational claims (OGSEarth / LIO MapServer). Unofficial viewing data, not legal title.", "as_of": "2026-09-20", "role": "focus", "color": "#e8b040"}}, {"type": "Feature", "geometry": {"type": "Polygon", "coordinates": [[[-92.7125, 49.1792], [-92.7125, 49.1833], [-92.7188, 49.1833], [-92.7188, 49.1792], [-92.7125, 49.1792]]]}, "properties": {"company_id": "champion-iron", "jurisdiction": "Ontario", "claim_id": "865417", "claim_name": null, "holder": "(100) CHAMPION BEAR RESOURCES LTD.", "status": "Active", "recorded_date": "2023-10-28", "anniversary_or_expiry": "2025-10-28", "area_ha": null, "tenure_type": "Single Cell Mining Claim", "source": "Ontario MLAS operational claims (OGSEarth / LIO MapServer). Unofficial viewing data, not legal title.", "as_of": "2026-09-20", "role": "focus", "color": "#e8b040"}}, {"type": "Feature", "geometry": {"type": "Polygon", "coordinates": [[[-92.7, 49.175], [-92.7, 49.1792], [-92.7063, 49.1792], [-92.7063, 49.175], [-92.7, 49.175]]]}, "properties": {"company_id": "champion-iron", "jurisdiction": "Ontario", "claim_id": "865418", "claim_name": null, "holder": "(100) CHAMPION BEAR RESOURCES LTD.", "status": "Active", "recorded_date": "2023-10-28", "anniversary_or_expiry": "2025-10-28", "area_ha": null, "tenure_type": "Single Cell Mining Claim", "source": "Ontario MLAS operational claims (OGSEarth / LIO MapServer). Unofficial viewing data, not legal title.", "as_of": "2026-09-20", "role": "focus", "color": "#e8b040"}}, {"type": "Feature", "geometry": {"type": "Polygon", "coordinates": [[[-92.7, 49.1875], [-92.7, 49.1917], [-92.7063, 49.1917], [-92.7063, 49.1875], [-92.7, 49.1875]]]}, "properties": {"company_id": "champion-iron", "jurisdiction": "Ontario", "claim_id": "865419", "claim_name": null, "holder": "(100) CHAMPION BEAR RESOURCES LTD.", "status": "Active", "recorded_date": "2023-10-28", "anniversary_or_expiry": "2025-10-28", "area_ha": null, "tenure_type": "Single Cell Mining Claim", "source": "Ontario MLAS operational claims (OGSEarth / LIO MapServer). Unofficial viewing data, not legal title.", "as_of": "2026-09-20", "role": "focus", "color": "#e8b040"}}, {"type": "Feature", "geometry": {"type": "Polygon", "coordinates": [[[-92.6938, 49.1792], [-92.6938, 49.1833], [-92.7, 49.1833], [-92.7, 49.1792], [-92.6938, 49.1792]]]}, "properties": {"company_id": "champion-iron", "jurisdiction": "Ontario", "claim_id": "865420", "claim_name": null, "holder": "(100) CHAMPION BEAR RESOURCES LTD.", "status": "Active", "recorded_date": "2023-10-28", "anniversary_or_expiry": "2025-10-28", "area_ha": null, "tenure_type": "Single Cell Mining Claim", "source": "Ontario MLAS operational claims (OGSEarth / LIO MapServer). Unofficial viewing data, not legal title.", "as_of": "2026-09-20", "role": "focus", "color": "#e8b040"}}, {"type": "Feature", "geometry": {"type": "Polygon", "coordinates": [[[-92.6875, 49.1792], [-92.6875, 49.1833], [-92.6938, 49.1833], [-92.6938, 49.1792], [-92.6875, 49.1792]]]}, "properties": {"company_id": "champion-iron", "jurisdiction": "Ontario", "claim_id": "865421", "claim_name": null, "holder": "(100) CHAMPION BEAR RESOURCES LTD.", "status": "Active", "recorded_date": "2023-10-28", "anniversary_or_expiry": "2025-10-28", "area_ha": null, "tenure_type": "Single Cell Mining Claim", "source": "Ontario MLAS operational claims (OGSEarth / LIO MapServer). Unofficial viewing data, not legal title.", "as_of": "2026-09-20", "role": "focus", "color": "#e8b040"}}, {"type": "Feature", "geometry": {"type": "Polygon", "coordinates": [[[-92.6813, 49.1583], [-92.6813, 49.1625], [-92.6875, 49.1625], [-92.6875, 49.1583], [-92.6813, 49.1583]]]}, "properties": {"company_id": "champion-iron", "jurisdiction": "Ontario", "claim_id": "865422", "claim_name": null, "holder": "(100) CHAMPION BEAR RESOURCES LTD.", "status": "Active", "recorded_date": "2023-10-28", "anniversary_or_expiry": "2025-10-28", "area_ha": null, "tenure_type": "Single Cell Mining Claim", "source": "Ontario MLAS operational claims (OGSEarth / LIO MapServer). Unofficial viewing data, not legal title.", "as_of": "2026-09-20", "role": "focus", "color": "#e8b040"}}, {"type": "Feature", "geometry": {"type": "Polygon", "coordinates": [[[-92.6813, 49.1792], [-92.6813, 49.1833], [-92.6875, 49.1833], [-92.6875, 49.1792], [-92.6813, 49.1792]]]}, "properties": {"company_id": "champion-iron", "jurisdiction": "Ontario", "claim_id": "865423", "claim_name": null, "holder": "(100) CHAMPION BEAR RESOURCES LTD.", "status": "Active", "recorded_date": "2023-10-28", "anniversary_or_expiry": "2025-10-28", "area_ha": null, "tenure_type": "Single Cell Mining Claim", "source": "Ontario MLAS operational claims (OGSEarth / LIO MapServer). Unofficial viewing data, not legal title.", "as_of": "2026-09-20", "role": "focus", "color": "#e8b040"}}, {"type": "Feature", "geometry": {"type": "Polygon", "coordinates": [[[-92.6813, 49.1875], [-92.6813, 49.1917], [-92.6875, 49.1917], [-92.6875, 49.1875], [-92.6813, 49.1875]]]}, "properties": {"company_id": "champion-iron", "jurisdiction": "Ontario", "claim_id": "865424", "claim_name": null, "holder": "(100) CHAMPION BEAR RESOURCES LTD.", "status": "Active", "recorded_date": "2023-10-28", "anniversary_or_expiry": "2025-10-28", "area_ha": null, "tenure_type": "Single Cell Mining Claim", "source": "Ontario MLAS operational claims (OGSEarth / LIO MapServer). Unofficial viewing data, not legal title.", "as_of": "2026-09-20", "role": "focus", "color": "#e8b040"}}, {"type": "Feature", "geometry": {"type": "Polygon", "coordinates": [[[-92.6688, 49.1667], [-92.6688, 49.1708], [-92.675, 49.1708], [-92.675, 49.1667], [-92.6688, 49.1667]]]}, "properties": {"company_id": "champion-iron", "jurisdiction": "Ontario", "claim_id": "865425", "claim_name": null, "holder": "(100) CHAMPION BEAR RESOURCES LTD.", "status": "Active", "recorded_date": "2023-10-28", "anniversary_or_expiry": "2025-10-28", "area_ha": null, "tenure_type": "Single Cell Mining Claim", "source": "Ontario MLAS operational claims (OGSEarth / LIO MapServer). Unofficial viewing data, not legal title.", "as_of": "2026-09-20", "role": "focus", "color": "#e8b040"}}, {"type": "Feature", "geometry": {"type": "Polygon", "coordinates": [[[-92.6938, 49.175], [-92.6938, 49.1792], [-92.7, 49.1792], [-92.7, 49.175], [-92.6938, 49.175]]]}, "properties": {"company_id": "champion-iron", "jurisdiction": "Ontario", "claim_id": "865426", "claim_name": null, "holder": "(100) CHAMPION BEAR RESOURCES LTD.", "status": "Active", "recorded_date": "2023-10-28", "anniversary_or_expiry": "2025-10-28", "area_ha": null, "tenure_type": "Single Cell Mining Claim", "source": "Ontario MLAS operational claims (OGSEarth / LIO MapServer). Unofficial viewing data, not legal title.", "as_of": "2026-09-20", "role": "focus", "color": "#e8b040"}}, {"type": "Feature", "geometry": {"type": "Polygon", "coordinates": [[[-92.6875, 49.1583], [-92.6875, 49.1625], [-92.6938, 49.1625], [-92.6938, 49.1583], [-92.6875, 49.1583]]]}, "properties": {"company_id": "champion-iron", "jurisdiction": "Ontario", "claim_id": "865427", "claim_name": null, "holder": "(100) CHAMPION BEAR RESOURCES LTD.", "status": "Active", "recorded_date": "2023-10-28", "anniversary_or_expiry": "2025-10-28", "area_ha": null, "tenure_type": "Single Cell Mining Claim", "source": "Ontario MLAS operational claims (OGSEarth / LIO MapServer). Unofficial viewing data, not legal title.", "as_of": "2026-09-20", "role": "focus", "color": "#e8b040"}}, {"type": "Feature", "geometry": {"type": "Polygon", "coordinates": [[[-92.675, 49.175], [-92.675, 49.1792], [-92.6813, 49.1792], [-92.6813, 49.175], [-92.675, 49.175]]]}, "properties": {"company_id": "champion-iron", "jurisdiction": "Ontario", "claim_id": "865428", "claim_name": null, "holder": "(100) CHAMPION BEAR RESOURCES LTD.", "status": "Active", "recorded_date": "2023-10-28", "anniversary_or_expiry": "2025-10-28", "area_ha": null, "tenure_type": "Single Cell Mining Claim", "source": "Ontario MLAS operational claims (OGSEarth / LIO MapServer). Unofficial viewing data, not legal title.", "as_of": "2026-09-20", "role": "focus", "color": "#e8b040"}}, {"type": "Feature", "geometry": {"type": "Polygon", "coordinates": [[[-92.6625, 49.2083], [-92.6625, 49.2042], [-92.6563, 49.2042], [-92.6563, 49.2125], [-92.65, 49.2125], [-92.65, 49.2083], [-92.6438, 49.2083], [-92.6438, 49.2167], [-92.6625, 49.2167], [-92.6625, 49.2083]]]}, "properties": {"company_id": "champion-iron", "jurisdiction": "Ontario", "claim_id": "866470", "claim_name": null, "holder": "(99) CHAMPION BEAR RESOURCES LTD., (1) Gravel Ridge Resources Ltd.", "status": "Active", "recorded_date": "2023-11-08", "anniversary_or_expiry": "2027-02-24", "area_ha": null, "tenure_type": "Multi-cell Mining Claim", "source": "Ontario MLAS operational claims (OGSEarth / LIO MapServer). Unofficial viewing data, not legal title.", "as_of": "2026-09-20", "role": "focus", "color": "#e8b040"}}, {"type": "Feature", "geometry": {"type": "Polygon", "coordinates": [[[-92.6563, 49.2083], [-92.6563, 49.2042], [-92.6438, 49.2042], [-92.6438, 49.2083], [-92.65, 49.2083], [-92.65, 49.2125], [-92.6563, 49.2125], [-92.6563, 49.2083]]]}, "properties": {"company_id": "champion-iron", "jurisdiction": "Ontario", "claim_id": "866471", "claim_name": null, "holder": "(99) CHAMPION BEAR RESOURCES LTD., (1) Gravel Ridge Resources Ltd.", "status": "Active", "recorded_date": "2023-11-08", "anniversary_or_expiry": "2027-02-24", "area_ha": null, "tenure_type": "Multi-cell Mining Claim", "source": "Ontario MLAS operational claims (OGSEarth / LIO MapServer). Unofficial viewing data, not legal title.", "as_of": "2026-09-20", "role": "focus", "color": "#e8b040"}}]}