{"type": "FeatureCollection", "features": [{"type": "Feature", "geometry": {"type": "Polygon", "coordinates": [[[-122.9514, 50.8957], [-122.9514, 50.8916], [-122.9452, 50.8916], [-122.9452, 50.8999], [-122.9514, 50.8999], [-122.9514, 50.8957]]]}, "properties": {"company_id": "cobalt-blue-holdings", "jurisdiction": "British Columbia", "claim_id": 502808, "claim_name": "Little Gem", "holder": "COBALT ONE ENERGY CORP", "status": "Mineral", "recorded_date": "2005-01-13", "anniversary_or_expiry": "2027-12-31", "area_ha": 40.769000000000005, "tenure_type": "Mineral", "source": "BC MTA Mineral, Placer and Coal Tenure Spatial View (BCGW). Open Government Licence - British Columbia. Not legal title.", "as_of": "2026-09-20", "role": "focus", "color": "#e8b040"}}, {"type": "Feature", "geometry": {"type": "Polygon", "coordinates": [[[-122.9639, 50.8957], [-122.9639, 50.8916], [-122.9514, 50.8916], [-122.9514, 50.8999], [-122.9639, 50.8999], [-122.9639, 50.8957]]]}, "properties": {"company_id": "cobalt-blue-holdings", "jurisdiction": "British Columbia", "claim_id": 501174, "claim_name": null, "holder": "COBALT ONE ENERGY CORP", "status": "Mineral", "recorded_date": "2005-01-12", "anniversary_or_expiry": "2027-12-31", "area_ha": 81.537, "tenure_type": "Mineral", "source": "BC MTA Mineral, Placer and Coal Tenure Spatial View (BCGW). Open Government Licence - British Columbia. Not legal title.", "as_of": "2026-09-20", "role": "focus", "color": "#e8b040"}}, {"type": "Feature", "geometry": {"type": "Polygon", "coordinates": [[[-122.9702, 50.8957], [-122.9702, 50.8874], [-122.9452, 50.8874], [-122.9452, 50.8916], [-122.9639, 50.8916], [-122.9639, 50.8999], [-122.9702, 50.8999], [-122.9702, 50.8957]]]}, "properties": {"company_id": "cobalt-blue-holdings", "jurisdiction": "British Columbia", "claim_id": 503409, "claim_name": "Little Gem", "holder": "COBALT ONE ENERGY CORP", "status": "Mineral", "recorded_date": "2005-01-14", "anniversary_or_expiry": "2027-12-31", "area_ha": 122.316, "tenure_type": "Mineral", "source": "BC MTA Mineral, Placer and Coal Tenure Spatial View (BCGW). Open Government Licence - British Columbia. Not legal title.", "as_of": "2026-09-20", "role": "focus", "color": "#e8b040"}}]}