{"type": "FeatureCollection", "features": [{"type": "Feature", "geometry": {"type": "Polygon", "coordinates": [[[-79.39999999507722, 47.200000003042234], [-79.39999999752479, 47.2083333367168], [-79.39166666254526, 47.208333336615325], [-79.39166667211371, 47.2000000005356], [-79.39999999507722, 47.200000003042234]]]}, "properties": {"company_id": "cobalt-blue-holdings", "jurisdiction": "Quebec", "claim_id": "", "claim_name": null, "holder": "North American Cobalt inc.", "status": "Active", "recorded_date": null, "anniversary_or_expiry": null, "area_ha": null, "tenure_type": null, "source": "GESTIM active titles (MRNF digital data dump). Not legal title.", "as_of": "2026-09-20", "role": "focus", "color": "#e8b040"}}, {"type": "Feature", "geometry": {"type": "Polygon", "coordinates": [[[-79.40833333004186, 47.20833333316104], [-79.40833333679882, 47.21666667108962], [-79.40000000556672, 47.21666666823511], [-79.39999999752479, 47.2083333367168], [-79.40833333004186, 47.20833333316104]]]}, "properties": {"company_id": "cobalt-blue-holdings", "jurisdiction": "Quebec", "claim_id": "", "claim_name": null, "holder": "North American Cobalt inc.", "status": "Active", "recorded_date": null, "anniversary_or_expiry": null, "area_ha": null, "tenure_type": null, "source": "GESTIM active titles (MRNF digital data dump). Not legal title.", "as_of": "2026-09-20", "role": "focus", "color": "#e8b040"}}, {"type": "Feature", "geometry": {"type": "Polygon", "coordinates": [[[-79.39999999752479, 47.2083333367168], [-79.40000000556672, 47.21666666823511], [-79.3916666715919, 47.21666667073189], [-79.39166666254526, 47.208333336615325], [-79.39999999752479, 47.2083333367168]]]}, "properties": {"company_id": "cobalt-blue-holdings", "jurisdiction": "Quebec", "claim_id": "", "claim_name": null, "holder": "North American Cobalt inc.", "status": "Active", "recorded_date": null, "anniversary_or_expiry": null, "area_ha": null, "tenure_type": null, "source": "GESTIM active titles (MRNF digital data dump). Not legal title.", "as_of": "2026-09-20", "role": "focus", "color": "#e8b040"}}, {"type": "Feature", "geometry": {"type": "Polygon", "coordinates": [[[-79.39166666254526, 47.208333336615325], [-79.3916666715919, 47.21666667073189], [-79.38333333513191, 47.21666666957987], [-79.38333333829125, 47.2083333330378], [-79.39166666254526, 47.208333336615325]]]}, "properties": {"company_id": "cobalt-blue-holdings", "jurisdiction": "Quebec", "claim_id": "", "claim_name": null, "holder": "North American Cobalt inc.", "status": "Active", "recorded_date": null, "anniversary_or_expiry": null, "area_ha": null, "tenure_type": null, "source": "GESTIM active titles (MRNF digital data dump). Not legal title.", "as_of": "2026-09-20", "role": "focus", "color": "#e8b040"}}, {"type": "Feature", "geometry": {"type": "Polygon", "coordinates": [[[-79.38333333829125, 47.2083333330378], [-79.38333333513191, 47.21666666957987], [-79.37499999617494, 47.21666666477397], [-79.37499999807699, 47.208333334602294], [-79.38333333829125, 47.2083333330378]]]}, "properties": {"company_id": "cobalt-blue-holdings", "jurisdiction": "Quebec", "claim_id": "", "claim_name": null, "holder": "North American Cobalt inc.", "status": "Active", "recorded_date": null, "anniversary_or_expiry": null, "area_ha": null, "tenure_type": null, "source": "GESTIM active titles (MRNF digital data dump). Not legal title.", "as_of": "2026-09-20", "role": "focus", "color": "#e8b040"}}, {"type": "Feature", "geometry": {"type": "Polygon", "coordinates": [[[-79.40000000556672, 47.21666666823511], [-79.4000000057363, 47.225000006407974], [-79.39166667286003, 47.22500000251493], [-79.3916666715919, 47.21666667073189], [-79.40000000556672, 47.21666666823511]]]}, "properties": {"company_id": "cobalt-blue-holdings", "jurisdiction": "Quebec", "claim_id": "", "claim_name": null, "holder": "North American Cobalt inc.", "status": "Active", "recorded_date": null, "anniversary_or_expiry": null, "area_ha": null, "tenure_type": null, "source": "GESTIM active titles (MRNF digital data dump). Not legal title.", "as_of": "2026-09-20", "role": "focus", "color": "#e8b040"}}, {"type": "Feature", "geometry": {"type": "Polygon", "coordinates": [[[-79.3916666715919, 47.21666667073189], [-79.39166667286003, 47.22500000251493], [-79.3833333372167, 47.22500000398157], [-79.38333333513191, 47.21666666957987], [-79.3916666715919, 47.21666667073189]]]}, "properties": {"company_id": "cobalt-blue-holdings", "jurisdiction": "Quebec", "claim_id": "", "claim_name": null, "holder": "North American Cobalt inc.", "status": "Active", "recorded_date": null, "anniversary_or_expiry": null, "area_ha": null, "tenure_type": null, "source": "GESTIM active titles (MRNF digital data dump). Not legal title.", "as_of": "2026-09-20", "role": "focus", "color": "#e8b040"}}, {"type": "Feature", "geometry": {"type": "Polygon", "coordinates": [[[-79.4000000057363, 47.225000006407974], [-79.3999999985766, 47.233333333245824], [-79.39166666635121, 47.23333333196472], [-79.39166667286003, 47.22500000251493], [-79.4000000057363, 47.225000006407974]]]}, "properties": {"company_id": "cobalt-blue-holdings", "jurisdiction": "Quebec", "claim_id": "", "claim_name": null, "holder": "North American Cobalt inc.", "status": "Active", "recorded_date": null, "anniversary_or_expiry": null, "area_ha": null, "tenure_type": null, "source": "GESTIM active titles (MRNF digital data dump). Not legal title.", "as_of": "2026-09-20", "role": "focus", "color": "#e8b040"}}, {"type": "Feature", "geometry": {"type": "Polygon", "coordinates": [[[-79.39166667286003, 47.22500000251493], [-79.39166666635121, 47.23333333196472], [-79.38333333134767, 47.23333333605693], [-79.3833333372167, 47.22500000398157], [-79.39166667286003, 47.22500000251493]]]}, "properties": {"company_id": "cobalt-blue-holdings", "jurisdiction": "Quebec", "claim_id": "", "claim_name": null, "holder": "North American Cobalt inc.", "status": "Active", "recorded_date": null, "anniversary_or_expiry": null, "area_ha": null, "tenure_type": null, "source": "GESTIM active titles (MRNF digital data dump). Not legal title.", "as_of": "2026-09-20", "role": "focus", "color": "#e8b040"}}, {"type": "Feature", "geometry": {"type": "Polygon", "coordinates": [[[-79.40833333679882, 47.21666667108962], [-79.40833333613088, 47.22500000667099], [-79.4000000057363, 47.225000006407974], [-79.40000000556672, 47.21666666823511], [-79.40833333679882, 47.21666667108962]]]}, "properties": {"company_id": "cobalt-blue-holdings", "jurisdiction": "Quebec", "claim_id": "", "claim_name": null, "holder": "North American Cobalt inc.", "status": "Active", "recorded_date": null, "anniversary_or_expiry": null, "area_ha": null, "tenure_type": null, "source": "GESTIM active titles (MRNF digital data dump). Not legal title.", "as_of": "2026-09-20", "role": "focus", "color": "#e8b040"}}, {"type": "Feature", "geometry": {"type": "Polygon", "coordinates": [[[-79.34166666615478, 47.20000000168142], [-79.34166666429226, 47.20833332659517], [-79.33333333729387, 47.208333328121256], [-79.33333333804542, 47.20000000052314], [-79.34166666615478, 47.20000000168142]]]}, "properties": {"company_id": "cobalt-blue-holdings", "jurisdiction": "Quebec", "claim_id": "", "claim_name": null, "holder": "North American Cobalt inc.", "status": "Active", "recorded_date": null, "anniversary_or_expiry": null, "area_ha": null, "tenure_type": null, "source": "GESTIM active titles (MRNF digital data dump). Not legal title.", "as_of": "2026-09-20", "role": "focus", "color": "#e8b040"}}, {"type": "Feature", "geometry": {"type": "Polygon", "coordinates": [[[-79.35000000142605, 47.208333335798564], [-79.35000000269319, 47.21666666493029], [-79.34166666622112, 47.21666666739704], [-79.34166666429226, 47.20833332659517], [-79.35000000142605, 47.208333335798564]]]}, "properties": {"company_id": "cobalt-blue-holdings", "jurisdiction": "Quebec", "claim_id": "", "claim_name": null, "holder": "North American Cobalt inc.", "status": "Active", "recorded_date": null, "anniversary_or_expiry": null, "area_ha": null, "tenure_type": null, "source": "GESTIM active titles (MRNF digital data dump). Not legal title.", "as_of": "2026-09-20", "role": "focus", "color": "#e8b040"}}, {"type": "Feature", "geometry": {"type": "Polygon", "coordinates": [[[-79.34166666429226, 47.20833332659517], [-79.34166666622112, 47.21666666739704], [-79.33333332723448, 47.21666666242869], [-79.33333333729387, 47.208333328121256], [-79.34166666429226, 47.20833332659517]]]}, "properties": {"company_id": "cobalt-blue-holdings", "jurisdiction": "Quebec", "claim_id": "", "claim_name": null, "holder": "North American Cobalt inc.", "status": "Active", "recorded_date": null, "anniversary_or_expiry": null, "area_ha": null, "tenure_type": null, "source": "GESTIM active titles (MRNF digital data dump). Not legal title.", "as_of": "2026-09-20", "role": "focus", "color": "#e8b040"}}, {"type": "Feature", "geometry": {"type": "Polygon", "coordinates": [[[-79.35000000269319, 47.21666666493029], [-79.34999999501427, 47.22500000075775], [-79.34166667255415, 47.225000002344366], [-79.34166666622113, 47.21666666739704], [-79.35000000269319, 47.21666666493029]]]}, "properties": {"company_id": "cobalt-blue-holdings", "jurisdiction": "Quebec", "claim_id": "", "claim_name": null, "holder": "North American Cobalt inc.", "status": "Active", "recorded_date": null, "anniversary_or_expiry": null, "area_ha": null, "tenure_type": null, "source": "GESTIM active titles (MRNF digital data dump). Not legal title.", "as_of": "2026-09-20", "role": "focus", "color": "#e8b040"}}, {"type": "Feature", "geometry": {"type": "Polygon", "coordinates": [[[-79.35833332795865, 47.199999993082116], [-79.35833333705126, 47.191666662384414], [-79.36666667181154, 47.191666664265966], [-79.36666666112427, 47.20000000132268], [-79.35833332795865, 47.199999993082116]]]}, "properties": {"company_id": "cobalt-blue-holdings", "jurisdiction": "Quebec", "claim_id": "", "claim_name": null, "holder": "North American Cobalt inc.", "status": "Active", "recorded_date": null, "anniversary_or_expiry": null, "area_ha": null, "tenure_type": null, "source": "GESTIM active titles (MRNF digital data dump). Not legal title.", "as_of": "2026-09-20", "role": "focus", "color": "#e8b040"}}, {"type": "Feature", "geometry": {"type": "Polygon", "coordinates": [[[-79.37500000407955, 47.19166666244448], [-79.37499999447824, 47.18333333449709], [-79.38333333897663, 47.18333333176677], [-79.38333333359363, 47.19166666591999], [-79.37500000407955, 47.19166666244448]]]}, "properties": {"company_id": "cobalt-blue-holdings", "jurisdiction": "Quebec", "claim_id": "", "claim_name": null, "holder": "North American Cobalt inc.", "status": "Active", "recorded_date": null, "anniversary_or_expiry": null, "area_ha": null, "tenure_type": null, "source": "GESTIM active titles (MRNF digital data dump). Not legal title.", "as_of": "2026-09-20", "role": "focus", "color": "#e8b040"}}, {"type": "Feature", "geometry": {"type": "Polygon", "coordinates": [[[-79.36666667181154, 47.191666664265966], [-79.36666666070376, 47.18333333370219], [-79.37499999447824, 47.18333333449709], [-79.37500000407955, 47.19166666244448], [-79.36666667181154, 47.191666664265966]]]}, "properties": {"company_id": "cobalt-blue-holdings", "jurisdiction": "Quebec", "claim_id": "", "claim_name": null, "holder": "North American Cobalt inc.", "status": "Active", "recorded_date": null, "anniversary_or_expiry": null, "area_ha": null, "tenure_type": null, "source": "GESTIM active titles (MRNF digital data dump). Not legal title.", "as_of": "2026-09-20", "role": "focus", "color": "#e8b040"}}, {"type": "Feature", "geometry": {"type": "Polygon", "coordinates": [[[-79.35833333705126, 47.191666662384414], [-79.35833333764151, 47.18333332937984], [-79.36666666070376, 47.18333333370219], [-79.36666667181154, 47.191666664265966], [-79.35833333705126, 47.191666662384414]]]}, "properties": {"company_id": "cobalt-blue-holdings", "jurisdiction": "Quebec", "claim_id": "", "claim_name": null, "holder": "North American Cobalt inc.", "status": "Active", "recorded_date": null, "anniversary_or_expiry": null, "area_ha": null, "tenure_type": null, "source": "GESTIM active titles (MRNF digital data dump). Not legal title.", "as_of": "2026-09-20", "role": "focus", "color": "#e8b040"}}, {"type": "Feature", "geometry": {"type": "Polygon", "coordinates": [[[-79.34999999950833, 47.19166666578925], [-79.3499999986147, 47.18333333014231], [-79.35833333764151, 47.18333332937984], [-79.35833333705126, 47.191666662384414], [-79.34999999950833, 47.19166666578925]]]}, "properties": {"company_id": "cobalt-blue-holdings", "jurisdiction": "Quebec", "claim_id": "", "claim_name": null, "holder": "North American Cobalt inc.", "status": "Active", "recorded_date": null, "anniversary_or_expiry": null, "area_ha": null, "tenure_type": null, "source": "GESTIM active titles (MRNF digital data dump). Not legal title.", "as_of": "2026-09-20", "role": "focus", "color": "#e8b040"}}, {"type": "Feature", "geometry": {"type": "Polygon", "coordinates": [[[-79.39166666064129, 47.19166666570279], [-79.39166667211371, 47.2000000005356], [-79.38333333343583, 47.19999999793188], [-79.38333333359363, 47.19166666591999], [-79.39166666064129, 47.19166666570279]]]}, "properties": {"company_id": "cobalt-blue-holdings", "jurisdiction": "Quebec", "claim_id": "", "claim_name": null, "holder": "North American Cobalt inc.", "status": "Active", "recorded_date": null, "anniversary_or_expiry": null, "area_ha": null, "tenure_type": null, "source": "GESTIM active titles (MRNF digital data dump). Not legal title.", "as_of": "2026-09-20", "role": "focus", "color": "#e8b040"}}, {"type": "Feature", "geometry": {"type": "Polygon", "coordinates": [[[-79.39166667211371, 47.2000000005356], [-79.39166666254526, 47.208333336615325], [-79.38333333829125, 47.2083333330378], [-79.38333333343583, 47.19999999793188], [-79.39166667211371, 47.2000000005356]]]}, "properties": {"company_id": "cobalt-blue-holdings", "jurisdiction": "Quebec", "claim_id": "", "claim_name": null, "holder": "North American Cobalt inc.", "status": "Active", "recorded_date": null, "anniversary_or_expiry": null, "area_ha": null, "tenure_type": null, "source": "GESTIM active titles (MRNF digital data dump). Not legal title.", "as_of": "2026-09-20", "role": "focus", "color": "#e8b040"}}, {"type": "Feature", "geometry": {"type": "Polygon", "coordinates": [[[-79.38333333359363, 47.19166666591999], [-79.38333333343583, 47.19999999793188], [-79.37500000526137, 47.19999999706612], [-79.37500000407955, 47.19166666244448], [-79.38333333359363, 47.19166666591999]]]}, "properties": {"company_id": "cobalt-blue-holdings", "jurisdiction": "Quebec", "claim_id": "", "claim_name": null, "holder": "North American Cobalt inc.", "status": "Active", "recorded_date": null, "anniversary_or_expiry": null, "area_ha": null, "tenure_type": null, "source": "GESTIM active titles (MRNF digital data dump). Not legal title.", "as_of": "2026-09-20", "role": "focus", "color": "#e8b040"}}, {"type": "Feature", "geometry": {"type": "Polygon", "coordinates": [[[-79.38333333343583, 47.19999999793188], [-79.38333333829125, 47.2083333330378], [-79.37499999807699, 47.208333334602294], [-79.37500000526137, 47.19999999706612], [-79.38333333343583, 47.19999999793188]]]}, "properties": {"company_id": "cobalt-blue-holdings", "jurisdiction": "Quebec", "claim_id": "", "claim_name": null, "holder": "North American Cobalt inc.", "status": "Active", "recorded_date": null, "anniversary_or_expiry": null, "area_ha": null, "tenure_type": null, "source": "GESTIM active titles (MRNF digital data dump). Not legal title.", "as_of": "2026-09-20", "role": "focus", "color": "#e8b040"}}, {"type": "Feature", "geometry": {"type": "Polygon", "coordinates": [[[-79.37500000407955, 47.19166666244448], [-79.37500000526137, 47.19999999706612], [-79.36666666112427, 47.20000000132268], [-79.36666667181154, 47.191666664265966], [-79.37500000407955, 47.19166666244448]]]}, "properties": {"company_id": "cobalt-blue-holdings", "jurisdiction": "Quebec", "claim_id": "", "claim_name": null, "holder": "North American Cobalt inc.", "status": "Active", "recorded_date": null, "anniversary_or_expiry": null, "area_ha": null, "tenure_type": null, "source": "GESTIM active titles (MRNF digital data dump). Not legal title.", "as_of": "2026-09-20", "role": "focus", "color": "#e8b040"}}, {"type": "Feature", "geometry": {"type": "Polygon", "coordinates": [[[-79.37500000526137, 47.19999999706612], [-79.37499999807699, 47.208333334602294], [-79.36666666878784, 47.208333327447505], [-79.36666666112427, 47.20000000132268], [-79.37500000526137, 47.19999999706612]]]}, "properties": {"company_id": "cobalt-blue-holdings", "jurisdiction": "Quebec", "claim_id": "", "claim_name": null, "holder": "North American Cobalt inc.", "status": "Active", "recorded_date": null, "anniversary_or_expiry": null, "area_ha": null, "tenure_type": null, "source": "GESTIM active titles (MRNF digital data dump). Not legal title.", "as_of": "2026-09-20", "role": "focus", "color": "#e8b040"}}, {"type": "Feature", "geometry": {"type": "Polygon", "coordinates": [[[-79.35000000492018, 47.19999999932639], [-79.34166666615478, 47.20000000168142], [-79.34166667264243, 47.191666665671505], [-79.34999999950833, 47.19166666578925], [-79.35000000492018, 47.19999999932639]]]}, "properties": {"company_id": "cobalt-blue-holdings", "jurisdiction": "Quebec", "claim_id": "", "claim_name": null, "holder": "North American Cobalt inc.", "status": "Active", "recorded_date": null, "anniversary_or_expiry": null, "area_ha": null, "tenure_type": null, "source": "GESTIM active titles (MRNF digital data dump). Not legal title.", "as_of": "2026-09-20", "role": "focus", "color": "#e8b040"}}, {"type": "Feature", "geometry": {"type": "Polygon", "coordinates": [[[-79.34166666615478, 47.20000000168142], [-79.33333333804542, 47.20000000052314], [-79.33333333005153, 47.191666661644845], [-79.34166667264243, 47.191666665671505], [-79.34166666615478, 47.20000000168142]]]}, "properties": {"company_id": "cobalt-blue-holdings", "jurisdiction": "Quebec", "claim_id": "", "claim_name": null, "holder": "North American Cobalt inc.", "status": "Active", "recorded_date": null, "anniversary_or_expiry": null, "area_ha": null, "tenure_type": null, "source": "GESTIM active titles (MRNF digital data dump). Not legal title.", "as_of": "2026-09-20", "role": "focus", "color": "#e8b040"}}, {"type": "Feature", "geometry": {"type": "Polygon", "coordinates": [[[-79.35000000142605, 47.208333335798564], [-79.34166666429226, 47.20833332659517], [-79.34166666615478, 47.20000000168142], [-79.35000000492018, 47.19999999932639], [-79.35000000142605, 47.208333335798564]]]}, "properties": {"company_id": "cobalt-blue-holdings", "jurisdiction": "Quebec", "claim_id": "", "claim_name": null, "holder": "North American Cobalt inc.", "status": "Active", "recorded_date": null, "anniversary_or_expiry": null, "area_ha": null, "tenure_type": null, "source": "GESTIM active titles (MRNF digital data dump). Not legal title.", "as_of": "2026-09-20", "role": "focus", "color": "#e8b040"}}, {"type": "Feature", "geometry": {"type": "Polygon", "coordinates": [[[-79.33333333729385, 47.20833332810809], [-79.33333332723447, 47.21666666241557], [-79.32499999859286, 47.216666662951376], [-79.3249999942486, 47.20833333474055], [-79.33333333729385, 47.20833332810809]]]}, "properties": {"company_id": "cobalt-blue-holdings", "jurisdiction": "Quebec", "claim_id": "", "claim_name": null, "holder": "North American Cobalt inc.", "status": "Active", "recorded_date": null, "anniversary_or_expiry": null, "area_ha": null, "tenure_type": null, "source": "GESTIM active titles (MRNF digital data dump). Not legal title.", "as_of": "2026-09-20", "role": "focus", "color": "#e8b040"}}, {"type": "Feature", "geometry": {"type": "Polygon", "coordinates": [[[-79.3333333380454, 47.20000000050994], [-79.33333333729385, 47.20833332810809], [-79.3249999942486, 47.20833333474055], [-79.32499999418602, 47.19999999544992], [-79.3333333380454, 47.20000000050994]]]}, "properties": {"company_id": "cobalt-blue-holdings", "jurisdiction": "Quebec", "claim_id": "", "claim_name": null, "holder": "North American Cobalt inc.", "status": "Active", "recorded_date": null, "anniversary_or_expiry": null, "area_ha": null, "tenure_type": null, "source": "GESTIM active titles (MRNF digital data dump). Not legal title.", "as_of": "2026-09-20", "role": "focus", "color": "#e8b040"}}, {"type": "Feature", "geometry": {"type": "Polygon", "coordinates": [[[-79.33333333005152, 47.19166666163165], [-79.3333333380454, 47.20000000050994], [-79.32499999418602, 47.19999999544992], [-79.32499999783134, 47.19166666306838], [-79.33333333005152, 47.19166666163165]]]}, "properties": {"company_id": "cobalt-blue-holdings", "jurisdiction": "Quebec", "claim_id": "", "claim_name": null, "holder": "North American Cobalt inc.", "status": "Active", "recorded_date": null, "anniversary_or_expiry": null, "area_ha": null, "tenure_type": null, "source": "GESTIM active titles (MRNF digital data dump). Not legal title.", "as_of": "2026-09-20", "role": "focus", "color": "#e8b040"}}]}