{"type": "FeatureCollection", "features": [{"type": "Feature", "geometry": {"type": "Polygon", "coordinates": [[[-130.2911, 59.908], [-130.3268, 59.908], [-130.3269, 59.8945], [-130.2911, 59.8945], [-130.2911, 59.908]]]}, "properties": {"company_id": "coeur-mining", "jurisdiction": "British Columbia", "claim_id": 221908, "claim_name": "RENEE 1", "holder": "COEUR SILVERTIP HOLDINGS LTD.", "status": "Mineral", "recorded_date": "3103488000", "anniversary_or_expiry": "2027-10-15", "area_ha": 300, "tenure_type": "Mineral", "source": "BC MTA Mineral, Placer and Coal Tenure Spatial View (BCGW). Open Government Licence - British Columbia. Not legal title.", "as_of": "2026-09-20", "role": "focus", "color": "#e8b040"}}, {"type": "Feature", "geometry": {"type": "Polygon", "coordinates": [[[-130.3536, 59.8945], [-130.3537, 59.8766], [-130.309, 59.8766], [-130.309, 59.8945], [-130.3536, 59.8945]]]}, "properties": {"company_id": "coeur-mining", "jurisdiction": "British Columbia", "claim_id": 222005, "claim_name": "BETH 2", "holder": "COEUR SILVERTIP HOLDINGS LTD.", "status": "Mineral", "recorded_date": "3345408000", "anniversary_or_expiry": "2027-10-15", "area_ha": 500, "tenure_type": "Mineral", "source": "BC MTA Mineral, Placer and Coal Tenure Spatial View (BCGW). Open Government Licence - British Columbia. Not legal title.", "as_of": "2026-09-20", "role": "focus", "color": "#e8b040"}}, {"type": "Feature", "geometry": {"type": "Polygon", "coordinates": [[[-130.2643, 59.8945], [-130.309, 59.8945], [-130.309, 59.8766], [-130.2644, 59.8765], [-130.2643, 59.8945]]]}, "properties": {"company_id": "coeur-mining", "jurisdiction": "British Columbia", "claim_id": 222006, "claim_name": "BETH 3", "holder": "COEUR SILVERTIP HOLDINGS LTD.", "status": "Mineral", "recorded_date": "3345408000", "anniversary_or_expiry": "2027-10-15", "area_ha": 500, "tenure_type": "Mineral", "source": "BC MTA Mineral, Placer and Coal Tenure Spatial View (BCGW). Open Government Licence - British Columbia. Not legal title.", "as_of": "2026-09-20", "role": "focus", "color": "#e8b040"}}, {"type": "Feature", "geometry": {"type": "Polygon", "coordinates": [[[-130.2643, 59.9214], [-130.2911, 59.9215], [-130.2911, 59.8945], [-130.2643, 59.8945], [-130.2643, 59.9214]]]}, "properties": {"company_id": "coeur-mining", "jurisdiction": "British Columbia", "claim_id": 222007, "claim_name": "BETH 4", "holder": "COEUR SILVERTIP HOLDINGS LTD.", "status": "Mineral", "recorded_date": "3345408000", "anniversary_or_expiry": "2027-10-15", "area_ha": 450, "tenure_type": "Mineral", "source": "BC MTA Mineral, Placer and Coal Tenure Spatial View (BCGW). Open Government Licence - British Columbia. Not legal title.", "as_of": "2026-09-20", "role": "focus", "color": "#e8b040"}}, {"type": "Feature", "geometry": {"type": "Polygon", "coordinates": [[[-130.2911, 59.9289], [-130.2911, 59.9304], [-130.3269, 59.9305], [-130.3269, 59.908], [-130.2911, 59.908], [-130.2911, 59.9289]]]}, "properties": {"company_id": "coeur-mining", "jurisdiction": "British Columbia", "claim_id": 221837, "claim_name": "TOOTS 4", "holder": "COEUR SILVERTIP HOLDINGS LTD.", "status": "Mineral", "recorded_date": "3000672000", "anniversary_or_expiry": "2027-10-15", "area_ha": 500, "tenure_type": "Mineral", "source": "BC MTA Mineral, Placer and Coal Tenure Spatial View (BCGW). Open Government Licence - British Columbia. Not legal title.", "as_of": "2026-09-20", "role": "focus", "color": "#e8b040"}}, {"type": "Feature", "geometry": {"type": "Polygon", "coordinates": [[[-130.233, 59.9789], [-130.233, 59.9748], [-130.1517, 59.9748], [-130.1517, 59.9998], [-130.233, 59.9998], [-130.233, 59.9789]]]}, "properties": {"company_id": "coeur-mining", "jurisdiction": "British Columbia", "claim_id": 509654, "claim_name": null, "holder": "COEUR SILVERTIP HOLDINGS LTD.", "status": "Mineral", "recorded_date": "2005-03-24", "anniversary_or_expiry": "2027-10-15", "area_ha": 1263.252, "tenure_type": "Mineral", "source": "BC MTA Mineral, Placer and Coal Tenure Spatial View (BCGW). Open Government Licence - British Columbia. Not legal title.", "as_of": "2026-09-20", "role": "focus", "color": "#e8b040"}}, {"type": "Feature", "geometry": {"type": "Polygon", "coordinates": [[[-130.3017, 59.9789], [-130.3017, 59.9748], [-130.233, 59.9748], [-130.233, 59.9998], [-130.3017, 59.9998], [-130.3017, 59.9789]]]}, "properties": {"company_id": "coeur-mining", "jurisdiction": "British Columbia", "claim_id": 509655, "claim_name": null, "holder": "COEUR SILVERTIP HOLDINGS LTD.", "status": "Mineral", "recorded_date": "2005-03-24", "anniversary_or_expiry": "2027-10-15", "area_ha": 1068.893, "tenure_type": "Mineral", "source": "BC MTA Mineral, Placer and Coal Tenure Spatial View (BCGW). Open Government Licence - British Columbia. Not legal title.", "as_of": "2026-09-20", "role": "focus", "color": "#e8b040"}}, {"type": "Feature", "geometry": {"type": "Polygon", "coordinates": [[[-130.233, 59.9539], [-130.233, 59.9498], [-130.1517, 59.9498], [-130.1517, 59.9748], [-130.233, 59.9748], [-130.233, 59.9539]]]}, "properties": {"company_id": "coeur-mining", "jurisdiction": "British Columbia", "claim_id": 509657, "claim_name": null, "holder": "COEUR SILVERTIP HOLDINGS LTD.", "status": "Mineral", "recorded_date": "2005-03-24", "anniversary_or_expiry": "2027-10-15", "area_ha": 1264.2140000000002, "tenure_type": "Mineral", "source": "BC MTA Mineral, Placer and Coal Tenure Spatial View (BCGW). Open Government Licence - British Columbia. Not legal title.", "as_of": "2026-09-20", "role": "focus", "color": "#e8b040"}}, {"type": "Feature", "geometry": {"type": "Polygon", "coordinates": [[[-130.3017, 59.9539], [-130.2955, 59.9539], [-130.2955, 59.9498], [-130.233, 59.9498], [-130.233, 59.9748], [-130.3017, 59.9748], [-130.3017, 59.9539]]]}, "properties": {"company_id": "coeur-mining", "jurisdiction": "British Columbia", "claim_id": 509808, "claim_name": null, "holder": "COEUR SILVERTIP HOLDINGS LTD.", "status": "Mineral", "recorded_date": "2005-03-30", "anniversary_or_expiry": "2027-10-15", "area_ha": 1053.5040000000001, "tenure_type": "Mineral", "source": "BC MTA Mineral, Placer and Coal Tenure Spatial View (BCGW). Open Government Licence - British Columbia. Not legal title.", "as_of": "2026-09-20", "role": "focus", "color": "#e8b040"}}, {"type": "Feature", "geometry": {"type": "Polygon", "coordinates": [[[-130.2892, 59.9331], [-130.2892, 59.9289], [-130.1892, 59.9289], [-130.1892, 59.9498], [-130.2892, 59.9498], [-130.2892, 59.9331]]]}, "properties": {"company_id": "coeur-mining", "jurisdiction": "British Columbia", "claim_id": 509809, "claim_name": null, "holder": "COEUR SILVERTIP HOLDINGS LTD.", "status": "Mineral", "recorded_date": "2005-03-30", "anniversary_or_expiry": "2027-10-15", "area_ha": 1297.5410000000002, "tenure_type": "Mineral", "source": "BC MTA Mineral, Placer and Coal Tenure Spatial View (BCGW). Open Government Licence - British Columbia. Not legal title.", "as_of": "2026-09-20", "role": "focus", "color": "#e8b040"}}, {"type": "Feature", "geometry": {"type": "Polygon", "coordinates": [[[-130.3642, 59.9706], [-130.3642, 59.9664], [-130.358, 59.9664], [-130.358, 59.9539], [-130.3017, 59.9539], [-130.3017, 59.9748], [-130.3642, 59.9748], [-130.3642, 59.9706]]]}, "properties": {"company_id": "coeur-mining", "jurisdiction": "British Columbia", "claim_id": 509810, "claim_name": null, "holder": "COEUR SILVERTIP HOLDINGS LTD.", "status": "Mineral", "recorded_date": "2005-03-30", "anniversary_or_expiry": "2027-10-15", "area_ha": 761.6940000000001, "tenure_type": "Mineral", "source": "BC MTA Mineral, Placer and Coal Tenure Spatial View (BCGW). Open Government Licence - British Columbia. Not legal title.", "as_of": "2026-09-20", "role": "focus", "color": "#e8b040"}}, {"type": "Feature", "geometry": {"type": "Polygon", "coordinates": [[[-130.3142, 59.8081], [-130.3142, 59.8039], [-130.2642, 59.8039], [-130.2642, 59.8414], [-130.3142, 59.8414], [-130.3142, 59.8081]]]}, "properties": {"company_id": "coeur-mining", "jurisdiction": "British Columbia", "claim_id": 509812, "claim_name": null, "holder": "COEUR SILVERTIP HOLDINGS LTD.", "status": "Mineral", "recorded_date": "2005-03-30", "anniversary_or_expiry": "2027-10-15", "area_ha": 1171.8790000000001, "tenure_type": "Mineral", "source": "BC MTA Mineral, Placer and Coal Tenure Spatial View (BCGW). Open Government Licence - British Columbia. Not legal title.", "as_of": "2026-09-20", "role": "focus", "color": "#e8b040"}}, {"type": "Feature", "geometry": {"type": "Polygon", "coordinates": [[[-130.4205, 59.8414], [-130.4205, 59.8373], [-130.4017, 59.8373], [-130.4017, 59.8248], [-130.3517, 59.8248], [-130.3517, 59.8581], [-130.4017, 59.8581], [-130.4017, 59.8456], [-130.4205, 59.8456], [-130.4205, 59.8414]]]}, "properties": {"company_id": "coeur-mining", "jurisdiction": "British Columbia", "claim_id": 509840, "claim_name": null, "holder": "COEUR SILVERTIP HOLDINGS LTD.", "status": "Mineral", "recorded_date": "2005-03-30", "anniversary_or_expiry": "2027-10-15", "area_ha": 1138.671, "tenure_type": "Mineral", "source": "BC MTA Mineral, Placer and Coal Tenure Spatial View (BCGW). Open Government Licence - British Columbia. Not legal title.", "as_of": "2026-09-20", "role": "focus", "color": "#e8b040"}}, {"type": "Feature", "geometry": {"type": "Polygon", "coordinates": [[[-130.3142, 59.8456], [-130.3142, 59.8414], [-130.2642, 59.8414], [-130.2642, 59.8789], [-130.3142, 59.8789], [-130.3142, 59.8456]]]}, "properties": {"company_id": "coeur-mining", "jurisdiction": "British Columbia", "claim_id": 509841, "claim_name": null, "holder": "COEUR SILVERTIP HOLDINGS LTD.", "status": "Mineral", "recorded_date": "2005-03-30", "anniversary_or_expiry": "2027-10-15", "area_ha": 1170.563, "tenure_type": "Mineral", "source": "BC MTA Mineral, Placer and Coal Tenure Spatial View (BCGW). Open Government Licence - British Columbia. Not legal title.", "as_of": "2026-09-20", "role": "focus", "color": "#e8b040"}}, {"type": "Feature", "geometry": {"type": "Polygon", "coordinates": [[[-130.358, 59.8164], [-130.358, 59.8123], [-130.3142, 59.8123], [-130.3142, 59.8623], [-130.3517, 59.8623], [-130.3517, 59.8248], [-130.358, 59.8248], [-130.358, 59.8164]]]}, "properties": {"company_id": "coeur-mining", "jurisdiction": "British Columbia", "claim_id": 509843, "claim_name": null, "holder": "COEUR SILVERTIP HOLDINGS LTD.", "status": "Mineral", "recorded_date": "2005-03-30", "anniversary_or_expiry": "2027-10-15", "area_ha": 1220.191, "tenure_type": "Mineral", "source": "BC MTA Mineral, Placer and Coal Tenure Spatial View (BCGW). Open Government Licence - British Columbia. Not legal title.", "as_of": "2026-09-20", "role": "focus", "color": "#e8b040"}}, {"type": "Feature", "geometry": {"type": "Polygon", "coordinates": [[[-130.4017, 59.8789], [-130.4017, 59.8748], [-130.3517, 59.8748], [-130.3517, 59.9081], [-130.3642, 59.9081], [-130.3642, 59.9123], [-130.3705, 59.9123], [-130.3705, 59.9206], [-130.4017, 59.9206], [-130.4017, 59.8789]]]}, "properties": {"company_id": "coeur-mining", "jurisdiction": "British Columbia", "claim_id": 509865, "claim_name": null, "holder": "COEUR SILVERTIP HOLDINGS LTD.", "status": "Mineral", "recorded_date": "2005-03-30", "anniversary_or_expiry": "2027-10-15", "area_ha": 1299.2820000000002, "tenure_type": "Mineral", "source": "BC MTA Mineral, Placer and Coal Tenure Spatial View (BCGW). Open Government Licence - British Columbia. Not legal title.", "as_of": "2026-09-20", "role": "focus", "color": "#e8b040"}}, {"type": "Feature", "geometry": {"type": "Polygon", "coordinates": [[[-130.1955, 59.9123], [-130.1955, 59.9081], [-130.1142, 59.9081], [-130.1142, 59.9331], [-130.1892, 59.9331], [-130.1892, 59.9289], [-130.1955, 59.9289], [-130.1955, 59.9123]]]}, "properties": {"company_id": "coeur-mining", "jurisdiction": "British Columbia", "claim_id": 509868, "claim_name": null, "holder": "COEUR SILVERTIP HOLDINGS LTD.", "status": "Mineral", "recorded_date": "2005-03-30", "anniversary_or_expiry": "2027-10-15", "area_ha": 1249.576, "tenure_type": "Mineral", "source": "BC MTA Mineral, Placer and Coal Tenure Spatial View (BCGW). Open Government Licence - British Columbia. Not legal title.", "as_of": "2026-09-20", "role": "focus", "color": "#e8b040"}}, {"type": "Feature", "geometry": {"type": "Polygon", "coordinates": [[[-130.2955, 59.9248], [-130.2955, 59.9206], [-130.2705, 59.9206], [-130.2705, 59.8789], [-130.2642, 59.8789], [-130.2642, 59.8706], [-130.2392, 59.8706], [-130.2392, 59.9081], [-130.2455, 59.9081], [-130.2455, 59.9289], [-130.2955, 59.9289], [-130.2955, 59.9248]]]}, "properties": {"company_id": "coeur-mining", "jurisdiction": "British Columbia", "claim_id": 509876, "claim_name": null, "holder": "COEUR SILVERTIP HOLDINGS LTD.", "status": "Mineral", "recorded_date": "2005-03-30", "anniversary_or_expiry": "2027-10-15", "area_ha": 1152.875, "tenure_type": "Mineral", "source": "BC MTA Mineral, Placer and Coal Tenure Spatial View (BCGW). Open Government Licence - British Columbia. Not legal title.", "as_of": "2026-09-20", "role": "focus", "color": "#e8b040"}}, {"type": "Feature", "geometry": {"type": "Polygon", "coordinates": [[[-130.4017, 59.8581], [-130.3517, 59.8581], [-130.3517, 59.8623], [-130.3142, 59.8623], [-130.3142, 59.8789], [-130.3517, 59.8789], [-130.3517, 59.8748], [-130.4017, 59.8748], [-130.4017, 59.8581]]]}, "properties": {"company_id": "coeur-mining", "jurisdiction": "British Columbia", "claim_id": 509883, "claim_name": null, "holder": "COEUR SILVERTIP HOLDINGS LTD.", "status": "Mineral", "recorded_date": "2005-03-30", "anniversary_or_expiry": "2027-10-15", "area_ha": 910.231, "tenure_type": "Mineral", "source": "BC MTA Mineral, Placer and Coal Tenure Spatial View (BCGW). Open Government Licence - British Columbia. Not legal title.", "as_of": "2026-09-20", "role": "focus", "color": "#e8b040"}}, {"type": "Feature", "geometry": {"type": "Polygon", "coordinates": [[[-130.4017, 59.9456], [-130.4017, 59.9414], [-130.3892, 59.9414], [-130.3892, 59.9498], [-130.358, 59.9498], [-130.358, 59.9664], [-130.4017, 59.9664], [-130.4017, 59.9456]]]}, "properties": {"company_id": "coeur-mining", "jurisdiction": "British Columbia", "claim_id": 509885, "claim_name": null, "holder": "COEUR SILVERTIP HOLDINGS LTD.", "status": "Mineral", "recorded_date": "2005-03-30", "anniversary_or_expiry": "2027-10-15", "area_ha": 518.7180000000001, "tenure_type": "Mineral", "source": "BC MTA Mineral, Placer and Coal Tenure Spatial View (BCGW). Open Government Licence - British Columbia. Not legal title.", "as_of": "2026-09-20", "role": "focus", "color": "#e8b040"}}, {"type": "Feature", "geometry": {"type": "Polygon", "coordinates": [[[-130.2455, 59.9123], [-130.2455, 59.9081], [-130.1955, 59.9081], [-130.1955, 59.9289], [-130.2455, 59.9289], [-130.2455, 59.9123]]]}, "properties": {"company_id": "coeur-mining", "jurisdiction": "British Columbia", "claim_id": 509875, "claim_name": null, "holder": "COEUR SILVERTIP HOLDINGS LTD.", "status": "Mineral", "recorded_date": "2005-03-30", "anniversary_or_expiry": "2027-10-15", "area_ha": 649.177, "tenure_type": "Mineral", "source": "BC MTA Mineral, Placer and Coal Tenure Spatial View (BCGW). Open Government Licence - British Columbia. Not legal title.", "as_of": "2026-09-20", "role": "focus", "color": "#e8b040"}}]}