{"type": "FeatureCollection", "features": [{"type": "Feature", "geometry": {"type": "Polygon", "coordinates": [[[-128.2334, 54.4794], [-128.2365, 54.4835], [-128.2436, 54.4817], [-128.2405, 54.4776], [-128.2334, 54.4794]]]}, "properties": {"company_id": "decade-resources", "jurisdiction": "British Columbia", "claim_id": 398666, "claim_name": "DAR 8", "holder": "DECADE RESOURCES LTD.", "status": "Mineral", "recorded_date": "2002-12-02", "anniversary_or_expiry": "2027-08-02", "area_ha": 25, "tenure_type": "Mineral", "source": "BC MTA Mineral, Placer and Coal Tenure Spatial View (BCGW). Open Government Licence - British Columbia. Not legal title.", "as_of": "2026-09-20", "role": "focus", "color": "#e8b040"}}, {"type": "Feature", "geometry": {"type": "Polygon", "coordinates": [[[-128.033, 54.5082], [-128.033, 54.504], [-128.0142, 54.504], [-128.0142, 54.5124], [-128.008, 54.5124], [-128.008, 54.5332], [-128.033, 54.5332], [-128.033, 54.5082]]]}, "properties": {"company_id": "decade-resources", "jurisdiction": "British Columbia", "claim_id": 510714, "claim_name": null, "holder": "DECADE RESOURCES LTD.", "status": "Mineral", "recorded_date": "2005-04-13", "anniversary_or_expiry": "2027-08-02", "area_ha": 488.077, "tenure_type": "Mineral", "source": "BC MTA Mineral, Placer and Coal Tenure Spatial View (BCGW). Open Government Licence - British Columbia. Not legal title.", "as_of": "2026-09-20", "role": "focus", "color": "#e8b040"}}, {"type": "Feature", "geometry": {"type": "Polygon", "coordinates": [[[-128.033, 54.479], [-128.033, 54.4749], [-128.0017, 54.4749], [-128.0017, 54.4874], [-128.033, 54.4874], [-128.033, 54.479]]]}, "properties": {"company_id": "decade-resources", "jurisdiction": "British Columbia", "claim_id": 510716, "claim_name": null, "holder": "DECADE RESOURCES LTD.", "status": "Mineral", "recorded_date": "2005-04-13", "anniversary_or_expiry": "2027-08-02", "area_ha": 281.83500000000004, "tenure_type": "Mineral", "source": "BC MTA Mineral, Placer and Coal Tenure Spatial View (BCGW). Open Government Licence - British Columbia. Not legal title.", "as_of": "2026-09-20", "role": "focus", "color": "#e8b040"}}, {"type": "Feature", "geometry": {"type": "Polygon", "coordinates": [[[-128.2205, 54.4832], [-128.2205, 54.479], [-128.208, 54.479], [-128.208, 54.4873], [-128.2205, 54.4873], [-128.2205, 54.4832]]]}, "properties": {"company_id": "decade-resources", "jurisdiction": "British Columbia", "claim_id": 510719, "claim_name": null, "holder": "DECADE RESOURCES LTD.", "status": "Mineral", "recorded_date": "2005-04-13", "anniversary_or_expiry": "2027-08-02", "area_ha": 75.161, "tenure_type": "Mineral", "source": "BC MTA Mineral, Placer and Coal Tenure Spatial View (BCGW). Open Government Licence - British Columbia. Not legal title.", "as_of": "2026-09-20", "role": "focus", "color": "#e8b040"}}, {"type": "Feature", "geometry": {"type": "Polygon", "coordinates": [[[-128.2017, 54.4832], [-128.2017, 54.479], [-128.183, 54.479], [-128.183, 54.504], [-128.2017, 54.504], [-128.2017, 54.4832]]]}, "properties": {"company_id": "decade-resources", "jurisdiction": "British Columbia", "claim_id": 505417, "claim_name": "Dardanelle 2", "holder": "DECADE RESOURCES LTD.", "status": "Mineral", "recorded_date": "2005-02-01", "anniversary_or_expiry": "2027-08-02", "area_ha": 338.14, "tenure_type": "Mineral", "source": "BC MTA Mineral, Placer and Coal Tenure Spatial View (BCGW). Open Government Licence - British Columbia. Not legal title.", "as_of": "2026-09-20", "role": "focus", "color": "#e8b040"}}, {"type": "Feature", "geometry": {"type": "Polygon", "coordinates": [[[-128.183, 54.4873], [-128.183, 54.4832], [-128.1642, 54.4832], [-128.1642, 54.5082], [-128.183, 54.5082], [-128.183, 54.4873]]]}, "properties": {"company_id": "decade-resources", "jurisdiction": "British Columbia", "claim_id": 505418, "claim_name": "Dardanelle 3", "holder": "DECADE RESOURCES LTD.", "status": "Mineral", "recorded_date": "2005-02-01", "anniversary_or_expiry": "2027-08-02", "area_ha": 338.09700000000004, "tenure_type": "Mineral", "source": "BC MTA Mineral, Placer and Coal Tenure Spatial View (BCGW). Open Government Licence - British Columbia. Not legal title.", "as_of": "2026-09-20", "role": "focus", "color": "#e8b040"}}, {"type": "Feature", "geometry": {"type": "Polygon", "coordinates": [[[-128.0455, 54.5123], [-128.0455, 54.5082], [-128.033, 54.5082], [-128.033, 54.5165], [-128.0455, 54.5165], [-128.0455, 54.5123]]]}, "properties": {"company_id": "decade-resources", "jurisdiction": "British Columbia", "claim_id": 505623, "claim_name": "BF 5", "holder": "DECADE RESOURCES LTD.", "status": "Mineral", "recorded_date": "2005-02-02", "anniversary_or_expiry": "2027-08-02", "area_ha": 75.102, "tenure_type": "Mineral", "source": "BC MTA Mineral, Placer and Coal Tenure Spatial View (BCGW). Open Government Licence - British Columbia. Not legal title.", "as_of": "2026-09-20", "role": "focus", "color": "#e8b040"}}, {"type": "Feature", "geometry": {"type": "Polygon", "coordinates": [[[-128.0142, 54.5082], [-128.0142, 54.504], [-128.0017, 54.504], [-128.0017, 54.5124], [-128.0142, 54.5124], [-128.0142, 54.5082]]]}, "properties": {"company_id": "decade-resources", "jurisdiction": "British Columbia", "claim_id": 505625, "claim_name": "BF 6", "holder": "DECADE RESOURCES LTD.", "status": "Mineral", "recorded_date": "2005-02-02", "anniversary_or_expiry": "2027-08-02", "area_ha": 75.10900000000001, "tenure_type": "Mineral", "source": "BC MTA Mineral, Placer and Coal Tenure Spatial View (BCGW). Open Government Licence - British Columbia. Not legal title.", "as_of": "2026-09-20", "role": "focus", "color": "#e8b040"}}, {"type": "Feature", "geometry": {"type": "Polygon", "coordinates": [[[-128.0642, 54.4957], [-128.0642, 54.4915], [-128.033, 54.4915], [-128.033, 54.5082], [-128.0642, 54.5082], [-128.0642, 54.4957]]]}, "properties": {"company_id": "decade-resources", "jurisdiction": "British Columbia", "claim_id": 505626, "claim_name": "Treasure 1", "holder": "DECADE RESOURCES LTD.", "status": "Mineral", "recorded_date": "2005-02-02", "anniversary_or_expiry": "2027-08-02", "area_ha": 375.615, "tenure_type": "Mineral", "source": "BC MTA Mineral, Placer and Coal Tenure Spatial View (BCGW). Open Government Licence - British Columbia. Not legal title.", "as_of": "2026-09-20", "role": "focus", "color": "#e8b040"}}, {"type": "Feature", "geometry": {"type": "Polygon", "coordinates": [[[-128.033, 54.4915], [-128.033, 54.4874], [-128.0017, 54.4874], [-128.0017, 54.504], [-128.033, 54.504], [-128.033, 54.4915]]]}, "properties": {"company_id": "decade-resources", "jurisdiction": "British Columbia", "claim_id": 505628, "claim_name": "Treasure 2", "holder": "DECADE RESOURCES LTD.", "status": "Mineral", "recorded_date": "2005-02-02", "anniversary_or_expiry": "2027-08-02", "area_ha": 375.65000000000003, "tenure_type": "Mineral", "source": "BC MTA Mineral, Placer and Coal Tenure Spatial View (BCGW). Open Government Licence - British Columbia. Not legal title.", "as_of": "2026-09-20", "role": "focus", "color": "#e8b040"}}, {"type": "Feature", "geometry": {"type": "Polygon", "coordinates": [[[-128.0705, 54.4832], [-128.0705, 54.479], [-128.033, 54.479], [-128.033, 54.4915], [-128.0705, 54.4915], [-128.0705, 54.4832]]]}, "properties": {"company_id": "decade-resources", "jurisdiction": "British Columbia", "claim_id": 505629, "claim_name": "Treasure 3", "holder": "DECADE RESOURCES LTD.", "status": "Mineral", "recorded_date": "2005-02-02", "anniversary_or_expiry": "2027-08-02", "area_ha": 338.16400000000004, "tenure_type": "Mineral", "source": "BC MTA Mineral, Placer and Coal Tenure Spatial View (BCGW). Open Government Licence - British Columbia. Not legal title.", "as_of": "2026-09-20", "role": "focus", "color": "#e8b040"}}, {"type": "Feature", "geometry": {"type": "Polygon", "coordinates": [[[-128.0767, 54.4707], [-128.0767, 54.4665], [-128.033, 54.4665], [-128.033, 54.479], [-128.0767, 54.479], [-128.0767, 54.4707]]]}, "properties": {"company_id": "decade-resources", "jurisdiction": "British Columbia", "claim_id": 505630, "claim_name": "Treasure 4", "holder": "DECADE RESOURCES LTD.", "status": "Mineral", "recorded_date": "2005-02-02", "anniversary_or_expiry": "2027-08-02", "area_ha": 394.64500000000004, "tenure_type": "Mineral", "source": "BC MTA Mineral, Placer and Coal Tenure Spatial View (BCGW). Open Government Licence - British Columbia. Not legal title.", "as_of": "2026-09-20", "role": "focus", "color": "#e8b040"}}, {"type": "Feature", "geometry": {"type": "Polygon", "coordinates": [[[-128.033, 54.4707], [-128.033, 54.4665], [-128.0017, 54.4665], [-128.0017, 54.4749], [-128.033, 54.4749], [-128.033, 54.4707]]]}, "properties": {"company_id": "decade-resources", "jurisdiction": "British Columbia", "claim_id": 505631, "claim_name": "Treasure 5", "holder": "DECADE RESOURCES LTD.", "status": "Mineral", "recorded_date": "2005-02-02", "anniversary_or_expiry": "2027-08-02", "area_ha": 187.93800000000002, "tenure_type": "Mineral", "source": "BC MTA Mineral, Placer and Coal Tenure Spatial View (BCGW). Open Government Licence - British Columbia. Not legal title.", "as_of": "2026-09-20", "role": "focus", "color": "#e8b040"}}, {"type": "Feature", "geometry": {"type": "Polygon", "coordinates": [[[-128.083, 54.4665], [-128.083, 54.4623], [-128.0642, 54.4623], [-128.0642, 54.4665], [-128.0767, 54.4665], [-128.0767, 54.479], [-128.0705, 54.479], [-128.0705, 54.4832], [-128.083, 54.4832], [-128.083, 54.4665]]]}, "properties": {"company_id": "decade-resources", "jurisdiction": "British Columbia", "claim_id": 515062, "claim_name": "SALMON RUN", "holder": "DECADE RESOURCES LTD.", "status": "Mineral", "recorded_date": "2005-06-23", "anniversary_or_expiry": "2027-08-02", "area_ha": 150.344, "tenure_type": "Mineral", "source": "BC MTA Mineral, Placer and Coal Tenure Spatial View (BCGW). Open Government Licence - British Columbia. Not legal title.", "as_of": "2026-09-20", "role": "focus", "color": "#e8b040"}}, {"type": "Feature", "geometry": {"type": "Polygon", "coordinates": [[[-128.0767, 54.4582], [-128.0642, 54.4582], [-128.0642, 54.4623], [-128.083, 54.4623], [-128.083, 54.4582], [-128.0767, 54.4582]]]}, "properties": {"company_id": "decade-resources", "jurisdiction": "British Columbia", "claim_id": 515064, "claim_name": "SALMON RUN 2", "holder": "DECADE RESOURCES LTD.", "status": "Mineral", "recorded_date": "2005-06-23", "anniversary_or_expiry": "2027-08-02", "area_ha": 56.395, "tenure_type": "Mineral", "source": "BC MTA Mineral, Placer and Coal Tenure Spatial View (BCGW). Open Government Licence - British Columbia. Not legal title.", "as_of": "2026-09-20", "role": "focus", "color": "#e8b040"}}, {"type": "Feature", "geometry": {"type": "Polygon", "coordinates": [[[-128.2205, 54.4915], [-128.2205, 54.4873], [-128.2142, 54.4873], [-128.2142, 54.4957], [-128.2267, 54.4957], [-128.2267, 54.4915], [-128.2205, 54.4915]]]}, "properties": {"company_id": "decade-resources", "jurisdiction": "British Columbia", "claim_id": 517515, "claim_name": null, "holder": "DECADE RESOURCES LTD.", "status": "Mineral", "recorded_date": "2005-07-12", "anniversary_or_expiry": "2027-08-02", "area_ha": 56.359, "tenure_type": "Mineral", "source": "BC MTA Mineral, Placer and Coal Tenure Spatial View (BCGW). Open Government Licence - British Columbia. Not legal title.", "as_of": "2026-09-20", "role": "focus", "color": "#e8b040"}}, {"type": "Feature", "geometry": {"type": "Polygon", "coordinates": [[[-128.2142, 54.4915], [-128.2142, 54.4873], [-128.208, 54.4873], [-128.208, 54.479], [-128.2017, 54.479], [-128.2017, 54.4998], [-128.2205, 54.4998], [-128.2205, 54.4957], [-128.2142, 54.4957], [-128.2142, 54.4915]]]}, "properties": {"company_id": "decade-resources", "jurisdiction": "British Columbia", "claim_id": 505416, "claim_name": "Dardanelle 1", "holder": "DECADE RESOURCES LTD.", "status": "Mineral", "recorded_date": "2005-02-01", "anniversary_or_expiry": "2027-08-02", "area_ha": 169.07500000000002, "tenure_type": "Mineral", "source": "BC MTA Mineral, Placer and Coal Tenure Spatial View (BCGW). Open Government Licence - British Columbia. Not legal title.", "as_of": "2026-09-20", "role": "focus", "color": "#e8b040"}}, {"type": "Feature", "geometry": {"type": "Polygon", "coordinates": [[[-128.233, 54.4873], [-128.233, 54.4832], [-128.2205, 54.4832], [-128.2205, 54.4915], [-128.233, 54.4915], [-128.233, 54.4873]]]}, "properties": {"company_id": "decade-resources", "jurisdiction": "British Columbia", "claim_id": 517726, "claim_name": null, "holder": "DECADE RESOURCES LTD.", "status": "Mineral", "recorded_date": "2005-07-14", "anniversary_or_expiry": "2027-08-02", "area_ha": 75.155, "tenure_type": "Mineral", "source": "BC MTA Mineral, Placer and Coal Tenure Spatial View (BCGW). Open Government Licence - British Columbia. Not legal title.", "as_of": "2026-09-20", "role": "focus", "color": "#e8b040"}}, {"type": "Feature", "geometry": {"type": "Polygon", "coordinates": [[[-128.2517, 54.4832], [-128.2517, 54.479], [-128.2455, 54.479], [-128.2455, 54.4873], [-128.2517, 54.4873], [-128.2517, 54.4832]]]}, "properties": {"company_id": "decade-resources", "jurisdiction": "British Columbia", "claim_id": 531627, "claim_name": null, "holder": "DECADE RESOURCES LTD.", "status": "Mineral", "recorded_date": "2006-04-10", "anniversary_or_expiry": "2027-08-02", "area_ha": 37.583, "tenure_type": "Mineral", "source": "BC MTA Mineral, Placer and Coal Tenure Spatial View (BCGW). Open Government Licence - British Columbia. Not legal title.", "as_of": "2026-09-20", "role": "focus", "color": "#e8b040"}}, {"type": "Feature", "geometry": {"type": "Polygon", "coordinates": [[[-128.258, 54.4832], [-128.258, 54.479], [-128.2517, 54.479], [-128.2517, 54.4873], [-128.258, 54.4873], [-128.258, 54.4832]]]}, "properties": {"company_id": "decade-resources", "jurisdiction": "British Columbia", "claim_id": 531629, "claim_name": null, "holder": "DECADE RESOURCES LTD.", "status": "Mineral", "recorded_date": "2006-04-10", "anniversary_or_expiry": "2027-08-02", "area_ha": 37.583, "tenure_type": "Mineral", "source": "BC MTA Mineral, Placer and Coal Tenure Spatial View (BCGW). Open Government Licence - British Columbia. Not legal title.", "as_of": "2026-09-20", "role": "focus", "color": "#e8b040"}}, {"type": "Feature", "geometry": {"type": "Polygon", "coordinates": [[[-128.2392, 54.4873], [-128.2392, 54.4832], [-128.233, 54.4832], [-128.233, 54.4915], [-128.2392, 54.4915], [-128.2392, 54.4873]]]}, "properties": {"company_id": "decade-resources", "jurisdiction": "British Columbia", "claim_id": 531650, "claim_name": null, "holder": "DECADE RESOURCES LTD.", "status": "Mineral", "recorded_date": "2006-04-10", "anniversary_or_expiry": "2027-08-02", "area_ha": 37.578, "tenure_type": "Mineral", "source": "BC MTA Mineral, Placer and Coal Tenure Spatial View (BCGW). Open Government Licence - British Columbia. Not legal title.", "as_of": "2026-09-20", "role": "focus", "color": "#e8b040"}}, {"type": "Feature", "geometry": {"type": "Polygon", "coordinates": [[[-128.2455, 54.4832], [-128.2455, 54.479], [-128.2392, 54.479], [-128.2392, 54.4873], [-128.2455, 54.4873], [-128.2455, 54.4832]]]}, "properties": {"company_id": "decade-resources", "jurisdiction": "British Columbia", "claim_id": 531653, "claim_name": null, "holder": "DECADE RESOURCES LTD.", "status": "Mineral", "recorded_date": "2006-04-10", "anniversary_or_expiry": "2027-08-02", "area_ha": 37.583, "tenure_type": "Mineral", "source": "BC MTA Mineral, Placer and Coal Tenure Spatial View (BCGW). Open Government Licence - British Columbia. Not legal title.", "as_of": "2026-09-20", "role": "focus", "color": "#e8b040"}}, {"type": "Feature", "geometry": {"type": "Polygon", "coordinates": [[[-128.233, 54.479], [-128.2267, 54.479], [-128.2267, 54.4832], [-128.2392, 54.4832], [-128.2392, 54.479], [-128.233, 54.479]]]}, "properties": {"company_id": "decade-resources", "jurisdiction": "British Columbia", "claim_id": 531655, "claim_name": null, "holder": "DECADE RESOURCES LTD.", "status": "Mineral", "recorded_date": "2006-04-10", "anniversary_or_expiry": "2027-08-02", "area_ha": 37.584, "tenure_type": "Mineral", "source": "BC MTA Mineral, Placer and Coal Tenure Spatial View (BCGW). Open Government Licence - British Columbia. Not legal title.", "as_of": "2026-09-20", "role": "focus", "color": "#e8b040"}}, {"type": "Feature", "geometry": {"type": "Polygon", "coordinates": [[[-128.2267, 54.479], [-128.2267, 54.4748], [-128.2142, 54.4748], [-128.2142, 54.479], [-128.2205, 54.479], [-128.2205, 54.4832], [-128.2267, 54.4832], [-128.2267, 54.479]]]}, "properties": {"company_id": "decade-resources", "jurisdiction": "British Columbia", "claim_id": 531658, "claim_name": null, "holder": "DECADE RESOURCES LTD.", "status": "Mineral", "recorded_date": "2006-04-10", "anniversary_or_expiry": "2027-08-02", "area_ha": 56.378, "tenure_type": "Mineral", "source": "BC MTA Mineral, Placer and Coal Tenure Spatial View (BCGW). Open Government Licence - British Columbia. Not legal title.", "as_of": "2026-09-20", "role": "focus", "color": "#e8b040"}}, {"type": "Feature", "geometry": {"type": "Polygon", "coordinates": [[[-128.2267, 54.479], [-128.233, 54.479], [-128.233, 54.4748], [-128.2267, 54.4748], [-128.2267, 54.479]]]}, "properties": {"company_id": "decade-resources", "jurisdiction": "British Columbia", "claim_id": 531663, "claim_name": null, "holder": "DECADE RESOURCES LTD.", "status": "Mineral", "recorded_date": "2006-04-10", "anniversary_or_expiry": "2027-08-02", "area_ha": 18.794, "tenure_type": "Mineral", "source": "BC MTA Mineral, Placer and Coal Tenure Spatial View (BCGW). Open Government Licence - British Columbia. Not legal title.", "as_of": "2026-09-20", "role": "focus", "color": "#e8b040"}}, {"type": "Feature", "geometry": {"type": "Polygon", "coordinates": [[[-128.108, 54.4623], [-128.108, 54.4582], [-128.083, 54.4582], [-128.083, 54.4665], [-128.108, 54.4665], [-128.108, 54.4623]]]}, "properties": {"company_id": "decade-resources", "jurisdiction": "British Columbia", "claim_id": 535609, "claim_name": "TREASURE", "holder": "DECADE RESOURCES LTD.", "status": "Mineral", "recorded_date": "2006-06-13", "anniversary_or_expiry": "2027-08-02", "area_ha": 150.37900000000002, "tenure_type": "Mineral", "source": "BC MTA Mineral, Placer and Coal Tenure Spatial View (BCGW). Open Government Licence - British Columbia. Not legal title.", "as_of": "2026-09-20", "role": "focus", "color": "#e8b040"}}]}