{"type": "FeatureCollection", "features": [{"type": "Feature", "geometry": {"type": "Polygon", "coordinates": [[[-122.1203, 54.5333], [-122.1203, 54.5291], [-122.1078, 54.5291], [-122.1078, 54.525], [-122.1015, 54.525], [-122.1015, 54.5208], [-122.089, 54.5208], [-122.089, 54.525], [-122.0828, 54.525], [-122.0828, 54.5333], [-122.089, 54.5333], [-122.089, 54.5375], [-122.1015, 54.5375], [-122.1015, 54.5416], [-122.114, 54.5416], [-122.114, 54.5375], [-122.1203, 54.5375], [-122.1203, 54.5333]]]}, "properties": {"company_id": "defense-metals", "jurisdiction": "British Columbia", "claim_id": 516112, "claim_name": null, "holder": "DEFENSE METALS CORP.", "status": "Mineral", "recorded_date": "2005-07-06", "anniversary_or_expiry": "2034-09-30", "area_ha": 356.59200000000004, "tenure_type": "Mineral", "source": "BC MTA Mineral, Placer and Coal Tenure Spatial View (BCGW). Open Government Licence - British Columbia. Not legal title.", "as_of": "2026-09-20", "role": "focus", "color": "#e8b040"}}, {"type": "Feature", "geometry": {"type": "Polygon", "coordinates": [[[-122.1203, 54.5416], [-122.1203, 54.5375], [-122.114, 54.5375], [-122.114, 54.5416], [-122.1015, 54.5416], [-122.1015, 54.5458], [-122.1203, 54.5458], [-122.1203, 54.5416]]]}, "properties": {"company_id": "defense-metals", "jurisdiction": "British Columbia", "claim_id": 516124, "claim_name": "WICHEEDA WEST", "holder": "DEFENSE METALS CORP.", "status": "Mineral", "recorded_date": "2005-07-06", "anniversary_or_expiry": "2034-09-30", "area_ha": 75.051, "tenure_type": "Mineral", "source": "BC MTA Mineral, Placer and Coal Tenure Spatial View (BCGW). Open Government Licence - British Columbia. Not legal title.", "as_of": "2026-09-20", "role": "focus", "color": "#e8b040"}}, {"type": "Feature", "geometry": {"type": "Polygon", "coordinates": [[[-122.0953, 54.5416], [-122.1015, 54.5416], [-122.1015, 54.5375], [-122.0953, 54.5375], [-122.0953, 54.5416]]]}, "properties": {"company_id": "defense-metals", "jurisdiction": "British Columbia", "claim_id": 516121, "claim_name": null, "holder": "DEFENSE METALS CORP.", "status": "Mineral", "recorded_date": "2005-07-06", "anniversary_or_expiry": "2034-09-30", "area_ha": 18.764, "tenure_type": "Mineral", "source": "BC MTA Mineral, Placer and Coal Tenure Spatial View (BCGW). Open Government Licence - British Columbia. Not legal title.", "as_of": "2026-09-20", "role": "focus", "color": "#e8b040"}}]}