{"type": "FeatureCollection", "features": [{"type": "Feature", "geometry": {"type": "Polygon", "coordinates": [[[-131.6332, 58.2123], [-131.6332, 58.2081], [-131.6082, 58.2081], [-131.6082, 58.2206], [-131.6332, 58.2206], [-131.6332, 58.2123]]]}, "properties": {"company_id": "doubleview-gold", "jurisdiction": "British Columbia", "claim_id": 501290, "claim_name": "HAT", "holder": "DOUBLEVIEW GOLD CORP", "status": "Mineral", "recorded_date": "2005-01-12", "anniversary_or_expiry": "2033-07-24", "area_ha": 204.52800000000002, "tenure_type": "Mineral", "source": "BC MTA Mineral, Placer and Coal Tenure Spatial View (BCGW). Open Government Licence - British Columbia. Not legal title.", "as_of": "2026-09-20", "role": "focus", "color": "#e8b040"}}, {"type": "Feature", "geometry": {"type": "Polygon", "coordinates": [[[-131.6332, 58.1998], [-131.6332, 58.1956], [-131.6019, 58.1956], [-131.6019, 58.2081], [-131.6332, 58.2081], [-131.6332, 58.1998]]]}, "properties": {"company_id": "doubleview-gold", "jurisdiction": "British Columbia", "claim_id": 507814, "claim_name": null, "holder": "DOUBLEVIEW GOLD CORP", "status": "Mineral", "recorded_date": "2005-02-24", "anniversary_or_expiry": "2033-07-24", "area_ha": 255.738, "tenure_type": "Mineral", "source": "BC MTA Mineral, Placer and Coal Tenure Spatial View (BCGW). Open Government Licence - British Columbia. Not legal title.", "as_of": "2026-09-20", "role": "focus", "color": "#e8b040"}}, {"type": "Feature", "geometry": {"type": "Polygon", "coordinates": [[[-131.6082, 58.1873], [-131.6082, 58.1831], [-131.5769, 58.1831], [-131.5769, 58.1998], [-131.6019, 58.1998], [-131.6019, 58.1956], [-131.6082, 58.1956], [-131.6082, 58.1873]]]}, "properties": {"company_id": "doubleview-gold", "jurisdiction": "British Columbia", "claim_id": 511709, "claim_name": null, "holder": "DOUBLEVIEW GOLD CORP", "status": "Mineral", "recorded_date": "2005-04-26", "anniversary_or_expiry": "2033-07-24", "area_ha": 324.014, "tenure_type": "Mineral", "source": "BC MTA Mineral, Placer and Coal Tenure Spatial View (BCGW). Open Government Licence - British Columbia. Not legal title.", "as_of": "2026-09-20", "role": "focus", "color": "#e8b040"}}, {"type": "Feature", "geometry": {"type": "Polygon", "coordinates": [[[-131.6394, 58.1915], [-131.6394, 58.1873], [-131.6082, 58.1873], [-131.6082, 58.1956], [-131.6332, 58.1956], [-131.6332, 58.1998], [-131.6394, 58.1998], [-131.6394, 58.1915]]]}, "properties": {"company_id": "doubleview-gold", "jurisdiction": "British Columbia", "claim_id": 515549, "claim_name": null, "holder": "DOUBLEVIEW GOLD CORP", "status": "Mineral", "recorded_date": "2005-06-29", "anniversary_or_expiry": "2033-07-24", "area_ha": 187.58700000000002, "tenure_type": "Mineral", "source": "BC MTA Mineral, Placer and Coal Tenure Spatial View (BCGW). Open Government Licence - British Columbia. Not legal title.", "as_of": "2026-09-20", "role": "focus", "color": "#e8b040"}}, {"type": "Feature", "geometry": {"type": "Polygon", "coordinates": [[[-131.6082, 58.2123], [-131.6082, 58.2081], [-131.6019, 58.2081], [-131.6019, 58.1998], [-131.5769, 58.1998], [-131.5769, 58.1956], [-131.5644, 58.1956], [-131.5644, 58.2248], [-131.6082, 58.2248], [-131.6082, 58.2123]]]}, "properties": {"company_id": "doubleview-gold", "jurisdiction": "British Columbia", "claim_id": 515550, "claim_name": null, "holder": "DOUBLEVIEW GOLD CORP", "status": "Mineral", "recorded_date": "2005-06-29", "anniversary_or_expiry": "2033-07-24", "area_ha": 715.865, "tenure_type": "Mineral", "source": "BC MTA Mineral, Placer and Coal Tenure Spatial View (BCGW). Open Government Licence - British Columbia. Not legal title.", "as_of": "2026-09-20", "role": "focus", "color": "#e8b040"}}]}