{"type": "FeatureCollection", "features": [{"type": "Feature", "geometry": {"type": "Polygon", "coordinates": [[[-92.4938, 49.3833], [-92.4938, 49.3875], [-92.5, 49.3875], [-92.5, 49.3833], [-92.4938, 49.3833]]]}, "properties": {"company_id": "dynasty-gold", "jurisdiction": "Ontario", "claim_id": "111921", "claim_name": null, "holder": "(100) Dynasty Gold Corp.", "status": "Active", "recorded_date": "2018-04-10", "anniversary_or_expiry": "2029-03-28", "area_ha": null, "tenure_type": "Single Cell Mining Claim", "source": "Ontario MLAS operational claims (OGSEarth / LIO MapServer). Unofficial viewing data, not legal title.", "as_of": "2026-09-20", "role": "focus", "color": "#e8b040"}}, {"type": "Feature", "geometry": {"type": "Polygon", "coordinates": [[[-92.5438, 49.4167], [-92.5438, 49.4208], [-92.55, 49.4208], [-92.55, 49.4167], [-92.5438, 49.4167]]]}, "properties": {"company_id": "dynasty-gold", "jurisdiction": "Ontario", "claim_id": "112936", "claim_name": null, "holder": "(100) Dynasty Gold Corp.", "status": "Active", "recorded_date": "2018-04-10", "anniversary_or_expiry": "2029-03-28", "area_ha": null, "tenure_type": "Single Cell Mining Claim", "source": "Ontario MLAS operational claims (OGSEarth / LIO MapServer). Unofficial viewing data, not legal title.", "as_of": "2026-09-20", "role": "focus", "color": "#e8b040"}}, {"type": "Feature", "geometry": {"type": "Polygon", "coordinates": [[[-92.5188, 49.3958], [-92.5188, 49.4], [-92.525, 49.4], [-92.525, 49.3958], [-92.5188, 49.3958]]]}, "properties": {"company_id": "dynasty-gold", "jurisdiction": "Ontario", "claim_id": "116525", "claim_name": null, "holder": "(100) Dynasty Gold Corp.", "status": "Active", "recorded_date": "2018-04-10", "anniversary_or_expiry": "2029-06-05", "area_ha": null, "tenure_type": "Single Cell Mining Claim", "source": "Ontario MLAS operational claims (OGSEarth / LIO MapServer). Unofficial viewing data, not legal title.", "as_of": "2026-09-20", "role": "focus", "color": "#e8b040"}}, {"type": "Feature", "geometry": {"type": "Polygon", "coordinates": [[[-92.4875, 49.3917], [-92.4875, 49.3958], [-92.4938, 49.3958], [-92.4938, 49.3917], [-92.4875, 49.3917]]]}, "properties": {"company_id": "dynasty-gold", "jurisdiction": "Ontario", "claim_id": "116485", "claim_name": null, "holder": "(100) Dynasty Gold Corp.", "status": "Active", "recorded_date": "2018-04-10", "anniversary_or_expiry": "2029-03-28", "area_ha": null, "tenure_type": "Single Cell Mining Claim", "source": "Ontario MLAS operational claims (OGSEarth / LIO MapServer). Unofficial viewing data, not legal title.", "as_of": "2026-09-20", "role": "focus", "color": "#e8b040"}}, {"type": "Feature", "geometry": {"type": "Polygon", "coordinates": [[[-92.5313, 49.3917], [-92.5313, 49.3958], [-92.5375, 49.3958], [-92.5375, 49.3917], [-92.5313, 49.3917]]]}, "properties": {"company_id": "dynasty-gold", "jurisdiction": "Ontario", "claim_id": "124005", "claim_name": null, "holder": "(70) Dynasty Gold Corp., (30) Frank  Troughton", "status": "Active", "recorded_date": "2018-04-10", "anniversary_or_expiry": "2029-02-06", "area_ha": null, "tenure_type": "Boundary Cell Mining Claim", "source": "Ontario MLAS operational claims (OGSEarth / LIO MapServer). Unofficial viewing data, not legal title.", "as_of": "2026-09-20", "role": "focus", "color": "#e8b040"}}, {"type": "Feature", "geometry": {"type": "Polygon", "coordinates": [[[-92.5313, 49.3875], [-92.5313, 49.3917], [-92.5375, 49.3917], [-92.5375, 49.3875], [-92.5313, 49.3875]]]}, "properties": {"company_id": "dynasty-gold", "jurisdiction": "Ontario", "claim_id": "124006", "claim_name": null, "holder": "(70) Dynasty Gold Corp., (30) Frank  Troughton", "status": "Active", "recorded_date": "2018-04-10", "anniversary_or_expiry": "2029-02-06", "area_ha": null, "tenure_type": "Boundary Cell Mining Claim", "source": "Ontario MLAS operational claims (OGSEarth / LIO MapServer). Unofficial viewing data, not legal title.", "as_of": "2026-09-20", "role": "focus", "color": "#e8b040"}}, {"type": "Feature", "geometry": {"type": "Polygon", "coordinates": [[[-92.4875, 49.375], [-92.4875, 49.3792], [-92.4938, 49.3792], [-92.4938, 49.375], [-92.4875, 49.375]]]}, "properties": {"company_id": "dynasty-gold", "jurisdiction": "Ontario", "claim_id": "123243", "claim_name": null, "holder": "(100) Dynasty Gold Corp.", "status": "Active", "recorded_date": "2018-04-10", "anniversary_or_expiry": "2029-03-28", "area_ha": null, "tenure_type": "Single Cell Mining Claim", "source": "Ontario MLAS operational claims (OGSEarth / LIO MapServer). Unofficial viewing data, not legal title.", "as_of": "2026-09-20", "role": "focus", "color": "#e8b040"}}, {"type": "Feature", "geometry": {"type": "Polygon", "coordinates": [[[-92.4938, 49.3625], [-92.4938, 49.3667], [-92.5, 49.3667], [-92.5, 49.3625], [-92.4938, 49.3625]]]}, "properties": {"company_id": "dynasty-gold", "jurisdiction": "Ontario", "claim_id": "123244", "claim_name": null, "holder": "(100) Dynasty Gold Corp.", "status": "Active", "recorded_date": "2018-04-10", "anniversary_or_expiry": "2029-03-28", "area_ha": null, "tenure_type": "Single Cell Mining Claim", "source": "Ontario MLAS operational claims (OGSEarth / LIO MapServer). Unofficial viewing data, not legal title.", "as_of": "2026-09-20", "role": "focus", "color": "#e8b040"}}, {"type": "Feature", "geometry": {"type": "Polygon", "coordinates": [[[-92.5, 49.3917], [-92.5, 49.3958], [-92.5063, 49.3958], [-92.5063, 49.3917], [-92.5, 49.3917]]]}, "properties": {"company_id": "dynasty-gold", "jurisdiction": "Ontario", "claim_id": "129640", "claim_name": null, "holder": "(100) Dynasty Gold Corp.", "status": "Active", "recorded_date": "2018-04-10", "anniversary_or_expiry": "2029-03-28", "area_ha": null, "tenure_type": "Single Cell Mining Claim", "source": "Ontario MLAS operational claims (OGSEarth / LIO MapServer). Unofficial viewing data, not legal title.", "as_of": "2026-09-20", "role": "focus", "color": "#e8b040"}}, {"type": "Feature", "geometry": {"type": "Polygon", "coordinates": [[[-92.4875, 49.3875], [-92.4875, 49.3917], [-92.4938, 49.3917], [-92.4938, 49.3875], [-92.4875, 49.3875]]]}, "properties": {"company_id": "dynasty-gold", "jurisdiction": "Ontario", "claim_id": "132419", "claim_name": null, "holder": "(100) Dynasty Gold Corp.", "status": "Active", "recorded_date": "2018-04-10", "anniversary_or_expiry": "2029-03-28", "area_ha": null, "tenure_type": "Single Cell Mining Claim", "source": "Ontario MLAS operational claims (OGSEarth / LIO MapServer). Unofficial viewing data, not legal title.", "as_of": "2026-09-20", "role": "focus", "color": "#e8b040"}}, {"type": "Feature", "geometry": {"type": "Polygon", "coordinates": [[[-92.5, 49.3875], [-92.5, 49.3917], [-92.5063, 49.3917], [-92.5063, 49.3875], [-92.5, 49.3875]]]}, "properties": {"company_id": "dynasty-gold", "jurisdiction": "Ontario", "claim_id": "132432", "claim_name": null, "holder": "(100) Dynasty Gold Corp.", "status": "Active", "recorded_date": "2018-04-10", "anniversary_or_expiry": "2029-03-28", "area_ha": null, "tenure_type": "Single Cell Mining Claim", "source": "Ontario MLAS operational claims (OGSEarth / LIO MapServer). Unofficial viewing data, not legal title.", "as_of": "2026-09-20", "role": "focus", "color": "#e8b040"}}, {"type": "Feature", "geometry": {"type": "Polygon", "coordinates": [[[-92.5313, 49.3792], [-92.5313, 49.3833], [-92.5375, 49.3833], [-92.5375, 49.3792], [-92.5313, 49.3792]]]}, "properties": {"company_id": "dynasty-gold", "jurisdiction": "Ontario", "claim_id": "133629", "claim_name": null, "holder": "(100) Dynasty Gold Corp.", "status": "Active", "recorded_date": "2018-04-10", "anniversary_or_expiry": "2029-11-17", "area_ha": null, "tenure_type": "Single Cell Mining Claim", "source": "Ontario MLAS operational claims (OGSEarth / LIO MapServer). Unofficial viewing data, not legal title.", "as_of": "2026-09-20", "role": "focus", "color": "#e8b040"}}, {"type": "Feature", "geometry": {"type": "Polygon", "coordinates": [[[-92.5188, 49.3875], [-92.5188, 49.3917], [-92.525, 49.3917], [-92.525, 49.3875], [-92.5188, 49.3875]]]}, "properties": {"company_id": "dynasty-gold", "jurisdiction": "Ontario", "claim_id": "140305", "claim_name": null, "holder": "(100) Dynasty Gold Corp.", "status": "Active", "recorded_date": "2018-04-10", "anniversary_or_expiry": "2029-03-15", "area_ha": null, "tenure_type": "Single Cell Mining Claim", "source": "Ontario MLAS operational claims (OGSEarth / LIO MapServer). Unofficial viewing data, not legal title.", "as_of": "2026-09-20", "role": "focus", "color": "#e8b040"}}, {"type": "Feature", "geometry": {"type": "Polygon", "coordinates": [[[-92.5188, 49.3667], [-92.5188, 49.3708], [-92.525, 49.3708], [-92.525, 49.3667], [-92.5188, 49.3667]]]}, "properties": {"company_id": "dynasty-gold", "jurisdiction": "Ontario", "claim_id": "140506", "claim_name": null, "holder": "(100) Dynasty Gold Corp.", "status": "Active", "recorded_date": "2018-04-10", "anniversary_or_expiry": "2029-08-26", "area_ha": null, "tenure_type": "Single Cell Mining Claim", "source": "Ontario MLAS operational claims (OGSEarth / LIO MapServer). Unofficial viewing data, not legal title.", "as_of": "2026-09-20", "role": "focus", "color": "#e8b040"}}, {"type": "Feature", "geometry": {"type": "Polygon", "coordinates": [[[-92.5438, 49.3875], [-92.5438, 49.3917], [-92.55, 49.3917], [-92.55, 49.3875], [-92.5438, 49.3875]]]}, "properties": {"company_id": "dynasty-gold", "jurisdiction": "Ontario", "claim_id": "141578", "claim_name": null, "holder": "(100) Dynasty Gold Corp.", "status": "Active", "recorded_date": "2018-04-10", "anniversary_or_expiry": "2029-04-19", "area_ha": null, "tenure_type": "Single Cell Mining Claim", "source": "Ontario MLAS operational claims (OGSEarth / LIO MapServer). Unofficial viewing data, not legal title.", "as_of": "2026-09-20", "role": "focus", "color": "#e8b040"}}, {"type": "Feature", "geometry": {"type": "Polygon", "coordinates": [[[-92.5125, 49.3625], [-92.5125, 49.3667], [-92.5188, 49.3667], [-92.5188, 49.3625], [-92.5125, 49.3625]]]}, "properties": {"company_id": "dynasty-gold", "jurisdiction": "Ontario", "claim_id": "145961", "claim_name": null, "holder": "(100) Dynasty Gold Corp.", "status": "Active", "recorded_date": "2018-04-10", "anniversary_or_expiry": "2029-08-26", "area_ha": null, "tenure_type": "Single Cell Mining Claim", "source": "Ontario MLAS operational claims (OGSEarth / LIO MapServer). Unofficial viewing data, not legal title.", "as_of": "2026-09-20", "role": "focus", "color": "#e8b040"}}, {"type": "Feature", "geometry": {"type": "Polygon", "coordinates": [[[-92.5125, 49.375], [-92.5125, 49.3792], [-92.5188, 49.3792], [-92.5188, 49.375], [-92.5125, 49.375]]]}, "properties": {"company_id": "dynasty-gold", "jurisdiction": "Ontario", "claim_id": "147602", "claim_name": null, "holder": "(100) Dynasty Gold Corp.", "status": "Active", "recorded_date": "2018-04-10", "anniversary_or_expiry": "2029-08-26", "area_ha": null, "tenure_type": "Single Cell Mining Claim", "source": "Ontario MLAS operational claims (OGSEarth / LIO MapServer). Unofficial viewing data, not legal title.", "as_of": "2026-09-20", "role": "focus", "color": "#e8b040"}}, {"type": "Feature", "geometry": {"type": "Polygon", "coordinates": [[[-92.5188, 49.3833], [-92.5188, 49.3875], [-92.525, 49.3875], [-92.525, 49.3833], [-92.5188, 49.3833]]]}, "properties": {"company_id": "dynasty-gold", "jurisdiction": "Ontario", "claim_id": "146278", "claim_name": null, "holder": "(100) Dynasty Gold Corp.", "status": "Active", "recorded_date": "2018-04-10", "anniversary_or_expiry": "2029-03-15", "area_ha": null, "tenure_type": "Single Cell Mining Claim", "source": "Ontario MLAS operational claims (OGSEarth / LIO MapServer). Unofficial viewing data, not legal title.", "as_of": "2026-09-20", "role": "focus", "color": "#e8b040"}}, {"type": "Feature", "geometry": {"type": "Polygon", "coordinates": [[[-92.4938, 49.3875], [-92.4938, 49.3917], [-92.5, 49.3917], [-92.5, 49.3875], [-92.4938, 49.3875]]]}, "properties": {"company_id": "dynasty-gold", "jurisdiction": "Ontario", "claim_id": "148519", "claim_name": null, "holder": "(100) Dynasty Gold Corp.", "status": "Active", "recorded_date": "2018-04-10", "anniversary_or_expiry": "2029-03-28", "area_ha": null, "tenure_type": "Single Cell Mining Claim", "source": "Ontario MLAS operational claims (OGSEarth / LIO MapServer). Unofficial viewing data, not legal title.", "as_of": "2026-09-20", "role": "focus", "color": "#e8b040"}}, {"type": "Feature", "geometry": {"type": "Polygon", "coordinates": [[[-92.5375, 49.4], [-92.5375, 49.4042], [-92.5438, 49.4042], [-92.5438, 49.4], [-92.5375, 49.4]]]}, "properties": {"company_id": "dynasty-gold", "jurisdiction": "Ontario", "claim_id": "149831", "claim_name": null, "holder": "(100) Dynasty Gold Corp.", "status": "Active", "recorded_date": "2018-04-10", "anniversary_or_expiry": "2029-03-28", "area_ha": null, "tenure_type": "Single Cell Mining Claim", "source": "Ontario MLAS operational claims (OGSEarth / LIO MapServer). Unofficial viewing data, not legal title.", "as_of": "2026-09-20", "role": "focus", "color": "#e8b040"}}, {"type": "Feature", "geometry": {"type": "Polygon", "coordinates": [[[-92.55, 49.4], [-92.55, 49.4042], [-92.5563, 49.4042], [-92.5563, 49.4], [-92.55, 49.4]]]}, "properties": {"company_id": "dynasty-gold", "jurisdiction": "Ontario", "claim_id": "153315", "claim_name": null, "holder": "(100) Dynasty Gold Corp.", "status": "Active", "recorded_date": "2018-04-10", "anniversary_or_expiry": "2029-03-28", "area_ha": null, "tenure_type": "Single Cell Mining Claim", "source": "Ontario MLAS operational claims (OGSEarth / LIO MapServer). Unofficial viewing data, not legal title.", "as_of": "2026-09-20", "role": "focus", "color": "#e8b040"}}, {"type": "Feature", "geometry": {"type": "Polygon", "coordinates": [[[-92.55, 49.3958], [-92.55, 49.4], [-92.5563, 49.4], [-92.5563, 49.3958], [-92.55, 49.3958]]]}, "properties": {"company_id": "dynasty-gold", "jurisdiction": "Ontario", "claim_id": "153316", "claim_name": null, "holder": "(100) Dynasty Gold Corp.", "status": "Active", "recorded_date": "2018-04-10", "anniversary_or_expiry": "2029-03-28", "area_ha": null, "tenure_type": "Single Cell Mining Claim", "source": "Ontario MLAS operational claims (OGSEarth / LIO MapServer). Unofficial viewing data, not legal title.", "as_of": "2026-09-20", "role": "focus", "color": "#e8b040"}}, {"type": "Feature", "geometry": {"type": "Polygon", "coordinates": [[[-92.525, 49.3917], [-92.525, 49.3958], [-92.5313, 49.3958], [-92.5313, 49.3917], [-92.525, 49.3917]]]}, "properties": {"company_id": "dynasty-gold", "jurisdiction": "Ontario", "claim_id": "159454", "claim_name": null, "holder": "(100) Dynasty Gold Corp.", "status": "Active", "recorded_date": "2018-04-10", "anniversary_or_expiry": "2029-08-22", "area_ha": null, "tenure_type": "Boundary Cell Mining Claim", "source": "Ontario MLAS operational claims (OGSEarth / LIO MapServer). Unofficial viewing data, not legal title.", "as_of": "2026-09-20", "role": "focus", "color": "#e8b040"}}, {"type": "Feature", "geometry": {"type": "Polygon", "coordinates": [[[-92.5063, 49.3958], [-92.5063, 49.4], [-92.5125, 49.4], [-92.5125, 49.3958], [-92.5063, 49.3958]]]}, "properties": {"company_id": "dynasty-gold", "jurisdiction": "Ontario", "claim_id": "158923", "claim_name": null, "holder": "(100) Dynasty Gold Corp.", "status": "Active", "recorded_date": "2018-04-10", "anniversary_or_expiry": "2029-03-28", "area_ha": null, "tenure_type": "Single Cell Mining Claim", "source": "Ontario MLAS operational claims (OGSEarth / LIO MapServer). Unofficial viewing data, not legal title.", "as_of": "2026-09-20", "role": "focus", "color": "#e8b040"}}, {"type": "Feature", "geometry": {"type": "Polygon", "coordinates": [[[-92.525, 49.4], [-92.525, 49.4042], [-92.5313, 49.4042], [-92.5313, 49.4], [-92.525, 49.4]]]}, "properties": {"company_id": "dynasty-gold", "jurisdiction": "Ontario", "claim_id": "160967", "claim_name": null, "holder": "(100) Dynasty Gold Corp.", "status": "Active", "recorded_date": "2018-04-10", "anniversary_or_expiry": "2029-03-28", "area_ha": null, "tenure_type": "Single Cell Mining Claim", "source": "Ontario MLAS operational claims (OGSEarth / LIO MapServer). Unofficial viewing data, not legal title.", "as_of": "2026-09-20", "role": "focus", "color": "#e8b040"}}, {"type": "Feature", "geometry": {"type": "Polygon", "coordinates": [[[-92.5, 49.3667], [-92.5, 49.3708], [-92.5063, 49.3708], [-92.5063, 49.3667], [-92.5, 49.3667]]]}, "properties": {"company_id": "dynasty-gold", "jurisdiction": "Ontario", "claim_id": "161717", "claim_name": null, "holder": "(100) Dynasty Gold Corp.", "status": "Active", "recorded_date": "2018-04-10", "anniversary_or_expiry": "2029-03-28", "area_ha": null, "tenure_type": "Single Cell Mining Claim", "source": "Ontario MLAS operational claims (OGSEarth / LIO MapServer). Unofficial viewing data, not legal title.", "as_of": "2026-09-20", "role": "focus", "color": "#e8b040"}}, {"type": "Feature", "geometry": {"type": "Polygon", "coordinates": [[[-92.5063, 49.3625], [-92.5063, 49.3667], [-92.5125, 49.3667], [-92.5125, 49.3625], [-92.5063, 49.3625]]]}, "properties": {"company_id": "dynasty-gold", "jurisdiction": "Ontario", "claim_id": "161718", "claim_name": null, "holder": "(100) Dynasty Gold Corp.", "status": "Active", "recorded_date": "2018-04-10", "anniversary_or_expiry": "2029-08-26", "area_ha": null, "tenure_type": "Single Cell Mining Claim", "source": "Ontario MLAS operational claims (OGSEarth / LIO MapServer). Unofficial viewing data, not legal title.", "as_of": "2026-09-20", "role": "focus", "color": "#e8b040"}}, {"type": "Feature", "geometry": {"type": "Polygon", "coordinates": [[[-92.525, 49.4125], [-92.525, 49.4167], [-92.5313, 49.4167], [-92.5313, 49.4125], [-92.525, 49.4125]]]}, "properties": {"company_id": "dynasty-gold", "jurisdiction": "Ontario", "claim_id": "162851", "claim_name": null, "holder": "(100) Dynasty Gold Corp.", "status": "Active", "recorded_date": "2018-04-10", "anniversary_or_expiry": "2029-08-23", "area_ha": null, "tenure_type": "Single Cell Mining Claim", "source": "Ontario MLAS operational claims (OGSEarth / LIO MapServer). Unofficial viewing data, not legal title.", "as_of": "2026-09-20", "role": "focus", "color": "#e8b040"}}, {"type": "Feature", "geometry": {"type": "Polygon", "coordinates": [[[-92.4938, 49.3917], [-92.4938, 49.3958], [-92.5, 49.3958], [-92.5, 49.3917], [-92.4938, 49.3917]]]}, "properties": {"company_id": "dynasty-gold", "jurisdiction": "Ontario", "claim_id": "164912", "claim_name": null, "holder": "(100) Dynasty Gold Corp.", "status": "Active", "recorded_date": "2018-04-10", "anniversary_or_expiry": "2029-03-28", "area_ha": null, "tenure_type": "Single Cell Mining Claim", "source": "Ontario MLAS operational claims (OGSEarth / LIO MapServer). Unofficial viewing data, not legal title.", "as_of": "2026-09-20", "role": "focus", "color": "#e8b040"}}, {"type": "Feature", "geometry": {"type": "Polygon", "coordinates": [[[-92.5125, 49.3708], [-92.5125, 49.375], [-92.5188, 49.375], [-92.5188, 49.3708], [-92.5125, 49.3708]]]}, "properties": {"company_id": "dynasty-gold", "jurisdiction": "Ontario", "claim_id": "165336", "claim_name": null, "holder": "(100) Dynasty Gold Corp.", "status": "Active", "recorded_date": "2018-04-10", "anniversary_or_expiry": "2029-08-26", "area_ha": null, "tenure_type": "Single Cell Mining Claim", "source": "Ontario MLAS operational claims (OGSEarth / LIO MapServer). Unofficial viewing data, not legal title.", "as_of": "2026-09-20", "role": "focus", "color": "#e8b040"}}, {"type": "Feature", "geometry": {"type": "Polygon", "coordinates": [[[-92.5188, 49.3708], [-92.5188, 49.375], [-92.525, 49.375], [-92.525, 49.3708], [-92.5188, 49.3708]]]}, "properties": {"company_id": "dynasty-gold", "jurisdiction": "Ontario", "claim_id": "165337", "claim_name": null, "holder": "(100) Dynasty Gold Corp.", "status": "Active", "recorded_date": "2018-04-10", "anniversary_or_expiry": "2029-08-26", "area_ha": null, "tenure_type": "Single Cell Mining Claim", "source": "Ontario MLAS operational claims (OGSEarth / LIO MapServer). Unofficial viewing data, not legal title.", "as_of": "2026-09-20", "role": "focus", "color": "#e8b040"}}, {"type": "Feature", "geometry": {"type": "Polygon", "coordinates": [[[-92.5125, 49.3667], [-92.5125, 49.3708], [-92.5188, 49.3708], [-92.5188, 49.3667], [-92.5125, 49.3667]]]}, "properties": {"company_id": "dynasty-gold", "jurisdiction": "Ontario", "claim_id": "165338", "claim_name": null, "holder": "(100) Dynasty Gold Corp.", "status": "Active", "recorded_date": "2018-04-10", "anniversary_or_expiry": "2029-08-26", "area_ha": null, "tenure_type": "Single Cell Mining Claim", "source": "Ontario MLAS operational claims (OGSEarth / LIO MapServer). Unofficial viewing data, not legal title.", "as_of": "2026-09-20", "role": "focus", "color": "#e8b040"}}, {"type": "Feature", "geometry": {"type": "Polygon", "coordinates": [[[-92.525, 49.3625], [-92.525, 49.3667], [-92.5313, 49.3667], [-92.5313, 49.3625], [-92.525, 49.3625]]]}, "properties": {"company_id": "dynasty-gold", "jurisdiction": "Ontario", "claim_id": "165339", "claim_name": null, "holder": "(100) Dynasty Gold Corp.", "status": "Active", "recorded_date": "2018-04-10", "anniversary_or_expiry": "2029-08-26", "area_ha": null, "tenure_type": "Single Cell Mining Claim", "source": "Ontario MLAS operational claims (OGSEarth / LIO MapServer). Unofficial viewing data, not legal title.", "as_of": "2026-09-20", "role": "focus", "color": "#e8b040"}}, {"type": "Feature", "geometry": {"type": "Polygon", "coordinates": [[[-92.4875, 49.3792], [-92.4875, 49.3833], [-92.4938, 49.3833], [-92.4938, 49.3792], [-92.4875, 49.3792]]]}, "properties": {"company_id": "dynasty-gold", "jurisdiction": "Ontario", "claim_id": "167753", "claim_name": null, "holder": "(100) Dynasty Gold Corp.", "status": "Active", "recorded_date": "2018-04-10", "anniversary_or_expiry": "2029-03-28", "area_ha": null, "tenure_type": "Single Cell Mining Claim", "source": "Ontario MLAS operational claims (OGSEarth / LIO MapServer). Unofficial viewing data, not legal title.", "as_of": "2026-09-20", "role": "focus", "color": "#e8b040"}}, {"type": "Feature", "geometry": {"type": "Polygon", "coordinates": [[[-92.5, 49.375], [-92.5, 49.3792], [-92.5063, 49.3792], [-92.5063, 49.375], [-92.5, 49.375]]]}, "properties": {"company_id": "dynasty-gold", "jurisdiction": "Ontario", "claim_id": "167754", "claim_name": null, "holder": "(100) Dynasty Gold Corp.", "status": "Active", "recorded_date": "2018-04-10", "anniversary_or_expiry": "2029-03-28", "area_ha": null, "tenure_type": "Single Cell Mining Claim", "source": "Ontario MLAS operational claims (OGSEarth / LIO MapServer). Unofficial viewing data, not legal title.", "as_of": "2026-09-20", "role": "focus", "color": "#e8b040"}}, {"type": "Feature", "geometry": {"type": "Polygon", "coordinates": [[[-92.525, 49.3917], [-92.525, 49.3958], [-92.5313, 49.3958], [-92.5313, 49.3917], [-92.525, 49.3917]]]}, "properties": {"company_id": "dynasty-gold", "jurisdiction": "Ontario", "claim_id": "168519", "claim_name": null, "holder": "(70) Dynasty Gold Corp., (30) Frank  Troughton", "status": "Active", "recorded_date": "2018-04-10", "anniversary_or_expiry": "2029-02-06", "area_ha": null, "tenure_type": "Boundary Cell Mining Claim", "source": "Ontario MLAS operational claims (OGSEarth / LIO MapServer). Unofficial viewing data, not legal title.", "as_of": "2026-09-20", "role": "focus", "color": "#e8b040"}}, {"type": "Feature", "geometry": {"type": "Polygon", "coordinates": [[[-92.55, 49.4042], [-92.55, 49.4083], [-92.5563, 49.4083], [-92.5563, 49.4042], [-92.55, 49.4042]]]}, "properties": {"company_id": "dynasty-gold", "jurisdiction": "Ontario", "claim_id": "167977", "claim_name": null, "holder": "(100) Dynasty Gold Corp.", "status": "Active", "recorded_date": "2018-04-10", "anniversary_or_expiry": "2029-03-28", "area_ha": null, "tenure_type": "Single Cell Mining Claim", "source": "Ontario MLAS operational claims (OGSEarth / LIO MapServer). Unofficial viewing data, not legal title.", "as_of": "2026-09-20", "role": "focus", "color": "#e8b040"}}, {"type": "Feature", "geometry": {"type": "Polygon", "coordinates": [[[-92.5438, 49.3958], [-92.5438, 49.4], [-92.55, 49.4], [-92.55, 49.3958], [-92.5438, 49.3958]]]}, "properties": {"company_id": "dynasty-gold", "jurisdiction": "Ontario", "claim_id": "167978", "claim_name": null, "holder": "(100) Dynasty Gold Corp.", "status": "Active", "recorded_date": "2018-04-10", "anniversary_or_expiry": "2029-03-28", "area_ha": null, "tenure_type": "Single Cell Mining Claim", "source": "Ontario MLAS operational claims (OGSEarth / LIO MapServer). Unofficial viewing data, not legal title.", "as_of": "2026-09-20", "role": "focus", "color": "#e8b040"}}, {"type": "Feature", "geometry": {"type": "Polygon", "coordinates": [[[-92.5563, 49.3958], [-92.5563, 49.4], [-92.5625, 49.4], [-92.5625, 49.3958], [-92.5563, 49.3958]]]}, "properties": {"company_id": "dynasty-gold", "jurisdiction": "Ontario", "claim_id": "167979", "claim_name": null, "holder": "(100) Dynasty Gold Corp.", "status": "Active", "recorded_date": "2018-04-10", "anniversary_or_expiry": "2029-03-28", "area_ha": null, "tenure_type": "Single Cell Mining Claim", "source": "Ontario MLAS operational claims (OGSEarth / LIO MapServer). Unofficial viewing data, not legal title.", "as_of": "2026-09-20", "role": "focus", "color": "#e8b040"}}, {"type": "Feature", "geometry": {"type": "Polygon", "coordinates": [[[-92.5563, 49.3917], [-92.5563, 49.3958], [-92.5625, 49.3958], [-92.5625, 49.3917], [-92.5563, 49.3917]]]}, "properties": {"company_id": "dynasty-gold", "jurisdiction": "Ontario", "claim_id": "167980", "claim_name": null, "holder": "(100) Dynasty Gold Corp.", "status": "Active", "recorded_date": "2018-04-10", "anniversary_or_expiry": "2029-03-28", "area_ha": null, "tenure_type": "Single Cell Mining Claim", "source": "Ontario MLAS operational claims (OGSEarth / LIO MapServer). Unofficial viewing data, not legal title.", "as_of": "2026-09-20", "role": "focus", "color": "#e8b040"}}, {"type": "Feature", "geometry": {"type": "Polygon", "coordinates": [[[-92.5375, 49.4167], [-92.5375, 49.4208], [-92.5438, 49.4208], [-92.5438, 49.4167], [-92.5375, 49.4167]]]}, "properties": {"company_id": "dynasty-gold", "jurisdiction": "Ontario", "claim_id": "169896", "claim_name": null, "holder": "(100) Dynasty Gold Corp.", "status": "Active", "recorded_date": "2018-04-10", "anniversary_or_expiry": "2029-03-28", "area_ha": null, "tenure_type": "Single Cell Mining Claim", "source": "Ontario MLAS operational claims (OGSEarth / LIO MapServer). Unofficial viewing data, not legal title.", "as_of": "2026-09-20", "role": "focus", "color": "#e8b040"}}, {"type": "Feature", "geometry": {"type": "Polygon", "coordinates": [[[-92.55, 49.4125], [-92.55, 49.4167], [-92.5563, 49.4167], [-92.5563, 49.4125], [-92.55, 49.4125]]]}, "properties": {"company_id": "dynasty-gold", "jurisdiction": "Ontario", "claim_id": "169897", "claim_name": null, "holder": "(100) Dynasty Gold Corp.", "status": "Active", "recorded_date": "2018-04-10", "anniversary_or_expiry": "2029-03-28", "area_ha": null, "tenure_type": "Single Cell Mining Claim", "source": "Ontario MLAS operational claims (OGSEarth / LIO MapServer). Unofficial viewing data, not legal title.", "as_of": "2026-09-20", "role": "focus", "color": "#e8b040"}}, {"type": "Feature", "geometry": {"type": "Polygon", "coordinates": [[[-92.5563, 49.4125], [-92.5563, 49.4167], [-92.5625, 49.4167], [-92.5625, 49.4125], [-92.5563, 49.4125]]]}, "properties": {"company_id": "dynasty-gold", "jurisdiction": "Ontario", "claim_id": "169898", "claim_name": null, "holder": "(100) Dynasty Gold Corp.", "status": "Active", "recorded_date": "2018-04-10", "anniversary_or_expiry": "2029-03-28", "area_ha": null, "tenure_type": "Single Cell Mining Claim", "source": "Ontario MLAS operational claims (OGSEarth / LIO MapServer). Unofficial viewing data, not legal title.", "as_of": "2026-09-20", "role": "focus", "color": "#e8b040"}}, {"type": "Feature", "geometry": {"type": "Polygon", "coordinates": [[[-92.4938, 49.3958], [-92.4938, 49.4], [-92.5, 49.4], [-92.5, 49.3958], [-92.4938, 49.3958]]]}, "properties": {"company_id": "dynasty-gold", "jurisdiction": "Ontario", "claim_id": "177752", "claim_name": null, "holder": "(100) Dynasty Gold Corp.", "status": "Active", "recorded_date": "2018-04-10", "anniversary_or_expiry": "2029-03-28", "area_ha": null, "tenure_type": "Single Cell Mining Claim", "source": "Ontario MLAS operational claims (OGSEarth / LIO MapServer). Unofficial viewing data, not legal title.", "as_of": "2026-09-20", "role": "focus", "color": "#e8b040"}}, {"type": "Feature", "geometry": {"type": "Polygon", "coordinates": [[[-92.4875, 49.3625], [-92.4875, 49.3667], [-92.4938, 49.3667], [-92.4938, 49.3625], [-92.4875, 49.3625]]]}, "properties": {"company_id": "dynasty-gold", "jurisdiction": "Ontario", "claim_id": "181187", "claim_name": null, "holder": "(100) Dynasty Gold Corp.", "status": "Active", "recorded_date": "2018-04-10", "anniversary_or_expiry": "2029-03-28", "area_ha": null, "tenure_type": "Single Cell Mining Claim", "source": "Ontario MLAS operational claims (OGSEarth / LIO MapServer). Unofficial viewing data, not legal title.", "as_of": "2026-09-20", "role": "focus", "color": "#e8b040"}}, {"type": "Feature", "geometry": {"type": "Polygon", "coordinates": [[[-92.525, 49.3875], [-92.525, 49.3917], [-92.5313, 49.3917], [-92.5313, 49.3875], [-92.525, 49.3875]]]}, "properties": {"company_id": "dynasty-gold", "jurisdiction": "Ontario", "claim_id": "185688", "claim_name": null, "holder": "(100) Dynasty Gold Corp.", "status": "Active", "recorded_date": "2018-04-10", "anniversary_or_expiry": "2029-02-17", "area_ha": null, "tenure_type": "Single Cell Mining Claim", "source": "Ontario MLAS operational claims (OGSEarth / LIO MapServer). Unofficial viewing data, not legal title.", "as_of": "2026-09-20", "role": "focus", "color": "#e8b040"}}, {"type": "Feature", "geometry": {"type": "Polygon", "coordinates": [[[-92.5313, 49.375], [-92.5313, 49.3792], [-92.5375, 49.3792], [-92.5375, 49.375], [-92.5313, 49.375]]]}, "properties": {"company_id": "dynasty-gold", "jurisdiction": "Ontario", "claim_id": "186264", "claim_name": null, "holder": "(100) Dynasty Gold Corp.", "status": "Active", "recorded_date": "2018-04-10", "anniversary_or_expiry": "2029-11-17", "area_ha": null, "tenure_type": "Boundary Cell Mining Claim", "source": "Ontario MLAS operational claims (OGSEarth / LIO MapServer). Unofficial viewing data, not legal title.", "as_of": "2026-09-20", "role": "focus", "color": "#e8b040"}}, {"type": "Feature", "geometry": {"type": "Polygon", "coordinates": [[[-92.55, 49.3792], [-92.55, 49.3833], [-92.5563, 49.3833], [-92.5563, 49.3792], [-92.55, 49.3792]]]}, "properties": {"company_id": "dynasty-gold", "jurisdiction": "Ontario", "claim_id": "187506", "claim_name": null, "holder": "(100) Dynasty Gold Corp.", "status": "Active", "recorded_date": "2018-04-10", "anniversary_or_expiry": "2029-04-19", "area_ha": null, "tenure_type": "Single Cell Mining Claim", "source": "Ontario MLAS operational claims (OGSEarth / LIO MapServer). Unofficial viewing data, not legal title.", "as_of": "2026-09-20", "role": "focus", "color": "#e8b040"}}, {"type": "Feature", "geometry": {"type": "Polygon", "coordinates": [[[-92.5375, 49.375], [-92.5375, 49.3792], [-92.5438, 49.3792], [-92.5438, 49.375], [-92.5375, 49.375]]]}, "properties": {"company_id": "dynasty-gold", "jurisdiction": "Ontario", "claim_id": "187507", "claim_name": null, "holder": "(100) Dynasty Gold Corp.", "status": "Active", "recorded_date": "2018-04-10", "anniversary_or_expiry": "2029-04-19", "area_ha": null, "tenure_type": "Boundary Cell Mining Claim", "source": "Ontario MLAS operational claims (OGSEarth / LIO MapServer). Unofficial viewing data, not legal title.", "as_of": "2026-09-20", "role": "focus", "color": "#e8b040"}}, {"type": "Feature", "geometry": {"type": "Polygon", "coordinates": [[[-92.55, 49.3917], [-92.55, 49.3958], [-92.5563, 49.3958], [-92.5563, 49.3917], [-92.55, 49.3917]]]}, "properties": {"company_id": "dynasty-gold", "jurisdiction": "Ontario", "claim_id": "187085", "claim_name": null, "holder": "(100) Dynasty Gold Corp.", "status": "Active", "recorded_date": "2018-04-10", "anniversary_or_expiry": "2029-03-28", "area_ha": null, "tenure_type": "Single Cell Mining Claim", "source": "Ontario MLAS operational claims (OGSEarth / LIO MapServer). Unofficial viewing data, not legal title.", "as_of": "2026-09-20", "role": "focus", "color": "#e8b040"}}, {"type": "Feature", "geometry": {"type": "Polygon", "coordinates": [[[-92.4938, 49.3708], [-92.4938, 49.375], [-92.5, 49.375], [-92.5, 49.3708], [-92.4938, 49.3708]]]}, "properties": {"company_id": "dynasty-gold", "jurisdiction": "Ontario", "claim_id": "187249", "claim_name": null, "holder": "(100) Dynasty Gold Corp.", "status": "Active", "recorded_date": "2018-04-10", "anniversary_or_expiry": "2029-03-28", "area_ha": null, "tenure_type": "Single Cell Mining Claim", "source": "Ontario MLAS operational claims (OGSEarth / LIO MapServer). Unofficial viewing data, not legal title.", "as_of": "2026-09-20", "role": "focus", "color": "#e8b040"}}, {"type": "Feature", "geometry": {"type": "Polygon", "coordinates": [[[-92.5563, 49.4083], [-92.5563, 49.4125], [-92.5625, 49.4125], [-92.5625, 49.4083], [-92.5563, 49.4083]]]}, "properties": {"company_id": "dynasty-gold", "jurisdiction": "Ontario", "claim_id": "187859", "claim_name": null, "holder": "(100) Dynasty Gold Corp.", "status": "Active", "recorded_date": "2018-04-10", "anniversary_or_expiry": "2029-03-28", "area_ha": null, "tenure_type": "Single Cell Mining Claim", "source": "Ontario MLAS operational claims (OGSEarth / LIO MapServer). Unofficial viewing data, not legal title.", "as_of": "2026-09-20", "role": "focus", "color": "#e8b040"}}, {"type": "Feature", "geometry": {"type": "Polygon", "coordinates": [[[-92.5063, 49.3833], [-92.5063, 49.3875], [-92.5125, 49.3875], [-92.5125, 49.3833], [-92.5063, 49.3833]]]}, "properties": {"company_id": "dynasty-gold", "jurisdiction": "Ontario", "claim_id": "192823", "claim_name": null, "holder": "(100) Dynasty Gold Corp.", "status": "Active", "recorded_date": "2018-04-10", "anniversary_or_expiry": "2029-03-28", "area_ha": null, "tenure_type": "Single Cell Mining Claim", "source": "Ontario MLAS operational claims (OGSEarth / LIO MapServer). Unofficial viewing data, not legal title.", "as_of": "2026-09-20", "role": "focus", "color": "#e8b040"}}, {"type": "Feature", "geometry": {"type": "Polygon", "coordinates": [[[-92.5, 49.3958], [-92.5, 49.4], [-92.5063, 49.4], [-92.5063, 49.3958], [-92.5, 49.3958]]]}, "properties": {"company_id": "dynasty-gold", "jurisdiction": "Ontario", "claim_id": "194161", "claim_name": null, "holder": "(100) Dynasty Gold Corp.", "status": "Active", "recorded_date": "2018-04-10", "anniversary_or_expiry": "2029-03-28", "area_ha": null, "tenure_type": "Single Cell Mining Claim", "source": "Ontario MLAS operational claims (OGSEarth / LIO MapServer). Unofficial viewing data, not legal title.", "as_of": "2026-09-20", "role": "focus", "color": "#e8b040"}}, {"type": "Feature", "geometry": {"type": "Polygon", "coordinates": [[[-92.5125, 49.3958], [-92.5125, 49.4], [-92.5188, 49.4], [-92.5188, 49.3958], [-92.5125, 49.3958]]]}, "properties": {"company_id": "dynasty-gold", "jurisdiction": "Ontario", "claim_id": "194162", "claim_name": null, "holder": "(100) Dynasty Gold Corp.", "status": "Active", "recorded_date": "2018-04-10", "anniversary_or_expiry": "2029-06-05", "area_ha": null, "tenure_type": "Single Cell Mining Claim", "source": "Ontario MLAS operational claims (OGSEarth / LIO MapServer). Unofficial viewing data, not legal title.", "as_of": "2026-09-20", "role": "focus", "color": "#e8b040"}}, {"type": "Feature", "geometry": {"type": "Polygon", "coordinates": [[[-92.5063, 49.3917], [-92.5063, 49.3958], [-92.5125, 49.3958], [-92.5125, 49.3917], [-92.5063, 49.3917]]]}, "properties": {"company_id": "dynasty-gold", "jurisdiction": "Ontario", "claim_id": "194163", "claim_name": null, "holder": "(100) Dynasty Gold Corp.", "status": "Active", "recorded_date": "2018-04-10", "anniversary_or_expiry": "2029-03-28", "area_ha": null, "tenure_type": "Single Cell Mining Claim", "source": "Ontario MLAS operational claims (OGSEarth / LIO MapServer). Unofficial viewing data, not legal title.", "as_of": "2026-09-20", "role": "focus", "color": "#e8b040"}}, {"type": "Feature", "geometry": {"type": "Polygon", "coordinates": [[[-92.5125, 49.4083], [-92.5125, 49.4125], [-92.5188, 49.4125], [-92.5188, 49.4083], [-92.5125, 49.4083]]]}, "properties": {"company_id": "dynasty-gold", "jurisdiction": "Ontario", "claim_id": "196224", "claim_name": null, "holder": "(100) Dynasty Gold Corp.", "status": "Active", "recorded_date": "2018-04-10", "anniversary_or_expiry": "2029-03-28", "area_ha": null, "tenure_type": "Single Cell Mining Claim", "source": "Ontario MLAS operational claims (OGSEarth / LIO MapServer). Unofficial viewing data, not legal title.", "as_of": "2026-09-20", "role": "focus", "color": "#e8b040"}}, {"type": "Feature", "geometry": {"type": "Polygon", "coordinates": [[[-92.5313, 49.3958], [-92.5313, 49.4], [-92.5375, 49.4], [-92.5375, 49.3958], [-92.5313, 49.3958]]]}, "properties": {"company_id": "dynasty-gold", "jurisdiction": "Ontario", "claim_id": "196225", "claim_name": null, "holder": "(100) Dynasty Gold Corp.", "status": "Active", "recorded_date": "2018-04-10", "anniversary_or_expiry": "2029-08-22", "area_ha": null, "tenure_type": "Single Cell Mining Claim", "source": "Ontario MLAS operational claims (OGSEarth / LIO MapServer). Unofficial viewing data, not legal title.", "as_of": "2026-09-20", "role": "focus", "color": "#e8b040"}}, {"type": "Feature", "geometry": {"type": "Polygon", "coordinates": [[[-92.55, 49.3833], [-92.55, 49.3875], [-92.5563, 49.3875], [-92.5563, 49.3833], [-92.55, 49.3833]]]}, "properties": {"company_id": "dynasty-gold", "jurisdiction": "Ontario", "claim_id": "200227", "claim_name": null, "holder": "(100) Dynasty Gold Corp.", "status": "Active", "recorded_date": "2018-04-10", "anniversary_or_expiry": "2029-04-19", "area_ha": null, "tenure_type": "Single Cell Mining Claim", "source": "Ontario MLAS operational claims (OGSEarth / LIO MapServer). Unofficial viewing data, not legal title.", "as_of": "2026-09-20", "role": "focus", "color": "#e8b040"}}, {"type": "Feature", "geometry": {"type": "Polygon", "coordinates": [[[-92.525, 49.4083], [-92.525, 49.4125], [-92.5313, 49.4125], [-92.5313, 49.4083], [-92.525, 49.4083]]]}, "properties": {"company_id": "dynasty-gold", "jurisdiction": "Ontario", "claim_id": "202159", "claim_name": null, "holder": "(100) Dynasty Gold Corp.", "status": "Active", "recorded_date": "2018-04-10", "anniversary_or_expiry": "2029-08-23", "area_ha": null, "tenure_type": "Single Cell Mining Claim", "source": "Ontario MLAS operational claims (OGSEarth / LIO MapServer). Unofficial viewing data, not legal title.", "as_of": "2026-09-20", "role": "focus", "color": "#e8b040"}}, {"type": "Feature", "geometry": {"type": "Polygon", "coordinates": [[[-92.5313, 49.3875], [-92.5313, 49.3917], [-92.5375, 49.3917], [-92.5375, 49.3875], [-92.5313, 49.3875]]]}, "properties": {"company_id": "dynasty-gold", "jurisdiction": "Ontario", "claim_id": "205188", "claim_name": null, "holder": "(100) Dynasty Gold Corp.", "status": "Active", "recorded_date": "2018-04-10", "anniversary_or_expiry": "2029-03-28", "area_ha": null, "tenure_type": "Boundary Cell Mining Claim", "source": "Ontario MLAS operational claims (OGSEarth / LIO MapServer). Unofficial viewing data, not legal title.", "as_of": "2026-09-20", "role": "focus", "color": "#e8b040"}}, {"type": "Feature", "geometry": {"type": "Polygon", "coordinates": [[[-92.5438, 49.4042], [-92.5438, 49.4083], [-92.55, 49.4083], [-92.55, 49.4042], [-92.5438, 49.4042]]]}, "properties": {"company_id": "dynasty-gold", "jurisdiction": "Ontario", "claim_id": "205919", "claim_name": null, "holder": "(100) Dynasty Gold Corp.", "status": "Active", "recorded_date": "2018-04-10", "anniversary_or_expiry": "2029-03-28", "area_ha": null, "tenure_type": "Single Cell Mining Claim", "source": "Ontario MLAS operational claims (OGSEarth / LIO MapServer). Unofficial viewing data, not legal title.", "as_of": "2026-09-20", "role": "focus", "color": "#e8b040"}}, {"type": "Feature", "geometry": {"type": "Polygon", "coordinates": [[[-92.5438, 49.3917], [-92.5438, 49.3958], [-92.55, 49.3958], [-92.55, 49.3917], [-92.5438, 49.3917]]]}, "properties": {"company_id": "dynasty-gold", "jurisdiction": "Ontario", "claim_id": "205920", "claim_name": null, "holder": "(100) Dynasty Gold Corp.", "status": "Active", "recorded_date": "2018-04-10", "anniversary_or_expiry": "2029-03-28", "area_ha": null, "tenure_type": "Single Cell Mining Claim", "source": "Ontario MLAS operational claims (OGSEarth / LIO MapServer). Unofficial viewing data, not legal title.", "as_of": "2026-09-20", "role": "focus", "color": "#e8b040"}}, {"type": "Feature", "geometry": {"type": "Polygon", "coordinates": [[[-92.5313, 49.3917], [-92.5313, 49.3958], [-92.5375, 49.3958], [-92.5375, 49.3917], [-92.5313, 49.3917]]]}, "properties": {"company_id": "dynasty-gold", "jurisdiction": "Ontario", "claim_id": "204261", "claim_name": null, "holder": "(100) Dynasty Gold Corp.", "status": "Active", "recorded_date": "2018-04-10", "anniversary_or_expiry": "2029-08-22", "area_ha": null, "tenure_type": "Boundary Cell Mining Claim", "source": "Ontario MLAS operational claims (OGSEarth / LIO MapServer). Unofficial viewing data, not legal title.", "as_of": "2026-09-20", "role": "focus", "color": "#e8b040"}}, {"type": "Feature", "geometry": {"type": "Polygon", "coordinates": [[[-92.5438, 49.4125], [-92.5438, 49.4167], [-92.55, 49.4167], [-92.55, 49.4125], [-92.5438, 49.4125]]]}, "properties": {"company_id": "dynasty-gold", "jurisdiction": "Ontario", "claim_id": "207369", "claim_name": null, "holder": "(100) Dynasty Gold Corp.", "status": "Active", "recorded_date": "2018-04-10", "anniversary_or_expiry": "2029-03-28", "area_ha": null, "tenure_type": "Single Cell Mining Claim", "source": "Ontario MLAS operational claims (OGSEarth / LIO MapServer). Unofficial viewing data, not legal title.", "as_of": "2026-09-20", "role": "focus", "color": "#e8b040"}}, {"type": "Feature", "geometry": {"type": "Polygon", "coordinates": [[[-92.525, 49.3708], [-92.525, 49.375], [-92.5313, 49.375], [-92.5313, 49.3708], [-92.525, 49.3708]]]}, "properties": {"company_id": "dynasty-gold", "jurisdiction": "Ontario", "claim_id": "212655", "claim_name": null, "holder": "(100) Dynasty Gold Corp.", "status": "Active", "recorded_date": "2018-04-10", "anniversary_or_expiry": "2029-08-26", "area_ha": null, "tenure_type": "Boundary Cell Mining Claim", "source": "Ontario MLAS operational claims (OGSEarth / LIO MapServer). Unofficial viewing data, not legal title.", "as_of": "2026-09-20", "role": "focus", "color": "#e8b040"}}, {"type": "Feature", "geometry": {"type": "Polygon", "coordinates": [[[-92.5438, 49.3833], [-92.5438, 49.3875], [-92.55, 49.3875], [-92.55, 49.3833], [-92.5438, 49.3833]]]}, "properties": {"company_id": "dynasty-gold", "jurisdiction": "Ontario", "claim_id": "216724", "claim_name": null, "holder": "(100) Dynasty Gold Corp.", "status": "Active", "recorded_date": "2018-04-10", "anniversary_or_expiry": "2029-04-19", "area_ha": null, "tenure_type": "Single Cell Mining Claim", "source": "Ontario MLAS operational claims (OGSEarth / LIO MapServer). Unofficial viewing data, not legal title.", "as_of": "2026-09-20", "role": "focus", "color": "#e8b040"}}, {"type": "Feature", "geometry": {"type": "Polygon", "coordinates": [[[-92.5188, 49.4], [-92.5188, 49.4042], [-92.525, 49.4042], [-92.525, 49.4], [-92.5188, 49.4]]]}, "properties": {"company_id": "dynasty-gold", "jurisdiction": "Ontario", "claim_id": "215648", "claim_name": null, "holder": "(100) Dynasty Gold Corp.", "status": "Active", "recorded_date": "2018-04-10", "anniversary_or_expiry": "2029-03-28", "area_ha": null, "tenure_type": "Single Cell Mining Claim", "source": "Ontario MLAS operational claims (OGSEarth / LIO MapServer). Unofficial viewing data, not legal title.", "as_of": "2026-09-20", "role": "focus", "color": "#e8b040"}}, {"type": "Feature", "geometry": {"type": "Polygon", "coordinates": [[[-92.5, 49.3792], [-92.5, 49.3833], [-92.5063, 49.3833], [-92.5063, 49.3792], [-92.5, 49.3792]]]}, "properties": {"company_id": "dynasty-gold", "jurisdiction": "Ontario", "claim_id": "216529", "claim_name": null, "holder": "(100) Dynasty Gold Corp.", "status": "Active", "recorded_date": "2018-04-10", "anniversary_or_expiry": "2029-03-28", "area_ha": null, "tenure_type": "Single Cell Mining Claim", "source": "Ontario MLAS operational claims (OGSEarth / LIO MapServer). Unofficial viewing data, not legal title.", "as_of": "2026-09-20", "role": "focus", "color": "#e8b040"}}, {"type": "Feature", "geometry": {"type": "Polygon", "coordinates": [[[-92.4938, 49.3667], [-92.4938, 49.3708], [-92.5, 49.3708], [-92.5, 49.3667], [-92.4938, 49.3667]]]}, "properties": {"company_id": "dynasty-gold", "jurisdiction": "Ontario", "claim_id": "216530", "claim_name": null, "holder": "(100) Dynasty Gold Corp.", "status": "Active", "recorded_date": "2018-04-10", "anniversary_or_expiry": "2029-03-28", "area_ha": null, "tenure_type": "Single Cell Mining Claim", "source": "Ontario MLAS operational claims (OGSEarth / LIO MapServer). Unofficial viewing data, not legal title.", "as_of": "2026-09-20", "role": "focus", "color": "#e8b040"}}, {"type": "Feature", "geometry": {"type": "Polygon", "coordinates": [[[-92.5, 49.3625], [-92.5, 49.3667], [-92.5063, 49.3667], [-92.5063, 49.3625], [-92.5, 49.3625]]]}, "properties": {"company_id": "dynasty-gold", "jurisdiction": "Ontario", "claim_id": "216531", "claim_name": null, "holder": "(100) Dynasty Gold Corp.", "status": "Active", "recorded_date": "2018-04-10", "anniversary_or_expiry": "2029-03-28", "area_ha": null, "tenure_type": "Single Cell Mining Claim", "source": "Ontario MLAS operational claims (OGSEarth / LIO MapServer). Unofficial viewing data, not legal title.", "as_of": "2026-09-20", "role": "focus", "color": "#e8b040"}}, {"type": "Feature", "geometry": {"type": "Polygon", "coordinates": [[[-92.5188, 49.3792], [-92.5188, 49.3833], [-92.525, 49.3833], [-92.525, 49.3792], [-92.5188, 49.3792]]]}, "properties": {"company_id": "dynasty-gold", "jurisdiction": "Ontario", "claim_id": "228116", "claim_name": null, "holder": "(100) Dynasty Gold Corp.", "status": "Active", "recorded_date": "2018-04-10", "anniversary_or_expiry": "2029-03-15", "area_ha": null, "tenure_type": "Single Cell Mining Claim", "source": "Ontario MLAS operational claims (OGSEarth / LIO MapServer). Unofficial viewing data, not legal title.", "as_of": "2026-09-20", "role": "focus", "color": "#e8b040"}}, {"type": "Feature", "geometry": {"type": "Polygon", "coordinates": [[[-92.5188, 49.3625], [-92.5188, 49.3667], [-92.525, 49.3667], [-92.525, 49.3625], [-92.5188, 49.3625]]]}, "properties": {"company_id": "dynasty-gold", "jurisdiction": "Ontario", "claim_id": "231370", "claim_name": null, "holder": "(100) Dynasty Gold Corp.", "status": "Active", "recorded_date": "2018-04-10", "anniversary_or_expiry": "2029-08-26", "area_ha": null, "tenure_type": "Single Cell Mining Claim", "source": "Ontario MLAS operational claims (OGSEarth / LIO MapServer). Unofficial viewing data, not legal title.", "as_of": "2026-09-20", "role": "focus", "color": "#e8b040"}}, {"type": "Feature", "geometry": {"type": "Polygon", "coordinates": [[[-92.5063, 49.4], [-92.5063, 49.4042], [-92.5125, 49.4042], [-92.5125, 49.4], [-92.5063, 49.4]]]}, "properties": {"company_id": "dynasty-gold", "jurisdiction": "Ontario", "claim_id": "231624", "claim_name": null, "holder": "(100) Dynasty Gold Corp.", "status": "Active", "recorded_date": "2018-04-10", "anniversary_or_expiry": "2029-03-28", "area_ha": null, "tenure_type": "Single Cell Mining Claim", "source": "Ontario MLAS operational claims (OGSEarth / LIO MapServer). Unofficial viewing data, not legal title.", "as_of": "2026-09-20", "role": "focus", "color": "#e8b040"}}, {"type": "Feature", "geometry": {"type": "Polygon", "coordinates": [[[-92.4875, 49.3667], [-92.4875, 49.3708], [-92.4938, 49.3708], [-92.4938, 49.3667], [-92.4875, 49.3667]]]}, "properties": {"company_id": "dynasty-gold", "jurisdiction": "Ontario", "claim_id": "235085", "claim_name": null, "holder": "(100) Dynasty Gold Corp.", "status": "Active", "recorded_date": "2018-04-10", "anniversary_or_expiry": "2029-03-28", "area_ha": null, "tenure_type": "Single Cell Mining Claim", "source": "Ontario MLAS operational claims (OGSEarth / LIO MapServer). Unofficial viewing data, not legal title.", "as_of": "2026-09-20", "role": "focus", "color": "#e8b040"}}, {"type": "Feature", "geometry": {"type": "Polygon", "coordinates": [[[-92.5438, 49.4083], [-92.5438, 49.4125], [-92.55, 49.4125], [-92.55, 49.4083], [-92.5438, 49.4083]]]}, "properties": {"company_id": "dynasty-gold", "jurisdiction": "Ontario", "claim_id": "236469", "claim_name": null, "holder": "(100) Dynasty Gold Corp.", "status": "Active", "recorded_date": "2018-04-10", "anniversary_or_expiry": "2029-03-28", "area_ha": null, "tenure_type": "Single Cell Mining Claim", "source": "Ontario MLAS operational claims (OGSEarth / LIO MapServer). Unofficial viewing data, not legal title.", "as_of": "2026-09-20", "role": "focus", "color": "#e8b040"}}, {"type": "Feature", "geometry": {"type": "Polygon", "coordinates": [[[-92.4875, 49.3708], [-92.4875, 49.375], [-92.4938, 49.375], [-92.4938, 49.3708], [-92.4875, 49.3708]]]}, "properties": {"company_id": "dynasty-gold", "jurisdiction": "Ontario", "claim_id": "236608", "claim_name": null, "holder": "(100) Dynasty Gold Corp.", "status": "Active", "recorded_date": "2018-04-10", "anniversary_or_expiry": "2029-03-28", "area_ha": null, "tenure_type": "Single Cell Mining Claim", "source": "Ontario MLAS operational claims (OGSEarth / LIO MapServer). Unofficial viewing data, not legal title.", "as_of": "2026-09-20", "role": "focus", "color": "#e8b040"}}, {"type": "Feature", "geometry": {"type": "Polygon", "coordinates": [[[-92.5375, 49.3833], [-92.5375, 49.3875], [-92.5438, 49.3875], [-92.5438, 49.3833], [-92.5375, 49.3833]]]}, "properties": {"company_id": "dynasty-gold", "jurisdiction": "Ontario", "claim_id": "236171", "claim_name": null, "holder": "(100) Dynasty Gold Corp.", "status": "Active", "recorded_date": "2018-04-10", "anniversary_or_expiry": "2029-04-19", "area_ha": null, "tenure_type": "Single Cell Mining Claim", "source": "Ontario MLAS operational claims (OGSEarth / LIO MapServer). Unofficial viewing data, not legal title.", "as_of": "2026-09-20", "role": "focus", "color": "#e8b040"}}, {"type": "Feature", "geometry": {"type": "Polygon", "coordinates": [[[-92.5063, 49.3875], [-92.5063, 49.3917], [-92.5125, 49.3917], [-92.5125, 49.3875], [-92.5063, 49.3875]]]}, "properties": {"company_id": "dynasty-gold", "jurisdiction": "Ontario", "claim_id": "240957", "claim_name": null, "holder": "(100) Dynasty Gold Corp.", "status": "Active", "recorded_date": "2018-04-10", "anniversary_or_expiry": "2029-03-28", "area_ha": null, "tenure_type": "Single Cell Mining Claim", "source": "Ontario MLAS operational claims (OGSEarth / LIO MapServer). Unofficial viewing data, not legal title.", "as_of": "2026-09-20", "role": "focus", "color": "#e8b040"}}, {"type": "Feature", "geometry": {"type": "Polygon", "coordinates": [[[-92.5125, 49.3833], [-92.5125, 49.3875], [-92.5188, 49.3875], [-92.5188, 49.3833], [-92.5125, 49.3833]]]}, "properties": {"company_id": "dynasty-gold", "jurisdiction": "Ontario", "claim_id": "240958", "claim_name": null, "holder": "(100) Dynasty Gold Corp.", "status": "Active", "recorded_date": "2018-04-10", "anniversary_or_expiry": "2029-03-15", "area_ha": null, "tenure_type": "Single Cell Mining Claim", "source": "Ontario MLAS operational claims (OGSEarth / LIO MapServer). Unofficial viewing data, not legal title.", "as_of": "2026-09-20", "role": "focus", "color": "#e8b040"}}, {"type": "Feature", "geometry": {"type": "Polygon", "coordinates": [[[-92.525, 49.3833], [-92.525, 49.3875], [-92.5313, 49.3875], [-92.5313, 49.3833], [-92.525, 49.3833]]]}, "properties": {"company_id": "dynasty-gold", "jurisdiction": "Ontario", "claim_id": "244967", "claim_name": null, "holder": "(100) Dynasty Gold Corp.", "status": "Active", "recorded_date": "2018-04-10", "anniversary_or_expiry": "2029-02-17", "area_ha": null, "tenure_type": "Single Cell Mining Claim", "source": "Ontario MLAS operational claims (OGSEarth / LIO MapServer). Unofficial viewing data, not legal title.", "as_of": "2026-09-20", "role": "focus", "color": "#e8b040"}}, {"type": "Feature", "geometry": {"type": "Polygon", "coordinates": [[[-92.5375, 49.3917], [-92.5375, 49.3958], [-92.5438, 49.3958], [-92.5438, 49.3917], [-92.5375, 49.3917]]]}, "properties": {"company_id": "dynasty-gold", "jurisdiction": "Ontario", "claim_id": "245129", "claim_name": null, "holder": "(100) Dynasty Gold Corp.", "status": "Active", "recorded_date": "2018-04-10", "anniversary_or_expiry": "2029-03-28", "area_ha": null, "tenure_type": "Single Cell Mining Claim", "source": "Ontario MLAS operational claims (OGSEarth / LIO MapServer). Unofficial viewing data, not legal title.", "as_of": "2026-09-20", "role": "focus", "color": "#e8b040"}}, {"type": "Feature", "geometry": {"type": "Polygon", "coordinates": [[[-92.525, 49.375], [-92.525, 49.3792], [-92.5313, 49.3792], [-92.5313, 49.375], [-92.525, 49.375]]]}, "properties": {"company_id": "dynasty-gold", "jurisdiction": "Ontario", "claim_id": "253600", "claim_name": null, "holder": "(100) Dynasty Gold Corp.", "status": "Active", "recorded_date": "2018-04-10", "anniversary_or_expiry": "2029-08-26", "area_ha": null, "tenure_type": "Boundary Cell Mining Claim", "source": "Ontario MLAS operational claims (OGSEarth / LIO MapServer). Unofficial viewing data, not legal title.", "as_of": "2026-09-20", "role": "focus", "color": "#e8b040"}}, {"type": "Feature", "geometry": {"type": "Polygon", "coordinates": [[[-92.5375, 49.4042], [-92.5375, 49.4083], [-92.5438, 49.4083], [-92.5438, 49.4042], [-92.5375, 49.4042]]]}, "properties": {"company_id": "dynasty-gold", "jurisdiction": "Ontario", "claim_id": "253165", "claim_name": null, "holder": "(100) Dynasty Gold Corp.", "status": "Active", "recorded_date": "2018-04-10", "anniversary_or_expiry": "2029-03-28", "area_ha": null, "tenure_type": "Single Cell Mining Claim", "source": "Ontario MLAS operational claims (OGSEarth / LIO MapServer). Unofficial viewing data, not legal title.", "as_of": "2026-09-20", "role": "focus", "color": "#e8b040"}}, {"type": "Feature", "geometry": {"type": "Polygon", "coordinates": [[[-92.5375, 49.3875], [-92.5375, 49.3917], [-92.5438, 49.3917], [-92.5438, 49.3875], [-92.5375, 49.3875]]]}, "properties": {"company_id": "dynasty-gold", "jurisdiction": "Ontario", "claim_id": "254799", "claim_name": null, "holder": "(100) Dynasty Gold Corp.", "status": "Active", "recorded_date": "2018-04-10", "anniversary_or_expiry": "2029-04-19", "area_ha": null, "tenure_type": "Single Cell Mining Claim", "source": "Ontario MLAS operational claims (OGSEarth / LIO MapServer). Unofficial viewing data, not legal title.", "as_of": "2026-09-20", "role": "focus", "color": "#e8b040"}}, {"type": "Feature", "geometry": {"type": "Polygon", "coordinates": [[[-92.55, 49.375], [-92.55, 49.3792], [-92.5563, 49.3792], [-92.5563, 49.375], [-92.55, 49.375]]]}, "properties": {"company_id": "dynasty-gold", "jurisdiction": "Ontario", "claim_id": "254800", "claim_name": null, "holder": "(100) Dynasty Gold Corp.", "status": "Active", "recorded_date": "2018-04-10", "anniversary_or_expiry": "2029-04-19", "area_ha": null, "tenure_type": "Single Cell Mining Claim", "source": "Ontario MLAS operational claims (OGSEarth / LIO MapServer). Unofficial viewing data, not legal title.", "as_of": "2026-09-20", "role": "focus", "color": "#e8b040"}}, {"type": "Feature", "geometry": {"type": "Polygon", "coordinates": [[[-92.5438, 49.3708], [-92.5438, 49.375], [-92.55, 49.375], [-92.55, 49.3708], [-92.5438, 49.3708]]]}, "properties": {"company_id": "dynasty-gold", "jurisdiction": "Ontario", "claim_id": "254801", "claim_name": null, "holder": "(100) Dynasty Gold Corp.", "status": "Active", "recorded_date": "2018-04-10", "anniversary_or_expiry": "2029-04-19", "area_ha": null, "tenure_type": "Single Cell Mining Claim", "source": "Ontario MLAS operational claims (OGSEarth / LIO MapServer). Unofficial viewing data, not legal title.", "as_of": "2026-09-20", "role": "focus", "color": "#e8b040"}}, {"type": "Feature", "geometry": {"type": "Polygon", "coordinates": [[[-92.5188, 49.4083], [-92.5188, 49.4125], [-92.525, 49.4125], [-92.525, 49.4083], [-92.5188, 49.4083]]]}, "properties": {"company_id": "dynasty-gold", "jurisdiction": "Ontario", "claim_id": "258231", "claim_name": null, "holder": "(100) Dynasty Gold Corp.", "status": "Active", "recorded_date": "2018-04-10", "anniversary_or_expiry": "2029-08-23", "area_ha": null, "tenure_type": "Single Cell Mining Claim", "source": "Ontario MLAS operational claims (OGSEarth / LIO MapServer). Unofficial viewing data, not legal title.", "as_of": "2026-09-20", "role": "focus", "color": "#e8b040"}}, {"type": "Feature", "geometry": {"type": "Polygon", "coordinates": [[[-92.5313, 49.4083], [-92.5313, 49.4125], [-92.5375, 49.4125], [-92.5375, 49.4083], [-92.5313, 49.4083]]]}, "properties": {"company_id": "dynasty-gold", "jurisdiction": "Ontario", "claim_id": "258232", "claim_name": null, "holder": "(100) Dynasty Gold Corp.", "status": "Active", "recorded_date": "2018-04-10", "anniversary_or_expiry": "2029-08-23", "area_ha": null, "tenure_type": "Single Cell Mining Claim", "source": "Ontario MLAS operational claims (OGSEarth / LIO MapServer). Unofficial viewing data, not legal title.", "as_of": "2026-09-20", "role": "focus", "color": "#e8b040"}}, {"type": "Feature", "geometry": {"type": "Polygon", "coordinates": [[[-92.5375, 49.4083], [-92.5375, 49.4125], [-92.5438, 49.4125], [-92.5438, 49.4083], [-92.5375, 49.4083]]]}, "properties": {"company_id": "dynasty-gold", "jurisdiction": "Ontario", "claim_id": "258233", "claim_name": null, "holder": "(100) Dynasty Gold Corp.", "status": "Active", "recorded_date": "2018-04-10", "anniversary_or_expiry": "2029-08-23", "area_ha": null, "tenure_type": "Single Cell Mining Claim", "source": "Ontario MLAS operational claims (OGSEarth / LIO MapServer). Unofficial viewing data, not legal title.", "as_of": "2026-09-20", "role": "focus", "color": "#e8b040"}}, {"type": "Feature", "geometry": {"type": "Polygon", "coordinates": [[[-92.4938, 49.4], [-92.4938, 49.4042], [-92.5, 49.4042], [-92.5, 49.4], [-92.4938, 49.4]]]}, "properties": {"company_id": "dynasty-gold", "jurisdiction": "Ontario", "claim_id": "260790", "claim_name": null, "holder": "(100) Dynasty Gold Corp.", "status": "Active", "recorded_date": "2018-04-10", "anniversary_or_expiry": "2029-03-28", "area_ha": null, "tenure_type": "Single Cell Mining Claim", "source": "Ontario MLAS operational claims (OGSEarth / LIO MapServer). Unofficial viewing data, not legal title.", "as_of": "2026-09-20", "role": "focus", "color": "#e8b040"}}, {"type": "Feature", "geometry": {"type": "Polygon", "coordinates": [[[-92.525, 49.3958], [-92.525, 49.4], [-92.5313, 49.4], [-92.5313, 49.3958], [-92.525, 49.3958]]]}, "properties": {"company_id": "dynasty-gold", "jurisdiction": "Ontario", "claim_id": "260830", "claim_name": null, "holder": "(100) Dynasty Gold Corp.", "status": "Active", "recorded_date": "2018-04-10", "anniversary_or_expiry": "2029-08-22", "area_ha": null, "tenure_type": "Single Cell Mining Claim", "source": "Ontario MLAS operational claims (OGSEarth / LIO MapServer). Unofficial viewing data, not legal title.", "as_of": "2026-09-20", "role": "focus", "color": "#e8b040"}}, {"type": "Feature", "geometry": {"type": "Polygon", "coordinates": [[[-92.5188, 49.3917], [-92.5188, 49.3958], [-92.525, 49.3958], [-92.525, 49.3917], [-92.5188, 49.3917]]]}, "properties": {"company_id": "dynasty-gold", "jurisdiction": "Ontario", "claim_id": "260831", "claim_name": null, "holder": "(100) Dynasty Gold Corp.", "status": "Active", "recorded_date": "2018-04-10", "anniversary_or_expiry": "2029-06-05", "area_ha": null, "tenure_type": "Single Cell Mining Claim", "source": "Ontario MLAS operational claims (OGSEarth / LIO MapServer). Unofficial viewing data, not legal title.", "as_of": "2026-09-20", "role": "focus", "color": "#e8b040"}}, {"type": "Feature", "geometry": {"type": "Polygon", "coordinates": [[[-92.5125, 49.4042], [-92.5125, 49.4083], [-92.5188, 49.4083], [-92.5188, 49.4042], [-92.5125, 49.4042]]]}, "properties": {"company_id": "dynasty-gold", "jurisdiction": "Ontario", "claim_id": "262880", "claim_name": null, "holder": "(100) Dynasty Gold Corp.", "status": "Active", "recorded_date": "2018-04-10", "anniversary_or_expiry": "2029-03-28", "area_ha": null, "tenure_type": "Single Cell Mining Claim", "source": "Ontario MLAS operational claims (OGSEarth / LIO MapServer). Unofficial viewing data, not legal title.", "as_of": "2026-09-20", "role": "focus", "color": "#e8b040"}}, {"type": "Feature", "geometry": {"type": "Polygon", "coordinates": [[[-92.55, 49.4167], [-92.55, 49.4208], [-92.5563, 49.4208], [-92.5563, 49.4167], [-92.55, 49.4167]]]}, "properties": {"company_id": "dynasty-gold", "jurisdiction": "Ontario", "claim_id": "266604", "claim_name": null, "holder": "(100) Dynasty Gold Corp.", "status": "Active", "recorded_date": "2018-04-10", "anniversary_or_expiry": "2029-03-28", "area_ha": null, "tenure_type": "Single Cell Mining Claim", "source": "Ontario MLAS operational claims (OGSEarth / LIO MapServer). Unofficial viewing data, not legal title.", "as_of": "2026-09-20", "role": "focus", "color": "#e8b040"}}, {"type": "Feature", "geometry": {"type": "Polygon", "coordinates": [[[-92.5, 49.3708], [-92.5, 49.375], [-92.5063, 49.375], [-92.5063, 49.3708], [-92.5, 49.3708]]]}, "properties": {"company_id": "dynasty-gold", "jurisdiction": "Ontario", "claim_id": "270426", "claim_name": null, "holder": "(100) Dynasty Gold Corp.", "status": "Active", "recorded_date": "2018-04-10", "anniversary_or_expiry": "2029-03-28", "area_ha": null, "tenure_type": "Single Cell Mining Claim", "source": "Ontario MLAS operational claims (OGSEarth / LIO MapServer). Unofficial viewing data, not legal title.", "as_of": "2026-09-20", "role": "focus", "color": "#e8b040"}}, {"type": "Feature", "geometry": {"type": "Polygon", "coordinates": [[[-92.5063, 49.3667], [-92.5063, 49.3708], [-92.5125, 49.3708], [-92.5125, 49.3667], [-92.5063, 49.3667]]]}, "properties": {"company_id": "dynasty-gold", "jurisdiction": "Ontario", "claim_id": "270427", "claim_name": null, "holder": "(100) Dynasty Gold Corp.", "status": "Active", "recorded_date": "2018-04-10", "anniversary_or_expiry": "2029-08-26", "area_ha": null, "tenure_type": "Single Cell Mining Claim", "source": "Ontario MLAS operational claims (OGSEarth / LIO MapServer). Unofficial viewing data, not legal title.", "as_of": "2026-09-20", "role": "focus", "color": "#e8b040"}}, {"type": "Feature", "geometry": {"type": "Polygon", "coordinates": [[[-92.4875, 49.4], [-92.4875, 49.4042], [-92.4938, 49.4042], [-92.4938, 49.4], [-92.4875, 49.4]]]}, "properties": {"company_id": "dynasty-gold", "jurisdiction": "Ontario", "claim_id": "268290", "claim_name": null, "holder": "(100) Dynasty Gold Corp.", "status": "Active", "recorded_date": "2018-04-10", "anniversary_or_expiry": "2029-03-28", "area_ha": null, "tenure_type": "Single Cell Mining Claim", "source": "Ontario MLAS operational claims (OGSEarth / LIO MapServer). Unofficial viewing data, not legal title.", "as_of": "2026-09-20", "role": "focus", "color": "#e8b040"}}, {"type": "Feature", "geometry": {"type": "Polygon", "coordinates": [[[-92.5125, 49.3917], [-92.5125, 49.3958], [-92.5188, 49.3958], [-92.5188, 49.3917], [-92.5125, 49.3917]]]}, "properties": {"company_id": "dynasty-gold", "jurisdiction": "Ontario", "claim_id": "268291", "claim_name": null, "holder": "(100) Dynasty Gold Corp.", "status": "Active", "recorded_date": "2018-04-10", "anniversary_or_expiry": "2029-06-05", "area_ha": null, "tenure_type": "Single Cell Mining Claim", "source": "Ontario MLAS operational claims (OGSEarth / LIO MapServer). Unofficial viewing data, not legal title.", "as_of": "2026-09-20", "role": "focus", "color": "#e8b040"}}, {"type": "Feature", "geometry": {"type": "Polygon", "coordinates": [[[-92.5563, 49.4], [-92.5563, 49.4042], [-92.5625, 49.4042], [-92.5625, 49.4], [-92.5563, 49.4]]]}, "properties": {"company_id": "dynasty-gold", "jurisdiction": "Ontario", "claim_id": "271938", "claim_name": null, "holder": "(100) Dynasty Gold Corp.", "status": "Active", "recorded_date": "2018-04-10", "anniversary_or_expiry": "2029-03-28", "area_ha": null, "tenure_type": "Single Cell Mining Claim", "source": "Ontario MLAS operational claims (OGSEarth / LIO MapServer). Unofficial viewing data, not legal title.", "as_of": "2026-09-20", "role": "focus", "color": "#e8b040"}}, {"type": "Feature", "geometry": {"type": "Polygon", "coordinates": [[[-92.5375, 49.3958], [-92.5375, 49.4], [-92.5438, 49.4], [-92.5438, 49.3958], [-92.5375, 49.3958]]]}, "properties": {"company_id": "dynasty-gold", "jurisdiction": "Ontario", "claim_id": "271939", "claim_name": null, "holder": "(100) Dynasty Gold Corp.", "status": "Active", "recorded_date": "2018-04-10", "anniversary_or_expiry": "2029-03-28", "area_ha": null, "tenure_type": "Single Cell Mining Claim", "source": "Ontario MLAS operational claims (OGSEarth / LIO MapServer). Unofficial viewing data, not legal title.", "as_of": "2026-09-20", "role": "focus", "color": "#e8b040"}}, {"type": "Feature", "geometry": {"type": "Polygon", "coordinates": [[[-92.5188, 49.4125], [-92.5188, 49.4167], [-92.525, 49.4167], [-92.525, 49.4125], [-92.5188, 49.4125]]]}, "properties": {"company_id": "dynasty-gold", "jurisdiction": "Ontario", "claim_id": "276736", "claim_name": null, "holder": "(100) Dynasty Gold Corp.", "status": "Active", "recorded_date": "2018-04-10", "anniversary_or_expiry": "2029-08-23", "area_ha": null, "tenure_type": "Single Cell Mining Claim", "source": "Ontario MLAS operational claims (OGSEarth / LIO MapServer). Unofficial viewing data, not legal title.", "as_of": "2026-09-20", "role": "focus", "color": "#e8b040"}}, {"type": "Feature", "geometry": {"type": "Polygon", "coordinates": [[[-92.5375, 49.4125], [-92.5375, 49.4167], [-92.5438, 49.4167], [-92.5438, 49.4125], [-92.5375, 49.4125]]]}, "properties": {"company_id": "dynasty-gold", "jurisdiction": "Ontario", "claim_id": "276737", "claim_name": null, "holder": "(100) Dynasty Gold Corp.", "status": "Active", "recorded_date": "2018-04-10", "anniversary_or_expiry": "2029-08-23", "area_ha": null, "tenure_type": "Single Cell Mining Claim", "source": "Ontario MLAS operational claims (OGSEarth / LIO MapServer). Unofficial viewing data, not legal title.", "as_of": "2026-09-20", "role": "focus", "color": "#e8b040"}}, {"type": "Feature", "geometry": {"type": "Polygon", "coordinates": [[[-92.5125, 49.4], [-92.5125, 49.4042], [-92.5188, 49.4042], [-92.5188, 49.4], [-92.5125, 49.4]]]}, "properties": {"company_id": "dynasty-gold", "jurisdiction": "Ontario", "claim_id": "280341", "claim_name": null, "holder": "(100) Dynasty Gold Corp.", "status": "Active", "recorded_date": "2018-04-10", "anniversary_or_expiry": "2029-03-28", "area_ha": null, "tenure_type": "Single Cell Mining Claim", "source": "Ontario MLAS operational claims (OGSEarth / LIO MapServer). Unofficial viewing data, not legal title.", "as_of": "2026-09-20", "role": "focus", "color": "#e8b040"}}, {"type": "Feature", "geometry": {"type": "Polygon", "coordinates": [[[-92.4875, 49.3958], [-92.4875, 49.4], [-92.4938, 49.4], [-92.4938, 49.3958], [-92.4875, 49.3958]]]}, "properties": {"company_id": "dynasty-gold", "jurisdiction": "Ontario", "claim_id": "280342", "claim_name": null, "holder": "(100) Dynasty Gold Corp.", "status": "Active", "recorded_date": "2018-04-10", "anniversary_or_expiry": "2029-03-28", "area_ha": null, "tenure_type": "Single Cell Mining Claim", "source": "Ontario MLAS operational claims (OGSEarth / LIO MapServer). Unofficial viewing data, not legal title.", "as_of": "2026-09-20", "role": "focus", "color": "#e8b040"}}, {"type": "Feature", "geometry": {"type": "Polygon", "coordinates": [[[-92.5188, 49.4042], [-92.5188, 49.4083], [-92.525, 49.4083], [-92.525, 49.4042], [-92.5188, 49.4042]]]}, "properties": {"company_id": "dynasty-gold", "jurisdiction": "Ontario", "claim_id": "282938", "claim_name": null, "holder": "(100) Dynasty Gold Corp.", "status": "Active", "recorded_date": "2018-04-10", "anniversary_or_expiry": "2029-03-28", "area_ha": null, "tenure_type": "Single Cell Mining Claim", "source": "Ontario MLAS operational claims (OGSEarth / LIO MapServer). Unofficial viewing data, not legal title.", "as_of": "2026-09-20", "role": "focus", "color": "#e8b040"}}, {"type": "Feature", "geometry": {"type": "Polygon", "coordinates": [[[-92.5063, 49.375], [-92.5063, 49.3792], [-92.5125, 49.3792], [-92.5125, 49.375], [-92.5063, 49.375]]]}, "properties": {"company_id": "dynasty-gold", "jurisdiction": "Ontario", "claim_id": "282525", "claim_name": null, "holder": "(100) Dynasty Gold Corp.", "status": "Active", "recorded_date": "2018-04-10", "anniversary_or_expiry": "2029-08-26", "area_ha": null, "tenure_type": "Single Cell Mining Claim", "source": "Ontario MLAS operational claims (OGSEarth / LIO MapServer). Unofficial viewing data, not legal title.", "as_of": "2026-09-20", "role": "focus", "color": "#e8b040"}}, {"type": "Feature", "geometry": {"type": "Polygon", "coordinates": [[[-92.5313, 49.4125], [-92.5313, 49.4167], [-92.5375, 49.4167], [-92.5375, 49.4125], [-92.5313, 49.4125]]]}, "properties": {"company_id": "dynasty-gold", "jurisdiction": "Ontario", "claim_id": "288835", "claim_name": null, "holder": "(100) Dynasty Gold Corp.", "status": "Active", "recorded_date": "2018-04-10", "anniversary_or_expiry": "2029-08-23", "area_ha": null, "tenure_type": "Single Cell Mining Claim", "source": "Ontario MLAS operational claims (OGSEarth / LIO MapServer). Unofficial viewing data, not legal title.", "as_of": "2026-09-20", "role": "focus", "color": "#e8b040"}}, {"type": "Feature", "geometry": {"type": "Polygon", "coordinates": [[[-92.4938, 49.3792], [-92.4938, 49.3833], [-92.5, 49.3833], [-92.5, 49.3792], [-92.4938, 49.3792]]]}, "properties": {"company_id": "dynasty-gold", "jurisdiction": "Ontario", "claim_id": "290596", "claim_name": null, "holder": "(100) Dynasty Gold Corp.", "status": "Active", "recorded_date": "2018-04-10", "anniversary_or_expiry": "2029-03-28", "area_ha": null, "tenure_type": "Single Cell Mining Claim", "source": "Ontario MLAS operational claims (OGSEarth / LIO MapServer). Unofficial viewing data, not legal title.", "as_of": "2026-09-20", "role": "focus", "color": "#e8b040"}}, {"type": "Feature", "geometry": {"type": "Polygon", "coordinates": [[[-92.5063, 49.3792], [-92.5063, 49.3833], [-92.5125, 49.3833], [-92.5125, 49.3792], [-92.5063, 49.3792]]]}, "properties": {"company_id": "dynasty-gold", "jurisdiction": "Ontario", "claim_id": "290597", "claim_name": null, "holder": "(100) Dynasty Gold Corp.", "status": "Active", "recorded_date": "2018-04-10", "anniversary_or_expiry": "2029-03-28", "area_ha": null, "tenure_type": "Single Cell Mining Claim", "source": "Ontario MLAS operational claims (OGSEarth / LIO MapServer). Unofficial viewing data, not legal title.", "as_of": "2026-09-20", "role": "focus", "color": "#e8b040"}}, {"type": "Feature", "geometry": {"type": "Polygon", "coordinates": [[[-92.5188, 49.375], [-92.5188, 49.3792], [-92.525, 49.3792], [-92.525, 49.375], [-92.5188, 49.375]]]}, "properties": {"company_id": "dynasty-gold", "jurisdiction": "Ontario", "claim_id": "289585", "claim_name": null, "holder": "(100) Dynasty Gold Corp.", "status": "Active", "recorded_date": "2018-04-10", "anniversary_or_expiry": "2029-08-26", "area_ha": null, "tenure_type": "Single Cell Mining Claim", "source": "Ontario MLAS operational claims (OGSEarth / LIO MapServer). Unofficial viewing data, not legal title.", "as_of": "2026-09-20", "role": "focus", "color": "#e8b040"}}, {"type": "Feature", "geometry": {"type": "Polygon", "coordinates": [[[-92.55, 49.3875], [-92.55, 49.3917], [-92.5563, 49.3917], [-92.5563, 49.3875], [-92.55, 49.3875]]]}, "properties": {"company_id": "dynasty-gold", "jurisdiction": "Ontario", "claim_id": "291393", "claim_name": null, "holder": "(100) Dynasty Gold Corp.", "status": "Active", "recorded_date": "2018-04-10", "anniversary_or_expiry": "2029-04-19", "area_ha": null, "tenure_type": "Single Cell Mining Claim", "source": "Ontario MLAS operational claims (OGSEarth / LIO MapServer). Unofficial viewing data, not legal title.", "as_of": "2026-09-20", "role": "focus", "color": "#e8b040"}}, {"type": "Feature", "geometry": {"type": "Polygon", "coordinates": [[[-92.5438, 49.3792], [-92.5438, 49.3833], [-92.55, 49.3833], [-92.55, 49.3792], [-92.5438, 49.3792]]]}, "properties": {"company_id": "dynasty-gold", "jurisdiction": "Ontario", "claim_id": "291394", "claim_name": null, "holder": "(100) Dynasty Gold Corp.", "status": "Active", "recorded_date": "2018-04-10", "anniversary_or_expiry": "2029-04-19", "area_ha": null, "tenure_type": "Single Cell Mining Claim", "source": "Ontario MLAS operational claims (OGSEarth / LIO MapServer). Unofficial viewing data, not legal title.", "as_of": "2026-09-20", "role": "focus", "color": "#e8b040"}}, {"type": "Feature", "geometry": {"type": "Polygon", "coordinates": [[[-92.5, 49.4], [-92.5, 49.4042], [-92.5063, 49.4042], [-92.5063, 49.4], [-92.5, 49.4]]]}, "properties": {"company_id": "dynasty-gold", "jurisdiction": "Ontario", "claim_id": "297650", "claim_name": null, "holder": "(100) Dynasty Gold Corp.", "status": "Active", "recorded_date": "2018-04-10", "anniversary_or_expiry": "2029-03-28", "area_ha": null, "tenure_type": "Single Cell Mining Claim", "source": "Ontario MLAS operational claims (OGSEarth / LIO MapServer). Unofficial viewing data, not legal title.", "as_of": "2026-09-20", "role": "focus", "color": "#e8b040"}}, {"type": "Feature", "geometry": {"type": "Polygon", "coordinates": [[[-92.5125, 49.3875], [-92.5125, 49.3917], [-92.5188, 49.3917], [-92.5188, 49.3875], [-92.5125, 49.3875]]]}, "properties": {"company_id": "dynasty-gold", "jurisdiction": "Ontario", "claim_id": "296108", "claim_name": null, "holder": "(100) Dynasty Gold Corp.", "status": "Active", "recorded_date": "2018-04-10", "anniversary_or_expiry": "2029-03-15", "area_ha": null, "tenure_type": "Single Cell Mining Claim", "source": "Ontario MLAS operational claims (OGSEarth / LIO MapServer). Unofficial viewing data, not legal title.", "as_of": "2026-09-20", "role": "focus", "color": "#e8b040"}}, {"type": "Feature", "geometry": {"type": "Polygon", "coordinates": [[[-92.5125, 49.3792], [-92.5125, 49.3833], [-92.5188, 49.3833], [-92.5188, 49.3792], [-92.5125, 49.3792]]]}, "properties": {"company_id": "dynasty-gold", "jurisdiction": "Ontario", "claim_id": "296109", "claim_name": null, "holder": "(100) Dynasty Gold Corp.", "status": "Active", "recorded_date": "2018-04-10", "anniversary_or_expiry": "2029-03-15", "area_ha": null, "tenure_type": "Single Cell Mining Claim", "source": "Ontario MLAS operational claims (OGSEarth / LIO MapServer). Unofficial viewing data, not legal title.", "as_of": "2026-09-20", "role": "focus", "color": "#e8b040"}}, {"type": "Feature", "geometry": {"type": "Polygon", "coordinates": [[[-92.5438, 49.4], [-92.5438, 49.4042], [-92.55, 49.4042], [-92.55, 49.4], [-92.5438, 49.4]]]}, "properties": {"company_id": "dynasty-gold", "jurisdiction": "Ontario", "claim_id": "301801", "claim_name": null, "holder": "(100) Dynasty Gold Corp.", "status": "Active", "recorded_date": "2018-04-10", "anniversary_or_expiry": "2029-03-28", "area_ha": null, "tenure_type": "Single Cell Mining Claim", "source": "Ontario MLAS operational claims (OGSEarth / LIO MapServer). Unofficial viewing data, not legal title.", "as_of": "2026-09-20", "role": "focus", "color": "#e8b040"}}, {"type": "Feature", "geometry": {"type": "Polygon", "coordinates": [[[-92.55, 49.4083], [-92.55, 49.4125], [-92.5563, 49.4125], [-92.5563, 49.4083], [-92.55, 49.4083]]]}, "properties": {"company_id": "dynasty-gold", "jurisdiction": "Ontario", "claim_id": "303741", "claim_name": null, "holder": "(100) Dynasty Gold Corp.", "status": "Active", "recorded_date": "2018-04-10", "anniversary_or_expiry": "2029-03-28", "area_ha": null, "tenure_type": "Single Cell Mining Claim", "source": "Ontario MLAS operational claims (OGSEarth / LIO MapServer). Unofficial viewing data, not legal title.", "as_of": "2026-09-20", "role": "focus", "color": "#e8b040"}}, {"type": "Feature", "geometry": {"type": "Polygon", "coordinates": [[[-92.5563, 49.4167], [-92.5563, 49.4208], [-92.5625, 49.4208], [-92.5625, 49.4167], [-92.5563, 49.4167]]]}, "properties": {"company_id": "dynasty-gold", "jurisdiction": "Ontario", "claim_id": "310482", "claim_name": null, "holder": "(100) Dynasty Gold Corp.", "status": "Active", "recorded_date": "2018-04-10", "anniversary_or_expiry": "2029-03-28", "area_ha": null, "tenure_type": "Single Cell Mining Claim", "source": "Ontario MLAS operational claims (OGSEarth / LIO MapServer). Unofficial viewing data, not legal title.", "as_of": "2026-09-20", "role": "focus", "color": "#e8b040"}}, {"type": "Feature", "geometry": {"type": "Polygon", "coordinates": [[[-92.5313, 49.3833], [-92.5313, 49.3875], [-92.5375, 49.3875], [-92.5375, 49.3833], [-92.5313, 49.3833]]]}, "properties": {"company_id": "dynasty-gold", "jurisdiction": "Ontario", "claim_id": "319004", "claim_name": null, "holder": "(100) Dynasty Gold Corp.", "status": "Active", "recorded_date": "2018-04-10", "anniversary_or_expiry": "2029-02-17", "area_ha": null, "tenure_type": "Single Cell Mining Claim", "source": "Ontario MLAS operational claims (OGSEarth / LIO MapServer). Unofficial viewing data, not legal title.", "as_of": "2026-09-20", "role": "focus", "color": "#e8b040"}}, {"type": "Feature", "geometry": {"type": "Polygon", "coordinates": [[[-92.5375, 49.3708], [-92.5375, 49.375], [-92.5438, 49.375], [-92.5438, 49.3708], [-92.5375, 49.3708]]]}, "properties": {"company_id": "dynasty-gold", "jurisdiction": "Ontario", "claim_id": "320206", "claim_name": null, "holder": "(100) Dynasty Gold Corp.", "status": "Active", "recorded_date": "2018-04-10", "anniversary_or_expiry": "2029-04-19", "area_ha": null, "tenure_type": "Boundary Cell Mining Claim", "source": "Ontario MLAS operational claims (OGSEarth / LIO MapServer). Unofficial viewing data, not legal title.", "as_of": "2026-09-20", "role": "focus", "color": "#e8b040"}}, {"type": "Feature", "geometry": {"type": "Polygon", "coordinates": [[[-92.5563, 49.3875], [-92.5563, 49.3917], [-92.5625, 49.3917], [-92.5625, 49.3875], [-92.5563, 49.3875]]]}, "properties": {"company_id": "dynasty-gold", "jurisdiction": "Ontario", "claim_id": "321297", "claim_name": null, "holder": "(100) Dynasty Gold Corp.", "status": "Active", "recorded_date": "2018-04-10", "anniversary_or_expiry": "2029-03-28", "area_ha": null, "tenure_type": "Single Cell Mining Claim", "source": "Ontario MLAS operational claims (OGSEarth / LIO MapServer). Unofficial viewing data, not legal title.", "as_of": "2026-09-20", "role": "focus", "color": "#e8b040"}}, {"type": "Feature", "geometry": {"type": "Polygon", "coordinates": [[[-92.525, 49.4042], [-92.525, 49.4083], [-92.5313, 49.4083], [-92.5313, 49.4042], [-92.525, 49.4042]]]}, "properties": {"company_id": "dynasty-gold", "jurisdiction": "Ontario", "claim_id": "329532", "claim_name": null, "holder": "(100) Dynasty Gold Corp.", "status": "Active", "recorded_date": "2018-04-10", "anniversary_or_expiry": "2029-03-28", "area_ha": null, "tenure_type": "Single Cell Mining Claim", "source": "Ontario MLAS operational claims (OGSEarth / LIO MapServer). Unofficial viewing data, not legal title.", "as_of": "2026-09-20", "role": "focus", "color": "#e8b040"}}, {"type": "Feature", "geometry": {"type": "Polygon", "coordinates": [[[-92.5313, 49.4042], [-92.5313, 49.4083], [-92.5375, 49.4083], [-92.5375, 49.4042], [-92.5313, 49.4042]]]}, "properties": {"company_id": "dynasty-gold", "jurisdiction": "Ontario", "claim_id": "329533", "claim_name": null, "holder": "(100) Dynasty Gold Corp.", "status": "Active", "recorded_date": "2018-04-10", "anniversary_or_expiry": "2029-03-28", "area_ha": null, "tenure_type": "Single Cell Mining Claim", "source": "Ontario MLAS operational claims (OGSEarth / LIO MapServer). Unofficial viewing data, not legal title.", "as_of": "2026-09-20", "role": "focus", "color": "#e8b040"}}, {"type": "Feature", "geometry": {"type": "Polygon", "coordinates": [[[-92.5063, 49.3708], [-92.5063, 49.375], [-92.5125, 49.375], [-92.5125, 49.3708], [-92.5063, 49.3708]]]}, "properties": {"company_id": "dynasty-gold", "jurisdiction": "Ontario", "claim_id": "330315", "claim_name": null, "holder": "(100) Dynasty Gold Corp.", "status": "Active", "recorded_date": "2018-04-10", "anniversary_or_expiry": "2029-08-26", "area_ha": null, "tenure_type": "Single Cell Mining Claim", "source": "Ontario MLAS operational claims (OGSEarth / LIO MapServer). Unofficial viewing data, not legal title.", "as_of": "2026-09-20", "role": "focus", "color": "#e8b040"}}, {"type": "Feature", "geometry": {"type": "Polygon", "coordinates": [[[-92.525, 49.3667], [-92.525, 49.3708], [-92.5313, 49.3708], [-92.5313, 49.3667], [-92.525, 49.3667]]]}, "properties": {"company_id": "dynasty-gold", "jurisdiction": "Ontario", "claim_id": "332014", "claim_name": null, "holder": "(100) Dynasty Gold Corp.", "status": "Active", "recorded_date": "2018-04-10", "anniversary_or_expiry": "2029-08-26", "area_ha": null, "tenure_type": "Boundary Cell Mining Claim", "source": "Ontario MLAS operational claims (OGSEarth / LIO MapServer). Unofficial viewing data, not legal title.", "as_of": "2026-09-20", "role": "focus", "color": "#e8b040"}}, {"type": "Feature", "geometry": {"type": "Polygon", "coordinates": [[[-92.4875, 49.3833], [-92.4875, 49.3875], [-92.4938, 49.3875], [-92.4938, 49.3833], [-92.4875, 49.3833]]]}, "properties": {"company_id": "dynasty-gold", "jurisdiction": "Ontario", "claim_id": "330580", "claim_name": null, "holder": "(100) Dynasty Gold Corp.", "status": "Active", "recorded_date": "2018-04-10", "anniversary_or_expiry": "2029-03-28", "area_ha": null, "tenure_type": "Single Cell Mining Claim", "source": "Ontario MLAS operational claims (OGSEarth / LIO MapServer). Unofficial viewing data, not legal title.", "as_of": "2026-09-20", "role": "focus", "color": "#e8b040"}}, {"type": "Feature", "geometry": {"type": "Polygon", "coordinates": [[[-92.5, 49.3833], [-92.5, 49.3875], [-92.5063, 49.3875], [-92.5063, 49.3833], [-92.5, 49.3833]]]}, "properties": {"company_id": "dynasty-gold", "jurisdiction": "Ontario", "claim_id": "330581", "claim_name": null, "holder": "(100) Dynasty Gold Corp.", "status": "Active", "recorded_date": "2018-04-10", "anniversary_or_expiry": "2029-03-28", "area_ha": null, "tenure_type": "Single Cell Mining Claim", "source": "Ontario MLAS operational claims (OGSEarth / LIO MapServer). Unofficial viewing data, not legal title.", "as_of": "2026-09-20", "role": "focus", "color": "#e8b040"}}, {"type": "Feature", "geometry": {"type": "Polygon", "coordinates": [[[-92.5563, 49.4042], [-92.5563, 49.4083], [-92.5625, 49.4083], [-92.5625, 49.4042], [-92.5563, 49.4042]]]}, "properties": {"company_id": "dynasty-gold", "jurisdiction": "Ontario", "claim_id": "333025", "claim_name": null, "holder": "(100) Dynasty Gold Corp.", "status": "Active", "recorded_date": "2018-04-10", "anniversary_or_expiry": "2029-03-28", "area_ha": null, "tenure_type": "Single Cell Mining Claim", "source": "Ontario MLAS operational claims (OGSEarth / LIO MapServer). Unofficial viewing data, not legal title.", "as_of": "2026-09-20", "role": "focus", "color": "#e8b040"}}, {"type": "Feature", "geometry": {"type": "Polygon", "coordinates": [[[-92.525, 49.3792], [-92.525, 49.3833], [-92.5313, 49.3833], [-92.5313, 49.3792], [-92.525, 49.3792]]]}, "properties": {"company_id": "dynasty-gold", "jurisdiction": "Ontario", "claim_id": "340453", "claim_name": null, "holder": "(100) Dynasty Gold Corp.", "status": "Active", "recorded_date": "2018-04-10", "anniversary_or_expiry": "2029-11-17", "area_ha": null, "tenure_type": "Single Cell Mining Claim", "source": "Ontario MLAS operational claims (OGSEarth / LIO MapServer). Unofficial viewing data, not legal title.", "as_of": "2026-09-20", "role": "focus", "color": "#e8b040"}}, {"type": "Feature", "geometry": {"type": "Polygon", "coordinates": [[[-92.5313, 49.4], [-92.5313, 49.4042], [-92.5375, 49.4042], [-92.5375, 49.4], [-92.5313, 49.4]]]}, "properties": {"company_id": "dynasty-gold", "jurisdiction": "Ontario", "claim_id": "341371", "claim_name": null, "holder": "(100) Dynasty Gold Corp.", "status": "Active", "recorded_date": "2018-04-10", "anniversary_or_expiry": "2029-03-28", "area_ha": null, "tenure_type": "Single Cell Mining Claim", "source": "Ontario MLAS operational claims (OGSEarth / LIO MapServer). Unofficial viewing data, not legal title.", "as_of": "2026-09-20", "role": "focus", "color": "#e8b040"}}, {"type": "Feature", "geometry": {"type": "Polygon", "coordinates": [[[-92.4938, 49.375], [-92.4938, 49.3792], [-92.5, 49.3792], [-92.5, 49.375], [-92.4938, 49.375]]]}, "properties": {"company_id": "dynasty-gold", "jurisdiction": "Ontario", "claim_id": "342179", "claim_name": null, "holder": "(100) Dynasty Gold Corp.", "status": "Active", "recorded_date": "2018-04-10", "anniversary_or_expiry": "2029-03-28", "area_ha": null, "tenure_type": "Single Cell Mining Claim", "source": "Ontario MLAS operational claims (OGSEarth / LIO MapServer). Unofficial viewing data, not legal title.", "as_of": "2026-09-20", "role": "focus", "color": "#e8b040"}}, {"type": "Feature", "geometry": {"type": "Polygon", "coordinates": [[[-92.5375, 49.3792], [-92.5375, 49.3833], [-92.5438, 49.3833], [-92.5438, 49.3792], [-92.5375, 49.3792]]]}, "properties": {"company_id": "dynasty-gold", "jurisdiction": "Ontario", "claim_id": "342269", "claim_name": null, "holder": "(100) Dynasty Gold Corp.", "status": "Active", "recorded_date": "2018-04-10", "anniversary_or_expiry": "2029-04-19", "area_ha": null, "tenure_type": "Single Cell Mining Claim", "source": "Ontario MLAS operational claims (OGSEarth / LIO MapServer). Unofficial viewing data, not legal title.", "as_of": "2026-09-20", "role": "focus", "color": "#e8b040"}}, {"type": "Feature", "geometry": {"type": "Polygon", "coordinates": [[[-92.5438, 49.375], [-92.5438, 49.3792], [-92.55, 49.3792], [-92.55, 49.375], [-92.5438, 49.375]]]}, "properties": {"company_id": "dynasty-gold", "jurisdiction": "Ontario", "claim_id": "342270", "claim_name": null, "holder": "(100) Dynasty Gold Corp.", "status": "Active", "recorded_date": "2018-04-10", "anniversary_or_expiry": "2029-04-19", "area_ha": null, "tenure_type": "Single Cell Mining Claim", "source": "Ontario MLAS operational claims (OGSEarth / LIO MapServer). Unofficial viewing data, not legal title.", "as_of": "2026-09-20", "role": "focus", "color": "#e8b040"}}, {"type": "Feature", "geometry": {"type": "Polygon", "coordinates": [[[-92.55, 49.3708], [-92.55, 49.375], [-92.5563, 49.375], [-92.5563, 49.3708], [-92.55, 49.3708]]]}, "properties": {"company_id": "dynasty-gold", "jurisdiction": "Ontario", "claim_id": "342271", "claim_name": null, "holder": "(100) Dynasty Gold Corp.", "status": "Active", "recorded_date": "2018-04-10", "anniversary_or_expiry": "2029-04-19", "area_ha": null, "tenure_type": "Single Cell Mining Claim", "source": "Ontario MLAS operational claims (OGSEarth / LIO MapServer). Unofficial viewing data, not legal title.", "as_of": "2026-09-20", "role": "focus", "color": "#e8b040"}}]}