{"type": "FeatureCollection", "features": [{"type": "Feature", "geometry": {"type": "Polygon", "coordinates": [[[-77.8916666737548, 48.133333332543515], [-77.89166667151454, 48.13097109717611], [-77.89270730472539, 48.130970375620365], [-77.8926468670529, 48.133333366700725], [-77.8916666737548, 48.133333332543515]]]}, "properties": {"company_id": "dynacor-group", "jurisdiction": "Quebec", "claim_id": "", "claim_name": null, "holder": "Mines Dynacor inc.", "status": "Active", "recorded_date": null, "anniversary_or_expiry": null, "area_ha": null, "tenure_type": null, "source": "GESTIM active titles (MRNF digital data dump). Not legal title.", "as_of": "2026-09-20", "role": "focus", "color": "#e8b040"}}, {"type": "Feature", "geometry": {"type": "Polygon", "coordinates": [[[-77.8916666737548, 48.133333332543515], [-77.88333333109841, 48.133333335205386], [-77.8833333346376, 48.1309765219413], [-77.8873528141837, 48.13097398028289], [-77.89166667151454, 48.13097109717611], [-77.8916666737548, 48.133333332543515]]]}, "properties": {"company_id": "dynacor-group", "jurisdiction": "Quebec", "claim_id": "", "claim_name": null, "holder": "Mines Dynacor inc.", "status": "Active", "recorded_date": null, "anniversary_or_expiry": null, "area_ha": null, "tenure_type": null, "source": "GESTIM active titles (MRNF digital data dump). Not legal title.", "as_of": "2026-09-20", "role": "focus", "color": "#e8b040"}}, {"type": "Feature", "geometry": {"type": "Polygon", "coordinates": [[[-77.88333333109841, 48.133333335205386], [-77.88173938938769, 48.13333338534671], [-77.88182833562573, 48.1309774347154], [-77.8833333346376, 48.1309765219413], [-77.88333333109841, 48.133333335205386]]]}, "properties": {"company_id": "dynacor-group", "jurisdiction": "Quebec", "claim_id": "", "claim_name": null, "holder": "Mines Dynacor inc.", "status": "Active", "recorded_date": null, "anniversary_or_expiry": null, "area_ha": null, "tenure_type": null, "source": "GESTIM active titles (MRNF digital data dump). Not legal title.", "as_of": "2026-09-20", "role": "focus", "color": "#e8b040"}}, {"type": "Feature", "geometry": {"type": "Polygon", "coordinates": [[[-77.8916666737548, 48.133333332543515], [-77.8926468670529, 48.133333366700725], [-77.8926118699409, 48.13470157987228], [-77.89166667420763, 48.134705873680716], [-77.8916666737548, 48.133333332543515]]]}, "properties": {"company_id": "dynacor-group", "jurisdiction": "Quebec", "claim_id": "", "claim_name": null, "holder": "Mines Dynacor inc.", "status": "Active", "recorded_date": null, "anniversary_or_expiry": null, "area_ha": null, "tenure_type": null, "source": "GESTIM active titles (MRNF digital data dump). Not legal title.", "as_of": "2026-09-20", "role": "focus", "color": "#e8b040"}}, {"type": "Feature", "geometry": {"type": "Polygon", "coordinates": [[[-77.8916666737548, 48.133333332543515], [-77.89166667420763, 48.134705873680716], [-77.88716276935776, 48.13472621909602], [-77.88333333253597, 48.13474337786015], [-77.88333333109841, 48.133333335205386], [-77.8916666737548, 48.133333332543515]]]}, "properties": {"company_id": "dynacor-group", "jurisdiction": "Quebec", "claim_id": "", "claim_name": null, "holder": "Mines Dynacor inc.", "status": "Active", "recorded_date": null, "anniversary_or_expiry": null, "area_ha": null, "tenure_type": null, "source": "GESTIM active titles (MRNF digital data dump). Not legal title.", "as_of": "2026-09-20", "role": "focus", "color": "#e8b040"}}, {"type": "Feature", "geometry": {"type": "Polygon", "coordinates": [[[-77.88333333109841, 48.133333335205386], [-77.88333333253597, 48.13474337786015], [-77.88171393382041, 48.13475059271395], [-77.88171278821396, 48.13654451350633], [-77.87973896004254, 48.13654485135215], [-77.87969499787883, 48.13649410607937], [-77.87958559749998, 48.13642345995476], [-77.87951722937913, 48.13637931039497], [-77.87939512577874, 48.1363358062674], [-77.87927350398128, 48.13631027734583], [-77.87919314836523, 48.136320237421096], [-77.87911279271563, 48.13633019744072], [-77.87903147299323, 48.1363041887476], [-77.8789088879867, 48.1362426997609], [-77.87885418855787, 48.13620737632034], [-77.87878655094788, 48.136190202634445], [-77.87871938085881, 48.13619099560557], [-77.87858577218299, 48.13621959370498], [-77.87853228431118, 48.1362292307734], [-77.8784648670417, 48.13622104058308], [-77.87842409727979, 48.13620354416574], [-77.87838258472553, 48.13615907173361], [-77.87832765156614, 48.136114755695964], [-77.8781786813692, 48.13607156373034], [-77.87800357344791, 48.13605567930066], [-77.87784189920703, 48.13603962892708], [-77.87776153026515, 48.136049588334224], [-77.87769508985019, 48.13607736603615], [-77.8776154632312, 48.136114301355285], [-77.8775370195911, 48.13619618900471], [-77.87749912511092, 48.13628658967814], [-77.87748713539499, 48.136340699366116], [-77.87750274246103, 48.13642146311677], [-77.87751737367088, 48.136466267495116], [-77.87750490245004, 48.13650239283886], [-77.87746604475366, 48.1365568248123], [-77.87740031900087, 48.13661157904476], [-77.8773206913513, 48.13664851417739], [-77.87724033477025, 48.136658472903555], [-77.87682213425796, 48.13660798618166], [-77.8755905319496, 48.13401206100388], [-77.88171376387191, 48.13401209580567], [-77.88173938938769, 48.13333338534671], [-77.88333333109841, 48.133333335205386]]]}, "properties": {"company_id": "dynacor-group", "jurisdiction": "Quebec", "claim_id": "", "claim_name": null, "holder": "Mines Dynacor inc.", "status": "Active", "recorded_date": null, "anniversary_or_expiry": null, "area_ha": null, "tenure_type": null, "source": "GESTIM active titles (MRNF digital data dump). Not legal title.", "as_of": "2026-09-20", "role": "focus", "color": "#e8b040"}}]}