{"type": "FeatureCollection", "features": [{"type": "Feature", "geometry": {"type": "Polygon", "coordinates": [[[-116.2032, 49.9896], [-116.2032, 50.0063], [-116.2242, 50.0063], [-116.2243, 50.0011], [-116.2259, 49.9986], [-116.2232, 49.9986], [-116.2232, 49.9896], [-116.2032, 49.9896]]]}, "properties": {"company_id": "eagle-plains-resources", "jurisdiction": "British Columbia", "claim_id": 335996, "claim_name": "CORE 3", "holder": "EAGLE PLAINS RESOURCES LTD.", "status": "Mineral", "recorded_date": "8008416000", "anniversary_or_expiry": "2031-10-31", "area_ha": 400, "tenure_type": "Mineral", "source": "BC MTA Mineral, Placer and Coal Tenure Spatial View (BCGW). Open Government Licence - British Columbia. Not legal title.", "as_of": "2026-09-20", "role": "focus", "color": "#e8b040"}}, {"type": "Feature", "geometry": {"type": "Polygon", "coordinates": [[[-116.1892, 50.0], [-116.1892, 50.0063], [-116.2032, 50.0063], [-116.2032, 49.9896], [-116.1892, 49.9896], [-116.1892, 50.0]]]}, "properties": {"company_id": "eagle-plains-resources", "jurisdiction": "British Columbia", "claim_id": 335997, "claim_name": "CORE 4", "holder": "EAGLE PLAINS RESOURCES LTD.", "status": "Mineral", "recorded_date": "8008416000", "anniversary_or_expiry": "2031-10-31", "area_ha": 200, "tenure_type": "Mineral", "source": "BC MTA Mineral, Placer and Coal Tenure Spatial View (BCGW). Open Government Licence - British Columbia. Not legal title.", "as_of": "2026-09-20", "role": "focus", "color": "#e8b040"}}, {"type": "Feature", "geometry": {"type": "Polygon", "coordinates": [[[-116.2232, 49.9896], [-116.2232, 49.9986], [-116.2259, 49.9986], [-116.2271, 49.995], [-116.2317, 49.9937], [-116.2367, 49.99], [-116.2488, 49.9781], [-116.2498, 49.9761], [-116.2232, 49.9761], [-116.2232, 49.9896]]]}, "properties": {"company_id": "eagle-plains-resources", "jurisdiction": "British Columbia", "claim_id": 335998, "claim_name": "CORE 5", "holder": "EAGLE PLAINS RESOURCES LTD.", "status": "Mineral", "recorded_date": "8008416000", "anniversary_or_expiry": "2034-10-31", "area_ha": 500, "tenure_type": "Mineral", "source": "BC MTA Mineral, Placer and Coal Tenure Spatial View (BCGW). Open Government Licence - British Columbia. Not legal title.", "as_of": "2026-09-20", "role": "focus", "color": "#e8b040"}}, {"type": "Feature", "geometry": {"type": "Polygon", "coordinates": [[[-116.1883, 49.9768], [-116.1883, 49.9896], [-116.2232, 49.9896], [-116.2232, 49.9761], [-116.1883, 49.9761], [-116.1883, 49.9768]]]}, "properties": {"company_id": "eagle-plains-resources", "jurisdiction": "British Columbia", "claim_id": 335999, "claim_name": "CORE 6", "holder": "EAGLE PLAINS RESOURCES LTD.", "status": "Mineral", "recorded_date": "8008416000", "anniversary_or_expiry": "2031-10-31", "area_ha": 375, "tenure_type": "Mineral", "source": "BC MTA Mineral, Placer and Coal Tenure Spatial View (BCGW). Open Government Licence - British Columbia. Not legal title.", "as_of": "2026-09-20", "role": "focus", "color": "#e8b040"}}, {"type": "Feature", "geometry": {"type": "Polygon", "coordinates": [[[-116.2505, 49.9571], [-116.2232, 49.9571], [-116.2232, 49.9761], [-116.2498, 49.9761], [-116.2511, 49.9734], [-116.2511, 49.9706], [-116.2505, 49.9706], [-116.2505, 49.9571]]]}, "properties": {"company_id": "eagle-plains-resources", "jurisdiction": "British Columbia", "claim_id": 336000, "claim_name": "CORE 7", "holder": "EAGLE PLAINS RESOURCES LTD.", "status": "Mineral", "recorded_date": "8008416000", "anniversary_or_expiry": "2034-10-31", "area_ha": 500, "tenure_type": "Mineral", "source": "BC MTA Mineral, Placer and Coal Tenure Spatial View (BCGW). Open Government Licence - British Columbia. Not legal title.", "as_of": "2026-09-20", "role": "focus", "color": "#e8b040"}}, {"type": "Feature", "geometry": {"type": "Polygon", "coordinates": [[[-116.1953, 49.9633], [-116.1953, 49.9761], [-116.2232, 49.9761], [-116.2232, 49.9571], [-116.2226, 49.9571], [-116.2226, 49.9536], [-116.1953, 49.9536], [-116.1953, 49.9633]]]}, "properties": {"company_id": "eagle-plains-resources", "jurisdiction": "British Columbia", "claim_id": 336001, "claim_name": "CORE 8", "holder": "EAGLE PLAINS RESOURCES LTD.", "status": "Mineral", "recorded_date": "8008416000", "anniversary_or_expiry": "2031-10-16", "area_ha": 500, "tenure_type": "Mineral", "source": "BC MTA Mineral, Placer and Coal Tenure Spatial View (BCGW). Open Government Licence - British Columbia. Not legal title.", "as_of": "2026-09-20", "role": "focus", "color": "#e8b040"}}, {"type": "Feature", "geometry": {"type": "Polygon", "coordinates": [[[-116.2505, 49.9571], [-116.2505, 49.9706], [-116.2525, 49.9706], [-116.2566, 49.9644], [-116.2645, 49.9585], [-116.2645, 49.9571], [-116.2505, 49.9571]]]}, "properties": {"company_id": "eagle-plains-resources", "jurisdiction": "British Columbia", "claim_id": 336002, "claim_name": "CORE 9", "holder": "EAGLE PLAINS RESOURCES LTD.", "status": "Mineral", "recorded_date": "8008416000", "anniversary_or_expiry": "2034-10-31", "area_ha": 150, "tenure_type": "Mineral", "source": "BC MTA Mineral, Placer and Coal Tenure Spatial View (BCGW). Open Government Licence - British Columbia. Not legal title.", "as_of": "2026-09-20", "role": "focus", "color": "#e8b040"}}, {"type": "Feature", "geometry": {"type": "Polygon", "coordinates": [[[-116.2226, 49.9536], [-116.2226, 49.9571], [-116.2505, 49.9571], [-116.2505, 49.9391], [-116.2227, 49.9391], [-116.2226, 49.9536]]]}, "properties": {"company_id": "eagle-plains-resources", "jurisdiction": "British Columbia", "claim_id": 336004, "claim_name": "CORE 11", "holder": "EAGLE PLAINS RESOURCES LTD.", "status": "Mineral", "recorded_date": "8008416000", "anniversary_or_expiry": "2031-10-31", "area_ha": 400, "tenure_type": "Mineral", "source": "BC MTA Mineral, Placer and Coal Tenure Spatial View (BCGW). Open Government Licence - British Columbia. Not legal title.", "as_of": "2026-09-20", "role": "focus", "color": "#e8b040"}}, {"type": "Feature", "geometry": {"type": "Polygon", "coordinates": [[[-116.2432, 50.003], [-116.2432, 50.0039], [-116.2711, 50.0039], [-116.2711, 49.9814], [-116.2455, 49.9814], [-116.2432, 49.9837], [-116.2432, 50.003]]]}, "properties": {"company_id": "eagle-plains-resources", "jurisdiction": "British Columbia", "claim_id": 339858, "claim_name": "FIN 2", "holder": "EAGLE PLAINS RESOURCES LTD.", "status": "Mineral", "recorded_date": "8111232000", "anniversary_or_expiry": "2034-10-31", "area_ha": 500, "tenure_type": "Mineral", "source": "BC MTA Mineral, Placer and Coal Tenure Spatial View (BCGW). Open Government Licence - British Columbia. Not legal title.", "as_of": "2026-09-20", "role": "focus", "color": "#e8b040"}}, {"type": "Feature", "geometry": {"type": "Polygon", "coordinates": [[[-116.2303, 50.003], [-116.2293, 50.003], [-116.2293, 50.021], [-116.2641, 50.021], [-116.2641, 50.0039], [-116.2432, 50.0039], [-116.2432, 50.003], [-116.2303, 50.003]]]}, "properties": {"company_id": "eagle-plains-resources", "jurisdiction": "British Columbia", "claim_id": 339859, "claim_name": "FIN 3", "holder": "EAGLE PLAINS RESOURCES LTD.", "status": "Mineral", "recorded_date": "8111232000", "anniversary_or_expiry": "2033-10-31", "area_ha": 500, "tenure_type": "Mineral", "source": "BC MTA Mineral, Placer and Coal Tenure Spatial View (BCGW). Open Government Licence - British Columbia. Not legal title.", "as_of": "2026-09-20", "role": "focus", "color": "#e8b040"}}, {"type": "Feature", "geometry": {"type": "Polygon", "coordinates": [[[-116.2711, 49.9814], [-116.2711, 49.9859], [-116.2781, 49.9859], [-116.2781, 49.9814], [-116.2711, 49.9814]]]}, "properties": {"company_id": "eagle-plains-resources", "jurisdiction": "British Columbia", "claim_id": 339894, "claim_name": "FIN 9", "holder": "EAGLE PLAINS RESOURCES LTD.", "status": "Mineral", "recorded_date": "8109504000", "anniversary_or_expiry": "2034-10-14", "area_ha": 25, "tenure_type": "Mineral", "source": "BC MTA Mineral, Placer and Coal Tenure Spatial View (BCGW). Open Government Licence - British Columbia. Not legal title.", "as_of": "2026-09-20", "role": "focus", "color": "#e8b040"}}, {"type": "Feature", "geometry": {"type": "Polygon", "coordinates": [[[-116.2711, 49.9859], [-116.2711, 49.9904], [-116.2781, 49.9904], [-116.2781, 49.9859], [-116.2711, 49.9859]]]}, "properties": {"company_id": "eagle-plains-resources", "jurisdiction": "British Columbia", "claim_id": 339895, "claim_name": "FIN 10", "holder": "EAGLE PLAINS RESOURCES LTD.", "status": "Mineral", "recorded_date": "8109504000", "anniversary_or_expiry": "2034-10-14", "area_ha": 25, "tenure_type": "Mineral", "source": "BC MTA Mineral, Placer and Coal Tenure Spatial View (BCGW). Open Government Licence - British Columbia. Not legal title.", "as_of": "2026-09-20", "role": "focus", "color": "#e8b040"}}, {"type": "Feature", "geometry": {"type": "Polygon", "coordinates": [[[-116.2711, 49.9904], [-116.2711, 49.9949], [-116.2781, 49.9949], [-116.2781, 49.9904], [-116.2711, 49.9904]]]}, "properties": {"company_id": "eagle-plains-resources", "jurisdiction": "British Columbia", "claim_id": 339896, "claim_name": "FIN 11", "holder": "EAGLE PLAINS RESOURCES LTD.", "status": "Mineral", "recorded_date": "8111232000", "anniversary_or_expiry": "2034-10-31", "area_ha": 25, "tenure_type": "Mineral", "source": "BC MTA Mineral, Placer and Coal Tenure Spatial View (BCGW). Open Government Licence - British Columbia. Not legal title.", "as_of": "2026-09-20", "role": "focus", "color": "#e8b040"}}, {"type": "Feature", "geometry": {"type": "Polygon", "coordinates": [[[-116.2711, 49.9949], [-116.2711, 49.9994], [-116.2781, 49.9994], [-116.2781, 49.9949], [-116.2711, 49.9949]]]}, "properties": {"company_id": "eagle-plains-resources", "jurisdiction": "British Columbia", "claim_id": 339897, "claim_name": "FIN 12", "holder": "EAGLE PLAINS RESOURCES LTD.", "status": "Mineral", "recorded_date": "8111232000", "anniversary_or_expiry": "2034-10-31", "area_ha": 25, "tenure_type": "Mineral", "source": "BC MTA Mineral, Placer and Coal Tenure Spatial View (BCGW). Open Government Licence - British Columbia. Not legal title.", "as_of": "2026-09-20", "role": "focus", "color": "#e8b040"}}, {"type": "Feature", "geometry": {"type": "Polygon", "coordinates": [[[-116.2711, 50.0], [-116.2711, 50.0039], [-116.2781, 50.0039], [-116.2781, 49.9994], [-116.2711, 49.9994], [-116.2711, 50.0]]]}, "properties": {"company_id": "eagle-plains-resources", "jurisdiction": "British Columbia", "claim_id": 339898, "claim_name": "FIN 13", "holder": "EAGLE PLAINS RESOURCES LTD.", "status": "Mineral", "recorded_date": "8111232000", "anniversary_or_expiry": "2034-10-31", "area_ha": 25, "tenure_type": "Mineral", "source": "BC MTA Mineral, Placer and Coal Tenure Spatial View (BCGW). Open Government Licence - British Columbia. Not legal title.", "as_of": "2026-09-20", "role": "focus", "color": "#e8b040"}}, {"type": "Feature", "geometry": {"type": "MultiPolygon", "coordinates": [[[[-116.2711, 50.0039], [-116.2641, 50.0039], [-116.2641, 50.0075], [-116.2711, 50.0075], [-116.2711, 50.0039]]], [[[-116.2711, 50.0039], [-116.2711, 50.003], [-116.2711, 50.003], [-116.2711, 50.0039]]]]}, "properties": {"company_id": "eagle-plains-resources", "jurisdiction": "British Columbia", "claim_id": 339899, "claim_name": "FIN 14", "holder": "EAGLE PLAINS RESOURCES LTD.", "status": "Mineral", "recorded_date": "8111232000", "anniversary_or_expiry": "2034-10-31", "area_ha": 25, "tenure_type": "Mineral", "source": "BC MTA Mineral, Placer and Coal Tenure Spatial View (BCGW). Open Government Licence - British Columbia. Not legal title.", "as_of": "2026-09-20", "role": "focus", "color": "#e8b040"}}, {"type": "Feature", "geometry": {"type": "Polygon", "coordinates": [[[-116.2641, 50.0075], [-116.2641, 50.012], [-116.2711, 50.012], [-116.2711, 50.0075], [-116.2641, 50.0075]]]}, "properties": {"company_id": "eagle-plains-resources", "jurisdiction": "British Columbia", "claim_id": 339900, "claim_name": "FIN 15", "holder": "EAGLE PLAINS RESOURCES LTD.", "status": "Mineral", "recorded_date": "8111232000", "anniversary_or_expiry": "2034-10-31", "area_ha": 25, "tenure_type": "Mineral", "source": "BC MTA Mineral, Placer and Coal Tenure Spatial View (BCGW). Open Government Licence - British Columbia. Not legal title.", "as_of": "2026-09-20", "role": "focus", "color": "#e8b040"}}, {"type": "Feature", "geometry": {"type": "Polygon", "coordinates": [[[-116.2641, 50.0165], [-116.2711, 50.0165], [-116.2711, 50.012], [-116.2641, 50.012], [-116.2641, 50.0165]]]}, "properties": {"company_id": "eagle-plains-resources", "jurisdiction": "British Columbia", "claim_id": 339901, "claim_name": "FIN 16", "holder": "EAGLE PLAINS RESOURCES LTD.", "status": "Mineral", "recorded_date": "8111232000", "anniversary_or_expiry": "2034-10-31", "area_ha": 25, "tenure_type": "Mineral", "source": "BC MTA Mineral, Placer and Coal Tenure Spatial View (BCGW). Open Government Licence - British Columbia. Not legal title.", "as_of": "2026-09-20", "role": "focus", "color": "#e8b040"}}, {"type": "Feature", "geometry": {"type": "Polygon", "coordinates": [[[-116.2641, 50.021], [-116.2711, 50.021], [-116.2711, 50.0165], [-116.2641, 50.0165], [-116.2641, 50.021]]]}, "properties": {"company_id": "eagle-plains-resources", "jurisdiction": "British Columbia", "claim_id": 339902, "claim_name": "FIN 17", "holder": "EAGLE PLAINS RESOURCES LTD.", "status": "Mineral", "recorded_date": "8111232000", "anniversary_or_expiry": "2034-10-31", "area_ha": 25, "tenure_type": "Mineral", "source": "BC MTA Mineral, Placer and Coal Tenure Spatial View (BCGW). Open Government Licence - British Columbia. Not legal title.", "as_of": "2026-09-20", "role": "focus", "color": "#e8b040"}}, {"type": "Feature", "geometry": {"type": "Polygon", "coordinates": [[[-116.2, 50.0984], [-116.1801, 50.0984], [-116.1801, 50.1164], [-116.189, 50.1141], [-116.1954, 50.1139], [-116.1988, 50.1128], [-116.201, 50.1097], [-116.2008, 50.1064], [-116.1982, 50.1028], [-116.201, 50.1002], [-116.201, 50.0984], [-116.2, 50.0984]]]}, "properties": {"company_id": "eagle-plains-resources", "jurisdiction": "British Columbia", "claim_id": 351384, "claim_name": "DOC 21", "holder": "EAGLE PLAINS RESOURCES LTD.", "status": "Mineral", "recorded_date": "8443008000", "anniversary_or_expiry": "2032-10-31", "area_ha": 300, "tenure_type": "Mineral", "source": "BC MTA Mineral, Placer and Coal Tenure Spatial View (BCGW). Open Government Licence - British Columbia. Not legal title.", "as_of": "2026-09-20", "role": "focus", "color": "#e8b040"}}, {"type": "Feature", "geometry": {"type": "Polygon", "coordinates": [[[-116.1731, 50.0984], [-116.1521, 50.0984], [-116.1521, 50.1164], [-116.1801, 50.1164], [-116.1801, 50.0984], [-116.1731, 50.0984]]]}, "properties": {"company_id": "eagle-plains-resources", "jurisdiction": "British Columbia", "claim_id": 351385, "claim_name": "DOC 22", "holder": "EAGLE PLAINS RESOURCES LTD.", "status": "Mineral", "recorded_date": "8443008000", "anniversary_or_expiry": "2032-10-31", "area_ha": 400, "tenure_type": "Mineral", "source": "BC MTA Mineral, Placer and Coal Tenure Spatial View (BCGW). Open Government Licence - British Columbia. Not legal title.", "as_of": "2026-09-20", "role": "focus", "color": "#e8b040"}}, {"type": "Feature", "geometry": {"type": "Polygon", "coordinates": [[[-116.1699, 50.0076], [-116.1761, 50.0076], [-116.1759, 50.0083], [-116.1822, 50.0079], [-116.1822, 50.0063], [-116.1892, 50.0063], [-116.1892, 50.0], [-116.1699, 50.0], [-116.1699, 50.0076]]]}, "properties": {"company_id": "eagle-plains-resources", "jurisdiction": "British Columbia", "claim_id": 363735, "claim_name": "OCT 1", "holder": "EAGLE PLAINS RESOURCES LTD.", "status": "Mineral", "recorded_date": "8995968000", "anniversary_or_expiry": "2031-10-31", "area_ha": 150, "tenure_type": "Mineral", "source": "BC MTA Mineral, Placer and Coal Tenure Spatial View (BCGW). Open Government Licence - British Columbia. Not legal title.", "as_of": "2026-09-20", "role": "focus", "color": "#e8b040"}}, {"type": "Feature", "geometry": {"type": "Polygon", "coordinates": [[[-116.1585, 50.0], [-116.156, 50.0], [-116.156, 50.0134], [-116.1691, 50.0134], [-116.1691, 50.0076], [-116.1699, 50.0076], [-116.1699, 50.0], [-116.1585, 50.0]]]}, "properties": {"company_id": "eagle-plains-resources", "jurisdiction": "British Columbia", "claim_id": 363736, "claim_name": "OCT 2", "holder": "EAGLE PLAINS RESOURCES LTD.", "status": "Mineral", "recorded_date": "8995968000", "anniversary_or_expiry": "2029-10-31", "area_ha": 150, "tenure_type": "Mineral", "source": "BC MTA Mineral, Placer and Coal Tenure Spatial View (BCGW). Open Government Licence - British Columbia. Not legal title.", "as_of": "2026-09-20", "role": "focus", "color": "#e8b040"}}, {"type": "Feature", "geometry": {"type": "Polygon", "coordinates": [[[-119.8195, 51.1006], [-119.7926, 51.1005], [-119.7926, 51.114], [-119.8069, 51.114], [-119.8069, 51.1185], [-119.8019, 51.1185], [-119.8019, 51.1205], [-119.8091, 51.1205], [-119.8091, 51.123], [-119.8195, 51.123], [-119.8195, 51.115], [-119.8178, 51.1145], [-119.8195, 51.1124], [-119.8195, 51.1097], [-119.8155, 51.1079], [-119.8195, 51.1043], [-119.8195, 51.1006]]]}, "properties": {"company_id": "eagle-plains-resources", "jurisdiction": "British Columbia", "claim_id": 376984, "claim_name": "AC", "holder": "EAGLE PLAINS RESOURCES LTD.", "status": "Mineral", "recorded_date": "9580896000", "anniversary_or_expiry": "2020-10-08", "area_ha": 500, "tenure_type": "Mineral", "source": "BC MTA Mineral, Placer and Coal Tenure Spatial View (BCGW). Open Government Licence - British Columbia. Not legal title.", "as_of": "2026-09-20", "role": "focus", "color": "#e8b040"}}, {"type": "Feature", "geometry": {"type": "Polygon", "coordinates": [[[-119.7641, 51.107], [-119.7641, 51.1295], [-119.7927, 51.1295], [-119.7926, 51.107], [-119.7641, 51.107]]]}, "properties": {"company_id": "eagle-plains-resources", "jurisdiction": "British Columbia", "claim_id": 376028, "claim_name": "AC", "holder": "EAGLE PLAINS RESOURCES LTD.", "status": "Mineral", "recorded_date": "9561024000", "anniversary_or_expiry": "2020-10-08", "area_ha": 500, "tenure_type": "Mineral", "source": "BC MTA Mineral, Placer and Coal Tenure Spatial View (BCGW). Open Government Licence - British Columbia. Not legal title.", "as_of": "2026-09-20", "role": "focus", "color": "#e8b040"}}, {"type": "Feature", "geometry": {"type": "Polygon", "coordinates": [[[-116.2935, 50.0], [-116.2935, 50.0097], [-116.3144, 50.0097], [-116.3142, 50.0064], [-116.3096, 50.0007], [-116.3078, 50.0002], [-116.3078, 49.9969], [-116.3056, 49.992], [-116.3004, 49.9881], [-116.2978, 49.9851], [-116.2935, 49.9827], [-116.2935, 50.0]]]}, "properties": {"company_id": "eagle-plains-resources", "jurisdiction": "British Columbia", "claim_id": 392483, "claim_name": "MIDFIN 1", "holder": "EAGLE PLAINS RESOURCES LTD.", "status": "Mineral", "recorded_date": "2002-03-23", "anniversary_or_expiry": "2034-10-31", "area_ha": 450, "tenure_type": "Mineral", "source": "BC MTA Mineral, Placer and Coal Tenure Spatial View (BCGW). Open Government Licence - British Columbia. Not legal title.", "as_of": "2026-09-20", "role": "focus", "color": "#e8b040"}}, {"type": "Feature", "geometry": {"type": "Polygon", "coordinates": [[[-116.2726, 50.0039], [-116.2726, 50.0097], [-116.2935, 50.0097], [-116.2935, 49.9827], [-116.2781, 49.9827], [-116.2781, 50.0039], [-116.2726, 50.0039]]]}, "properties": {"company_id": "eagle-plains-resources", "jurisdiction": "British Columbia", "claim_id": 392484, "claim_name": "MIDFIN 2", "holder": "EAGLE PLAINS RESOURCES LTD.", "status": "Mineral", "recorded_date": "2002-03-23", "anniversary_or_expiry": "2034-10-31", "area_ha": 450, "tenure_type": "Mineral", "source": "BC MTA Mineral, Placer and Coal Tenure Spatial View (BCGW). Open Government Licence - British Columbia. Not legal title.", "as_of": "2026-09-20", "role": "focus", "color": "#e8b040"}}, {"type": "Feature", "geometry": {"type": "Polygon", "coordinates": [[[-116.2781, 49.9814], [-116.2781, 49.9827], [-116.2935, 49.9827], [-116.2907, 49.9808], [-116.2924, 49.9779], [-116.2889, 49.9758], [-116.288, 49.974], [-116.2859, 49.9727], [-116.286, 49.9689], [-116.2854, 49.9676], [-116.2876, 49.9654], [-116.2835, 49.9633], [-116.2817, 49.9614], [-116.2801, 49.9612], [-116.2782, 49.9602], [-116.2781, 49.9814]]]}, "properties": {"company_id": "eagle-plains-resources", "jurisdiction": "British Columbia", "claim_id": 392485, "claim_name": "MIDFIN 3", "holder": "EAGLE PLAINS RESOURCES LTD.", "status": "Mineral", "recorded_date": "2002-03-23", "anniversary_or_expiry": "2034-10-31", "area_ha": 375, "tenure_type": "Mineral", "source": "BC MTA Mineral, Placer and Coal Tenure Spatial View (BCGW). Open Government Licence - British Columbia. Not legal title.", "as_of": "2026-09-20", "role": "focus", "color": "#e8b040"}}, {"type": "Feature", "geometry": {"type": "Polygon", "coordinates": [[[-116.3225, 49.8], [-116.3225, 49.8268], [-116.3338, 49.8268], [-116.3355, 49.8228], [-116.3397, 49.8194], [-116.3395, 49.8166], [-116.3433, 49.8123], [-116.3433, 49.7998], [-116.3225, 49.8]]]}, "properties": {"company_id": "eagle-plains-resources", "jurisdiction": "British Columbia", "claim_id": 398960, "claim_name": "JURAK 1", "holder": "EAGLE PLAINS RESOURCES LTD.", "status": "Mineral", "recorded_date": "2002-12-16", "anniversary_or_expiry": "2034-10-31", "area_ha": 450, "tenure_type": "Mineral", "source": "BC MTA Mineral, Placer and Coal Tenure Spatial View (BCGW). Open Government Licence - British Columbia. Not legal title.", "as_of": "2026-09-20", "role": "focus", "color": "#e8b040"}}, {"type": "Feature", "geometry": {"type": "Polygon", "coordinates": [[[-116.1691, 50.0134], [-116.1691, 50.0141], [-116.1892, 50.0142], [-116.1884, 50.011], [-116.185, 50.011], [-116.1841, 50.0078], [-116.1759, 50.0083], [-116.1761, 50.0076], [-116.1691, 50.0076], [-116.1691, 50.0134]]]}, "properties": {"company_id": "eagle-plains-resources", "jurisdiction": "British Columbia", "claim_id": 405301, "claim_name": "ECHO 1", "holder": "EAGLE PLAINS RESOURCES LTD.", "status": "Mineral", "recorded_date": "2003-09-24", "anniversary_or_expiry": "2031-10-31", "area_ha": 200, "tenure_type": "Mineral", "source": "BC MTA Mineral, Placer and Coal Tenure Spatial View (BCGW). Open Government Licence - British Columbia. Not legal title.", "as_of": "2026-09-20", "role": "focus", "color": "#e8b040"}}, {"type": "Feature", "geometry": {"type": "Polygon", "coordinates": [[[-116.3225, 49.7998], [-116.3155, 49.7998], [-116.3155, 49.8268], [-116.3225, 49.8268], [-116.3225, 49.7998]]]}, "properties": {"company_id": "eagle-plains-resources", "jurisdiction": "British Columbia", "claim_id": 406826, "claim_name": "VC", "holder": "EAGLE PLAINS RESOURCES LTD.", "status": "Mineral", "recorded_date": "2003-11-21", "anniversary_or_expiry": "2034-10-31", "area_ha": 150, "tenure_type": "Mineral", "source": "BC MTA Mineral, Placer and Coal Tenure Spatial View (BCGW). Open Government Licence - British Columbia. Not legal title.", "as_of": "2026-09-20", "role": "focus", "color": "#e8b040"}}, {"type": "Feature", "geometry": {"type": "Polygon", "coordinates": [[[-116.3339, 49.7953], [-116.3225, 49.7953], [-116.3225, 49.7998], [-116.3339, 49.7998], [-116.3339, 49.7953]]]}, "properties": {"company_id": "eagle-plains-resources", "jurisdiction": "British Columbia", "claim_id": 406827, "claim_name": "VC", "holder": "EAGLE PLAINS RESOURCES LTD.", "status": "Mineral", "recorded_date": "2003-11-21", "anniversary_or_expiry": "2034-10-31", "area_ha": 50, "tenure_type": "Mineral", "source": "BC MTA Mineral, Placer and Coal Tenure Spatial View (BCGW). Open Government Licence - British Columbia. Not legal title.", "as_of": "2026-09-20", "role": "focus", "color": "#e8b040"}}, {"type": "Feature", "geometry": {"type": "Polygon", "coordinates": [[[-116.3155, 49.8072], [-116.3157, 49.7937], [-116.2741, 49.7937], [-116.274, 49.8072], [-116.3155, 49.8072]]]}, "properties": {"company_id": "eagle-plains-resources", "jurisdiction": "British Columbia", "claim_id": 408455, "claim_name": "VC", "holder": "EAGLE PLAINS RESOURCES LTD.", "status": "Mineral", "recorded_date": "2004-03-03", "anniversary_or_expiry": "2034-10-31", "area_ha": 450, "tenure_type": "Mineral", "source": "BC MTA Mineral, Placer and Coal Tenure Spatial View (BCGW). Open Government Licence - British Columbia. Not legal title.", "as_of": "2026-09-20", "role": "focus", "color": "#e8b040"}}, {"type": "Feature", "geometry": {"type": "Polygon", "coordinates": [[[-116.4386, 49.7916], [-116.4386, 49.7541], [-116.4261, 49.7541], [-116.4261, 49.7958], [-116.4386, 49.7958], [-116.4386, 49.7916]]]}, "properties": {"company_id": "eagle-plains-resources", "jurisdiction": "British Columbia", "claim_id": 504359, "claim_name": "K9-3", "holder": "EAGLE PLAINS RESOURCES LTD.", "status": "Mineral", "recorded_date": "2005-01-20", "anniversary_or_expiry": "2034-10-31", "area_ha": 417.29200000000003, "tenure_type": "Mineral", "source": "BC MTA Mineral, Placer and Coal Tenure Spatial View (BCGW). Open Government Licence - British Columbia. Not legal title.", "as_of": "2026-09-20", "role": "focus", "color": "#e8b040"}}, {"type": "Feature", "geometry": {"type": "Polygon", "coordinates": [[[-116.3948, 51.1458], [-116.3948, 51.1417], [-116.3635, 51.1417], [-116.3636, 51.15], [-116.3948, 51.15], [-116.3948, 51.1458]]]}, "properties": {"company_id": "eagle-plains-resources", "jurisdiction": "British Columbia", "claim_id": 504463, "claim_name": "IV", "holder": "EAGLE PLAINS RESOURCES LTD.", "status": "Mineral", "recorded_date": "2005-01-21", "anniversary_or_expiry": "2026-10-15", "area_ha": 202.744, "tenure_type": "Mineral", "source": "BC MTA Mineral, Placer and Coal Tenure Spatial View (BCGW). Open Government Licence - British Columbia. Not legal title.", "as_of": "2026-09-20", "role": "focus", "color": "#e8b040"}}, {"type": "Feature", "geometry": {"type": "Polygon", "coordinates": [[[-116.3823, 51.1958], [-116.3886, 51.1958], [-116.3886, 51.1917], [-116.3698, 51.1917], [-116.3698, 51.1958], [-116.3823, 51.1958]]]}, "properties": {"company_id": "eagle-plains-resources", "jurisdiction": "British Columbia", "claim_id": 504464, "claim_name": "IRC 6", "holder": "EAGLE PLAINS RESOURCES LTD.", "status": "Mineral", "recorded_date": "2005-01-21", "anniversary_or_expiry": "2026-10-15", "area_ha": 60.763000000000005, "tenure_type": "Mineral", "source": "BC MTA Mineral, Placer and Coal Tenure Spatial View (BCGW). Open Government Licence - British Columbia. Not legal title.", "as_of": "2026-09-20", "role": "focus", "color": "#e8b040"}}, {"type": "Feature", "geometry": {"type": "Polygon", "coordinates": [[[-116.4573, 49.1625], [-116.4573, 49.1458], [-116.4261, 49.1458], [-116.4261, 49.1666], [-116.4573, 49.1666], [-116.4573, 49.1625]]]}, "properties": {"company_id": "eagle-plains-resources", "jurisdiction": "British Columbia", "claim_id": 504506, "claim_name": "Iron Range", "holder": "EAGLE PLAINS RESOURCES LTD.", "status": "Mineral", "recorded_date": "2005-01-21", "anniversary_or_expiry": "2028-07-30", "area_ha": 528.114, "tenure_type": "Mineral", "source": "BC MTA Mineral, Placer and Coal Tenure Spatial View (BCGW). Open Government Licence - British Columbia. Not legal title.", "as_of": "2026-09-20", "role": "focus", "color": "#e8b040"}}, {"type": "Feature", "geometry": {"type": "Polygon", "coordinates": [[[-116.4636, 49.7916], [-116.4636, 49.7708], [-116.4386, 49.7708], [-116.4386, 49.7958], [-116.4636, 49.7958], [-116.4636, 49.7916]]]}, "properties": {"company_id": "eagle-plains-resources", "jurisdiction": "British Columbia", "claim_id": 511209, "claim_name": null, "holder": "EAGLE PLAINS RESOURCES LTD.", "status": "Mineral", "recorded_date": "2005-04-20", "anniversary_or_expiry": "2034-10-31", "area_ha": 500.665, "tenure_type": "Mineral", "source": "BC MTA Mineral, Placer and Coal Tenure Spatial View (BCGW). Open Government Licence - British Columbia. Not legal title.", "as_of": "2026-09-20", "role": "focus", "color": "#e8b040"}}, {"type": "Feature", "geometry": {"type": "Polygon", "coordinates": [[[-116.4636, 49.7666], [-116.4636, 49.75], [-116.4386, 49.75], [-116.4386, 49.7708], [-116.4636, 49.7708], [-116.4636, 49.7666]]]}, "properties": {"company_id": "eagle-plains-resources", "jurisdiction": "British Columbia", "claim_id": 511216, "claim_name": null, "holder": "EAGLE PLAINS RESOURCES LTD.", "status": "Mineral", "recorded_date": "2005-04-20", "anniversary_or_expiry": "2034-10-31", "area_ha": 417.416, "tenure_type": "Mineral", "source": "BC MTA Mineral, Placer and Coal Tenure Spatial View (BCGW). Open Government Licence - British Columbia. Not legal title.", "as_of": "2026-09-20", "role": "focus", "color": "#e8b040"}}, {"type": "Feature", "geometry": {"type": "Polygon", "coordinates": [[[-116.4261, 49.1458], [-116.4323, 49.1458], [-116.4323, 49.1416], [-116.4261, 49.1416], [-116.4261, 49.1375], [-116.3948, 49.1375], [-116.3948, 49.1416], [-116.4011, 49.1416], [-116.4011, 49.1458], [-116.4261, 49.1458]]]}, "properties": {"company_id": "eagle-plains-resources", "jurisdiction": "British Columbia", "claim_id": 511992, "claim_name": "IR5", "holder": "EAGLE PLAINS RESOURCES LTD.", "status": "Mineral", "recorded_date": "2005-05-03", "anniversary_or_expiry": "2028-07-30", "area_ha": 211.322, "tenure_type": "Mineral", "source": "BC MTA Mineral, Placer and Coal Tenure Spatial View (BCGW). Open Government Licence - British Columbia. Not legal title.", "as_of": "2026-09-20", "role": "focus", "color": "#e8b040"}}, {"type": "Feature", "geometry": {"type": "Polygon", "coordinates": [[[-116.3761, 49.1625], [-116.3823, 49.1625], [-116.3823, 49.1583], [-116.3573, 49.1583], [-116.3573, 49.1541], [-116.3386, 49.1541], [-116.3386, 49.1708], [-116.3636, 49.1708], [-116.3636, 49.1625], [-116.3761, 49.1625]]]}, "properties": {"company_id": "eagle-plains-resources", "jurisdiction": "British Columbia", "claim_id": 512004, "claim_name": "IR7", "holder": "EAGLE PLAINS RESOURCES LTD.", "status": "Mineral", "recorded_date": "2005-05-03", "anniversary_or_expiry": "2027-07-30", "area_ha": 380.23900000000003, "tenure_type": "Mineral", "source": "BC MTA Mineral, Placer and Coal Tenure Spatial View (BCGW). Open Government Licence - British Columbia. Not legal title.", "as_of": "2026-09-20", "role": "focus", "color": "#e8b040"}}, {"type": "Feature", "geometry": {"type": "Polygon", "coordinates": [[[-116.4636, 49.7458], [-116.4636, 49.7416], [-116.4511, 49.7416], [-116.4511, 49.75], [-116.4636, 49.75], [-116.4636, 49.7458]]]}, "properties": {"company_id": "eagle-plains-resources", "jurisdiction": "British Columbia", "claim_id": 515831, "claim_name": "K9-B", "holder": "EAGLE PLAINS RESOURCES LTD.", "status": "Mineral", "recorded_date": "2005-07-02", "anniversary_or_expiry": "2034-10-31", "area_ha": 83.50800000000001, "tenure_type": "Mineral", "source": "BC MTA Mineral, Placer and Coal Tenure Spatial View (BCGW). Open Government Licence - British Columbia. Not legal title.", "as_of": "2026-09-20", "role": "focus", "color": "#e8b040"}}, {"type": "Feature", "geometry": {"type": "Polygon", "coordinates": [[[-120.2638, 51.6541], [-120.2638, 51.6458], [-120.2513, 51.6458], [-120.2513, 51.6583], [-120.2638, 51.6583], [-120.2638, 51.6541]]]}, "properties": {"company_id": "eagle-plains-resources", "jurisdiction": "British Columbia", "claim_id": 521756, "claim_name": "MELI", "holder": "EAGLE PLAINS RESOURCES LTD.", "status": "Mineral", "recorded_date": "2005-11-01", "anniversary_or_expiry": "2026-05-12", "area_ha": 120.325, "tenure_type": "Mineral", "source": "BC MTA Mineral, Placer and Coal Tenure Spatial View (BCGW). Open Government Licence - British Columbia. Not legal title.", "as_of": "2026-09-20", "role": "focus", "color": "#e8b040"}}, {"type": "Feature", "geometry": {"type": "Polygon", "coordinates": [[[-120.2075, 51.6458], [-120.2075, 51.6249], [-120.1825, 51.6249], [-120.1825, 51.6499], [-120.2075, 51.6499], [-120.2075, 51.6458]]]}, "properties": {"company_id": "eagle-plains-resources", "jurisdiction": "British Columbia", "claim_id": 521796, "claim_name": "JAKE 5", "holder": "EAGLE PLAINS RESOURCES LTD.", "status": "Mineral", "recorded_date": "2005-11-02", "anniversary_or_expiry": "2026-05-12", "area_ha": 481.44800000000004, "tenure_type": "Mineral", "source": "BC MTA Mineral, Placer and Coal Tenure Spatial View (BCGW). Open Government Licence - British Columbia. Not legal title.", "as_of": "2026-09-20", "role": "focus", "color": "#e8b040"}}, {"type": "Feature", "geometry": {"type": "Polygon", "coordinates": [[[-130.1517, 59.9914], [-130.1517, 59.9873], [-130.1017, 59.9873], [-130.1017, 59.9998], [-130.1517, 59.9998], [-130.1517, 59.9914]]]}, "properties": {"company_id": "eagle-plains-resources", "jurisdiction": "British Columbia", "claim_id": 513792, "claim_name": "TOOTZ1", "holder": "AGNICO EAGLE MINES LIMITED/MINES AGNICO EAGLE LIMITEE", "status": "Mineral", "recorded_date": "2005-06-02", "anniversary_or_expiry": "2025-01-22", "area_ha": 388.618, "tenure_type": "Mineral", "source": "BC MTA Mineral, Placer and Coal Tenure Spatial View (BCGW). Open Government Licence - British Columbia. Not legal title.", "as_of": "2026-09-20", "role": "focus", "color": "#e8b040"}}, {"type": "Feature", "geometry": {"type": "Polygon", "coordinates": [[[-130.1017, 59.9914], [-130.1017, 59.9873], [-130.0517, 59.9873], [-130.0517, 59.9998], [-130.1017, 59.9998], [-130.1017, 59.9914]]]}, "properties": {"company_id": "eagle-plains-resources", "jurisdiction": "British Columbia", "claim_id": 513793, "claim_name": "TOOTZ2", "holder": "AGNICO EAGLE MINES LIMITED/MINES AGNICO EAGLE LIMITEE", "status": "Mineral", "recorded_date": "2005-06-02", "anniversary_or_expiry": "2025-01-22", "area_ha": 388.61400000000003, "tenure_type": "Mineral", "source": "BC MTA Mineral, Placer and Coal Tenure Spatial View (BCGW). Open Government Licence - British Columbia. Not legal title.", "as_of": "2026-09-20", "role": "focus", "color": "#e8b040"}}, {"type": "Feature", "geometry": {"type": "Polygon", "coordinates": [[[-116.3698, 51.1917], [-116.3698, 51.1708], [-116.3636, 51.1708], [-116.3635, 51.1417], [-116.351, 51.1417], [-116.351, 51.1625], [-116.3573, 51.1625], [-116.3573, 51.175], [-116.3636, 51.175], [-116.3636, 51.1958], [-116.3698, 51.1958], [-116.3698, 51.1917]]]}, "properties": {"company_id": "eagle-plains-resources", "jurisdiction": "British Columbia", "claim_id": 516018, "claim_name": "IRC EAST", "holder": "EAGLE PLAINS RESOURCES LTD.", "status": "Mineral", "recorded_date": "2005-07-05", "anniversary_or_expiry": "2027-10-15", "area_ha": 385.065, "tenure_type": "Mineral", "source": "BC MTA Mineral, Placer and Coal Tenure Spatial View (BCGW). Open Government Licence - British Columbia. Not legal title.", "as_of": "2026-09-20", "role": "focus", "color": "#e8b040"}}, {"type": "Feature", "geometry": {"type": "Polygon", "coordinates": [[[-120.2263, 51.6291], [-120.2263, 51.6208], [-120.2013, 51.6208], [-120.2013, 51.6249], [-120.2075, 51.6249], [-120.2075, 51.6333], [-120.2263, 51.6333], [-120.2263, 51.6291]]]}, "properties": {"company_id": "eagle-plains-resources", "jurisdiction": "British Columbia", "claim_id": 519684, "claim_name": null, "holder": "EAGLE PLAINS RESOURCES LTD.", "status": "Mineral", "recorded_date": "2005-09-04", "anniversary_or_expiry": "2026-05-12", "area_ha": 200.651, "tenure_type": "Mineral", "source": "BC MTA Mineral, Placer and Coal Tenure Spatial View (BCGW). Open Government Licence - British Columbia. Not legal title.", "as_of": "2026-09-20", "role": "focus", "color": "#e8b040"}}, {"type": "Feature", "geometry": {"type": "Polygon", "coordinates": [[[-116.4011, 51.1667], [-116.4011, 51.1542], [-116.3948, 51.1542], [-116.3948, 51.15], [-116.3823, 51.15], [-116.3823, 51.1708], [-116.4011, 51.1708], [-116.4011, 51.1667]]]}, "properties": {"company_id": "eagle-plains-resources", "jurisdiction": "British Columbia", "claim_id": 516233, "claim_name": "IV", "holder": "EAGLE PLAINS RESOURCES LTD.", "status": "Mineral", "recorded_date": "2005-07-07", "anniversary_or_expiry": "2026-10-15", "area_ha": 283.752, "tenure_type": "Mineral", "source": "BC MTA Mineral, Placer and Coal Tenure Spatial View (BCGW). Open Government Licence - British Columbia. Not legal title.", "as_of": "2026-09-20", "role": "focus", "color": "#e8b040"}}, {"type": "Feature", "geometry": {"type": "Polygon", "coordinates": [[[-116.3823, 51.1667], [-116.3823, 51.15], [-116.3636, 51.15], [-116.3636, 51.1708], [-116.3823, 51.1708], [-116.3823, 51.1667]]]}, "properties": {"company_id": "eagle-plains-resources", "jurisdiction": "British Columbia", "claim_id": 516355, "claim_name": "IV", "holder": "EAGLE PLAINS RESOURCES LTD.", "status": "Mineral", "recorded_date": "2005-07-08", "anniversary_or_expiry": "2026-10-15", "area_ha": 304.024, "tenure_type": "Mineral", "source": "BC MTA Mineral, Placer and Coal Tenure Spatial View (BCGW). Open Government Licence - British Columbia. Not legal title.", "as_of": "2026-09-20", "role": "focus", "color": "#e8b040"}}, {"type": "Feature", "geometry": {"type": "Polygon", "coordinates": [[[-116.3823, 51.1875], [-116.3823, 51.1708], [-116.3698, 51.1708], [-116.3698, 51.1917], [-116.3823, 51.1917], [-116.3823, 51.1875]]]}, "properties": {"company_id": "eagle-plains-resources", "jurisdiction": "British Columbia", "claim_id": 516358, "claim_name": "IV", "holder": "EAGLE PLAINS RESOURCES LTD.", "status": "Mineral", "recorded_date": "2005-07-08", "anniversary_or_expiry": "2027-10-15", "area_ha": 202.596, "tenure_type": "Mineral", "source": "BC MTA Mineral, Placer and Coal Tenure Spatial View (BCGW). Open Government Licence - British Columbia. Not legal title.", "as_of": "2026-09-20", "role": "focus", "color": "#e8b040"}}, {"type": "Feature", "geometry": {"type": "Polygon", "coordinates": [[[-116.3886, 49.2], [-116.3886, 49.1791], [-116.3511, 49.1791], [-116.3511, 49.2041], [-116.3886, 49.2041], [-116.3886, 49.2]]]}, "properties": {"company_id": "eagle-plains-resources", "jurisdiction": "British Columbia", "claim_id": 516530, "claim_name": null, "holder": "EAGLE PLAINS RESOURCES LTD.", "status": "Mineral", "recorded_date": "2005-07-09", "anniversary_or_expiry": "2027-07-30", "area_ha": 760.032, "tenure_type": "Mineral", "source": "BC MTA Mineral, Placer and Coal Tenure Spatial View (BCGW). Open Government Licence - British Columbia. Not legal title.", "as_of": "2026-09-20", "role": "focus", "color": "#e8b040"}}, {"type": "Feature", "geometry": {"type": "Polygon", "coordinates": [[[-116.3948, 49.175], [-116.3948, 49.1625], [-116.3636, 49.1625], [-116.3636, 49.1708], [-116.3511, 49.1708], [-116.3511, 49.1791], [-116.3948, 49.1791], [-116.3948, 49.175]]]}, "properties": {"company_id": "eagle-plains-resources", "jurisdiction": "British Columbia", "claim_id": 516532, "claim_name": null, "holder": "EAGLE PLAINS RESOURCES LTD.", "status": "Mineral", "recorded_date": "2005-07-09", "anniversary_or_expiry": "2030-07-30", "area_ha": 506.89500000000004, "tenure_type": "Mineral", "source": "BC MTA Mineral, Placer and Coal Tenure Spatial View (BCGW). Open Government Licence - British Columbia. Not legal title.", "as_of": "2026-09-20", "role": "focus", "color": "#e8b040"}}, {"type": "Feature", "geometry": {"type": "Polygon", "coordinates": [[[-116.3573, 49.2083], [-116.3573, 49.2041], [-116.3511, 49.2041], [-116.3511, 49.1708], [-116.3386, 49.1708], [-116.3386, 49.2125], [-116.3573, 49.2125], [-116.3573, 49.2083]]]}, "properties": {"company_id": "eagle-plains-resources", "jurisdiction": "British Columbia", "claim_id": 516534, "claim_name": null, "holder": "EAGLE PLAINS RESOURCES LTD.", "status": "Mineral", "recorded_date": "2005-07-09", "anniversary_or_expiry": "2027-07-30", "area_ha": 464.44800000000004, "tenure_type": "Mineral", "source": "BC MTA Mineral, Placer and Coal Tenure Spatial View (BCGW). Open Government Licence - British Columbia. Not legal title.", "as_of": "2026-09-20", "role": "focus", "color": "#e8b040"}}, {"type": "Feature", "geometry": {"type": "Polygon", "coordinates": [[[-120.2138, 51.6541], [-120.2138, 51.6374], [-120.2075, 51.6374], [-120.2075, 51.6583], [-120.2138, 51.6583], [-120.2138, 51.6541]]]}, "properties": {"company_id": "eagle-plains-resources", "jurisdiction": "British Columbia", "claim_id": 520105, "claim_name": "SID", "holder": "EAGLE PLAINS RESOURCES LTD.", "status": "Mineral", "recorded_date": "2005-09-17", "anniversary_or_expiry": "2026-05-12", "area_ha": 100.27900000000001, "tenure_type": "Mineral", "source": "BC MTA Mineral, Placer and Coal Tenure Spatial View (BCGW). Open Government Licence - British Columbia. Not legal title.", "as_of": "2026-09-20", "role": "focus", "color": "#e8b040"}}, {"type": "Feature", "geometry": {"type": "Polygon", "coordinates": [[[-119.77, 51.1291], [-119.77, 51.1041], [-119.7512, 51.1041], [-119.7512, 51.1332], [-119.77, 51.1332], [-119.77, 51.1291]]]}, "properties": {"company_id": "eagle-plains-resources", "jurisdiction": "British Columbia", "claim_id": 516713, "claim_name": "AC", "holder": "EAGLE PLAINS RESOURCES LTD.", "status": "Mineral", "recorded_date": "2005-07-11", "anniversary_or_expiry": "2020-10-08", "area_ha": 426.0326, "tenure_type": "Mineral", "source": "BC MTA Mineral, Placer and Coal Tenure Spatial View (BCGW). Open Government Licence - British Columbia. Not legal title.", "as_of": "2026-09-20", "role": "focus", "color": "#e8b040"}}, {"type": "Feature", "geometry": {"type": "Polygon", "coordinates": [[[-119.8262, 51.0999], [-119.8262, 51.0874], [-119.8012, 51.0874], [-119.8012, 51.0832], [-119.7887, 51.0832], [-119.7825, 51.0832], [-119.7825, 51.0874], [-119.7637, 51.0874], [-119.7637, 51.1041], [-119.77, 51.1041], [-119.77, 51.1082], [-119.795, 51.1082], [-119.795, 51.1041], [-119.8262, 51.1041], [-119.8262, 51.0999]]]}, "properties": {"company_id": "eagle-plains-resources", "jurisdiction": "British Columbia", "claim_id": 516715, "claim_name": "AC", "holder": "EAGLE PLAINS RESOURCES LTD.", "status": "Mineral", "recorded_date": "2005-07-11", "anniversary_or_expiry": "2020-10-08", "area_ha": 953.9664, "tenure_type": "Mineral", "source": "BC MTA Mineral, Placer and Coal Tenure Spatial View (BCGW). Open Government Licence - British Columbia. Not legal title.", "as_of": "2026-09-20", "role": "focus", "color": "#e8b040"}}, {"type": "Feature", "geometry": {"type": "Polygon", "coordinates": [[[-119.8575, 51.0999], [-119.8575, 51.0666], [-119.8075, 51.0666], [-119.8075, 51.0832], [-119.8012, 51.0832], [-119.8012, 51.0874], [-119.8262, 51.0874], [-119.8262, 51.1041], [-119.8575, 51.1041], [-119.8575, 51.0999]]]}, "properties": {"company_id": "eagle-plains-resources", "jurisdiction": "British Columbia", "claim_id": 516719, "claim_name": "AC", "holder": "EAGLE PLAINS RESOURCES LTD.", "status": "Mineral", "recorded_date": "2005-07-11", "anniversary_or_expiry": "2020-10-08", "area_ha": 1238.4279000000001, "tenure_type": "Mineral", "source": "BC MTA Mineral, Placer and Coal Tenure Spatial View (BCGW). Open Government Licence - British Columbia. Not legal title.", "as_of": "2026-09-20", "role": "focus", "color": "#e8b040"}}, {"type": "Feature", "geometry": {"type": "Polygon", "coordinates": [[[-120.2388, 51.6458], [-120.2388, 51.6374], [-120.2138, 51.6374], [-120.2138, 51.6499], [-120.2388, 51.6499], [-120.2388, 51.6458]]]}, "properties": {"company_id": "eagle-plains-resources", "jurisdiction": "British Columbia", "claim_id": 518670, "claim_name": "CLO", "holder": "EAGLE PLAINS RESOURCES LTD.", "status": "Mineral", "recorded_date": "2005-08-03", "anniversary_or_expiry": "2026-05-12", "area_ha": 240.691, "tenure_type": "Mineral", "source": "BC MTA Mineral, Placer and Coal Tenure Spatial View (BCGW). Open Government Licence - British Columbia. Not legal title.", "as_of": "2026-09-20", "role": "focus", "color": "#e8b040"}}, {"type": "Feature", "geometry": {"type": "Polygon", "coordinates": [[[-130.1517, 59.9789], [-130.1517, 59.9748], [-130.1017, 59.9748], [-130.1017, 59.9873], [-130.1517, 59.9873], [-130.1517, 59.9789]]]}, "properties": {"company_id": "eagle-plains-resources", "jurisdiction": "British Columbia", "claim_id": 515237, "claim_name": "TOOTZ3", "holder": "AGNICO EAGLE MINES LIMITED/MINES AGNICO EAGLE LIMITEE", "status": "Mineral", "recorded_date": "2005-06-24", "anniversary_or_expiry": "2025-01-22", "area_ha": 388.76500000000004, "tenure_type": "Mineral", "source": "BC MTA Mineral, Placer and Coal Tenure Spatial View (BCGW). Open Government Licence - British Columbia. Not legal title.", "as_of": "2026-09-20", "role": "focus", "color": "#e8b040"}}, {"type": "Feature", "geometry": {"type": "Polygon", "coordinates": [[[-130.1517, 59.9664], [-130.1517, 59.9623], [-130.1017, 59.9623], [-130.1017, 59.9748], [-130.1517, 59.9748], [-130.1517, 59.9664]]]}, "properties": {"company_id": "eagle-plains-resources", "jurisdiction": "British Columbia", "claim_id": 515238, "claim_name": "TOOTZ4", "holder": "AGNICO EAGLE MINES LIMITED/MINES AGNICO EAGLE LIMITEE", "status": "Mineral", "recorded_date": "2005-06-24", "anniversary_or_expiry": "2025-01-22", "area_ha": 388.91200000000003, "tenure_type": "Mineral", "source": "BC MTA Mineral, Placer and Coal Tenure Spatial View (BCGW). Open Government Licence - British Columbia. Not legal title.", "as_of": "2026-09-20", "role": "focus", "color": "#e8b040"}}, {"type": "Feature", "geometry": {"type": "Polygon", "coordinates": [[[-130.1017, 59.9748], [-130.1017, 59.9706], [-130.0642, 59.9706], [-130.0642, 59.9873], [-130.1017, 59.9873], [-130.1017, 59.9748]]]}, "properties": {"company_id": "eagle-plains-resources", "jurisdiction": "British Columbia", "claim_id": 515241, "claim_name": "TOOTZ5", "holder": "AGNICO EAGLE MINES LIMITED/MINES AGNICO EAGLE LIMITEE", "status": "Mineral", "recorded_date": "2005-06-24", "anniversary_or_expiry": "2025-01-22", "area_ha": 388.786, "tenure_type": "Mineral", "source": "BC MTA Mineral, Placer and Coal Tenure Spatial View (BCGW). Open Government Licence - British Columbia. Not legal title.", "as_of": "2026-09-20", "role": "focus", "color": "#e8b040"}}, {"type": "Feature", "geometry": {"type": "Polygon", "coordinates": [[[-130.1017, 59.9581], [-130.1017, 59.9539], [-130.0642, 59.9539], [-130.0642, 59.9706], [-130.1017, 59.9706], [-130.1017, 59.9581]]]}, "properties": {"company_id": "eagle-plains-resources", "jurisdiction": "British Columbia", "claim_id": 515242, "claim_name": null, "holder": "AGNICO EAGLE MINES LIMITED/MINES AGNICO EAGLE LIMITEE", "status": "Mineral", "recorded_date": "2005-06-24", "anniversary_or_expiry": "2025-01-22", "area_ha": 388.982, "tenure_type": "Mineral", "source": "BC MTA Mineral, Placer and Coal Tenure Spatial View (BCGW). Open Government Licence - British Columbia. Not legal title.", "as_of": "2026-09-20", "role": "focus", "color": "#e8b040"}}, {"type": "Feature", "geometry": {"type": "Polygon", "coordinates": [[[-130.1517, 59.9539], [-130.1517, 59.9498], [-130.1017, 59.9498], [-130.1017, 59.9623], [-130.1517, 59.9623], [-130.1517, 59.9539]]]}, "properties": {"company_id": "eagle-plains-resources", "jurisdiction": "British Columbia", "claim_id": 515243, "claim_name": "TOOTZ6", "holder": "AGNICO EAGLE MINES LIMITED/MINES AGNICO EAGLE LIMITEE", "status": "Mineral", "recorded_date": "2005-06-24", "anniversary_or_expiry": "2025-01-22", "area_ha": 389.058, "tenure_type": "Mineral", "source": "BC MTA Mineral, Placer and Coal Tenure Spatial View (BCGW). Open Government Licence - British Columbia. Not legal title.", "as_of": "2026-09-20", "role": "focus", "color": "#e8b040"}}, {"type": "Feature", "geometry": {"type": "Polygon", "coordinates": [[[-130.0642, 59.9789], [-130.0642, 59.9748], [-130.0517, 59.9748], [-130.0517, 59.9789], [-130.0392, 59.9789], [-130.0392, 59.9831], [-130.0267, 59.9831], [-130.0267, 59.9998], [-130.0517, 59.9998], [-130.0517, 59.9873], [-130.0642, 59.9873], [-130.0642, 59.9789]]]}, "properties": {"company_id": "eagle-plains-resources", "jurisdiction": "British Columbia", "claim_id": 515245, "claim_name": "TOOTZ7", "holder": "AGNICO EAGLE MINES LIMITED/MINES AGNICO EAGLE LIMITEE", "status": "Mineral", "recorded_date": "2005-06-24", "anniversary_or_expiry": "2025-01-22", "area_ha": 388.678, "tenure_type": "Mineral", "source": "BC MTA Mineral, Placer and Coal Tenure Spatial View (BCGW). Open Government Licence - British Columbia. Not legal title.", "as_of": "2026-09-20", "role": "focus", "color": "#e8b040"}}, {"type": "Feature", "geometry": {"type": "Polygon", "coordinates": [[[-115.5385, 49.7042], [-115.5385, 49.6917], [-115.5198, 49.6917], [-115.5198, 49.7042], [-115.5135, 49.7042], [-115.5135, 49.7125], [-115.526, 49.7125], [-115.526, 49.7167], [-115.5323, 49.7167], [-115.5323, 49.7083], [-115.5385, 49.7083], [-115.5385, 49.7042]]]}, "properties": {"company_id": "eagle-plains-resources", "jurisdiction": "British Columbia", "claim_id": 515318, "claim_name": "WH", "holder": "EAGLE PLAINS RESOURCES LTD.", "status": "Mineral", "recorded_date": "2005-06-27", "anniversary_or_expiry": "2029-08-26", "area_ha": 355.235, "tenure_type": "Mineral", "source": "BC MTA Mineral, Placer and Coal Tenure Spatial View (BCGW). Open Government Licence - British Columbia. Not legal title.", "as_of": "2026-09-20", "role": "focus", "color": "#e8b040"}}, {"type": "Feature", "geometry": {"type": "Polygon", "coordinates": [[[-120.245, 51.6499], [-120.245, 51.6333], [-120.2075, 51.6333], [-120.2075, 51.6374], [-120.2388, 51.6374], [-120.2388, 51.6499], [-120.2263, 51.6499], [-120.2263, 51.6541], [-120.245, 51.6541], [-120.245, 51.6499]]]}, "properties": {"company_id": "eagle-plains-resources", "jurisdiction": "British Columbia", "claim_id": 519188, "claim_name": "TOM", "holder": "EAGLE PLAINS RESOURCES LTD.", "status": "Mineral", "recorded_date": "2005-08-19", "anniversary_or_expiry": "2026-05-12", "area_ha": 240.702, "tenure_type": "Mineral", "source": "BC MTA Mineral, Placer and Coal Tenure Spatial View (BCGW). Open Government Licence - British Columbia. Not legal title.", "as_of": "2026-09-20", "role": "focus", "color": "#e8b040"}}, {"type": "Feature", "geometry": {"type": "Polygon", "coordinates": [[[-116.3948, 51.175], [-116.4011, 51.175], [-116.4011, 51.1708], [-116.3948, 51.1708], [-116.3948, 51.175]]]}, "properties": {"company_id": "eagle-plains-resources", "jurisdiction": "British Columbia", "claim_id": 524099, "claim_name": "IV", "holder": "EAGLE PLAINS RESOURCES LTD.", "status": "Mineral", "recorded_date": "2005-12-20", "anniversary_or_expiry": "2026-10-15", "area_ha": 20.263, "tenure_type": "Mineral", "source": "BC MTA Mineral, Placer and Coal Tenure Spatial View (BCGW). Open Government Licence - British Columbia. Not legal title.", "as_of": "2026-09-20", "role": "focus", "color": "#e8b040"}}, {"type": "Feature", "geometry": {"type": "Polygon", "coordinates": [[[-120.2513, 51.6541], [-120.2513, 51.6291], [-120.2388, 51.6291], [-120.2388, 51.6249], [-120.2263, 51.6249], [-120.2263, 51.6333], [-120.245, 51.6333], [-120.245, 51.6374], [-120.245, 51.6541], [-120.2263, 51.6541], [-120.2263, 51.6583], [-120.2513, 51.6583], [-120.2513, 51.6541]]]}, "properties": {"company_id": "eagle-plains-resources", "jurisdiction": "British Columbia", "claim_id": 520106, "claim_name": "JON", "holder": "EAGLE PLAINS RESOURCES LTD.", "status": "Mineral", "recorded_date": "2005-09-17", "anniversary_or_expiry": "2026-05-12", "area_ha": 300.879, "tenure_type": "Mineral", "source": "BC MTA Mineral, Placer and Coal Tenure Spatial View (BCGW). Open Government Licence - British Columbia. Not legal title.", "as_of": "2026-09-20", "role": "focus", "color": "#e8b040"}}, {"type": "Feature", "geometry": {"type": "Polygon", "coordinates": [[[-116.3948, 51.1833], [-116.3948, 51.1708], [-116.3823, 51.1708], [-116.3823, 51.1917], [-116.3886, 51.1917], [-116.3886, 51.1875], [-116.3948, 51.1875], [-116.3948, 51.1833]]]}, "properties": {"company_id": "eagle-plains-resources", "jurisdiction": "British Columbia", "claim_id": 516361, "claim_name": "IV", "holder": "EAGLE PLAINS RESOURCES LTD.", "status": "Mineral", "recorded_date": "2005-07-08", "anniversary_or_expiry": "2030-10-15", "area_ha": 182.339, "tenure_type": "Mineral", "source": "BC MTA Mineral, Placer and Coal Tenure Spatial View (BCGW). Open Government Licence - British Columbia. Not legal title.", "as_of": "2026-09-20", "role": "focus", "color": "#e8b040"}}, {"type": "Feature", "geometry": {"type": "Polygon", "coordinates": [[[-116.3635, 51.1375], [-116.3635, 51.125], [-116.351, 51.125], [-116.351, 51.1417], [-116.3635, 51.1417], [-116.3635, 51.1375]]]}, "properties": {"company_id": "eagle-plains-resources", "jurisdiction": "British Columbia", "claim_id": 534311, "claim_name": "IV", "holder": "EAGLE PLAINS RESOURCES LTD.", "status": "Mineral", "recorded_date": "2006-05-23", "anniversary_or_expiry": "2026-10-15", "area_ha": 162.238, "tenure_type": "Mineral", "source": "BC MTA Mineral, Placer and Coal Tenure Spatial View (BCGW). Open Government Licence - British Columbia. Not legal title.", "as_of": "2026-09-20", "role": "focus", "color": "#e8b040"}}]}