{"type": "FeatureCollection", "features": [{"type": "Feature", "geometry": {"type": "Polygon", "coordinates": [[[-80.3938, 46.9375], [-80.3938, 46.9417], [-80.4, 46.9417], [-80.4, 46.9375], [-80.3938, 46.9375]]]}, "properties": {"company_id": "eldorado-gold", "jurisdiction": "Ontario", "claim_id": "106368", "claim_name": null, "holder": "(100) QUEBEC INNOVATIVE MATERIALS CORP.", "status": "Active", "recorded_date": "2018-04-10", "anniversary_or_expiry": "2027-08-14", "area_ha": null, "tenure_type": "Boundary Cell Mining Claim", "source": "Ontario MLAS operational claims (OGSEarth / LIO MapServer). Unofficial viewing data, not legal title.", "as_of": "2026-09-20", "role": "focus", "color": "#e8b040"}}, {"type": "Feature", "geometry": {"type": "Polygon", "coordinates": [[[-80.3875, 46.9333], [-80.3875, 46.9375], [-80.3938, 46.9375], [-80.3938, 46.9333], [-80.3875, 46.9333]]]}, "properties": {"company_id": "eldorado-gold", "jurisdiction": "Ontario", "claim_id": "106369", "claim_name": null, "holder": "(100) QUEBEC INNOVATIVE MATERIALS CORP.", "status": "Active", "recorded_date": "2018-04-10", "anniversary_or_expiry": "2027-12-05", "area_ha": null, "tenure_type": "Boundary Cell Mining Claim", "source": "Ontario MLAS operational claims (OGSEarth / LIO MapServer). Unofficial viewing data, not legal title.", "as_of": "2026-09-20", "role": "focus", "color": "#e8b040"}}, {"type": "Feature", "geometry": {"type": "Polygon", "coordinates": [[[-80.4, 46.9417], [-80.4, 46.9458], [-80.4063, 46.9458], [-80.4063, 46.9417], [-80.4, 46.9417]]]}, "properties": {"company_id": "eldorado-gold", "jurisdiction": "Ontario", "claim_id": "123496", "claim_name": null, "holder": "(100) QUEBEC INNOVATIVE MATERIALS CORP.", "status": "Active", "recorded_date": "2018-04-10", "anniversary_or_expiry": "2027-08-14", "area_ha": null, "tenure_type": "Boundary Cell Mining Claim", "source": "Ontario MLAS operational claims (OGSEarth / LIO MapServer). Unofficial viewing data, not legal title.", "as_of": "2026-09-20", "role": "focus", "color": "#e8b040"}}, {"type": "Feature", "geometry": {"type": "Polygon", "coordinates": [[[-80.3875, 46.9375], [-80.3875, 46.9417], [-80.3938, 46.9417], [-80.3938, 46.9375], [-80.3875, 46.9375]]]}, "properties": {"company_id": "eldorado-gold", "jurisdiction": "Ontario", "claim_id": "250868", "claim_name": null, "holder": "(100) QUEBEC INNOVATIVE MATERIALS CORP.", "status": "Active", "recorded_date": "2018-04-10", "anniversary_or_expiry": "2027-08-14", "area_ha": null, "tenure_type": "Boundary Cell Mining Claim", "source": "Ontario MLAS operational claims (OGSEarth / LIO MapServer). Unofficial viewing data, not legal title.", "as_of": "2026-09-20", "role": "focus", "color": "#e8b040"}}, {"type": "Feature", "geometry": {"type": "Polygon", "coordinates": [[[-80.3875, 46.9417], [-80.3875, 46.9458], [-80.3938, 46.9458], [-80.3938, 46.9417], [-80.3875, 46.9417]]]}, "properties": {"company_id": "eldorado-gold", "jurisdiction": "Ontario", "claim_id": "283289", "claim_name": null, "holder": "(100) QUEBEC INNOVATIVE MATERIALS CORP.", "status": "Active", "recorded_date": "2018-04-10", "anniversary_or_expiry": "2027-08-14", "area_ha": null, "tenure_type": "Boundary Cell Mining Claim", "source": "Ontario MLAS operational claims (OGSEarth / LIO MapServer). Unofficial viewing data, not legal title.", "as_of": "2026-09-20", "role": "focus", "color": "#e8b040"}}, {"type": "Feature", "geometry": {"type": "Polygon", "coordinates": [[[-80.3938, 46.9417], [-80.3938, 46.9458], [-80.4, 46.9458], [-80.4, 46.9417], [-80.3938, 46.9417]]]}, "properties": {"company_id": "eldorado-gold", "jurisdiction": "Ontario", "claim_id": "283290", "claim_name": null, "holder": "(100) QUEBEC INNOVATIVE MATERIALS CORP.", "status": "Active", "recorded_date": "2018-04-10", "anniversary_or_expiry": "2027-08-14", "area_ha": null, "tenure_type": "Boundary Cell Mining Claim", "source": "Ontario MLAS operational claims (OGSEarth / LIO MapServer). Unofficial viewing data, not legal title.", "as_of": "2026-09-20", "role": "focus", "color": "#e8b040"}}, {"type": "Feature", "geometry": {"type": "Polygon", "coordinates": [[[-80.3938, 46.9333], [-80.3938, 46.9375], [-80.4, 46.9375], [-80.4, 46.9333], [-80.3938, 46.9333]]]}, "properties": {"company_id": "eldorado-gold", "jurisdiction": "Ontario", "claim_id": "298578", "claim_name": null, "holder": "(100) QUEBEC INNOVATIVE MATERIALS CORP.", "status": "Active", "recorded_date": "2018-04-10", "anniversary_or_expiry": "2027-12-05", "area_ha": null, "tenure_type": "Boundary Cell Mining Claim", "source": "Ontario MLAS operational claims (OGSEarth / LIO MapServer). Unofficial viewing data, not legal title.", "as_of": "2026-09-20", "role": "focus", "color": "#e8b040"}}, {"type": "Feature", "geometry": {"type": "Polygon", "coordinates": [[[-80.4, 46.9375], [-80.4, 46.9417], [-80.4063, 46.9417], [-80.4063, 46.9375], [-80.4, 46.9375]]]}, "properties": {"company_id": "eldorado-gold", "jurisdiction": "Ontario", "claim_id": "320162", "claim_name": null, "holder": "(100) QUEBEC INNOVATIVE MATERIALS CORP.", "status": "Active", "recorded_date": "2018-04-10", "anniversary_or_expiry": "2027-08-14", "area_ha": null, "tenure_type": "Boundary Cell Mining Claim", "source": "Ontario MLAS operational claims (OGSEarth / LIO MapServer). Unofficial viewing data, not legal title.", "as_of": "2026-09-20", "role": "focus", "color": "#e8b040"}}, {"type": "Feature", "geometry": {"type": "Polygon", "coordinates": [[[-79.95, 47.7125], [-79.95, 47.7167], [-79.9563, 47.7167], [-79.9563, 47.7125], [-79.95, 47.7125]]]}, "properties": {"company_id": "eldorado-gold", "jurisdiction": "Ontario", "claim_id": "939612", "claim_name": null, "holder": "(100) QUEBEC INNOVATIVE MATERIALS CORP.", "status": "Active", "recorded_date": "2025-03-15", "anniversary_or_expiry": "2027-03-15", "area_ha": null, "tenure_type": "Single Cell Mining Claim", "source": "Ontario MLAS operational claims (OGSEarth / LIO MapServer). Unofficial viewing data, not legal title.", "as_of": "2026-09-20", "role": "focus", "color": "#e8b040"}}, {"type": "Feature", "geometry": {"type": "Polygon", "coordinates": [[[-79.95, 47.7083], [-79.95, 47.7125], [-79.9563, 47.7125], [-79.9563, 47.7083], [-79.95, 47.7083]]]}, "properties": {"company_id": "eldorado-gold", "jurisdiction": "Ontario", "claim_id": "939613", "claim_name": null, "holder": "(100) QUEBEC INNOVATIVE MATERIALS CORP.", "status": "Active", "recorded_date": "2025-03-15", "anniversary_or_expiry": "2027-03-15", "area_ha": null, "tenure_type": "Single Cell Mining Claim", "source": "Ontario MLAS operational claims (OGSEarth / LIO MapServer). Unofficial viewing data, not legal title.", "as_of": "2026-09-20", "role": "focus", "color": "#e8b040"}}, {"type": "Feature", "geometry": {"type": "Polygon", "coordinates": [[[-79.9563, 47.6667], [-79.9563, 47.6625], [-79.9375, 47.6625], [-79.9375, 47.6708], [-79.9438, 47.6708], [-79.9438, 47.6667], [-79.95, 47.6667], [-79.95, 47.6708], [-79.9563, 47.6708], [-79.9563, 47.6667]]]}, "properties": {"company_id": "eldorado-gold", "jurisdiction": "Ontario", "claim_id": "939616", "claim_name": null, "holder": "(100) QUEBEC INNOVATIVE MATERIALS CORP.", "status": "Active", "recorded_date": "2025-03-15", "anniversary_or_expiry": "2027-03-15", "area_ha": null, "tenure_type": "Multi-cell Mining Claim", "source": "Ontario MLAS operational claims (OGSEarth / LIO MapServer). Unofficial viewing data, not legal title.", "as_of": "2026-09-20", "role": "focus", "color": "#e8b040"}}, {"type": "Feature", "geometry": {"type": "Polygon", "coordinates": [[[-79.9188, 47.6125], [-79.9188, 47.6167], [-79.925, 47.6167], [-79.925, 47.6125], [-79.9188, 47.6125]]]}, "properties": {"company_id": "eldorado-gold", "jurisdiction": "Ontario", "claim_id": "939619", "claim_name": null, "holder": "(100) QUEBEC INNOVATIVE MATERIALS CORP.", "status": "Active", "recorded_date": "2025-03-15", "anniversary_or_expiry": "2027-03-15", "area_ha": null, "tenure_type": "Single Cell Mining Claim", "source": "Ontario MLAS operational claims (OGSEarth / LIO MapServer). Unofficial viewing data, not legal title.", "as_of": "2026-09-20", "role": "focus", "color": "#e8b040"}}, {"type": "Feature", "geometry": {"type": "Polygon", "coordinates": [[[-79.925, 47.6083], [-79.925, 47.6125], [-79.9313, 47.6125], [-79.9313, 47.6083], [-79.925, 47.6083]]]}, "properties": {"company_id": "eldorado-gold", "jurisdiction": "Ontario", "claim_id": "939623", "claim_name": null, "holder": "(100) QUEBEC INNOVATIVE MATERIALS CORP.", "status": "Active", "recorded_date": "2025-03-15", "anniversary_or_expiry": "2027-03-15", "area_ha": null, "tenure_type": "Single Cell Mining Claim", "source": "Ontario MLAS operational claims (OGSEarth / LIO MapServer). Unofficial viewing data, not legal title.", "as_of": "2026-09-20", "role": "focus", "color": "#e8b040"}}, {"type": "Feature", "geometry": {"type": "Polygon", "coordinates": [[[-79.9188, 47.6083], [-79.9188, 47.6125], [-79.925, 47.6125], [-79.925, 47.6083], [-79.9188, 47.6083]]]}, "properties": {"company_id": "eldorado-gold", "jurisdiction": "Ontario", "claim_id": "939624", "claim_name": null, "holder": "(100) QUEBEC INNOVATIVE MATERIALS CORP.", "status": "Active", "recorded_date": "2025-03-15", "anniversary_or_expiry": "2027-03-15", "area_ha": null, "tenure_type": "Single Cell Mining Claim", "source": "Ontario MLAS operational claims (OGSEarth / LIO MapServer). Unofficial viewing data, not legal title.", "as_of": "2026-09-20", "role": "focus", "color": "#e8b040"}}, {"type": "Feature", "geometry": {"type": "Polygon", "coordinates": [[[-79.925, 47.6125], [-79.925, 47.6167], [-79.9313, 47.6167], [-79.9313, 47.6125], [-79.925, 47.6125]]]}, "properties": {"company_id": "eldorado-gold", "jurisdiction": "Ontario", "claim_id": "939632", "claim_name": null, "holder": "(100) QUEBEC INNOVATIVE MATERIALS CORP.", "status": "Active", "recorded_date": "2025-03-15", "anniversary_or_expiry": "2027-03-15", "area_ha": null, "tenure_type": "Single Cell Mining Claim", "source": "Ontario MLAS operational claims (OGSEarth / LIO MapServer). Unofficial viewing data, not legal title.", "as_of": "2026-09-20", "role": "focus", "color": "#e8b040"}}, {"type": "Feature", "geometry": {"type": "Polygon", "coordinates": [[[-79.9125, 47.6042], [-79.9125, 47.6083], [-79.9188, 47.6083], [-79.9188, 47.6042], [-79.9125, 47.6042]]]}, "properties": {"company_id": "eldorado-gold", "jurisdiction": "Ontario", "claim_id": "939640", "claim_name": null, "holder": "(100) QUEBEC INNOVATIVE MATERIALS CORP.", "status": "Active", "recorded_date": "2025-03-15", "anniversary_or_expiry": "2027-03-15", "area_ha": null, "tenure_type": "Single Cell Mining Claim", "source": "Ontario MLAS operational claims (OGSEarth / LIO MapServer). Unofficial viewing data, not legal title.", "as_of": "2026-09-20", "role": "focus", "color": "#e8b040"}}, {"type": "Feature", "geometry": {"type": "Polygon", "coordinates": [[[-79.9125, 47.6], [-79.9125, 47.6042], [-79.9188, 47.6042], [-79.9188, 47.6], [-79.9125, 47.6]]]}, "properties": {"company_id": "eldorado-gold", "jurisdiction": "Ontario", "claim_id": "939641", "claim_name": null, "holder": "(100) QUEBEC INNOVATIVE MATERIALS CORP.", "status": "Active", "recorded_date": "2025-03-15", "anniversary_or_expiry": "2027-03-15", "area_ha": null, "tenure_type": "Single Cell Mining Claim", "source": "Ontario MLAS operational claims (OGSEarth / LIO MapServer). Unofficial viewing data, not legal title.", "as_of": "2026-09-20", "role": "focus", "color": "#e8b040"}}, {"type": "Feature", "geometry": {"type": "Polygon", "coordinates": [[[-79.9125, 47.6083], [-79.9125, 47.6125], [-79.9188, 47.6125], [-79.9188, 47.6083], [-79.9125, 47.6083]]]}, "properties": {"company_id": "eldorado-gold", "jurisdiction": "Ontario", "claim_id": "939642", "claim_name": null, "holder": "(100) QUEBEC INNOVATIVE MATERIALS CORP.", "status": "Active", "recorded_date": "2025-03-15", "anniversary_or_expiry": "2027-03-15", "area_ha": null, "tenure_type": "Single Cell Mining Claim", "source": "Ontario MLAS operational claims (OGSEarth / LIO MapServer). Unofficial viewing data, not legal title.", "as_of": "2026-09-20", "role": "focus", "color": "#e8b040"}}, {"type": "Feature", "geometry": {"type": "Polygon", "coordinates": [[[-79.9125, 47.6125], [-79.9125, 47.6167], [-79.9188, 47.6167], [-79.9188, 47.6125], [-79.9125, 47.6125]]]}, "properties": {"company_id": "eldorado-gold", "jurisdiction": "Ontario", "claim_id": "939643", "claim_name": null, "holder": "(100) QUEBEC INNOVATIVE MATERIALS CORP.", "status": "Active", "recorded_date": "2025-03-15", "anniversary_or_expiry": "2027-03-15", "area_ha": null, "tenure_type": "Single Cell Mining Claim", "source": "Ontario MLAS operational claims (OGSEarth / LIO MapServer). Unofficial viewing data, not legal title.", "as_of": "2026-09-20", "role": "focus", "color": "#e8b040"}}, {"type": "Feature", "geometry": {"type": "Polygon", "coordinates": [[[-79.95, 47.5958], [-79.95, 47.6], [-79.9563, 47.6], [-79.9563, 47.5958], [-79.95, 47.5958]]]}, "properties": {"company_id": "eldorado-gold", "jurisdiction": "Ontario", "claim_id": "939644", "claim_name": null, "holder": "(100) QUEBEC INNOVATIVE MATERIALS CORP.", "status": "Active", "recorded_date": "2025-03-15", "anniversary_or_expiry": "2027-03-15", "area_ha": null, "tenure_type": "Single Cell Mining Claim", "source": "Ontario MLAS operational claims (OGSEarth / LIO MapServer). Unofficial viewing data, not legal title.", "as_of": "2026-09-20", "role": "focus", "color": "#e8b040"}}, {"type": "Feature", "geometry": {"type": "Polygon", "coordinates": [[[-79.9375, 47.5958], [-79.9375, 47.6], [-79.9438, 47.6], [-79.9438, 47.5958], [-79.9375, 47.5958]]]}, "properties": {"company_id": "eldorado-gold", "jurisdiction": "Ontario", "claim_id": "939645", "claim_name": null, "holder": "(100) QUEBEC INNOVATIVE MATERIALS CORP.", "status": "Active", "recorded_date": "2025-03-15", "anniversary_or_expiry": "2027-03-15", "area_ha": null, "tenure_type": "Single Cell Mining Claim", "source": "Ontario MLAS operational claims (OGSEarth / LIO MapServer). Unofficial viewing data, not legal title.", "as_of": "2026-09-20", "role": "focus", "color": "#e8b040"}}, {"type": "Feature", "geometry": {"type": "Polygon", "coordinates": [[[-79.9313, 47.5958], [-79.9313, 47.6], [-79.9375, 47.6], [-79.9375, 47.5958], [-79.9313, 47.5958]]]}, "properties": {"company_id": "eldorado-gold", "jurisdiction": "Ontario", "claim_id": "939646", "claim_name": null, "holder": "(100) QUEBEC INNOVATIVE MATERIALS CORP.", "status": "Active", "recorded_date": "2025-03-15", "anniversary_or_expiry": "2027-03-15", "area_ha": null, "tenure_type": "Single Cell Mining Claim", "source": "Ontario MLAS operational claims (OGSEarth / LIO MapServer). Unofficial viewing data, not legal title.", "as_of": "2026-09-20", "role": "focus", "color": "#e8b040"}}, {"type": "Feature", "geometry": {"type": "Polygon", "coordinates": [[[-79.9125, 47.5958], [-79.9125, 47.6], [-79.9188, 47.6], [-79.9188, 47.5958], [-79.9125, 47.5958]]]}, "properties": {"company_id": "eldorado-gold", "jurisdiction": "Ontario", "claim_id": "939647", "claim_name": null, "holder": "(100) QUEBEC INNOVATIVE MATERIALS CORP.", "status": "Active", "recorded_date": "2025-03-15", "anniversary_or_expiry": "2027-03-15", "area_ha": null, "tenure_type": "Single Cell Mining Claim", "source": "Ontario MLAS operational claims (OGSEarth / LIO MapServer). Unofficial viewing data, not legal title.", "as_of": "2026-09-20", "role": "focus", "color": "#e8b040"}}, {"type": "Feature", "geometry": {"type": "Polygon", "coordinates": [[[-79.9438, 47.5958], [-79.9438, 47.6], [-79.95, 47.6], [-79.95, 47.5958], [-79.9438, 47.5958]]]}, "properties": {"company_id": "eldorado-gold", "jurisdiction": "Ontario", "claim_id": "939648", "claim_name": null, "holder": "(100) QUEBEC INNOVATIVE MATERIALS CORP.", "status": "Active", "recorded_date": "2025-03-15", "anniversary_or_expiry": "2027-03-15", "area_ha": null, "tenure_type": "Single Cell Mining Claim", "source": "Ontario MLAS operational claims (OGSEarth / LIO MapServer). Unofficial viewing data, not legal title.", "as_of": "2026-09-20", "role": "focus", "color": "#e8b040"}}, {"type": "Feature", "geometry": {"type": "Polygon", "coordinates": [[[-79.925, 47.5958], [-79.925, 47.6], [-79.9313, 47.6], [-79.9313, 47.5958], [-79.925, 47.5958]]]}, "properties": {"company_id": "eldorado-gold", "jurisdiction": "Ontario", "claim_id": "939649", "claim_name": null, "holder": "(100) QUEBEC INNOVATIVE MATERIALS CORP.", "status": "Active", "recorded_date": "2025-03-15", "anniversary_or_expiry": "2027-03-15", "area_ha": null, "tenure_type": "Single Cell Mining Claim", "source": "Ontario MLAS operational claims (OGSEarth / LIO MapServer). Unofficial viewing data, not legal title.", "as_of": "2026-09-20", "role": "focus", "color": "#e8b040"}}, {"type": "Feature", "geometry": {"type": "Polygon", "coordinates": [[[-79.9188, 47.5958], [-79.9188, 47.6], [-79.925, 47.6], [-79.925, 47.5958], [-79.9188, 47.5958]]]}, "properties": {"company_id": "eldorado-gold", "jurisdiction": "Ontario", "claim_id": "939650", "claim_name": null, "holder": "(100) QUEBEC INNOVATIVE MATERIALS CORP.", "status": "Active", "recorded_date": "2025-03-15", "anniversary_or_expiry": "2027-03-15", "area_ha": null, "tenure_type": "Single Cell Mining Claim", "source": "Ontario MLAS operational claims (OGSEarth / LIO MapServer). Unofficial viewing data, not legal title.", "as_of": "2026-09-20", "role": "focus", "color": "#e8b040"}}, {"type": "Feature", "geometry": {"type": "Polygon", "coordinates": [[[-79.925, 47.6], [-79.925, 47.6042], [-79.9313, 47.6042], [-79.9313, 47.6], [-79.925, 47.6]]]}, "properties": {"company_id": "eldorado-gold", "jurisdiction": "Ontario", "claim_id": "939651", "claim_name": null, "holder": "(100) QUEBEC INNOVATIVE MATERIALS CORP.", "status": "Active", "recorded_date": "2025-03-15", "anniversary_or_expiry": "2027-03-15", "area_ha": null, "tenure_type": "Single Cell Mining Claim", "source": "Ontario MLAS operational claims (OGSEarth / LIO MapServer). Unofficial viewing data, not legal title.", "as_of": "2026-09-20", "role": "focus", "color": "#e8b040"}}, {"type": "Feature", "geometry": {"type": "Polygon", "coordinates": [[[-79.95, 47.6], [-79.95, 47.6042], [-79.9563, 47.6042], [-79.9563, 47.6], [-79.95, 47.6]]]}, "properties": {"company_id": "eldorado-gold", "jurisdiction": "Ontario", "claim_id": "939652", "claim_name": null, "holder": "(100) QUEBEC INNOVATIVE MATERIALS CORP.", "status": "Active", "recorded_date": "2025-03-15", "anniversary_or_expiry": "2027-03-15", "area_ha": null, "tenure_type": "Single Cell Mining Claim", "source": "Ontario MLAS operational claims (OGSEarth / LIO MapServer). Unofficial viewing data, not legal title.", "as_of": "2026-09-20", "role": "focus", "color": "#e8b040"}}, {"type": "Feature", "geometry": {"type": "Polygon", "coordinates": [[[-79.9313, 47.6], [-79.9313, 47.6042], [-79.9375, 47.6042], [-79.9375, 47.6], [-79.9313, 47.6]]]}, "properties": {"company_id": "eldorado-gold", "jurisdiction": "Ontario", "claim_id": "939653", "claim_name": null, "holder": "(100) QUEBEC INNOVATIVE MATERIALS CORP.", "status": "Active", "recorded_date": "2025-03-15", "anniversary_or_expiry": "2027-03-15", "area_ha": null, "tenure_type": "Single Cell Mining Claim", "source": "Ontario MLAS operational claims (OGSEarth / LIO MapServer). Unofficial viewing data, not legal title.", "as_of": "2026-09-20", "role": "focus", "color": "#e8b040"}}, {"type": "Feature", "geometry": {"type": "Polygon", "coordinates": [[[-79.9375, 47.6], [-79.9375, 47.6042], [-79.9438, 47.6042], [-79.9438, 47.6], [-79.9375, 47.6]]]}, "properties": {"company_id": "eldorado-gold", "jurisdiction": "Ontario", "claim_id": "939654", "claim_name": null, "holder": "(100) QUEBEC INNOVATIVE MATERIALS CORP.", "status": "Active", "recorded_date": "2025-03-15", "anniversary_or_expiry": "2027-03-15", "area_ha": null, "tenure_type": "Single Cell Mining Claim", "source": "Ontario MLAS operational claims (OGSEarth / LIO MapServer). Unofficial viewing data, not legal title.", "as_of": "2026-09-20", "role": "focus", "color": "#e8b040"}}, {"type": "Feature", "geometry": {"type": "Polygon", "coordinates": [[[-79.9188, 47.6042], [-79.9188, 47.6083], [-79.925, 47.6083], [-79.925, 47.6042], [-79.9188, 47.6042]]]}, "properties": {"company_id": "eldorado-gold", "jurisdiction": "Ontario", "claim_id": "939655", "claim_name": null, "holder": "(100) QUEBEC INNOVATIVE MATERIALS CORP.", "status": "Active", "recorded_date": "2025-03-15", "anniversary_or_expiry": "2027-03-15", "area_ha": null, "tenure_type": "Single Cell Mining Claim", "source": "Ontario MLAS operational claims (OGSEarth / LIO MapServer). Unofficial viewing data, not legal title.", "as_of": "2026-09-20", "role": "focus", "color": "#e8b040"}}, {"type": "Feature", "geometry": {"type": "Polygon", "coordinates": [[[-79.9438, 47.6], [-79.9438, 47.6042], [-79.95, 47.6042], [-79.95, 47.6], [-79.9438, 47.6]]]}, "properties": {"company_id": "eldorado-gold", "jurisdiction": "Ontario", "claim_id": "939657", "claim_name": null, "holder": "(100) QUEBEC INNOVATIVE MATERIALS CORP.", "status": "Active", "recorded_date": "2025-03-15", "anniversary_or_expiry": "2027-03-15", "area_ha": null, "tenure_type": "Single Cell Mining Claim", "source": "Ontario MLAS operational claims (OGSEarth / LIO MapServer). Unofficial viewing data, not legal title.", "as_of": "2026-09-20", "role": "focus", "color": "#e8b040"}}, {"type": "Feature", "geometry": {"type": "Polygon", "coordinates": [[[-79.9188, 47.6], [-79.9188, 47.6042], [-79.925, 47.6042], [-79.925, 47.6], [-79.9188, 47.6]]]}, "properties": {"company_id": "eldorado-gold", "jurisdiction": "Ontario", "claim_id": "939658", "claim_name": null, "holder": "(100) QUEBEC INNOVATIVE MATERIALS CORP.", "status": "Active", "recorded_date": "2025-03-15", "anniversary_or_expiry": "2027-03-15", "area_ha": null, "tenure_type": "Single Cell Mining Claim", "source": "Ontario MLAS operational claims (OGSEarth / LIO MapServer). Unofficial viewing data, not legal title.", "as_of": "2026-09-20", "role": "focus", "color": "#e8b040"}}, {"type": "Feature", "geometry": {"type": "Polygon", "coordinates": [[[-79.95, 47.6458], [-79.95, 47.65], [-79.9563, 47.65], [-79.9563, 47.6458], [-79.95, 47.6458]]]}, "properties": {"company_id": "eldorado-gold", "jurisdiction": "Ontario", "claim_id": "939674", "claim_name": null, "holder": "(100) QUEBEC INNOVATIVE MATERIALS CORP.", "status": "Active", "recorded_date": "2025-03-15", "anniversary_or_expiry": "2027-03-15", "area_ha": null, "tenure_type": "Single Cell Mining Claim", "source": "Ontario MLAS operational claims (OGSEarth / LIO MapServer). Unofficial viewing data, not legal title.", "as_of": "2026-09-20", "role": "focus", "color": "#e8b040"}}, {"type": "Feature", "geometry": {"type": "Polygon", "coordinates": [[[-79.9375, 47.6458], [-79.9375, 47.65], [-79.9438, 47.65], [-79.9438, 47.6458], [-79.9375, 47.6458]]]}, "properties": {"company_id": "eldorado-gold", "jurisdiction": "Ontario", "claim_id": "939675", "claim_name": null, "holder": "(100) QUEBEC INNOVATIVE MATERIALS CORP.", "status": "Active", "recorded_date": "2025-03-15", "anniversary_or_expiry": "2027-03-15", "area_ha": null, "tenure_type": "Single Cell Mining Claim", "source": "Ontario MLAS operational claims (OGSEarth / LIO MapServer). Unofficial viewing data, not legal title.", "as_of": "2026-09-20", "role": "focus", "color": "#e8b040"}}, {"type": "Feature", "geometry": {"type": "Polygon", "coordinates": [[[-79.9438, 47.6458], [-79.9438, 47.65], [-79.95, 47.65], [-79.95, 47.6458], [-79.9438, 47.6458]]]}, "properties": {"company_id": "eldorado-gold", "jurisdiction": "Ontario", "claim_id": "939676", "claim_name": null, "holder": "(100) QUEBEC INNOVATIVE MATERIALS CORP.", "status": "Active", "recorded_date": "2025-03-15", "anniversary_or_expiry": "2027-03-15", "area_ha": null, "tenure_type": "Single Cell Mining Claim", "source": "Ontario MLAS operational claims (OGSEarth / LIO MapServer). Unofficial viewing data, not legal title.", "as_of": "2026-09-20", "role": "focus", "color": "#e8b040"}}, {"type": "Feature", "geometry": {"type": "Polygon", "coordinates": [[[-79.9438, 47.65], [-79.9438, 47.6542], [-79.95, 47.6542], [-79.95, 47.65], [-79.9438, 47.65]]]}, "properties": {"company_id": "eldorado-gold", "jurisdiction": "Ontario", "claim_id": "939677", "claim_name": null, "holder": "(100) QUEBEC INNOVATIVE MATERIALS CORP.", "status": "Active", "recorded_date": "2025-03-15", "anniversary_or_expiry": "2027-03-15", "area_ha": null, "tenure_type": "Single Cell Mining Claim", "source": "Ontario MLAS operational claims (OGSEarth / LIO MapServer). Unofficial viewing data, not legal title.", "as_of": "2026-09-20", "role": "focus", "color": "#e8b040"}}, {"type": "Feature", "geometry": {"type": "Polygon", "coordinates": [[[-79.95, 47.65], [-79.95, 47.6542], [-79.9563, 47.6542], [-79.9563, 47.65], [-79.95, 47.65]]]}, "properties": {"company_id": "eldorado-gold", "jurisdiction": "Ontario", "claim_id": "939678", "claim_name": null, "holder": "(100) QUEBEC INNOVATIVE MATERIALS CORP.", "status": "Active", "recorded_date": "2025-03-15", "anniversary_or_expiry": "2027-03-15", "area_ha": null, "tenure_type": "Single Cell Mining Claim", "source": "Ontario MLAS operational claims (OGSEarth / LIO MapServer). Unofficial viewing data, not legal title.", "as_of": "2026-09-20", "role": "focus", "color": "#e8b040"}}, {"type": "Feature", "geometry": {"type": "Polygon", "coordinates": [[[-79.9375, 47.65], [-79.9375, 47.6542], [-79.9438, 47.6542], [-79.9438, 47.65], [-79.9375, 47.65]]]}, "properties": {"company_id": "eldorado-gold", "jurisdiction": "Ontario", "claim_id": "939679", "claim_name": null, "holder": "(100) QUEBEC INNOVATIVE MATERIALS CORP.", "status": "Active", "recorded_date": "2025-03-15", "anniversary_or_expiry": "2027-03-15", "area_ha": null, "tenure_type": "Single Cell Mining Claim", "source": "Ontario MLAS operational claims (OGSEarth / LIO MapServer). Unofficial viewing data, not legal title.", "as_of": "2026-09-20", "role": "focus", "color": "#e8b040"}}, {"type": "Feature", "geometry": {"type": "Polygon", "coordinates": [[[-79.9563, 47.7042], [-79.9563, 47.7083], [-79.9625, 47.7083], [-79.9625, 47.7042], [-79.9563, 47.7042]]]}, "properties": {"company_id": "eldorado-gold", "jurisdiction": "Ontario", "claim_id": "947946", "claim_name": null, "holder": "(100) QUEBEC INNOVATIVE MATERIALS CORP.", "status": "Active", "recorded_date": "2025-05-23", "anniversary_or_expiry": "2027-05-23", "area_ha": null, "tenure_type": "Single Cell Mining Claim", "source": "Ontario MLAS operational claims (OGSEarth / LIO MapServer). Unofficial viewing data, not legal title.", "as_of": "2026-09-20", "role": "focus", "color": "#e8b040"}}, {"type": "Feature", "geometry": {"type": "Polygon", "coordinates": [[[-79.95, 47.7042], [-79.95, 47.7083], [-79.9563, 47.7083], [-79.9563, 47.7042], [-79.95, 47.7042]]]}, "properties": {"company_id": "eldorado-gold", "jurisdiction": "Ontario", "claim_id": "947947", "claim_name": null, "holder": "(100) QUEBEC INNOVATIVE MATERIALS CORP.", "status": "Active", "recorded_date": "2025-05-23", "anniversary_or_expiry": "2027-05-23", "area_ha": null, "tenure_type": "Single Cell Mining Claim", "source": "Ontario MLAS operational claims (OGSEarth / LIO MapServer). Unofficial viewing data, not legal title.", "as_of": "2026-09-20", "role": "focus", "color": "#e8b040"}}, {"type": "Feature", "geometry": {"type": "Polygon", "coordinates": [[[-79.925, 47.625], [-79.925, 47.6292], [-79.9313, 47.6292], [-79.9313, 47.625], [-79.925, 47.625]]]}, "properties": {"company_id": "eldorado-gold", "jurisdiction": "Ontario", "claim_id": "947948", "claim_name": null, "holder": "(100) QUEBEC INNOVATIVE MATERIALS CORP.", "status": "Active", "recorded_date": "2025-05-23", "anniversary_or_expiry": "2027-05-23", "area_ha": null, "tenure_type": "Single Cell Mining Claim", "source": "Ontario MLAS operational claims (OGSEarth / LIO MapServer). Unofficial viewing data, not legal title.", "as_of": "2026-09-20", "role": "focus", "color": "#e8b040"}}, {"type": "Feature", "geometry": {"type": "Polygon", "coordinates": [[[-79.9188, 47.6208], [-79.9188, 47.625], [-79.925, 47.625], [-79.925, 47.6208], [-79.9188, 47.6208]]]}, "properties": {"company_id": "eldorado-gold", "jurisdiction": "Ontario", "claim_id": "947949", "claim_name": null, "holder": "(100) QUEBEC INNOVATIVE MATERIALS CORP.", "status": "Active", "recorded_date": "2025-05-23", "anniversary_or_expiry": "2027-05-23", "area_ha": null, "tenure_type": "Single Cell Mining Claim", "source": "Ontario MLAS operational claims (OGSEarth / LIO MapServer). Unofficial viewing data, not legal title.", "as_of": "2026-09-20", "role": "focus", "color": "#e8b040"}}, {"type": "Feature", "geometry": {"type": "Polygon", "coordinates": [[[-79.9313, 47.625], [-79.9313, 47.6292], [-79.9375, 47.6292], [-79.9375, 47.625], [-79.9313, 47.625]]]}, "properties": {"company_id": "eldorado-gold", "jurisdiction": "Ontario", "claim_id": "947950", "claim_name": null, "holder": "(100) QUEBEC INNOVATIVE MATERIALS CORP.", "status": "Active", "recorded_date": "2025-05-23", "anniversary_or_expiry": "2027-05-23", "area_ha": null, "tenure_type": "Single Cell Mining Claim", "source": "Ontario MLAS operational claims (OGSEarth / LIO MapServer). Unofficial viewing data, not legal title.", "as_of": "2026-09-20", "role": "focus", "color": "#e8b040"}}, {"type": "Feature", "geometry": {"type": "Polygon", "coordinates": [[[-79.925, 47.6167], [-79.925, 47.6208], [-79.9313, 47.6208], [-79.9313, 47.6167], [-79.925, 47.6167]]]}, "properties": {"company_id": "eldorado-gold", "jurisdiction": "Ontario", "claim_id": "947951", "claim_name": null, "holder": "(100) QUEBEC INNOVATIVE MATERIALS CORP.", "status": "Active", "recorded_date": "2025-05-23", "anniversary_or_expiry": "2027-05-23", "area_ha": null, "tenure_type": "Single Cell Mining Claim", "source": "Ontario MLAS operational claims (OGSEarth / LIO MapServer). Unofficial viewing data, not legal title.", "as_of": "2026-09-20", "role": "focus", "color": "#e8b040"}}, {"type": "Feature", "geometry": {"type": "Polygon", "coordinates": [[[-79.9313, 47.6208], [-79.9313, 47.625], [-79.9375, 47.625], [-79.9375, 47.6208], [-79.9313, 47.6208]]]}, "properties": {"company_id": "eldorado-gold", "jurisdiction": "Ontario", "claim_id": "947952", "claim_name": null, "holder": "(100) QUEBEC INNOVATIVE MATERIALS CORP.", "status": "Active", "recorded_date": "2025-05-23", "anniversary_or_expiry": "2027-05-23", "area_ha": null, "tenure_type": "Single Cell Mining Claim", "source": "Ontario MLAS operational claims (OGSEarth / LIO MapServer). Unofficial viewing data, not legal title.", "as_of": "2026-09-20", "role": "focus", "color": "#e8b040"}}, {"type": "Feature", "geometry": {"type": "Polygon", "coordinates": [[[-79.925, 47.6208], [-79.925, 47.625], [-79.9313, 47.625], [-79.9313, 47.6208], [-79.925, 47.6208]]]}, "properties": {"company_id": "eldorado-gold", "jurisdiction": "Ontario", "claim_id": "947953", "claim_name": null, "holder": "(100) QUEBEC INNOVATIVE MATERIALS CORP.", "status": "Active", "recorded_date": "2025-05-23", "anniversary_or_expiry": "2027-05-23", "area_ha": null, "tenure_type": "Single Cell Mining Claim", "source": "Ontario MLAS operational claims (OGSEarth / LIO MapServer). Unofficial viewing data, not legal title.", "as_of": "2026-09-20", "role": "focus", "color": "#e8b040"}}, {"type": "Feature", "geometry": {"type": "Polygon", "coordinates": [[[-79.9313, 47.6083], [-79.9313, 47.6125], [-79.9375, 47.6125], [-79.9375, 47.6083], [-79.9313, 47.6083]]]}, "properties": {"company_id": "eldorado-gold", "jurisdiction": "Ontario", "claim_id": "947954", "claim_name": null, "holder": "(100) QUEBEC INNOVATIVE MATERIALS CORP.", "status": "Active", "recorded_date": "2025-05-23", "anniversary_or_expiry": "2027-05-23", "area_ha": null, "tenure_type": "Single Cell Mining Claim", "source": "Ontario MLAS operational claims (OGSEarth / LIO MapServer). Unofficial viewing data, not legal title.", "as_of": "2026-09-20", "role": "focus", "color": "#e8b040"}}, {"type": "Feature", "geometry": {"type": "Polygon", "coordinates": [[[-79.9313, 47.6125], [-79.9313, 47.6167], [-79.9375, 47.6167], [-79.9375, 47.6125], [-79.9313, 47.6125]]]}, "properties": {"company_id": "eldorado-gold", "jurisdiction": "Ontario", "claim_id": "947955", "claim_name": null, "holder": "(100) QUEBEC INNOVATIVE MATERIALS CORP.", "status": "Active", "recorded_date": "2025-05-23", "anniversary_or_expiry": "2027-05-23", "area_ha": null, "tenure_type": "Single Cell Mining Claim", "source": "Ontario MLAS operational claims (OGSEarth / LIO MapServer). Unofficial viewing data, not legal title.", "as_of": "2026-09-20", "role": "focus", "color": "#e8b040"}}, {"type": "Feature", "geometry": {"type": "Polygon", "coordinates": [[[-79.9313, 47.6167], [-79.9313, 47.6208], [-79.9375, 47.6208], [-79.9375, 47.6167], [-79.9313, 47.6167]]]}, "properties": {"company_id": "eldorado-gold", "jurisdiction": "Ontario", "claim_id": "947956", "claim_name": null, "holder": "(100) QUEBEC INNOVATIVE MATERIALS CORP.", "status": "Active", "recorded_date": "2025-05-23", "anniversary_or_expiry": "2027-05-23", "area_ha": null, "tenure_type": "Single Cell Mining Claim", "source": "Ontario MLAS operational claims (OGSEarth / LIO MapServer). Unofficial viewing data, not legal title.", "as_of": "2026-09-20", "role": "focus", "color": "#e8b040"}}, {"type": "Feature", "geometry": {"type": "Polygon", "coordinates": [[[-79.9188, 47.625], [-79.9188, 47.6292], [-79.925, 47.6292], [-79.925, 47.625], [-79.9188, 47.625]]]}, "properties": {"company_id": "eldorado-gold", "jurisdiction": "Ontario", "claim_id": "947957", "claim_name": null, "holder": "(100) QUEBEC INNOVATIVE MATERIALS CORP.", "status": "Active", "recorded_date": "2025-05-23", "anniversary_or_expiry": "2027-05-23", "area_ha": null, "tenure_type": "Single Cell Mining Claim", "source": "Ontario MLAS operational claims (OGSEarth / LIO MapServer). Unofficial viewing data, not legal title.", "as_of": "2026-09-20", "role": "focus", "color": "#e8b040"}}, {"type": "Feature", "geometry": {"type": "Polygon", "coordinates": [[[-79.9188, 47.6167], [-79.9188, 47.6208], [-79.925, 47.6208], [-79.925, 47.6167], [-79.9188, 47.6167]]]}, "properties": {"company_id": "eldorado-gold", "jurisdiction": "Ontario", "claim_id": "947958", "claim_name": null, "holder": "(100) QUEBEC INNOVATIVE MATERIALS CORP.", "status": "Active", "recorded_date": "2025-05-23", "anniversary_or_expiry": "2027-05-23", "area_ha": null, "tenure_type": "Single Cell Mining Claim", "source": "Ontario MLAS operational claims (OGSEarth / LIO MapServer). Unofficial viewing data, not legal title.", "as_of": "2026-09-20", "role": "focus", "color": "#e8b040"}}, {"type": "Feature", "geometry": {"type": "Polygon", "coordinates": [[[-79.9375, 47.6167], [-79.9375, 47.6208], [-79.9438, 47.6208], [-79.9438, 47.6167], [-79.9375, 47.6167]]]}, "properties": {"company_id": "eldorado-gold", "jurisdiction": "Ontario", "claim_id": "947959", "claim_name": null, "holder": "(100) QUEBEC INNOVATIVE MATERIALS CORP.", "status": "Active", "recorded_date": "2025-05-23", "anniversary_or_expiry": "2027-05-23", "area_ha": null, "tenure_type": "Single Cell Mining Claim", "source": "Ontario MLAS operational claims (OGSEarth / LIO MapServer). Unofficial viewing data, not legal title.", "as_of": "2026-09-20", "role": "focus", "color": "#e8b040"}}, {"type": "Feature", "geometry": {"type": "Polygon", "coordinates": [[[-79.9375, 47.6208], [-79.9375, 47.625], [-79.9438, 47.625], [-79.9438, 47.6208], [-79.9375, 47.6208]]]}, "properties": {"company_id": "eldorado-gold", "jurisdiction": "Ontario", "claim_id": "947960", "claim_name": null, "holder": "(100) QUEBEC INNOVATIVE MATERIALS CORP.", "status": "Active", "recorded_date": "2025-05-23", "anniversary_or_expiry": "2027-05-23", "area_ha": null, "tenure_type": "Single Cell Mining Claim", "source": "Ontario MLAS operational claims (OGSEarth / LIO MapServer). Unofficial viewing data, not legal title.", "as_of": "2026-09-20", "role": "focus", "color": "#e8b040"}}, {"type": "Feature", "geometry": {"type": "Polygon", "coordinates": [[[-79.9375, 47.6083], [-79.9375, 47.6125], [-79.9438, 47.6125], [-79.9438, 47.6083], [-79.9375, 47.6083]]]}, "properties": {"company_id": "eldorado-gold", "jurisdiction": "Ontario", "claim_id": "947961", "claim_name": null, "holder": "(100) QUEBEC INNOVATIVE MATERIALS CORP.", "status": "Active", "recorded_date": "2025-05-23", "anniversary_or_expiry": "2027-05-23", "area_ha": null, "tenure_type": "Single Cell Mining Claim", "source": "Ontario MLAS operational claims (OGSEarth / LIO MapServer). Unofficial viewing data, not legal title.", "as_of": "2026-09-20", "role": "focus", "color": "#e8b040"}}, {"type": "Feature", "geometry": {"type": "Polygon", "coordinates": [[[-79.9375, 47.6125], [-79.9375, 47.6167], [-79.9438, 47.6167], [-79.9438, 47.6125], [-79.9375, 47.6125]]]}, "properties": {"company_id": "eldorado-gold", "jurisdiction": "Ontario", "claim_id": "947962", "claim_name": null, "holder": "(100) QUEBEC INNOVATIVE MATERIALS CORP.", "status": "Active", "recorded_date": "2025-05-23", "anniversary_or_expiry": "2027-05-23", "area_ha": null, "tenure_type": "Single Cell Mining Claim", "source": "Ontario MLAS operational claims (OGSEarth / LIO MapServer). Unofficial viewing data, not legal title.", "as_of": "2026-09-20", "role": "focus", "color": "#e8b040"}}, {"type": "Feature", "geometry": {"type": "Polygon", "coordinates": [[[-79.925, 47.6292], [-79.925, 47.6333], [-79.9313, 47.6333], [-79.9313, 47.6292], [-79.925, 47.6292]]]}, "properties": {"company_id": "eldorado-gold", "jurisdiction": "Ontario", "claim_id": "947963", "claim_name": null, "holder": "(100) QUEBEC INNOVATIVE MATERIALS CORP.", "status": "Active", "recorded_date": "2025-05-23", "anniversary_or_expiry": "2027-05-23", "area_ha": null, "tenure_type": "Single Cell Mining Claim", "source": "Ontario MLAS operational claims (OGSEarth / LIO MapServer). Unofficial viewing data, not legal title.", "as_of": "2026-09-20", "role": "focus", "color": "#e8b040"}}, {"type": "Feature", "geometry": {"type": "Polygon", "coordinates": [[[-79.9188, 47.6292], [-79.9188, 47.6333], [-79.925, 47.6333], [-79.925, 47.6292], [-79.9188, 47.6292]]]}, "properties": {"company_id": "eldorado-gold", "jurisdiction": "Ontario", "claim_id": "947964", "claim_name": null, "holder": "(100) QUEBEC INNOVATIVE MATERIALS CORP.", "status": "Active", "recorded_date": "2025-05-23", "anniversary_or_expiry": "2027-05-23", "area_ha": null, "tenure_type": "Single Cell Mining Claim", "source": "Ontario MLAS operational claims (OGSEarth / LIO MapServer). Unofficial viewing data, not legal title.", "as_of": "2026-09-20", "role": "focus", "color": "#e8b040"}}, {"type": "Feature", "geometry": {"type": "Polygon", "coordinates": [[[-79.95, 47.6042], [-79.95, 47.6083], [-79.9563, 47.6083], [-79.9563, 47.6042], [-79.95, 47.6042]]]}, "properties": {"company_id": "eldorado-gold", "jurisdiction": "Ontario", "claim_id": "947965", "claim_name": null, "holder": "(100) QUEBEC INNOVATIVE MATERIALS CORP.", "status": "Active", "recorded_date": "2025-05-23", "anniversary_or_expiry": "2027-05-23", "area_ha": null, "tenure_type": "Single Cell Mining Claim", "source": "Ontario MLAS operational claims (OGSEarth / LIO MapServer). Unofficial viewing data, not legal title.", "as_of": "2026-09-20", "role": "focus", "color": "#e8b040"}}, {"type": "Feature", "geometry": {"type": "Polygon", "coordinates": [[[-79.9625, 47.6042], [-79.9625, 47.6083], [-79.9688, 47.6083], [-79.9688, 47.6042], [-79.9625, 47.6042]]]}, "properties": {"company_id": "eldorado-gold", "jurisdiction": "Ontario", "claim_id": "947966", "claim_name": null, "holder": "(100) QUEBEC INNOVATIVE MATERIALS CORP.", "status": "Active", "recorded_date": "2025-05-23", "anniversary_or_expiry": "2027-05-23", "area_ha": null, "tenure_type": "Single Cell Mining Claim", "source": "Ontario MLAS operational claims (OGSEarth / LIO MapServer). Unofficial viewing data, not legal title.", "as_of": "2026-09-20", "role": "focus", "color": "#e8b040"}}, {"type": "Feature", "geometry": {"type": "Polygon", "coordinates": [[[-79.9563, 47.6083], [-79.9563, 47.6125], [-79.9625, 47.6125], [-79.9625, 47.6083], [-79.9563, 47.6083]]]}, "properties": {"company_id": "eldorado-gold", "jurisdiction": "Ontario", "claim_id": "947967", "claim_name": null, "holder": "(100) QUEBEC INNOVATIVE MATERIALS CORP.", "status": "Active", "recorded_date": "2025-05-23", "anniversary_or_expiry": "2027-05-23", "area_ha": null, "tenure_type": "Single Cell Mining Claim", "source": "Ontario MLAS operational claims (OGSEarth / LIO MapServer). Unofficial viewing data, not legal title.", "as_of": "2026-09-20", "role": "focus", "color": "#e8b040"}}, {"type": "Feature", "geometry": {"type": "Polygon", "coordinates": [[[-79.95, 47.6083], [-79.95, 47.6125], [-79.9563, 47.6125], [-79.9563, 47.6083], [-79.95, 47.6083]]]}, "properties": {"company_id": "eldorado-gold", "jurisdiction": "Ontario", "claim_id": "947968", "claim_name": null, "holder": "(100) QUEBEC INNOVATIVE MATERIALS CORP.", "status": "Active", "recorded_date": "2025-05-23", "anniversary_or_expiry": "2027-05-23", "area_ha": null, "tenure_type": "Single Cell Mining Claim", "source": "Ontario MLAS operational claims (OGSEarth / LIO MapServer). Unofficial viewing data, not legal title.", "as_of": "2026-09-20", "role": "focus", "color": "#e8b040"}}, {"type": "Feature", "geometry": {"type": "Polygon", "coordinates": [[[-79.9625, 47.6083], [-79.9625, 47.6125], [-79.9688, 47.6125], [-79.9688, 47.6083], [-79.9625, 47.6083]]]}, "properties": {"company_id": "eldorado-gold", "jurisdiction": "Ontario", "claim_id": "947969", "claim_name": null, "holder": "(100) QUEBEC INNOVATIVE MATERIALS CORP.", "status": "Active", "recorded_date": "2025-05-23", "anniversary_or_expiry": "2027-05-23", "area_ha": null, "tenure_type": "Single Cell Mining Claim", "source": "Ontario MLAS operational claims (OGSEarth / LIO MapServer). Unofficial viewing data, not legal title.", "as_of": "2026-09-20", "role": "focus", "color": "#e8b040"}}, {"type": "Feature", "geometry": {"type": "Polygon", "coordinates": [[[-79.9563, 47.6042], [-79.9563, 47.6083], [-79.9625, 47.6083], [-79.9625, 47.6042], [-79.9563, 47.6042]]]}, "properties": {"company_id": "eldorado-gold", "jurisdiction": "Ontario", "claim_id": "947970", "claim_name": null, "holder": "(100) QUEBEC INNOVATIVE MATERIALS CORP.", "status": "Active", "recorded_date": "2025-05-23", "anniversary_or_expiry": "2027-05-23", "area_ha": null, "tenure_type": "Single Cell Mining Claim", "source": "Ontario MLAS operational claims (OGSEarth / LIO MapServer). Unofficial viewing data, not legal title.", "as_of": "2026-09-20", "role": "focus", "color": "#e8b040"}}, {"type": "Feature", "geometry": {"type": "Polygon", "coordinates": [[[-79.8813, 47.675], [-79.8813, 47.6792], [-79.8875, 47.6792], [-79.8875, 47.675], [-79.8813, 47.675]]]}, "properties": {"company_id": "eldorado-gold", "jurisdiction": "Ontario", "claim_id": "947971", "claim_name": null, "holder": "(100) QUEBEC INNOVATIVE MATERIALS CORP.", "status": "Active", "recorded_date": "2025-05-23", "anniversary_or_expiry": "2027-05-23", "area_ha": null, "tenure_type": "Single Cell Mining Claim", "source": "Ontario MLAS operational claims (OGSEarth / LIO MapServer). Unofficial viewing data, not legal title.", "as_of": "2026-09-20", "role": "focus", "color": "#e8b040"}}, {"type": "Feature", "geometry": {"type": "Polygon", "coordinates": [[[-79.875, 47.6667], [-79.875, 47.6708], [-79.8813, 47.6708], [-79.8813, 47.6667], [-79.875, 47.6667]]]}, "properties": {"company_id": "eldorado-gold", "jurisdiction": "Ontario", "claim_id": "947972", "claim_name": null, "holder": "(100) QUEBEC INNOVATIVE MATERIALS CORP.", "status": "Active", "recorded_date": "2025-05-23", "anniversary_or_expiry": "2027-05-23", "area_ha": null, "tenure_type": "Single Cell Mining Claim", "source": "Ontario MLAS operational claims (OGSEarth / LIO MapServer). Unofficial viewing data, not legal title.", "as_of": "2026-09-20", "role": "focus", "color": "#e8b040"}}, {"type": "Feature", "geometry": {"type": "Polygon", "coordinates": [[[-79.8813, 47.6792], [-79.8813, 47.6833], [-79.8875, 47.6833], [-79.8875, 47.6792], [-79.8813, 47.6792]]]}, "properties": {"company_id": "eldorado-gold", "jurisdiction": "Ontario", "claim_id": "947973", "claim_name": null, "holder": "(100) QUEBEC INNOVATIVE MATERIALS CORP.", "status": "Active", "recorded_date": "2025-05-23", "anniversary_or_expiry": "2027-05-23", "area_ha": null, "tenure_type": "Single Cell Mining Claim", "source": "Ontario MLAS operational claims (OGSEarth / LIO MapServer). Unofficial viewing data, not legal title.", "as_of": "2026-09-20", "role": "focus", "color": "#e8b040"}}, {"type": "Feature", "geometry": {"type": "Polygon", "coordinates": [[[-79.8813, 47.6667], [-79.8813, 47.6708], [-79.8875, 47.6708], [-79.8875, 47.6667], [-79.8813, 47.6667]]]}, "properties": {"company_id": "eldorado-gold", "jurisdiction": "Ontario", "claim_id": "947974", "claim_name": null, "holder": "(100) QUEBEC INNOVATIVE MATERIALS CORP.", "status": "Active", "recorded_date": "2025-05-23", "anniversary_or_expiry": "2027-05-23", "area_ha": null, "tenure_type": "Single Cell Mining Claim", "source": "Ontario MLAS operational claims (OGSEarth / LIO MapServer). Unofficial viewing data, not legal title.", "as_of": "2026-09-20", "role": "focus", "color": "#e8b040"}}, {"type": "Feature", "geometry": {"type": "Polygon", "coordinates": [[[-79.875, 47.675], [-79.875, 47.6792], [-79.8813, 47.6792], [-79.8813, 47.675], [-79.875, 47.675]]]}, "properties": {"company_id": "eldorado-gold", "jurisdiction": "Ontario", "claim_id": "947975", "claim_name": null, "holder": "(100) QUEBEC INNOVATIVE MATERIALS CORP.", "status": "Active", "recorded_date": "2025-05-23", "anniversary_or_expiry": "2027-05-23", "area_ha": null, "tenure_type": "Single Cell Mining Claim", "source": "Ontario MLAS operational claims (OGSEarth / LIO MapServer). Unofficial viewing data, not legal title.", "as_of": "2026-09-20", "role": "focus", "color": "#e8b040"}}, {"type": "Feature", "geometry": {"type": "Polygon", "coordinates": [[[-79.875, 47.6708], [-79.875, 47.675], [-79.8813, 47.675], [-79.8813, 47.6708], [-79.875, 47.6708]]]}, "properties": {"company_id": "eldorado-gold", "jurisdiction": "Ontario", "claim_id": "947976", "claim_name": null, "holder": "(100) QUEBEC INNOVATIVE MATERIALS CORP.", "status": "Active", "recorded_date": "2025-05-23", "anniversary_or_expiry": "2027-05-23", "area_ha": null, "tenure_type": "Single Cell Mining Claim", "source": "Ontario MLAS operational claims (OGSEarth / LIO MapServer). Unofficial viewing data, not legal title.", "as_of": "2026-09-20", "role": "focus", "color": "#e8b040"}}, {"type": "Feature", "geometry": {"type": "Polygon", "coordinates": [[[-79.8813, 47.6708], [-79.8813, 47.675], [-79.8875, 47.675], [-79.8875, 47.6708], [-79.8813, 47.6708]]]}, "properties": {"company_id": "eldorado-gold", "jurisdiction": "Ontario", "claim_id": "947977", "claim_name": null, "holder": "(100) QUEBEC INNOVATIVE MATERIALS CORP.", "status": "Active", "recorded_date": "2025-05-23", "anniversary_or_expiry": "2027-05-23", "area_ha": null, "tenure_type": "Single Cell Mining Claim", "source": "Ontario MLAS operational claims (OGSEarth / LIO MapServer). Unofficial viewing data, not legal title.", "as_of": "2026-09-20", "role": "focus", "color": "#e8b040"}}, {"type": "Feature", "geometry": {"type": "Polygon", "coordinates": [[[-79.875, 47.6792], [-79.875, 47.6833], [-79.8813, 47.6833], [-79.8813, 47.6792], [-79.875, 47.6792]]]}, "properties": {"company_id": "eldorado-gold", "jurisdiction": "Ontario", "claim_id": "947978", "claim_name": null, "holder": "(100) QUEBEC INNOVATIVE MATERIALS CORP.", "status": "Active", "recorded_date": "2025-05-23", "anniversary_or_expiry": "2027-05-23", "area_ha": null, "tenure_type": "Single Cell Mining Claim", "source": "Ontario MLAS operational claims (OGSEarth / LIO MapServer). Unofficial viewing data, not legal title.", "as_of": "2026-09-20", "role": "focus", "color": "#e8b040"}}, {"type": "Feature", "geometry": {"type": "Polygon", "coordinates": [[[-79.8875, 47.675], [-79.8875, 47.6792], [-79.8938, 47.6792], [-79.8938, 47.675], [-79.8875, 47.675]]]}, "properties": {"company_id": "eldorado-gold", "jurisdiction": "Ontario", "claim_id": "947979", "claim_name": null, "holder": "(100) QUEBEC INNOVATIVE MATERIALS CORP.", "status": "Active", "recorded_date": "2025-05-23", "anniversary_or_expiry": "2027-05-23", "area_ha": null, "tenure_type": "Single Cell Mining Claim", "source": "Ontario MLAS operational claims (OGSEarth / LIO MapServer). Unofficial viewing data, not legal title.", "as_of": "2026-09-20", "role": "focus", "color": "#e8b040"}}, {"type": "Feature", "geometry": {"type": "Polygon", "coordinates": [[[-79.8875, 47.6792], [-79.8875, 47.6833], [-79.8938, 47.6833], [-79.8938, 47.6792], [-79.8875, 47.6792]]]}, "properties": {"company_id": "eldorado-gold", "jurisdiction": "Ontario", "claim_id": "947980", "claim_name": null, "holder": "(100) QUEBEC INNOVATIVE MATERIALS CORP.", "status": "Active", "recorded_date": "2025-05-23", "anniversary_or_expiry": "2027-05-23", "area_ha": null, "tenure_type": "Single Cell Mining Claim", "source": "Ontario MLAS operational claims (OGSEarth / LIO MapServer). Unofficial viewing data, not legal title.", "as_of": "2026-09-20", "role": "focus", "color": "#e8b040"}}, {"type": "Feature", "geometry": {"type": "Polygon", "coordinates": [[[-79.5813, 47.6292], [-79.5813, 47.6333], [-79.5875, 47.6333], [-79.5875, 47.6292], [-79.5813, 47.6292]]]}, "properties": {"company_id": "eldorado-gold", "jurisdiction": "Ontario", "claim_id": "947981", "claim_name": null, "holder": "(100) QUEBEC INNOVATIVE MATERIALS CORP.", "status": "Active", "recorded_date": "2025-05-23", "anniversary_or_expiry": "2027-05-23", "area_ha": null, "tenure_type": "Single Cell Mining Claim", "source": "Ontario MLAS operational claims (OGSEarth / LIO MapServer). Unofficial viewing data, not legal title.", "as_of": "2026-09-20", "role": "focus", "color": "#e8b040"}}, {"type": "Feature", "geometry": {"type": "Polygon", "coordinates": [[[-79.5875, 47.6292], [-79.5875, 47.6333], [-79.5938, 47.6333], [-79.5938, 47.6292], [-79.5875, 47.6292]]]}, "properties": {"company_id": "eldorado-gold", "jurisdiction": "Ontario", "claim_id": "947982", "claim_name": null, "holder": "(100) QUEBEC INNOVATIVE MATERIALS CORP.", "status": "Active", "recorded_date": "2025-05-23", "anniversary_or_expiry": "2027-05-23", "area_ha": null, "tenure_type": "Single Cell Mining Claim", "source": "Ontario MLAS operational claims (OGSEarth / LIO MapServer). Unofficial viewing data, not legal title.", "as_of": "2026-09-20", "role": "focus", "color": "#e8b040"}}, {"type": "Feature", "geometry": {"type": "Polygon", "coordinates": [[[-79.5875, 47.6333], [-79.5875, 47.6375], [-79.5938, 47.6375], [-79.5938, 47.6333], [-79.5875, 47.6333]]]}, "properties": {"company_id": "eldorado-gold", "jurisdiction": "Ontario", "claim_id": "947983", "claim_name": null, "holder": "(100) QUEBEC INNOVATIVE MATERIALS CORP.", "status": "Active", "recorded_date": "2025-05-23", "anniversary_or_expiry": "2027-05-23", "area_ha": null, "tenure_type": "Single Cell Mining Claim", "source": "Ontario MLAS operational claims (OGSEarth / LIO MapServer). Unofficial viewing data, not legal title.", "as_of": "2026-09-20", "role": "focus", "color": "#e8b040"}}, {"type": "Feature", "geometry": {"type": "Polygon", "coordinates": [[[-79.5875, 47.6375], [-79.5875, 47.6417], [-79.5938, 47.6417], [-79.5938, 47.6375], [-79.5875, 47.6375]]]}, "properties": {"company_id": "eldorado-gold", "jurisdiction": "Ontario", "claim_id": "947984", "claim_name": null, "holder": "(100) QUEBEC INNOVATIVE MATERIALS CORP.", "status": "Active", "recorded_date": "2025-05-23", "anniversary_or_expiry": "2027-05-23", "area_ha": null, "tenure_type": "Single Cell Mining Claim", "source": "Ontario MLAS operational claims (OGSEarth / LIO MapServer). Unofficial viewing data, not legal title.", "as_of": "2026-09-20", "role": "focus", "color": "#e8b040"}}, {"type": "Feature", "geometry": {"type": "Polygon", "coordinates": [[[-79.5875, 47.6417], [-79.5875, 47.6458], [-79.5938, 47.6458], [-79.5938, 47.6417], [-79.5875, 47.6417]]]}, "properties": {"company_id": "eldorado-gold", "jurisdiction": "Ontario", "claim_id": "947985", "claim_name": null, "holder": "(100) QUEBEC INNOVATIVE MATERIALS CORP.", "status": "Active", "recorded_date": "2025-05-23", "anniversary_or_expiry": "2027-05-23", "area_ha": null, "tenure_type": "Single Cell Mining Claim", "source": "Ontario MLAS operational claims (OGSEarth / LIO MapServer). Unofficial viewing data, not legal title.", "as_of": "2026-09-20", "role": "focus", "color": "#e8b040"}}, {"type": "Feature", "geometry": {"type": "Polygon", "coordinates": [[[-79.5813, 47.6417], [-79.5813, 47.6458], [-79.5875, 47.6458], [-79.5875, 47.6417], [-79.5813, 47.6417]]]}, "properties": {"company_id": "eldorado-gold", "jurisdiction": "Ontario", "claim_id": "947986", "claim_name": null, "holder": "(100) QUEBEC INNOVATIVE MATERIALS CORP.", "status": "Active", "recorded_date": "2025-05-23", "anniversary_or_expiry": "2027-05-23", "area_ha": null, "tenure_type": "Single Cell Mining Claim", "source": "Ontario MLAS operational claims (OGSEarth / LIO MapServer). Unofficial viewing data, not legal title.", "as_of": "2026-09-20", "role": "focus", "color": "#e8b040"}}, {"type": "Feature", "geometry": {"type": "Polygon", "coordinates": [[[-79.5813, 47.6333], [-79.5813, 47.6375], [-79.5875, 47.6375], [-79.5875, 47.6333], [-79.5813, 47.6333]]]}, "properties": {"company_id": "eldorado-gold", "jurisdiction": "Ontario", "claim_id": "947987", "claim_name": null, "holder": "(100) QUEBEC INNOVATIVE MATERIALS CORP.", "status": "Active", "recorded_date": "2025-05-23", "anniversary_or_expiry": "2027-05-23", "area_ha": null, "tenure_type": "Single Cell Mining Claim", "source": "Ontario MLAS operational claims (OGSEarth / LIO MapServer). Unofficial viewing data, not legal title.", "as_of": "2026-09-20", "role": "focus", "color": "#e8b040"}}, {"type": "Feature", "geometry": {"type": "Polygon", "coordinates": [[[-79.5813, 47.6375], [-79.5813, 47.6417], [-79.5875, 47.6417], [-79.5875, 47.6375], [-79.5813, 47.6375]]]}, "properties": {"company_id": "eldorado-gold", "jurisdiction": "Ontario", "claim_id": "947988", "claim_name": null, "holder": "(100) QUEBEC INNOVATIVE MATERIALS CORP.", "status": "Active", "recorded_date": "2025-05-23", "anniversary_or_expiry": "2027-05-23", "area_ha": null, "tenure_type": "Single Cell Mining Claim", "source": "Ontario MLAS operational claims (OGSEarth / LIO MapServer). Unofficial viewing data, not legal title.", "as_of": "2026-09-20", "role": "focus", "color": "#e8b040"}}, {"type": "Feature", "geometry": {"type": "Polygon", "coordinates": [[[-79.575, 47.6417], [-79.575, 47.6458], [-79.5813, 47.6458], [-79.5813, 47.6417], [-79.575, 47.6417]]]}, "properties": {"company_id": "eldorado-gold", "jurisdiction": "Ontario", "claim_id": "947989", "claim_name": null, "holder": "(100) QUEBEC INNOVATIVE MATERIALS CORP.", "status": "Active", "recorded_date": "2025-05-23", "anniversary_or_expiry": "2027-05-23", "area_ha": null, "tenure_type": "Single Cell Mining Claim", "source": "Ontario MLAS operational claims (OGSEarth / LIO MapServer). Unofficial viewing data, not legal title.", "as_of": "2026-09-20", "role": "focus", "color": "#e8b040"}}, {"type": "Feature", "geometry": {"type": "Polygon", "coordinates": [[[-79.575, 47.6375], [-79.575, 47.6417], [-79.5813, 47.6417], [-79.5813, 47.6375], [-79.575, 47.6375]]]}, "properties": {"company_id": "eldorado-gold", "jurisdiction": "Ontario", "claim_id": "947990", "claim_name": null, "holder": "(100) QUEBEC INNOVATIVE MATERIALS CORP.", "status": "Active", "recorded_date": "2025-05-23", "anniversary_or_expiry": "2027-05-23", "area_ha": null, "tenure_type": "Single Cell Mining Claim", "source": "Ontario MLAS operational claims (OGSEarth / LIO MapServer). Unofficial viewing data, not legal title.", "as_of": "2026-09-20", "role": "focus", "color": "#e8b040"}}, {"type": "Feature", "geometry": {"type": "Polygon", "coordinates": [[[-79.675, 47.6958], [-79.675, 47.7], [-79.6813, 47.7], [-79.6813, 47.6958], [-79.675, 47.6958]]]}, "properties": {"company_id": "eldorado-gold", "jurisdiction": "Ontario", "claim_id": "947991", "claim_name": null, "holder": "(100) QUEBEC INNOVATIVE MATERIALS CORP.", "status": "Active", "recorded_date": "2025-05-23", "anniversary_or_expiry": "2027-05-23", "area_ha": null, "tenure_type": "Single Cell Mining Claim", "source": "Ontario MLAS operational claims (OGSEarth / LIO MapServer). Unofficial viewing data, not legal title.", "as_of": "2026-09-20", "role": "focus", "color": "#e8b040"}}, {"type": "Feature", "geometry": {"type": "Polygon", "coordinates": [[[-79.675, 47.6917], [-79.675, 47.6958], [-79.6813, 47.6958], [-79.6813, 47.6917], [-79.675, 47.6917]]]}, "properties": {"company_id": "eldorado-gold", "jurisdiction": "Ontario", "claim_id": "947992", "claim_name": null, "holder": "(100) QUEBEC INNOVATIVE MATERIALS CORP.", "status": "Active", "recorded_date": "2025-05-23", "anniversary_or_expiry": "2027-05-23", "area_ha": null, "tenure_type": "Single Cell Mining Claim", "source": "Ontario MLAS operational claims (OGSEarth / LIO MapServer). Unofficial viewing data, not legal title.", "as_of": "2026-09-20", "role": "focus", "color": "#e8b040"}}, {"type": "Feature", "geometry": {"type": "Polygon", "coordinates": [[[-79.6688, 47.6917], [-79.6688, 47.6958], [-79.675, 47.6958], [-79.675, 47.6917], [-79.6688, 47.6917]]]}, "properties": {"company_id": "eldorado-gold", "jurisdiction": "Ontario", "claim_id": "947993", "claim_name": null, "holder": "(100) QUEBEC INNOVATIVE MATERIALS CORP.", "status": "Active", "recorded_date": "2025-05-23", "anniversary_or_expiry": "2027-05-23", "area_ha": null, "tenure_type": "Single Cell Mining Claim", "source": "Ontario MLAS operational claims (OGSEarth / LIO MapServer). Unofficial viewing data, not legal title.", "as_of": "2026-09-20", "role": "focus", "color": "#e8b040"}}]}