{"type": "FeatureCollection", "features": [{"type": "Feature", "geometry": {"type": "Polygon", "coordinates": [[[-87.9, 49.3], [-87.9, 49.3042], [-87.9063, 49.3042], [-87.9063, 49.3], [-87.9, 49.3]]]}, "properties": {"company_id": "electric-royalties", "jurisdiction": "Ontario", "claim_id": "739398", "claim_name": null, "holder": "(100) Electric Royalties Ltd.", "status": "Active", "recorded_date": "2022-07-15", "anniversary_or_expiry": "2027-07-15", "area_ha": null, "tenure_type": "Single Cell Mining Claim", "source": "Ontario MLAS operational claims (OGSEarth / LIO MapServer). Unofficial viewing data, not legal title.", "as_of": "2026-09-20", "role": "focus", "color": "#e8b040"}}, {"type": "Feature", "geometry": {"type": "Polygon", "coordinates": [[[-87.9125, 49.2958], [-87.9125, 49.2917], [-87.8938, 49.2917], [-87.8938, 49.3083], [-87.9125, 49.3083], [-87.9125, 49.3042], [-87.9, 49.3042], [-87.9, 49.3], [-87.9125, 49.3], [-87.9125, 49.2958]]]}, "properties": {"company_id": "electric-royalties", "jurisdiction": "Ontario", "claim_id": "739403", "claim_name": null, "holder": "(100) Electric Royalties Ltd.", "status": "Active", "recorded_date": "2022-07-15", "anniversary_or_expiry": "2027-07-15", "area_ha": null, "tenure_type": "Multi-cell Mining Claim", "source": "Ontario MLAS operational claims (OGSEarth / LIO MapServer). Unofficial viewing data, not legal title.", "as_of": "2026-09-20", "role": "focus", "color": "#e8b040"}}, {"type": "Feature", "geometry": {"type": "Polygon", "coordinates": [[[-91.45, 50.9583], [-91.45, 50.9542], [-91.4438, 50.9542], [-91.4438, 50.95], [-91.4375, 50.95], [-91.4375, 50.9458], [-91.4313, 50.9458], [-91.4313, 50.95], [-91.425, 50.95], [-91.425, 50.9583], [-91.4375, 50.9583], [-91.4375, 50.9708], [-91.4438, 50.9708], [-91.4438, 50.975], [-91.45, 50.975], [-91.45, 50.9583]]]}, "properties": {"company_id": "electric-royalties", "jurisdiction": "Ontario", "claim_id": "835965", "claim_name": null, "holder": "(1) Xplore Resources Corp., (99) Electric Royalties Ltd.", "status": "Active", "recorded_date": "2023-06-17", "anniversary_or_expiry": "2027-06-17", "area_ha": null, "tenure_type": "Multi-cell Mining Claim", "source": "Ontario MLAS operational claims (OGSEarth / LIO MapServer). Unofficial viewing data, not legal title.", "as_of": "2026-09-20", "role": "focus", "color": "#e8b040"}}, {"type": "Feature", "geometry": {"type": "Polygon", "coordinates": [[[-91.425, 50.9458], [-91.3813, 50.9458], [-91.3813, 50.9583], [-91.425, 50.9583], [-91.425, 50.95], [-91.4313, 50.95], [-91.4313, 50.9458], [-91.425, 50.9458]]]}, "properties": {"company_id": "electric-royalties", "jurisdiction": "Ontario", "claim_id": "835966", "claim_name": null, "holder": "(1) Xplore Resources Corp., (99) Electric Royalties Ltd.", "status": "Active", "recorded_date": "2023-06-17", "anniversary_or_expiry": "2027-06-17", "area_ha": null, "tenure_type": "Multi-cell Mining Claim", "source": "Ontario MLAS operational claims (OGSEarth / LIO MapServer). Unofficial viewing data, not legal title.", "as_of": "2026-09-20", "role": "focus", "color": "#e8b040"}}, {"type": "Feature", "geometry": {"type": "Polygon", "coordinates": [[[-91.3813, 50.9542], [-91.3813, 50.95], [-91.3625, 50.95], [-91.3625, 50.9542], [-91.35, 50.9542], [-91.35, 50.9583], [-91.3813, 50.9583], [-91.3813, 50.9542]]]}, "properties": {"company_id": "electric-royalties", "jurisdiction": "Ontario", "claim_id": "835967", "claim_name": null, "holder": "(1) Xplore Resources Corp., (99) Electric Royalties Ltd.", "status": "Active", "recorded_date": "2023-06-17", "anniversary_or_expiry": "2027-06-17", "area_ha": null, "tenure_type": "Multi-cell Mining Claim", "source": "Ontario MLAS operational claims (OGSEarth / LIO MapServer). Unofficial viewing data, not legal title.", "as_of": "2026-09-20", "role": "focus", "color": "#e8b040"}}, {"type": "Feature", "geometry": {"type": "Polygon", "coordinates": [[[-91.7938, 50.825], [-91.7938, 50.8208], [-91.7563, 50.8208], [-91.7563, 50.8375], [-91.7938, 50.8375], [-91.7938, 50.825]]]}, "properties": {"company_id": "electric-royalties", "jurisdiction": "Ontario", "claim_id": "752001", "claim_name": null, "holder": "(100) Electric Royalties Ltd.", "status": "Active", "recorded_date": "2022-10-15", "anniversary_or_expiry": "2026-10-15", "area_ha": null, "tenure_type": "Multi-cell Mining Claim", "source": "Ontario MLAS operational claims (OGSEarth / LIO MapServer). Unofficial viewing data, not legal title.", "as_of": "2026-09-20", "role": "focus", "color": "#e8b040"}}, {"type": "Feature", "geometry": {"type": "Polygon", "coordinates": [[[-91.8313, 50.825], [-91.8313, 50.8208], [-91.7938, 50.8208], [-91.7938, 50.8375], [-91.8313, 50.8375], [-91.8313, 50.825]]]}, "properties": {"company_id": "electric-royalties", "jurisdiction": "Ontario", "claim_id": "752002", "claim_name": null, "holder": "(100) Electric Royalties Ltd.", "status": "Active", "recorded_date": "2022-10-15", "anniversary_or_expiry": "2026-10-15", "area_ha": null, "tenure_type": "Multi-cell Mining Claim", "source": "Ontario MLAS operational claims (OGSEarth / LIO MapServer). Unofficial viewing data, not legal title.", "as_of": "2026-09-20", "role": "focus", "color": "#e8b040"}}, {"type": "Feature", "geometry": {"type": "Polygon", "coordinates": [[[-91.8188, 50.7833], [-91.7875, 50.7833], [-91.7875, 50.8], [-91.7938, 50.8], [-91.7938, 50.8042], [-91.8125, 50.8042], [-91.8125, 50.8], [-91.8188, 50.8], [-91.8188, 50.7875], [-91.825, 50.7875], [-91.825, 50.7833], [-91.8188, 50.7833]]]}, "properties": {"company_id": "electric-royalties", "jurisdiction": "Ontario", "claim_id": "752003", "claim_name": null, "holder": "(100) Electric Royalties Ltd.", "status": "Active", "recorded_date": "2022-10-15", "anniversary_or_expiry": "2026-10-15", "area_ha": null, "tenure_type": "Multi-cell Mining Claim", "source": "Ontario MLAS operational claims (OGSEarth / LIO MapServer). Unofficial viewing data, not legal title.", "as_of": "2026-09-20", "role": "focus", "color": "#e8b040"}}, {"type": "Feature", "geometry": {"type": "Polygon", "coordinates": [[[-91.8875, 50.8042], [-91.8875, 50.8], [-91.8563, 50.8], [-91.8563, 50.8083], [-91.8875, 50.8083], [-91.8875, 50.8042]]]}, "properties": {"company_id": "electric-royalties", "jurisdiction": "Ontario", "claim_id": "752004", "claim_name": null, "holder": "(100) Electric Royalties Ltd.", "status": "Active", "recorded_date": "2022-10-15", "anniversary_or_expiry": "2026-10-15", "area_ha": null, "tenure_type": "Multi-cell Mining Claim", "source": "Ontario MLAS operational claims (OGSEarth / LIO MapServer). Unofficial viewing data, not legal title.", "as_of": "2026-09-20", "role": "focus", "color": "#e8b040"}}, {"type": "Feature", "geometry": {"type": "Polygon", "coordinates": [[[-91.8563, 50.8042], [-91.8563, 50.8], [-91.8313, 50.8], [-91.8313, 50.825], [-91.8563, 50.825], [-91.8563, 50.8042]]]}, "properties": {"company_id": "electric-royalties", "jurisdiction": "Ontario", "claim_id": "752005", "claim_name": null, "holder": "(100) Electric Royalties Ltd.", "status": "Active", "recorded_date": "2022-10-15", "anniversary_or_expiry": "2026-10-15", "area_ha": null, "tenure_type": "Multi-cell Mining Claim", "source": "Ontario MLAS operational claims (OGSEarth / LIO MapServer). Unofficial viewing data, not legal title.", "as_of": "2026-09-20", "role": "focus", "color": "#e8b040"}}, {"type": "Feature", "geometry": {"type": "Polygon", "coordinates": [[[-91.8313, 50.7917], [-91.8313, 50.7875], [-91.8188, 50.7875], [-91.8188, 50.8], [-91.8125, 50.8], [-91.8125, 50.8208], [-91.8313, 50.8208], [-91.8313, 50.7917]]]}, "properties": {"company_id": "electric-royalties", "jurisdiction": "Ontario", "claim_id": "752006", "claim_name": null, "holder": "(100) Electric Royalties Ltd.", "status": "Active", "recorded_date": "2022-10-15", "anniversary_or_expiry": "2026-10-15", "area_ha": null, "tenure_type": "Multi-cell Mining Claim", "source": "Ontario MLAS operational claims (OGSEarth / LIO MapServer). Unofficial viewing data, not legal title.", "as_of": "2026-09-20", "role": "focus", "color": "#e8b040"}}, {"type": "Feature", "geometry": {"type": "Polygon", "coordinates": [[[-91.875, 50.8208], [-91.875, 50.8167], [-91.8688, 50.8167], [-91.8688, 50.8083], [-91.8563, 50.8083], [-91.8563, 50.825], [-91.875, 50.825], [-91.875, 50.8208]]]}, "properties": {"company_id": "electric-royalties", "jurisdiction": "Ontario", "claim_id": "752007", "claim_name": null, "holder": "(100) Electric Royalties Ltd.", "status": "Active", "recorded_date": "2022-10-15", "anniversary_or_expiry": "2026-10-15", "area_ha": null, "tenure_type": "Multi-cell Mining Claim", "source": "Ontario MLAS operational claims (OGSEarth / LIO MapServer). Unofficial viewing data, not legal title.", "as_of": "2026-09-20", "role": "focus", "color": "#e8b040"}}, {"type": "Feature", "geometry": {"type": "Polygon", "coordinates": [[[-91.9, 50.8042], [-91.9, 50.8], [-91.8875, 50.8], [-91.8875, 50.8083], [-91.8688, 50.8083], [-91.8688, 50.8167], [-91.9, 50.8167], [-91.9, 50.8042]]]}, "properties": {"company_id": "electric-royalties", "jurisdiction": "Ontario", "claim_id": "752008", "claim_name": null, "holder": "(100) Electric Royalties Ltd.", "status": "Active", "recorded_date": "2022-10-15", "anniversary_or_expiry": "2026-10-15", "area_ha": null, "tenure_type": "Multi-cell Mining Claim", "source": "Ontario MLAS operational claims (OGSEarth / LIO MapServer). Unofficial viewing data, not legal title.", "as_of": "2026-09-20", "role": "focus", "color": "#e8b040"}}, {"type": "Feature", "geometry": {"type": "Polygon", "coordinates": [[[-91.875, 50.8292], [-91.875, 50.825], [-91.8313, 50.825], [-91.8313, 50.8375], [-91.8625, 50.8375], [-91.8625, 50.8417], [-91.875, 50.8417], [-91.875, 50.8292]]]}, "properties": {"company_id": "electric-royalties", "jurisdiction": "Ontario", "claim_id": "752009", "claim_name": null, "holder": "(100) Electric Royalties Ltd.", "status": "Active", "recorded_date": "2022-10-15", "anniversary_or_expiry": "2026-10-15", "area_ha": null, "tenure_type": "Multi-cell Mining Claim", "source": "Ontario MLAS operational claims (OGSEarth / LIO MapServer). Unofficial viewing data, not legal title.", "as_of": "2026-09-20", "role": "focus", "color": "#e8b040"}}, {"type": "Feature", "geometry": {"type": "Polygon", "coordinates": [[[-91.8125, 50.8542], [-91.7875, 50.8542], [-91.7875, 50.8583], [-91.7563, 50.8583], [-91.7563, 50.8625], [-91.8125, 50.8625], [-91.8125, 50.8583], [-91.8188, 50.8583], [-91.8188, 50.8542], [-91.8125, 50.8542]]]}, "properties": {"company_id": "electric-royalties", "jurisdiction": "Ontario", "claim_id": "754663", "claim_name": null, "holder": "(100) Electric Royalties Ltd.", "status": "Active", "recorded_date": "2022-11-06", "anniversary_or_expiry": "2026-11-06", "area_ha": null, "tenure_type": "Multi-cell Mining Claim", "source": "Ontario MLAS operational claims (OGSEarth / LIO MapServer). Unofficial viewing data, not legal title.", "as_of": "2026-09-20", "role": "focus", "color": "#e8b040"}}, {"type": "Feature", "geometry": {"type": "Polygon", "coordinates": [[[-91.7938, 50.85], [-91.7938, 50.8458], [-91.775, 50.8458], [-91.775, 50.85], [-91.7563, 50.85], [-91.7563, 50.8583], [-91.7875, 50.8583], [-91.7875, 50.8542], [-91.7938, 50.8542], [-91.7938, 50.85]]]}, "properties": {"company_id": "electric-royalties", "jurisdiction": "Ontario", "claim_id": "754664", "claim_name": null, "holder": "(100) Electric Royalties Ltd.", "status": "Active", "recorded_date": "2022-11-06", "anniversary_or_expiry": "2026-11-06", "area_ha": null, "tenure_type": "Multi-cell Mining Claim", "source": "Ontario MLAS operational claims (OGSEarth / LIO MapServer). Unofficial viewing data, not legal title.", "as_of": "2026-09-20", "role": "focus", "color": "#e8b040"}}, {"type": "Feature", "geometry": {"type": "Polygon", "coordinates": [[[-91.7938, 50.8417], [-91.7938, 50.8375], [-91.7563, 50.8375], [-91.7563, 50.85], [-91.775, 50.85], [-91.775, 50.8458], [-91.7938, 50.8458], [-91.7938, 50.8417]]]}, "properties": {"company_id": "electric-royalties", "jurisdiction": "Ontario", "claim_id": "754665", "claim_name": null, "holder": "(100) Electric Royalties Ltd.", "status": "Active", "recorded_date": "2022-11-06", "anniversary_or_expiry": "2026-11-06", "area_ha": null, "tenure_type": "Multi-cell Mining Claim", "source": "Ontario MLAS operational claims (OGSEarth / LIO MapServer). Unofficial viewing data, not legal title.", "as_of": "2026-09-20", "role": "focus", "color": "#e8b040"}}]}