{"type": "FeatureCollection", "features": [{"type": "Feature", "geometry": {"type": "Polygon", "coordinates": [[[-86.2938, 48.6917], [-86.2938, 48.6958], [-86.3, 48.6958], [-86.3, 48.6917], [-86.2938, 48.6917]]]}, "properties": {"company_id": "emperor-metals", "jurisdiction": "Ontario", "claim_id": "102788", "claim_name": null, "holder": "(100) Emperor Metals Inc.", "status": "Hold Special Circumstances Apply", "recorded_date": "2018-04-10", "anniversary_or_expiry": "2026-03-07", "area_ha": null, "tenure_type": "Single Cell Mining Claim", "source": "Ontario MLAS operational claims (OGSEarth / LIO MapServer). Unofficial viewing data, not legal title.", "as_of": "2026-09-20", "role": "focus", "color": "#e8b040"}}, {"type": "Feature", "geometry": {"type": "Polygon", "coordinates": [[[-85.8563, 48.8542], [-85.8563, 48.8583], [-85.8625, 48.8583], [-85.8625, 48.8542], [-85.8563, 48.8542]]]}, "properties": {"company_id": "emperor-metals", "jurisdiction": "Ontario", "claim_id": "102399", "claim_name": null, "holder": "(100) Emperor Metals Inc.", "status": "Active", "recorded_date": "2018-04-10", "anniversary_or_expiry": "2027-02-12", "area_ha": null, "tenure_type": "Single Cell Mining Claim", "source": "Ontario MLAS operational claims (OGSEarth / LIO MapServer). Unofficial viewing data, not legal title.", "as_of": "2026-09-20", "role": "focus", "color": "#e8b040"}}, {"type": "Feature", "geometry": {"type": "Polygon", "coordinates": [[[-85.8688, 48.8208], [-85.8688, 48.825], [-85.875, 48.825], [-85.875, 48.8208], [-85.8688, 48.8208]]]}, "properties": {"company_id": "emperor-metals", "jurisdiction": "Ontario", "claim_id": "108924", "claim_name": null, "holder": "(100) Emperor Metals Inc.", "status": "Active", "recorded_date": "2018-04-10", "anniversary_or_expiry": "2027-02-12", "area_ha": null, "tenure_type": "Boundary Cell Mining Claim", "source": "Ontario MLAS operational claims (OGSEarth / LIO MapServer). Unofficial viewing data, not legal title.", "as_of": "2026-09-20", "role": "focus", "color": "#e8b040"}}, {"type": "Feature", "geometry": {"type": "Polygon", "coordinates": [[[-85.8813, 48.8208], [-85.8813, 48.825], [-85.8875, 48.825], [-85.8875, 48.8208], [-85.8813, 48.8208]]]}, "properties": {"company_id": "emperor-metals", "jurisdiction": "Ontario", "claim_id": "108925", "claim_name": null, "holder": "(100) Emperor Metals Inc.", "status": "Active", "recorded_date": "2018-04-10", "anniversary_or_expiry": "2027-02-12", "area_ha": null, "tenure_type": "Single Cell Mining Claim", "source": "Ontario MLAS operational claims (OGSEarth / LIO MapServer). Unofficial viewing data, not legal title.", "as_of": "2026-09-20", "role": "focus", "color": "#e8b040"}}, {"type": "Feature", "geometry": {"type": "Polygon", "coordinates": [[[-85.8625, 48.8375], [-85.8625, 48.8417], [-85.8688, 48.8417], [-85.8688, 48.8375], [-85.8625, 48.8375]]]}, "properties": {"company_id": "emperor-metals", "jurisdiction": "Ontario", "claim_id": "109854", "claim_name": null, "holder": "(100) Emperor Metals Inc.", "status": "Active", "recorded_date": "2018-04-10", "anniversary_or_expiry": "2027-10-29", "area_ha": null, "tenure_type": "Single Cell Mining Claim", "source": "Ontario MLAS operational claims (OGSEarth / LIO MapServer). Unofficial viewing data, not legal title.", "as_of": "2026-09-20", "role": "focus", "color": "#e8b040"}}, {"type": "Feature", "geometry": {"type": "Polygon", "coordinates": [[[-85.8563, 48.8333], [-85.8563, 48.8375], [-85.8625, 48.8375], [-85.8625, 48.8333], [-85.8563, 48.8333]]]}, "properties": {"company_id": "emperor-metals", "jurisdiction": "Ontario", "claim_id": "109855", "claim_name": null, "holder": "(100) Emperor Metals Inc.", "status": "Active", "recorded_date": "2018-04-10", "anniversary_or_expiry": "2027-02-12", "area_ha": null, "tenure_type": "Boundary Cell Mining Claim", "source": "Ontario MLAS operational claims (OGSEarth / LIO MapServer). Unofficial viewing data, not legal title.", "as_of": "2026-09-20", "role": "focus", "color": "#e8b040"}}, {"type": "Feature", "geometry": {"type": "Polygon", "coordinates": [[[-86.2688, 48.6875], [-86.2688, 48.6917], [-86.275, 48.6917], [-86.275, 48.6875], [-86.2688, 48.6875]]]}, "properties": {"company_id": "emperor-metals", "jurisdiction": "Ontario", "claim_id": "118106", "claim_name": null, "holder": "(100) Emperor Metals Inc.", "status": "Hold Special Circumstances Apply", "recorded_date": "2018-04-10", "anniversary_or_expiry": "2026-03-07", "area_ha": null, "tenure_type": "Single Cell Mining Claim", "source": "Ontario MLAS operational claims (OGSEarth / LIO MapServer). Unofficial viewing data, not legal title.", "as_of": "2026-09-20", "role": "focus", "color": "#e8b040"}}, {"type": "Feature", "geometry": {"type": "Polygon", "coordinates": [[[-85.8563, 48.8625], [-85.8563, 48.8667], [-85.8625, 48.8667], [-85.8625, 48.8625], [-85.8563, 48.8625]]]}, "properties": {"company_id": "emperor-metals", "jurisdiction": "Ontario", "claim_id": "128430", "claim_name": null, "holder": "(100) Emperor Metals Inc.", "status": "Active", "recorded_date": "2018-04-10", "anniversary_or_expiry": "2027-02-12", "area_ha": null, "tenure_type": "Boundary Cell Mining Claim", "source": "Ontario MLAS operational claims (OGSEarth / LIO MapServer). Unofficial viewing data, not legal title.", "as_of": "2026-09-20", "role": "focus", "color": "#e8b040"}}, {"type": "Feature", "geometry": {"type": "Polygon", "coordinates": [[[-85.8688, 48.8167], [-85.8688, 48.8208], [-85.875, 48.8208], [-85.875, 48.8167], [-85.8688, 48.8167]]]}, "properties": {"company_id": "emperor-metals", "jurisdiction": "Ontario", "claim_id": "131021", "claim_name": null, "holder": "(100) Emperor Metals Inc.", "status": "Active", "recorded_date": "2018-04-10", "anniversary_or_expiry": "2027-02-12", "area_ha": null, "tenure_type": "Boundary Cell Mining Claim", "source": "Ontario MLAS operational claims (OGSEarth / LIO MapServer). Unofficial viewing data, not legal title.", "as_of": "2026-09-20", "role": "focus", "color": "#e8b040"}}, {"type": "Feature", "geometry": {"type": "Polygon", "coordinates": [[[-85.8813, 48.8167], [-85.8813, 48.8208], [-85.8875, 48.8208], [-85.8875, 48.8167], [-85.8813, 48.8167]]]}, "properties": {"company_id": "emperor-metals", "jurisdiction": "Ontario", "claim_id": "131022", "claim_name": null, "holder": "(100) Emperor Metals Inc.", "status": "Active", "recorded_date": "2018-04-10", "anniversary_or_expiry": "2027-02-12", "area_ha": null, "tenure_type": "Single Cell Mining Claim", "source": "Ontario MLAS operational claims (OGSEarth / LIO MapServer). Unofficial viewing data, not legal title.", "as_of": "2026-09-20", "role": "focus", "color": "#e8b040"}}, {"type": "Feature", "geometry": {"type": "Polygon", "coordinates": [[[-85.875, 48.8083], [-85.875, 48.8125], [-85.8813, 48.8125], [-85.8813, 48.8083], [-85.875, 48.8083]]]}, "properties": {"company_id": "emperor-metals", "jurisdiction": "Ontario", "claim_id": "131023", "claim_name": null, "holder": "(100) Emperor Metals Inc.", "status": "Active", "recorded_date": "2018-04-10", "anniversary_or_expiry": "2027-02-12", "area_ha": null, "tenure_type": "Boundary Cell Mining Claim", "source": "Ontario MLAS operational claims (OGSEarth / LIO MapServer). Unofficial viewing data, not legal title.", "as_of": "2026-09-20", "role": "focus", "color": "#e8b040"}}, {"type": "Feature", "geometry": {"type": "Polygon", "coordinates": [[[-85.8688, 48.8375], [-85.8688, 48.8417], [-85.875, 48.8417], [-85.875, 48.8375], [-85.8688, 48.8375]]]}, "properties": {"company_id": "emperor-metals", "jurisdiction": "Ontario", "claim_id": "136661", "claim_name": null, "holder": "(100) Emperor Metals Inc.", "status": "Active", "recorded_date": "2018-04-10", "anniversary_or_expiry": "2027-10-29", "area_ha": null, "tenure_type": "Single Cell Mining Claim", "source": "Ontario MLAS operational claims (OGSEarth / LIO MapServer). Unofficial viewing data, not legal title.", "as_of": "2026-09-20", "role": "focus", "color": "#e8b040"}}, {"type": "Feature", "geometry": {"type": "Polygon", "coordinates": [[[-85.8688, 48.8333], [-85.8688, 48.8375], [-85.875, 48.8375], [-85.875, 48.8333], [-85.8688, 48.8333]]]}, "properties": {"company_id": "emperor-metals", "jurisdiction": "Ontario", "claim_id": "138794", "claim_name": null, "holder": "(100) Emperor Metals Inc.", "status": "Active", "recorded_date": "2018-04-10", "anniversary_or_expiry": "2027-02-12", "area_ha": null, "tenure_type": "Boundary Cell Mining Claim", "source": "Ontario MLAS operational claims (OGSEarth / LIO MapServer). Unofficial viewing data, not legal title.", "as_of": "2026-09-20", "role": "focus", "color": "#e8b040"}}, {"type": "Feature", "geometry": {"type": "Polygon", "coordinates": [[[-85.875, 48.825], [-85.875, 48.8292], [-85.8813, 48.8292], [-85.8813, 48.825], [-85.875, 48.825]]]}, "properties": {"company_id": "emperor-metals", "jurisdiction": "Ontario", "claim_id": "138795", "claim_name": null, "holder": "(100) Emperor Metals Inc.", "status": "Active", "recorded_date": "2018-04-10", "anniversary_or_expiry": "2027-02-12", "area_ha": null, "tenure_type": "Single Cell Mining Claim", "source": "Ontario MLAS operational claims (OGSEarth / LIO MapServer). Unofficial viewing data, not legal title.", "as_of": "2026-09-20", "role": "focus", "color": "#e8b040"}}, {"type": "Feature", "geometry": {"type": "Polygon", "coordinates": [[[-85.8688, 48.8708], [-85.8688, 48.875], [-85.875, 48.875], [-85.875, 48.8708], [-85.8688, 48.8708]]]}, "properties": {"company_id": "emperor-metals", "jurisdiction": "Ontario", "claim_id": "137776", "claim_name": null, "holder": "(100) Emperor Metals Inc.", "status": "Active", "recorded_date": "2018-04-10", "anniversary_or_expiry": "2027-02-12", "area_ha": null, "tenure_type": "Single Cell Mining Claim", "source": "Ontario MLAS operational claims (OGSEarth / LIO MapServer). Unofficial viewing data, not legal title.", "as_of": "2026-09-20", "role": "focus", "color": "#e8b040"}}, {"type": "Feature", "geometry": {"type": "Polygon", "coordinates": [[[-85.8625, 48.8708], [-85.8625, 48.875], [-85.8688, 48.875], [-85.8688, 48.8708], [-85.8625, 48.8708]]]}, "properties": {"company_id": "emperor-metals", "jurisdiction": "Ontario", "claim_id": "143237", "claim_name": null, "holder": "(100) Emperor Metals Inc.", "status": "Active", "recorded_date": "2018-04-10", "anniversary_or_expiry": "2027-02-12", "area_ha": null, "tenure_type": "Single Cell Mining Claim", "source": "Ontario MLAS operational claims (OGSEarth / LIO MapServer). Unofficial viewing data, not legal title.", "as_of": "2026-09-20", "role": "focus", "color": "#e8b040"}}, {"type": "Feature", "geometry": {"type": "Polygon", "coordinates": [[[-85.8688, 48.8292], [-85.8688, 48.8333], [-85.875, 48.8333], [-85.875, 48.8292], [-85.8688, 48.8292]]]}, "properties": {"company_id": "emperor-metals", "jurisdiction": "Ontario", "claim_id": "144256", "claim_name": null, "holder": "(100) Emperor Metals Inc.", "status": "Active", "recorded_date": "2018-04-10", "anniversary_or_expiry": "2027-02-12", "area_ha": null, "tenure_type": "Boundary Cell Mining Claim", "source": "Ontario MLAS operational claims (OGSEarth / LIO MapServer). Unofficial viewing data, not legal title.", "as_of": "2026-09-20", "role": "focus", "color": "#e8b040"}}, {"type": "Feature", "geometry": {"type": "Polygon", "coordinates": [[[-85.875, 48.8167], [-85.875, 48.8208], [-85.8813, 48.8208], [-85.8813, 48.8167], [-85.875, 48.8167]]]}, "properties": {"company_id": "emperor-metals", "jurisdiction": "Ontario", "claim_id": "148236", "claim_name": null, "holder": "(100) Emperor Metals Inc.", "status": "Active", "recorded_date": "2018-04-10", "anniversary_or_expiry": "2027-02-12", "area_ha": null, "tenure_type": "Single Cell Mining Claim", "source": "Ontario MLAS operational claims (OGSEarth / LIO MapServer). Unofficial viewing data, not legal title.", "as_of": "2026-09-20", "role": "focus", "color": "#e8b040"}}, {"type": "Feature", "geometry": {"type": "Polygon", "coordinates": [[[-86.2813, 48.6875], [-86.2813, 48.6917], [-86.2875, 48.6917], [-86.2875, 48.6875], [-86.2813, 48.6875]]]}, "properties": {"company_id": "emperor-metals", "jurisdiction": "Ontario", "claim_id": "153627", "claim_name": null, "holder": "(100) Emperor Metals Inc.", "status": "Hold Special Circumstances Apply", "recorded_date": "2018-04-10", "anniversary_or_expiry": "2026-03-07", "area_ha": null, "tenure_type": "Single Cell Mining Claim", "source": "Ontario MLAS operational claims (OGSEarth / LIO MapServer). Unofficial viewing data, not legal title.", "as_of": "2026-09-20", "role": "focus", "color": "#e8b040"}}, {"type": "Feature", "geometry": {"type": "Polygon", "coordinates": [[[-86.2875, 48.6792], [-86.2875, 48.6833], [-86.2938, 48.6833], [-86.2938, 48.6792], [-86.2875, 48.6792]]]}, "properties": {"company_id": "emperor-metals", "jurisdiction": "Ontario", "claim_id": "153628", "claim_name": null, "holder": "(100) Emperor Metals Inc.", "status": "Hold Special Circumstances Apply", "recorded_date": "2018-04-10", "anniversary_or_expiry": "2026-03-07", "area_ha": null, "tenure_type": "Single Cell Mining Claim", "source": "Ontario MLAS operational claims (OGSEarth / LIO MapServer). Unofficial viewing data, not legal title.", "as_of": "2026-09-20", "role": "focus", "color": "#e8b040"}}, {"type": "Feature", "geometry": {"type": "Polygon", "coordinates": [[[-85.8875, 48.8417], [-85.8875, 48.8458], [-85.8938, 48.8458], [-85.8938, 48.8417], [-85.8875, 48.8417]]]}, "properties": {"company_id": "emperor-metals", "jurisdiction": "Ontario", "claim_id": "153097", "claim_name": null, "holder": "(100) Emperor Metals Inc.", "status": "Active", "recorded_date": "2018-04-10", "anniversary_or_expiry": "2027-02-12", "area_ha": null, "tenure_type": "Boundary Cell Mining Claim", "source": "Ontario MLAS operational claims (OGSEarth / LIO MapServer). Unofficial viewing data, not legal title.", "as_of": "2026-09-20", "role": "focus", "color": "#e8b040"}}, {"type": "Feature", "geometry": {"type": "Polygon", "coordinates": [[[-85.8813, 48.8583], [-85.8813, 48.8625], [-85.8875, 48.8625], [-85.8875, 48.8583], [-85.8813, 48.8583]]]}, "properties": {"company_id": "emperor-metals", "jurisdiction": "Ontario", "claim_id": "156373", "claim_name": null, "holder": "(100) Emperor Metals Inc.", "status": "Active", "recorded_date": "2018-04-10", "anniversary_or_expiry": "2027-02-12", "area_ha": null, "tenure_type": "Single Cell Mining Claim", "source": "Ontario MLAS operational claims (OGSEarth / LIO MapServer). Unofficial viewing data, not legal title.", "as_of": "2026-09-20", "role": "focus", "color": "#e8b040"}}, {"type": "Feature", "geometry": {"type": "Polygon", "coordinates": [[[-85.8563, 48.85], [-85.8563, 48.8542], [-85.8625, 48.8542], [-85.8625, 48.85], [-85.8563, 48.85]]]}, "properties": {"company_id": "emperor-metals", "jurisdiction": "Ontario", "claim_id": "156374", "claim_name": null, "holder": "(100) Emperor Metals Inc.", "status": "Active", "recorded_date": "2018-04-10", "anniversary_or_expiry": "2027-02-12", "area_ha": null, "tenure_type": "Single Cell Mining Claim", "source": "Ontario MLAS operational claims (OGSEarth / LIO MapServer). Unofficial viewing data, not legal title.", "as_of": "2026-09-20", "role": "focus", "color": "#e8b040"}}, {"type": "Feature", "geometry": {"type": "Polygon", "coordinates": [[[-85.8625, 48.8458], [-85.8625, 48.85], [-85.8688, 48.85], [-85.8688, 48.8458], [-85.8625, 48.8458]]]}, "properties": {"company_id": "emperor-metals", "jurisdiction": "Ontario", "claim_id": "156375", "claim_name": null, "holder": "(100) Emperor Metals Inc.", "status": "Active", "recorded_date": "2018-04-10", "anniversary_or_expiry": "2027-02-12", "area_ha": null, "tenure_type": "Single Cell Mining Claim", "source": "Ontario MLAS operational claims (OGSEarth / LIO MapServer). Unofficial viewing data, not legal title.", "as_of": "2026-09-20", "role": "focus", "color": "#e8b040"}}, {"type": "Feature", "geometry": {"type": "Polygon", "coordinates": [[[-85.8563, 48.8583], [-85.8563, 48.8625], [-85.8625, 48.8625], [-85.8625, 48.8583], [-85.8563, 48.8583]]]}, "properties": {"company_id": "emperor-metals", "jurisdiction": "Ontario", "claim_id": "162459", "claim_name": null, "holder": "(100) Emperor Metals Inc.", "status": "Active", "recorded_date": "2018-04-10", "anniversary_or_expiry": "2027-02-12", "area_ha": null, "tenure_type": "Single Cell Mining Claim", "source": "Ontario MLAS operational claims (OGSEarth / LIO MapServer). Unofficial viewing data, not legal title.", "as_of": "2026-09-20", "role": "focus", "color": "#e8b040"}}, {"type": "Feature", "geometry": {"type": "Polygon", "coordinates": [[[-85.8625, 48.8542], [-85.8625, 48.8583], [-85.8688, 48.8583], [-85.8688, 48.8542], [-85.8625, 48.8542]]]}, "properties": {"company_id": "emperor-metals", "jurisdiction": "Ontario", "claim_id": "162460", "claim_name": null, "holder": "(100) Emperor Metals Inc.", "status": "Active", "recorded_date": "2018-04-10", "anniversary_or_expiry": "2027-02-12", "area_ha": null, "tenure_type": "Single Cell Mining Claim", "source": "Ontario MLAS operational claims (OGSEarth / LIO MapServer). Unofficial viewing data, not legal title.", "as_of": "2026-09-20", "role": "focus", "color": "#e8b040"}}, {"type": "Feature", "geometry": {"type": "Polygon", "coordinates": [[[-85.8813, 48.8542], [-85.8813, 48.8583], [-85.8875, 48.8583], [-85.8875, 48.8542], [-85.8813, 48.8542]]]}, "properties": {"company_id": "emperor-metals", "jurisdiction": "Ontario", "claim_id": "162461", "claim_name": null, "holder": "(100) Emperor Metals Inc.", "status": "Active", "recorded_date": "2018-04-10", "anniversary_or_expiry": "2027-02-12", "area_ha": null, "tenure_type": "Single Cell Mining Claim", "source": "Ontario MLAS operational claims (OGSEarth / LIO MapServer). Unofficial viewing data, not legal title.", "as_of": "2026-09-20", "role": "focus", "color": "#e8b040"}}, {"type": "Feature", "geometry": {"type": "Polygon", "coordinates": [[[-85.8688, 48.8458], [-85.8688, 48.85], [-85.875, 48.85], [-85.875, 48.8458], [-85.8688, 48.8458]]]}, "properties": {"company_id": "emperor-metals", "jurisdiction": "Ontario", "claim_id": "162462", "claim_name": null, "holder": "(100) Emperor Metals Inc.", "status": "Active", "recorded_date": "2018-04-10", "anniversary_or_expiry": "2027-02-12", "area_ha": null, "tenure_type": "Single Cell Mining Claim", "source": "Ontario MLAS operational claims (OGSEarth / LIO MapServer). Unofficial viewing data, not legal title.", "as_of": "2026-09-20", "role": "focus", "color": "#e8b040"}}, {"type": "Feature", "geometry": {"type": "Polygon", "coordinates": [[[-86.2688, 48.6792], [-86.2688, 48.6833], [-86.275, 48.6833], [-86.275, 48.6792], [-86.2688, 48.6792]]]}, "properties": {"company_id": "emperor-metals", "jurisdiction": "Ontario", "claim_id": "170277", "claim_name": null, "holder": "(100) Emperor Metals Inc.", "status": "Hold Special Circumstances Apply", "recorded_date": "2018-04-10", "anniversary_or_expiry": "2026-03-07", "area_ha": null, "tenure_type": "Single Cell Mining Claim", "source": "Ontario MLAS operational claims (OGSEarth / LIO MapServer). Unofficial viewing data, not legal title.", "as_of": "2026-09-20", "role": "focus", "color": "#e8b040"}}, {"type": "Feature", "geometry": {"type": "Polygon", "coordinates": [[[-86.25, 48.6833], [-86.25, 48.6875], [-86.2563, 48.6875], [-86.2563, 48.6833], [-86.25, 48.6833]]]}, "properties": {"company_id": "emperor-metals", "jurisdiction": "Ontario", "claim_id": "169348", "claim_name": null, "holder": "(100) Emperor Metals Inc.", "status": "Hold Special Circumstances Apply", "recorded_date": "2018-04-10", "anniversary_or_expiry": "2026-03-07", "area_ha": null, "tenure_type": "Boundary Cell Mining Claim", "source": "Ontario MLAS operational claims (OGSEarth / LIO MapServer). Unofficial viewing data, not legal title.", "as_of": "2026-09-20", "role": "focus", "color": "#e8b040"}}, {"type": "Feature", "geometry": {"type": "Polygon", "coordinates": [[[-86.25, 48.6792], [-86.25, 48.6833], [-86.2563, 48.6833], [-86.2563, 48.6792], [-86.25, 48.6792]]]}, "properties": {"company_id": "emperor-metals", "jurisdiction": "Ontario", "claim_id": "169349", "claim_name": null, "holder": "(100) Emperor Metals Inc.", "status": "Hold Special Circumstances Apply", "recorded_date": "2018-04-10", "anniversary_or_expiry": "2026-03-07", "area_ha": null, "tenure_type": "Boundary Cell Mining Claim", "source": "Ontario MLAS operational claims (OGSEarth / LIO MapServer). Unofficial viewing data, not legal title.", "as_of": "2026-09-20", "role": "focus", "color": "#e8b040"}}, {"type": "Feature", "geometry": {"type": "Polygon", "coordinates": [[[-85.875, 48.8542], [-85.875, 48.8583], [-85.8813, 48.8583], [-85.8813, 48.8542], [-85.875, 48.8542]]]}, "properties": {"company_id": "emperor-metals", "jurisdiction": "Ontario", "claim_id": "175825", "claim_name": null, "holder": "(100) Emperor Metals Inc.", "status": "Active", "recorded_date": "2018-04-10", "anniversary_or_expiry": "2027-02-12", "area_ha": null, "tenure_type": "Single Cell Mining Claim", "source": "Ontario MLAS operational claims (OGSEarth / LIO MapServer). Unofficial viewing data, not legal title.", "as_of": "2026-09-20", "role": "focus", "color": "#e8b040"}}, {"type": "Feature", "geometry": {"type": "Polygon", "coordinates": [[[-86.2688, 48.6708], [-86.2688, 48.675], [-86.275, 48.675], [-86.275, 48.6708], [-86.2688, 48.6708]]]}, "properties": {"company_id": "emperor-metals", "jurisdiction": "Ontario", "claim_id": "176170", "claim_name": null, "holder": "(100) Emperor Metals Inc.", "status": "Hold Special Circumstances Apply", "recorded_date": "2018-04-10", "anniversary_or_expiry": "2026-03-07", "area_ha": null, "tenure_type": "Boundary Cell Mining Claim", "source": "Ontario MLAS operational claims (OGSEarth / LIO MapServer). Unofficial viewing data, not legal title.", "as_of": "2026-09-20", "role": "focus", "color": "#e8b040"}}, {"type": "Feature", "geometry": {"type": "Polygon", "coordinates": [[[-85.8563, 48.8417], [-85.8563, 48.8458], [-85.8625, 48.8458], [-85.8625, 48.8417], [-85.8563, 48.8417]]]}, "properties": {"company_id": "emperor-metals", "jurisdiction": "Ontario", "claim_id": "183000", "claim_name": null, "holder": "(100) Emperor Metals Inc.", "status": "Active", "recorded_date": "2018-04-10", "anniversary_or_expiry": "2027-02-12", "area_ha": null, "tenure_type": "Single Cell Mining Claim", "source": "Ontario MLAS operational claims (OGSEarth / LIO MapServer). Unofficial viewing data, not legal title.", "as_of": "2026-09-20", "role": "focus", "color": "#e8b040"}}, {"type": "Feature", "geometry": {"type": "Polygon", "coordinates": [[[-86.275, 48.6833], [-86.275, 48.6875], [-86.2813, 48.6875], [-86.2813, 48.6833], [-86.275, 48.6833]]]}, "properties": {"company_id": "emperor-metals", "jurisdiction": "Ontario", "claim_id": "183076", "claim_name": null, "holder": "(100) Emperor Metals Inc.", "status": "Hold Special Circumstances Apply", "recorded_date": "2018-04-10", "anniversary_or_expiry": "2026-03-07", "area_ha": null, "tenure_type": "Single Cell Mining Claim", "source": "Ontario MLAS operational claims (OGSEarth / LIO MapServer). Unofficial viewing data, not legal title.", "as_of": "2026-09-20", "role": "focus", "color": "#e8b040"}}, {"type": "Feature", "geometry": {"type": "Polygon", "coordinates": [[[-86.2813, 48.675], [-86.2813, 48.6792], [-86.2875, 48.6792], [-86.2875, 48.675], [-86.2813, 48.675]]]}, "properties": {"company_id": "emperor-metals", "jurisdiction": "Ontario", "claim_id": "183077", "claim_name": null, "holder": "(100) Emperor Metals Inc.", "status": "Hold Special Circumstances Apply", "recorded_date": "2018-04-10", "anniversary_or_expiry": "2026-03-07", "area_ha": null, "tenure_type": "Boundary Cell Mining Claim", "source": "Ontario MLAS operational claims (OGSEarth / LIO MapServer). Unofficial viewing data, not legal title.", "as_of": "2026-09-20", "role": "focus", "color": "#e8b040"}}, {"type": "Feature", "geometry": {"type": "Polygon", "coordinates": [[[-86.2875, 48.6875], [-86.2875, 48.6917], [-86.2938, 48.6917], [-86.2938, 48.6875], [-86.2875, 48.6875]]]}, "properties": {"company_id": "emperor-metals", "jurisdiction": "Ontario", "claim_id": "183084", "claim_name": null, "holder": "(100) Emperor Metals Inc.", "status": "Hold Special Circumstances Apply", "recorded_date": "2018-04-10", "anniversary_or_expiry": "2026-03-07", "area_ha": null, "tenure_type": "Single Cell Mining Claim", "source": "Ontario MLAS operational claims (OGSEarth / LIO MapServer). Unofficial viewing data, not legal title.", "as_of": "2026-09-20", "role": "focus", "color": "#e8b040"}}, {"type": "Feature", "geometry": {"type": "Polygon", "coordinates": [[[-86.2875, 48.6833], [-86.2875, 48.6875], [-86.2938, 48.6875], [-86.2938, 48.6833], [-86.2875, 48.6833]]]}, "properties": {"company_id": "emperor-metals", "jurisdiction": "Ontario", "claim_id": "183085", "claim_name": null, "holder": "(100) Emperor Metals Inc.", "status": "Hold Special Circumstances Apply", "recorded_date": "2018-04-10", "anniversary_or_expiry": "2026-03-07", "area_ha": null, "tenure_type": "Single Cell Mining Claim", "source": "Ontario MLAS operational claims (OGSEarth / LIO MapServer). Unofficial viewing data, not legal title.", "as_of": "2026-09-20", "role": "focus", "color": "#e8b040"}}, {"type": "Feature", "geometry": {"type": "Polygon", "coordinates": [[[-85.8875, 48.85], [-85.8875, 48.8542], [-85.8938, 48.8542], [-85.8938, 48.85], [-85.8875, 48.85]]]}, "properties": {"company_id": "emperor-metals", "jurisdiction": "Ontario", "claim_id": "185523", "claim_name": null, "holder": "(100) Emperor Metals Inc.", "status": "Active", "recorded_date": "2018-04-10", "anniversary_or_expiry": "2027-02-12", "area_ha": null, "tenure_type": "Boundary Cell Mining Claim", "source": "Ontario MLAS operational claims (OGSEarth / LIO MapServer). Unofficial viewing data, not legal title.", "as_of": "2026-09-20", "role": "focus", "color": "#e8b040"}}, {"type": "Feature", "geometry": {"type": "Polygon", "coordinates": [[[-86.2625, 48.6792], [-86.2625, 48.6833], [-86.2688, 48.6833], [-86.2688, 48.6792], [-86.2625, 48.6792]]]}, "properties": {"company_id": "emperor-metals", "jurisdiction": "Ontario", "claim_id": "188512", "claim_name": null, "holder": "(100) Emperor Metals Inc.", "status": "Hold Special Circumstances Apply", "recorded_date": "2018-04-10", "anniversary_or_expiry": "2026-03-07", "area_ha": null, "tenure_type": "Single Cell Mining Claim", "source": "Ontario MLAS operational claims (OGSEarth / LIO MapServer). Unofficial viewing data, not legal title.", "as_of": "2026-09-20", "role": "focus", "color": "#e8b040"}}, {"type": "Feature", "geometry": {"type": "Polygon", "coordinates": [[[-86.275, 48.6792], [-86.275, 48.6833], [-86.2813, 48.6833], [-86.2813, 48.6792], [-86.275, 48.6792]]]}, "properties": {"company_id": "emperor-metals", "jurisdiction": "Ontario", "claim_id": "188513", "claim_name": null, "holder": "(100) Emperor Metals Inc.", "status": "Hold Special Circumstances Apply", "recorded_date": "2018-04-10", "anniversary_or_expiry": "2026-03-07", "area_ha": null, "tenure_type": "Single Cell Mining Claim", "source": "Ontario MLAS operational claims (OGSEarth / LIO MapServer). Unofficial viewing data, not legal title.", "as_of": "2026-09-20", "role": "focus", "color": "#e8b040"}}, {"type": "Feature", "geometry": {"type": "Polygon", "coordinates": [[[-85.8875, 48.8375], [-85.8875, 48.8417], [-85.8938, 48.8417], [-85.8938, 48.8375], [-85.8875, 48.8375]]]}, "properties": {"company_id": "emperor-metals", "jurisdiction": "Ontario", "claim_id": "188669", "claim_name": null, "holder": "(100) Emperor Metals Inc.", "status": "Active", "recorded_date": "2018-04-10", "anniversary_or_expiry": "2027-02-12", "area_ha": null, "tenure_type": "Boundary Cell Mining Claim", "source": "Ontario MLAS operational claims (OGSEarth / LIO MapServer). Unofficial viewing data, not legal title.", "as_of": "2026-09-20", "role": "focus", "color": "#e8b040"}}, {"type": "Feature", "geometry": {"type": "Polygon", "coordinates": [[[-85.8875, 48.8333], [-85.8875, 48.8375], [-85.8938, 48.8375], [-85.8938, 48.8333], [-85.8875, 48.8333]]]}, "properties": {"company_id": "emperor-metals", "jurisdiction": "Ontario", "claim_id": "190765", "claim_name": null, "holder": "(100) Emperor Metals Inc.", "status": "Active", "recorded_date": "2018-04-10", "anniversary_or_expiry": "2027-02-12", "area_ha": null, "tenure_type": "Single Cell Mining Claim", "source": "Ontario MLAS operational claims (OGSEarth / LIO MapServer). Unofficial viewing data, not legal title.", "as_of": "2026-09-20", "role": "focus", "color": "#e8b040"}}, {"type": "Feature", "geometry": {"type": "Polygon", "coordinates": [[[-85.875, 48.8292], [-85.875, 48.8333], [-85.8813, 48.8333], [-85.8813, 48.8292], [-85.875, 48.8292]]]}, "properties": {"company_id": "emperor-metals", "jurisdiction": "Ontario", "claim_id": "190766", "claim_name": null, "holder": "(100) Emperor Metals Inc.", "status": "Active", "recorded_date": "2018-04-10", "anniversary_or_expiry": "2027-02-12", "area_ha": null, "tenure_type": "Single Cell Mining Claim", "source": "Ontario MLAS operational claims (OGSEarth / LIO MapServer). Unofficial viewing data, not legal title.", "as_of": "2026-09-20", "role": "focus", "color": "#e8b040"}}, {"type": "Feature", "geometry": {"type": "Polygon", "coordinates": [[[-85.8813, 48.8292], [-85.8813, 48.8333], [-85.8875, 48.8333], [-85.8875, 48.8292], [-85.8813, 48.8292]]]}, "properties": {"company_id": "emperor-metals", "jurisdiction": "Ontario", "claim_id": "190767", "claim_name": null, "holder": "(100) Emperor Metals Inc.", "status": "Active", "recorded_date": "2018-04-10", "anniversary_or_expiry": "2027-02-12", "area_ha": null, "tenure_type": "Single Cell Mining Claim", "source": "Ontario MLAS operational claims (OGSEarth / LIO MapServer). Unofficial viewing data, not legal title.", "as_of": "2026-09-20", "role": "focus", "color": "#e8b040"}}, {"type": "Feature", "geometry": {"type": "Polygon", "coordinates": [[[-85.8875, 48.8292], [-85.8875, 48.8333], [-85.8938, 48.8333], [-85.8938, 48.8292], [-85.8875, 48.8292]]]}, "properties": {"company_id": "emperor-metals", "jurisdiction": "Ontario", "claim_id": "190768", "claim_name": null, "holder": "(100) Emperor Metals Inc.", "status": "Active", "recorded_date": "2018-04-10", "anniversary_or_expiry": "2027-02-12", "area_ha": null, "tenure_type": "Boundary Cell Mining Claim", "source": "Ontario MLAS operational claims (OGSEarth / LIO MapServer). Unofficial viewing data, not legal title.", "as_of": "2026-09-20", "role": "focus", "color": "#e8b040"}}, {"type": "Feature", "geometry": {"type": "Polygon", "coordinates": [[[-85.8625, 48.8333], [-85.8625, 48.8375], [-85.8688, 48.8375], [-85.8688, 48.8333], [-85.8625, 48.8333]]]}, "properties": {"company_id": "emperor-metals", "jurisdiction": "Ontario", "claim_id": "190946", "claim_name": null, "holder": "(100) Emperor Metals Inc.", "status": "Active", "recorded_date": "2018-04-10", "anniversary_or_expiry": "2027-02-12", "area_ha": null, "tenure_type": "Boundary Cell Mining Claim", "source": "Ontario MLAS operational claims (OGSEarth / LIO MapServer). Unofficial viewing data, not legal title.", "as_of": "2026-09-20", "role": "focus", "color": "#e8b040"}}, {"type": "Feature", "geometry": {"type": "Polygon", "coordinates": [[[-85.8625, 48.85], [-85.8625, 48.8542], [-85.8688, 48.8542], [-85.8688, 48.85], [-85.8625, 48.85]]]}, "properties": {"company_id": "emperor-metals", "jurisdiction": "Ontario", "claim_id": "191844", "claim_name": null, "holder": "(100) Emperor Metals Inc.", "status": "Active", "recorded_date": "2018-04-10", "anniversary_or_expiry": "2027-02-12", "area_ha": null, "tenure_type": "Single Cell Mining Claim", "source": "Ontario MLAS operational claims (OGSEarth / LIO MapServer). Unofficial viewing data, not legal title.", "as_of": "2026-09-20", "role": "focus", "color": "#e8b040"}}, {"type": "Feature", "geometry": {"type": "Polygon", "coordinates": [[[-85.8813, 48.8458], [-85.8813, 48.85], [-85.8875, 48.85], [-85.8875, 48.8458], [-85.8813, 48.8458]]]}, "properties": {"company_id": "emperor-metals", "jurisdiction": "Ontario", "claim_id": "192563", "claim_name": null, "holder": "(100) Emperor Metals Inc.", "status": "Active", "recorded_date": "2018-04-10", "anniversary_or_expiry": "2027-02-12", "area_ha": null, "tenure_type": "Single Cell Mining Claim", "source": "Ontario MLAS operational claims (OGSEarth / LIO MapServer). Unofficial viewing data, not legal title.", "as_of": "2026-09-20", "role": "focus", "color": "#e8b040"}}, {"type": "Feature", "geometry": {"type": "Polygon", "coordinates": [[[-86.2563, 48.6792], [-86.2563, 48.6833], [-86.2625, 48.6833], [-86.2625, 48.6792], [-86.2563, 48.6792]]]}, "properties": {"company_id": "emperor-metals", "jurisdiction": "Ontario", "claim_id": "199316", "claim_name": null, "holder": "(100) Emperor Metals Inc.", "status": "Hold Special Circumstances Apply", "recorded_date": "2018-04-10", "anniversary_or_expiry": "2026-03-07", "area_ha": null, "tenure_type": "Single Cell Mining Claim", "source": "Ontario MLAS operational claims (OGSEarth / LIO MapServer). Unofficial viewing data, not legal title.", "as_of": "2026-09-20", "role": "focus", "color": "#e8b040"}}, {"type": "Feature", "geometry": {"type": "Polygon", "coordinates": [[[-86.2625, 48.6917], [-86.2625, 48.6958], [-86.2688, 48.6958], [-86.2688, 48.6917], [-86.2625, 48.6917]]]}, "properties": {"company_id": "emperor-metals", "jurisdiction": "Ontario", "claim_id": "207736", "claim_name": null, "holder": "(100) Emperor Metals Inc.", "status": "Hold Special Circumstances Apply", "recorded_date": "2018-04-10", "anniversary_or_expiry": "2026-03-07", "area_ha": null, "tenure_type": "Boundary Cell Mining Claim", "source": "Ontario MLAS operational claims (OGSEarth / LIO MapServer). Unofficial viewing data, not legal title.", "as_of": "2026-09-20", "role": "focus", "color": "#e8b040"}}, {"type": "Feature", "geometry": {"type": "Polygon", "coordinates": [[[-86.2625, 48.6833], [-86.2625, 48.6875], [-86.2688, 48.6875], [-86.2688, 48.6833], [-86.2625, 48.6833]]]}, "properties": {"company_id": "emperor-metals", "jurisdiction": "Ontario", "claim_id": "207737", "claim_name": null, "holder": "(100) Emperor Metals Inc.", "status": "Hold Special Circumstances Apply", "recorded_date": "2018-04-10", "anniversary_or_expiry": "2026-03-07", "area_ha": null, "tenure_type": "Single Cell Mining Claim", "source": "Ontario MLAS operational claims (OGSEarth / LIO MapServer). Unofficial viewing data, not legal title.", "as_of": "2026-09-20", "role": "focus", "color": "#e8b040"}}, {"type": "Feature", "geometry": {"type": "Polygon", "coordinates": [[[-85.8625, 48.875], [-85.8625, 48.8792], [-85.8688, 48.8792], [-85.8688, 48.875], [-85.8625, 48.875]]]}, "properties": {"company_id": "emperor-metals", "jurisdiction": "Ontario", "claim_id": "209970", "claim_name": null, "holder": "(100) Emperor Metals Inc.", "status": "Active", "recorded_date": "2018-04-10", "anniversary_or_expiry": "2027-02-12", "area_ha": null, "tenure_type": "Single Cell Mining Claim", "source": "Ontario MLAS operational claims (OGSEarth / LIO MapServer). Unofficial viewing data, not legal title.", "as_of": "2026-09-20", "role": "focus", "color": "#e8b040"}}, {"type": "Feature", "geometry": {"type": "Polygon", "coordinates": [[[-86.275, 48.6875], [-86.275, 48.6917], [-86.2813, 48.6917], [-86.2813, 48.6875], [-86.275, 48.6875]]]}, "properties": {"company_id": "emperor-metals", "jurisdiction": "Ontario", "claim_id": "218458", "claim_name": null, "holder": "(100) Emperor Metals Inc.", "status": "Hold Special Circumstances Apply", "recorded_date": "2018-04-10", "anniversary_or_expiry": "2026-03-07", "area_ha": null, "tenure_type": "Single Cell Mining Claim", "source": "Ontario MLAS operational claims (OGSEarth / LIO MapServer). Unofficial viewing data, not legal title.", "as_of": "2026-09-20", "role": "focus", "color": "#e8b040"}}, {"type": "Feature", "geometry": {"type": "Polygon", "coordinates": [[[-86.2688, 48.6833], [-86.2688, 48.6875], [-86.275, 48.6875], [-86.275, 48.6833], [-86.2688, 48.6833]]]}, "properties": {"company_id": "emperor-metals", "jurisdiction": "Ontario", "claim_id": "218459", "claim_name": null, "holder": "(100) Emperor Metals Inc.", "status": "Hold Special Circumstances Apply", "recorded_date": "2018-04-10", "anniversary_or_expiry": "2026-03-07", "area_ha": null, "tenure_type": "Single Cell Mining Claim", "source": "Ontario MLAS operational claims (OGSEarth / LIO MapServer). Unofficial viewing data, not legal title.", "as_of": "2026-09-20", "role": "focus", "color": "#e8b040"}}, {"type": "Feature", "geometry": {"type": "Polygon", "coordinates": [[[-86.2688, 48.675], [-86.2688, 48.6792], [-86.275, 48.6792], [-86.275, 48.675], [-86.2688, 48.675]]]}, "properties": {"company_id": "emperor-metals", "jurisdiction": "Ontario", "claim_id": "218460", "claim_name": null, "holder": "(100) Emperor Metals Inc.", "status": "Hold Special Circumstances Apply", "recorded_date": "2018-04-10", "anniversary_or_expiry": "2026-03-07", "area_ha": null, "tenure_type": "Single Cell Mining Claim", "source": "Ontario MLAS operational claims (OGSEarth / LIO MapServer). Unofficial viewing data, not legal title.", "as_of": "2026-09-20", "role": "focus", "color": "#e8b040"}}, {"type": "Feature", "geometry": {"type": "Polygon", "coordinates": [[[-86.2813, 48.6917], [-86.2813, 48.6958], [-86.2875, 48.6958], [-86.2875, 48.6917], [-86.2813, 48.6917]]]}, "properties": {"company_id": "emperor-metals", "jurisdiction": "Ontario", "claim_id": "218463", "claim_name": null, "holder": "(100) Emperor Metals Inc.", "status": "Hold Special Circumstances Apply", "recorded_date": "2018-04-10", "anniversary_or_expiry": "2026-03-07", "area_ha": null, "tenure_type": "Single Cell Mining Claim", "source": "Ontario MLAS operational claims (OGSEarth / LIO MapServer). Unofficial viewing data, not legal title.", "as_of": "2026-09-20", "role": "focus", "color": "#e8b040"}}, {"type": "Feature", "geometry": {"type": "Polygon", "coordinates": [[[-85.8875, 48.8708], [-85.8875, 48.875], [-85.8938, 48.875], [-85.8938, 48.8708], [-85.8875, 48.8708]]]}, "properties": {"company_id": "emperor-metals", "jurisdiction": "Ontario", "claim_id": "221505", "claim_name": null, "holder": "(100) Emperor Metals Inc.", "status": "Active", "recorded_date": "2018-04-10", "anniversary_or_expiry": "2027-02-12", "area_ha": null, "tenure_type": "Boundary Cell Mining Claim", "source": "Ontario MLAS operational claims (OGSEarth / LIO MapServer). Unofficial viewing data, not legal title.", "as_of": "2026-09-20", "role": "focus", "color": "#e8b040"}}, {"type": "Feature", "geometry": {"type": "Polygon", "coordinates": [[[-85.8688, 48.8542], [-85.8688, 48.8583], [-85.875, 48.8583], [-85.875, 48.8542], [-85.8688, 48.8542]]]}, "properties": {"company_id": "emperor-metals", "jurisdiction": "Ontario", "claim_id": "221745", "claim_name": null, "holder": "(100) Emperor Metals Inc.", "status": "Active", "recorded_date": "2018-04-10", "anniversary_or_expiry": "2027-02-12", "area_ha": null, "tenure_type": "Single Cell Mining Claim", "source": "Ontario MLAS operational claims (OGSEarth / LIO MapServer). Unofficial viewing data, not legal title.", "as_of": "2026-09-20", "role": "focus", "color": "#e8b040"}}, {"type": "Feature", "geometry": {"type": "Polygon", "coordinates": [[[-85.8563, 48.8458], [-85.8563, 48.85], [-85.8625, 48.85], [-85.8625, 48.8458], [-85.8563, 48.8458]]]}, "properties": {"company_id": "emperor-metals", "jurisdiction": "Ontario", "claim_id": "221746", "claim_name": null, "holder": "(100) Emperor Metals Inc.", "status": "Active", "recorded_date": "2018-04-10", "anniversary_or_expiry": "2027-02-12", "area_ha": null, "tenure_type": "Single Cell Mining Claim", "source": "Ontario MLAS operational claims (OGSEarth / LIO MapServer). Unofficial viewing data, not legal title.", "as_of": "2026-09-20", "role": "focus", "color": "#e8b040"}}, {"type": "Feature", "geometry": {"type": "Polygon", "coordinates": [[[-86.2813, 48.6792], [-86.2813, 48.6833], [-86.2875, 48.6833], [-86.2875, 48.6792], [-86.2813, 48.6792]]]}, "properties": {"company_id": "emperor-metals", "jurisdiction": "Ontario", "claim_id": "226407", "claim_name": null, "holder": "(100) Emperor Metals Inc.", "status": "Hold Special Circumstances Apply", "recorded_date": "2018-04-10", "anniversary_or_expiry": "2026-03-07", "area_ha": null, "tenure_type": "Single Cell Mining Claim", "source": "Ontario MLAS operational claims (OGSEarth / LIO MapServer). Unofficial viewing data, not legal title.", "as_of": "2026-09-20", "role": "focus", "color": "#e8b040"}}, {"type": "Feature", "geometry": {"type": "Polygon", "coordinates": [[[-85.8875, 48.8625], [-85.8875, 48.8667], [-85.8938, 48.8667], [-85.8938, 48.8625], [-85.8875, 48.8625]]]}, "properties": {"company_id": "emperor-metals", "jurisdiction": "Ontario", "claim_id": "225301", "claim_name": null, "holder": "(100) Emperor Metals Inc.", "status": "Active", "recorded_date": "2018-04-10", "anniversary_or_expiry": "2027-02-12", "area_ha": null, "tenure_type": "Boundary Cell Mining Claim", "source": "Ontario MLAS operational claims (OGSEarth / LIO MapServer). Unofficial viewing data, not legal title.", "as_of": "2026-09-20", "role": "focus", "color": "#e8b040"}}, {"type": "Feature", "geometry": {"type": "Polygon", "coordinates": [[[-85.8875, 48.8583], [-85.8875, 48.8625], [-85.8938, 48.8625], [-85.8938, 48.8583], [-85.8875, 48.8583]]]}, "properties": {"company_id": "emperor-metals", "jurisdiction": "Ontario", "claim_id": "225302", "claim_name": null, "holder": "(100) Emperor Metals Inc.", "status": "Active", "recorded_date": "2018-04-10", "anniversary_or_expiry": "2027-02-12", "area_ha": null, "tenure_type": "Boundary Cell Mining Claim", "source": "Ontario MLAS operational claims (OGSEarth / LIO MapServer). Unofficial viewing data, not legal title.", "as_of": "2026-09-20", "role": "focus", "color": "#e8b040"}}, {"type": "Feature", "geometry": {"type": "Polygon", "coordinates": [[[-86.25, 48.675], [-86.25, 48.6792], [-86.2563, 48.6792], [-86.2563, 48.675], [-86.25, 48.675]]]}, "properties": {"company_id": "emperor-metals", "jurisdiction": "Ontario", "claim_id": "236419", "claim_name": null, "holder": "(100) Emperor Metals Inc.", "status": "Hold Special Circumstances Apply", "recorded_date": "2018-04-10", "anniversary_or_expiry": "2026-03-07", "area_ha": null, "tenure_type": "Boundary Cell Mining Claim", "source": "Ontario MLAS operational claims (OGSEarth / LIO MapServer). Unofficial viewing data, not legal title.", "as_of": "2026-09-20", "role": "focus", "color": "#e8b040"}}, {"type": "Feature", "geometry": {"type": "Polygon", "coordinates": [[[-86.25, 48.6917], [-86.25, 48.6958], [-86.2563, 48.6958], [-86.2563, 48.6917], [-86.25, 48.6917]]]}, "properties": {"company_id": "emperor-metals", "jurisdiction": "Ontario", "claim_id": "236478", "claim_name": null, "holder": "(100) Emperor Metals Inc.", "status": "Hold Special Circumstances Apply", "recorded_date": "2018-04-10", "anniversary_or_expiry": "2026-03-07", "area_ha": null, "tenure_type": "Boundary Cell Mining Claim", "source": "Ontario MLAS operational claims (OGSEarth / LIO MapServer). Unofficial viewing data, not legal title.", "as_of": "2026-09-20", "role": "focus", "color": "#e8b040"}}, {"type": "Feature", "geometry": {"type": "Polygon", "coordinates": [[[-86.2563, 48.6917], [-86.2563, 48.6958], [-86.2625, 48.6958], [-86.2625, 48.6917], [-86.2563, 48.6917]]]}, "properties": {"company_id": "emperor-metals", "jurisdiction": "Ontario", "claim_id": "236479", "claim_name": null, "holder": "(100) Emperor Metals Inc.", "status": "Hold Special Circumstances Apply", "recorded_date": "2018-04-10", "anniversary_or_expiry": "2026-03-07", "area_ha": null, "tenure_type": "Boundary Cell Mining Claim", "source": "Ontario MLAS operational claims (OGSEarth / LIO MapServer). Unofficial viewing data, not legal title.", "as_of": "2026-09-20", "role": "focus", "color": "#e8b040"}}, {"type": "Feature", "geometry": {"type": "Polygon", "coordinates": [[[-86.2563, 48.6875], [-86.2563, 48.6917], [-86.2625, 48.6917], [-86.2625, 48.6875], [-86.2563, 48.6875]]]}, "properties": {"company_id": "emperor-metals", "jurisdiction": "Ontario", "claim_id": "236480", "claim_name": null, "holder": "(100) Emperor Metals Inc.", "status": "Hold Special Circumstances Apply", "recorded_date": "2018-04-10", "anniversary_or_expiry": "2026-03-07", "area_ha": null, "tenure_type": "Single Cell Mining Claim", "source": "Ontario MLAS operational claims (OGSEarth / LIO MapServer). Unofficial viewing data, not legal title.", "as_of": "2026-09-20", "role": "focus", "color": "#e8b040"}}, {"type": "Feature", "geometry": {"type": "Polygon", "coordinates": [[[-85.875, 48.875], [-85.875, 48.8792], [-85.8813, 48.8792], [-85.8813, 48.875], [-85.875, 48.875]]]}, "properties": {"company_id": "emperor-metals", "jurisdiction": "Ontario", "claim_id": "238581", "claim_name": null, "holder": "(100) Emperor Metals Inc.", "status": "Active", "recorded_date": "2018-04-10", "anniversary_or_expiry": "2027-02-12", "area_ha": null, "tenure_type": "Single Cell Mining Claim", "source": "Ontario MLAS operational claims (OGSEarth / LIO MapServer). Unofficial viewing data, not legal title.", "as_of": "2026-09-20", "role": "focus", "color": "#e8b040"}}, {"type": "Feature", "geometry": {"type": "Polygon", "coordinates": [[[-85.875, 48.8708], [-85.875, 48.875], [-85.8813, 48.875], [-85.8813, 48.8708], [-85.875, 48.8708]]]}, "properties": {"company_id": "emperor-metals", "jurisdiction": "Ontario", "claim_id": "238582", "claim_name": null, "holder": "(100) Emperor Metals Inc.", "status": "Active", "recorded_date": "2018-04-10", "anniversary_or_expiry": "2027-10-29", "area_ha": null, "tenure_type": "Single Cell Mining Claim", "source": "Ontario MLAS operational claims (OGSEarth / LIO MapServer). Unofficial viewing data, not legal title.", "as_of": "2026-09-20", "role": "focus", "color": "#e8b040"}}, {"type": "Feature", "geometry": {"type": "Polygon", "coordinates": [[[-85.8813, 48.8417], [-85.8813, 48.8458], [-85.8875, 48.8458], [-85.8875, 48.8417], [-85.8813, 48.8417]]]}, "properties": {"company_id": "emperor-metals", "jurisdiction": "Ontario", "claim_id": "238602", "claim_name": null, "holder": "(100) Emperor Metals Inc.", "status": "Active", "recorded_date": "2018-04-10", "anniversary_or_expiry": "2027-02-12", "area_ha": null, "tenure_type": "Single Cell Mining Claim", "source": "Ontario MLAS operational claims (OGSEarth / LIO MapServer). Unofficial viewing data, not legal title.", "as_of": "2026-09-20", "role": "focus", "color": "#e8b040"}}, {"type": "Feature", "geometry": {"type": "Polygon", "coordinates": [[[-85.875, 48.8375], [-85.875, 48.8417], [-85.8813, 48.8417], [-85.8813, 48.8375], [-85.875, 48.8375]]]}, "properties": {"company_id": "emperor-metals", "jurisdiction": "Ontario", "claim_id": "238603", "claim_name": null, "holder": "(100) Emperor Metals Inc.", "status": "Active", "recorded_date": "2018-04-10", "anniversary_or_expiry": "2027-02-12", "area_ha": null, "tenure_type": "Single Cell Mining Claim", "source": "Ontario MLAS operational claims (OGSEarth / LIO MapServer). Unofficial viewing data, not legal title.", "as_of": "2026-09-20", "role": "focus", "color": "#e8b040"}}, {"type": "Feature", "geometry": {"type": "Polygon", "coordinates": [[[-85.8875, 48.825], [-85.8875, 48.8292], [-85.8938, 48.8292], [-85.8938, 48.825], [-85.8875, 48.825]]]}, "properties": {"company_id": "emperor-metals", "jurisdiction": "Ontario", "claim_id": "239446", "claim_name": null, "holder": "(100) Emperor Metals Inc.", "status": "Active", "recorded_date": "2018-04-10", "anniversary_or_expiry": "2027-02-12", "area_ha": null, "tenure_type": "Boundary Cell Mining Claim", "source": "Ontario MLAS operational claims (OGSEarth / LIO MapServer). Unofficial viewing data, not legal title.", "as_of": "2026-09-20", "role": "focus", "color": "#e8b040"}}, {"type": "Feature", "geometry": {"type": "Polygon", "coordinates": [[[-86.2625, 48.6708], [-86.2625, 48.675], [-86.2688, 48.675], [-86.2688, 48.6708], [-86.2625, 48.6708]]]}, "properties": {"company_id": "emperor-metals", "jurisdiction": "Ontario", "claim_id": "242272", "claim_name": null, "holder": "(100) Emperor Metals Inc.", "status": "Hold Special Circumstances Apply", "recorded_date": "2018-04-10", "anniversary_or_expiry": "2026-03-07", "area_ha": null, "tenure_type": "Boundary Cell Mining Claim", "source": "Ontario MLAS operational claims (OGSEarth / LIO MapServer). Unofficial viewing data, not legal title.", "as_of": "2026-09-20", "role": "focus", "color": "#e8b040"}}, {"type": "Feature", "geometry": {"type": "Polygon", "coordinates": [[[-85.875, 48.8583], [-85.875, 48.8625], [-85.8813, 48.8625], [-85.8813, 48.8583], [-85.875, 48.8583]]]}, "properties": {"company_id": "emperor-metals", "jurisdiction": "Ontario", "claim_id": "241885", "claim_name": null, "holder": "(100) Emperor Metals Inc.", "status": "Active", "recorded_date": "2018-04-10", "anniversary_or_expiry": "2027-02-12", "area_ha": null, "tenure_type": "Single Cell Mining Claim", "source": "Ontario MLAS operational claims (OGSEarth / LIO MapServer). Unofficial viewing data, not legal title.", "as_of": "2026-09-20", "role": "focus", "color": "#e8b040"}}, {"type": "Feature", "geometry": {"type": "Polygon", "coordinates": [[[-85.8813, 48.85], [-85.8813, 48.8542], [-85.8875, 48.8542], [-85.8875, 48.85], [-85.8813, 48.85]]]}, "properties": {"company_id": "emperor-metals", "jurisdiction": "Ontario", "claim_id": "241886", "claim_name": null, "holder": "(100) Emperor Metals Inc.", "status": "Active", "recorded_date": "2018-04-10", "anniversary_or_expiry": "2027-02-12", "area_ha": null, "tenure_type": "Single Cell Mining Claim", "source": "Ontario MLAS operational claims (OGSEarth / LIO MapServer). Unofficial viewing data, not legal title.", "as_of": "2026-09-20", "role": "focus", "color": "#e8b040"}}, {"type": "Feature", "geometry": {"type": "Polygon", "coordinates": [[[-85.8688, 48.8083], [-85.8688, 48.8125], [-85.875, 48.8125], [-85.875, 48.8083], [-85.8688, 48.8083]]]}, "properties": {"company_id": "emperor-metals", "jurisdiction": "Ontario", "claim_id": "242942", "claim_name": null, "holder": "(100) Emperor Metals Inc.", "status": "Active", "recorded_date": "2018-04-10", "anniversary_or_expiry": "2027-02-12", "area_ha": null, "tenure_type": "Boundary Cell Mining Claim", "source": "Ontario MLAS operational claims (OGSEarth / LIO MapServer). Unofficial viewing data, not legal title.", "as_of": "2026-09-20", "role": "focus", "color": "#e8b040"}}, {"type": "Feature", "geometry": {"type": "Polygon", "coordinates": [[[-85.8688, 48.825], [-85.8688, 48.8292], [-85.875, 48.8292], [-85.875, 48.825], [-85.8688, 48.825]]]}, "properties": {"company_id": "emperor-metals", "jurisdiction": "Ontario", "claim_id": "246938", "claim_name": null, "holder": "(100) Emperor Metals Inc.", "status": "Active", "recorded_date": "2018-04-10", "anniversary_or_expiry": "2027-02-12", "area_ha": null, "tenure_type": "Boundary Cell Mining Claim", "source": "Ontario MLAS operational claims (OGSEarth / LIO MapServer). Unofficial viewing data, not legal title.", "as_of": "2026-09-20", "role": "focus", "color": "#e8b040"}}, {"type": "Feature", "geometry": {"type": "Polygon", "coordinates": [[[-86.275, 48.6708], [-86.275, 48.675], [-86.2813, 48.675], [-86.2813, 48.6708], [-86.275, 48.6708]]]}, "properties": {"company_id": "emperor-metals", "jurisdiction": "Ontario", "claim_id": "250333", "claim_name": null, "holder": "(100) Emperor Metals Inc.", "status": "Hold Special Circumstances Apply", "recorded_date": "2018-04-10", "anniversary_or_expiry": "2026-03-07", "area_ha": null, "tenure_type": "Boundary Cell Mining Claim", "source": "Ontario MLAS operational claims (OGSEarth / LIO MapServer). Unofficial viewing data, not legal title.", "as_of": "2026-09-20", "role": "focus", "color": "#e8b040"}}, {"type": "Feature", "geometry": {"type": "Polygon", "coordinates": [[[-85.8875, 48.8167], [-85.8875, 48.8208], [-85.8938, 48.8208], [-85.8938, 48.8167], [-85.8875, 48.8167]]]}, "properties": {"company_id": "emperor-metals", "jurisdiction": "Ontario", "claim_id": "250981", "claim_name": null, "holder": "(100) Emperor Metals Inc.", "status": "Active", "recorded_date": "2018-04-10", "anniversary_or_expiry": "2027-02-12", "area_ha": null, "tenure_type": "Boundary Cell Mining Claim", "source": "Ontario MLAS operational claims (OGSEarth / LIO MapServer). Unofficial viewing data, not legal title.", "as_of": "2026-09-20", "role": "focus", "color": "#e8b040"}}, {"type": "Feature", "geometry": {"type": "Polygon", "coordinates": [[[-85.8875, 48.8542], [-85.8875, 48.8583], [-85.8938, 48.8583], [-85.8938, 48.8542], [-85.8875, 48.8542]]]}, "properties": {"company_id": "emperor-metals", "jurisdiction": "Ontario", "claim_id": "252819", "claim_name": null, "holder": "(100) Emperor Metals Inc.", "status": "Active", "recorded_date": "2018-04-10", "anniversary_or_expiry": "2027-02-12", "area_ha": null, "tenure_type": "Boundary Cell Mining Claim", "source": "Ontario MLAS operational claims (OGSEarth / LIO MapServer). Unofficial viewing data, not legal title.", "as_of": "2026-09-20", "role": "focus", "color": "#e8b040"}}, {"type": "Feature", "geometry": {"type": "Polygon", "coordinates": [[[-85.8688, 48.8417], [-85.8688, 48.8458], [-85.875, 48.8458], [-85.875, 48.8417], [-85.8688, 48.8417]]]}, "properties": {"company_id": "emperor-metals", "jurisdiction": "Ontario", "claim_id": "255331", "claim_name": null, "holder": "(100) Emperor Metals Inc.", "status": "Active", "recorded_date": "2018-04-10", "anniversary_or_expiry": "2027-02-12", "area_ha": null, "tenure_type": "Single Cell Mining Claim", "source": "Ontario MLAS operational claims (OGSEarth / LIO MapServer). Unofficial viewing data, not legal title.", "as_of": "2026-09-20", "role": "focus", "color": "#e8b040"}}, {"type": "Feature", "geometry": {"type": "Polygon", "coordinates": [[[-86.25, 48.6875], [-86.25, 48.6917], [-86.2563, 48.6917], [-86.2563, 48.6875], [-86.25, 48.6875]]]}, "properties": {"company_id": "emperor-metals", "jurisdiction": "Ontario", "claim_id": "254548", "claim_name": null, "holder": "(100) Emperor Metals Inc.", "status": "Hold Special Circumstances Apply", "recorded_date": "2018-04-10", "anniversary_or_expiry": "2026-03-07", "area_ha": null, "tenure_type": "Boundary Cell Mining Claim", "source": "Ontario MLAS operational claims (OGSEarth / LIO MapServer). Unofficial viewing data, not legal title.", "as_of": "2026-09-20", "role": "focus", "color": "#e8b040"}}, {"type": "Feature", "geometry": {"type": "Polygon", "coordinates": [[[-85.8625, 48.8583], [-85.8625, 48.8625], [-85.8688, 48.8625], [-85.8688, 48.8583], [-85.8625, 48.8583]]]}, "properties": {"company_id": "emperor-metals", "jurisdiction": "Ontario", "claim_id": "258421", "claim_name": null, "holder": "(100) Emperor Metals Inc.", "status": "Active", "recorded_date": "2018-04-10", "anniversary_or_expiry": "2027-02-12", "area_ha": null, "tenure_type": "Single Cell Mining Claim", "source": "Ontario MLAS operational claims (OGSEarth / LIO MapServer). Unofficial viewing data, not legal title.", "as_of": "2026-09-20", "role": "focus", "color": "#e8b040"}}, {"type": "Feature", "geometry": {"type": "Polygon", "coordinates": [[[-85.8688, 48.85], [-85.8688, 48.8542], [-85.875, 48.8542], [-85.875, 48.85], [-85.8688, 48.85]]]}, "properties": {"company_id": "emperor-metals", "jurisdiction": "Ontario", "claim_id": "258422", "claim_name": null, "holder": "(100) Emperor Metals Inc.", "status": "Active", "recorded_date": "2018-04-10", "anniversary_or_expiry": "2027-02-12", "area_ha": null, "tenure_type": "Single Cell Mining Claim", "source": "Ontario MLAS operational claims (OGSEarth / LIO MapServer). Unofficial viewing data, not legal title.", "as_of": "2026-09-20", "role": "focus", "color": "#e8b040"}}, {"type": "Feature", "geometry": {"type": "Polygon", "coordinates": [[[-85.8625, 48.8667], [-85.8625, 48.8708], [-85.8688, 48.8708], [-85.8688, 48.8667], [-85.8625, 48.8667]]]}, "properties": {"company_id": "emperor-metals", "jurisdiction": "Ontario", "claim_id": "257975", "claim_name": null, "holder": "(100) Emperor Metals Inc.", "status": "Active", "recorded_date": "2018-04-10", "anniversary_or_expiry": "2027-02-12", "area_ha": null, "tenure_type": "Boundary Cell Mining Claim", "source": "Ontario MLAS operational claims (OGSEarth / LIO MapServer). Unofficial viewing data, not legal title.", "as_of": "2026-09-20", "role": "focus", "color": "#e8b040"}}, {"type": "Feature", "geometry": {"type": "Polygon", "coordinates": [[[-86.2813, 48.6708], [-86.2813, 48.675], [-86.2875, 48.675], [-86.2875, 48.6708], [-86.2813, 48.6708]]]}, "properties": {"company_id": "emperor-metals", "jurisdiction": "Ontario", "claim_id": "262401", "claim_name": null, "holder": "(100) Emperor Metals Inc.", "status": "Hold Special Circumstances Apply", "recorded_date": "2018-04-10", "anniversary_or_expiry": "2026-03-07", "area_ha": null, "tenure_type": "Boundary Cell Mining Claim", "source": "Ontario MLAS operational claims (OGSEarth / LIO MapServer). Unofficial viewing data, not legal title.", "as_of": "2026-09-20", "role": "focus", "color": "#e8b040"}}, {"type": "Feature", "geometry": {"type": "Polygon", "coordinates": [[[-85.875, 48.8125], [-85.875, 48.8167], [-85.8813, 48.8167], [-85.8813, 48.8125], [-85.875, 48.8125]]]}, "properties": {"company_id": "emperor-metals", "jurisdiction": "Ontario", "claim_id": "263017", "claim_name": null, "holder": "(100) Emperor Metals Inc.", "status": "Active", "recorded_date": "2018-04-10", "anniversary_or_expiry": "2027-02-12", "area_ha": null, "tenure_type": "Boundary Cell Mining Claim", "source": "Ontario MLAS operational claims (OGSEarth / LIO MapServer). Unofficial viewing data, not legal title.", "as_of": "2026-09-20", "role": "focus", "color": "#e8b040"}}, {"type": "Feature", "geometry": {"type": "Polygon", "coordinates": [[[-85.8813, 48.8125], [-85.8813, 48.8167], [-85.8875, 48.8167], [-85.8875, 48.8125], [-85.8813, 48.8125]]]}, "properties": {"company_id": "emperor-metals", "jurisdiction": "Ontario", "claim_id": "263018", "claim_name": null, "holder": "(100) Emperor Metals Inc.", "status": "Active", "recorded_date": "2018-04-10", "anniversary_or_expiry": "2027-02-12", "area_ha": null, "tenure_type": "Boundary Cell Mining Claim", "source": "Ontario MLAS operational claims (OGSEarth / LIO MapServer). Unofficial viewing data, not legal title.", "as_of": "2026-09-20", "role": "focus", "color": "#e8b040"}}, {"type": "Feature", "geometry": {"type": "Polygon", "coordinates": [[[-86.2563, 48.675], [-86.2563, 48.6792], [-86.2625, 48.6792], [-86.2625, 48.675], [-86.2563, 48.675]]]}, "properties": {"company_id": "emperor-metals", "jurisdiction": "Ontario", "claim_id": "266556", "claim_name": null, "holder": "(100) Emperor Metals Inc.", "status": "Hold Special Circumstances Apply", "recorded_date": "2018-04-10", "anniversary_or_expiry": "2026-03-07", "area_ha": null, "tenure_type": "Single Cell Mining Claim", "source": "Ontario MLAS operational claims (OGSEarth / LIO MapServer). Unofficial viewing data, not legal title.", "as_of": "2026-09-20", "role": "focus", "color": "#e8b040"}}, {"type": "Feature", "geometry": {"type": "Polygon", "coordinates": [[[-86.2875, 48.6917], [-86.2875, 48.6958], [-86.2938, 48.6958], [-86.2938, 48.6917], [-86.2875, 48.6917]]]}, "properties": {"company_id": "emperor-metals", "jurisdiction": "Ontario", "claim_id": "266180", "claim_name": null, "holder": "(100) Emperor Metals Inc.", "status": "Hold Special Circumstances Apply", "recorded_date": "2018-04-10", "anniversary_or_expiry": "2026-03-07", "area_ha": null, "tenure_type": "Single Cell Mining Claim", "source": "Ontario MLAS operational claims (OGSEarth / LIO MapServer). Unofficial viewing data, not legal title.", "as_of": "2026-09-20", "role": "focus", "color": "#e8b040"}}, {"type": "Feature", "geometry": {"type": "Polygon", "coordinates": [[[-86.2813, 48.6833], [-86.2813, 48.6875], [-86.2875, 48.6875], [-86.2875, 48.6833], [-86.2813, 48.6833]]]}, "properties": {"company_id": "emperor-metals", "jurisdiction": "Ontario", "claim_id": "266181", "claim_name": null, "holder": "(100) Emperor Metals Inc.", "status": "Hold Special Circumstances Apply", "recorded_date": "2018-04-10", "anniversary_or_expiry": "2026-03-07", "area_ha": null, "tenure_type": "Single Cell Mining Claim", "source": "Ontario MLAS operational claims (OGSEarth / LIO MapServer). Unofficial viewing data, not legal title.", "as_of": "2026-09-20", "role": "focus", "color": "#e8b040"}}, {"type": "Feature", "geometry": {"type": "Polygon", "coordinates": [[[-86.2938, 48.6833], [-86.2938, 48.6875], [-86.3, 48.6875], [-86.3, 48.6833], [-86.2938, 48.6833]]]}, "properties": {"company_id": "emperor-metals", "jurisdiction": "Ontario", "claim_id": "273639", "claim_name": null, "holder": "(100) Emperor Metals Inc.", "status": "Hold Special Circumstances Apply", "recorded_date": "2018-04-10", "anniversary_or_expiry": "2026-03-07", "area_ha": null, "tenure_type": "Single Cell Mining Claim", "source": "Ontario MLAS operational claims (OGSEarth / LIO MapServer). Unofficial viewing data, not legal title.", "as_of": "2026-09-20", "role": "focus", "color": "#e8b040"}}, {"type": "Feature", "geometry": {"type": "Polygon", "coordinates": [[[-86.2563, 48.6708], [-86.2563, 48.675], [-86.2625, 48.675], [-86.2625, 48.6708], [-86.2563, 48.6708]]]}, "properties": {"company_id": "emperor-metals", "jurisdiction": "Ontario", "claim_id": "273318", "claim_name": null, "holder": "(100) Emperor Metals Inc.", "status": "Hold Special Circumstances Apply", "recorded_date": "2018-04-10", "anniversary_or_expiry": "2026-03-07", "area_ha": null, "tenure_type": "Single Cell Mining Claim", "source": "Ontario MLAS operational claims (OGSEarth / LIO MapServer). Unofficial viewing data, not legal title.", "as_of": "2026-09-20", "role": "focus", "color": "#e8b040"}}, {"type": "Feature", "geometry": {"type": "Polygon", "coordinates": [[[-86.275, 48.675], [-86.275, 48.6792], [-86.2813, 48.6792], [-86.2813, 48.675], [-86.275, 48.675]]]}, "properties": {"company_id": "emperor-metals", "jurisdiction": "Ontario", "claim_id": "273633", "claim_name": null, "holder": "(100) Emperor Metals Inc.", "status": "Hold Special Circumstances Apply", "recorded_date": "2018-04-10", "anniversary_or_expiry": "2026-03-07", "area_ha": null, "tenure_type": "Single Cell Mining Claim", "source": "Ontario MLAS operational claims (OGSEarth / LIO MapServer). Unofficial viewing data, not legal title.", "as_of": "2026-09-20", "role": "focus", "color": "#e8b040"}}, {"type": "Feature", "geometry": {"type": "Polygon", "coordinates": [[[-85.875, 48.85], [-85.875, 48.8542], [-85.8813, 48.8542], [-85.8813, 48.85], [-85.875, 48.85]]]}, "properties": {"company_id": "emperor-metals", "jurisdiction": "Ontario", "claim_id": "276937", "claim_name": null, "holder": "(100) Emperor Metals Inc.", "status": "Active", "recorded_date": "2018-04-10", "anniversary_or_expiry": "2027-02-12", "area_ha": null, "tenure_type": "Single Cell Mining Claim", "source": "Ontario MLAS operational claims (OGSEarth / LIO MapServer). Unofficial viewing data, not legal title.", "as_of": "2026-09-20", "role": "focus", "color": "#e8b040"}}, {"type": "Feature", "geometry": {"type": "Polygon", "coordinates": [[[-85.8625, 48.8625], [-85.8625, 48.8667], [-85.8688, 48.8667], [-85.8688, 48.8625], [-85.8625, 48.8625]]]}, "properties": {"company_id": "emperor-metals", "jurisdiction": "Ontario", "claim_id": "276936", "claim_name": null, "holder": "(100) Emperor Metals Inc.", "status": "Active", "recorded_date": "2018-04-10", "anniversary_or_expiry": "2027-02-12", "area_ha": null, "tenure_type": "Boundary Cell Mining Claim", "source": "Ontario MLAS operational claims (OGSEarth / LIO MapServer). Unofficial viewing data, not legal title.", "as_of": "2026-09-20", "role": "focus", "color": "#e8b040"}}, {"type": "Feature", "geometry": {"type": "Polygon", "coordinates": [[[-85.8625, 48.8417], [-85.8625, 48.8458], [-85.8688, 48.8458], [-85.8688, 48.8417], [-85.8625, 48.8417]]]}, "properties": {"company_id": "emperor-metals", "jurisdiction": "Ontario", "claim_id": "275809", "claim_name": null, "holder": "(100) Emperor Metals Inc.", "status": "Active", "recorded_date": "2018-04-10", "anniversary_or_expiry": "2027-02-12", "area_ha": null, "tenure_type": "Single Cell Mining Claim", "source": "Ontario MLAS operational claims (OGSEarth / LIO MapServer). Unofficial viewing data, not legal title.", "as_of": "2026-09-20", "role": "focus", "color": "#e8b040"}}, {"type": "Feature", "geometry": {"type": "Polygon", "coordinates": [[[-85.8563, 48.8375], [-85.8563, 48.8417], [-85.8625, 48.8417], [-85.8625, 48.8375], [-85.8563, 48.8375]]]}, "properties": {"company_id": "emperor-metals", "jurisdiction": "Ontario", "claim_id": "275810", "claim_name": null, "holder": "(100) Emperor Metals Inc.", "status": "Active", "recorded_date": "2018-04-10", "anniversary_or_expiry": "2027-02-12", "area_ha": null, "tenure_type": "Boundary Cell Mining Claim", "source": "Ontario MLAS operational claims (OGSEarth / LIO MapServer). Unofficial viewing data, not legal title.", "as_of": "2026-09-20", "role": "focus", "color": "#e8b040"}}, {"type": "Feature", "geometry": {"type": "Polygon", "coordinates": [[[-85.8688, 48.875], [-85.8688, 48.8792], [-85.875, 48.8792], [-85.875, 48.875], [-85.8688, 48.875]]]}, "properties": {"company_id": "emperor-metals", "jurisdiction": "Ontario", "claim_id": "275930", "claim_name": null, "holder": "(100) Emperor Metals Inc.", "status": "Active", "recorded_date": "2018-04-10", "anniversary_or_expiry": "2027-02-12", "area_ha": null, "tenure_type": "Single Cell Mining Claim", "source": "Ontario MLAS operational claims (OGSEarth / LIO MapServer). Unofficial viewing data, not legal title.", "as_of": "2026-09-20", "role": "focus", "color": "#e8b040"}}, {"type": "Feature", "geometry": {"type": "Polygon", "coordinates": [[[-85.8813, 48.8667], [-85.8813, 48.8708], [-85.8875, 48.8708], [-85.8875, 48.8667], [-85.8813, 48.8667]]]}, "properties": {"company_id": "emperor-metals", "jurisdiction": "Ontario", "claim_id": "275931", "claim_name": null, "holder": "(100) Emperor Metals Inc.", "status": "Active", "recorded_date": "2018-04-10", "anniversary_or_expiry": "2027-02-12", "area_ha": null, "tenure_type": "Boundary Cell Mining Claim", "source": "Ontario MLAS operational claims (OGSEarth / LIO MapServer). Unofficial viewing data, not legal title.", "as_of": "2026-09-20", "role": "focus", "color": "#e8b040"}}, {"type": "Feature", "geometry": {"type": "Polygon", "coordinates": [[[-85.8875, 48.8125], [-85.8875, 48.8167], [-85.8938, 48.8167], [-85.8938, 48.8125], [-85.8875, 48.8125]]]}, "properties": {"company_id": "emperor-metals", "jurisdiction": "Ontario", "claim_id": "279499", "claim_name": null, "holder": "(100) Emperor Metals Inc.", "status": "Active", "recorded_date": "2018-04-10", "anniversary_or_expiry": "2027-02-12", "area_ha": null, "tenure_type": "Boundary Cell Mining Claim", "source": "Ontario MLAS operational claims (OGSEarth / LIO MapServer). Unofficial viewing data, not legal title.", "as_of": "2026-09-20", "role": "focus", "color": "#e8b040"}}, {"type": "Feature", "geometry": {"type": "Polygon", "coordinates": [[[-85.8813, 48.825], [-85.8813, 48.8292], [-85.8875, 48.8292], [-85.8875, 48.825], [-85.8813, 48.825]]]}, "properties": {"company_id": "emperor-metals", "jurisdiction": "Ontario", "claim_id": "286092", "claim_name": null, "holder": "(100) Emperor Metals Inc.", "status": "Active", "recorded_date": "2018-04-10", "anniversary_or_expiry": "2027-02-12", "area_ha": null, "tenure_type": "Single Cell Mining Claim", "source": "Ontario MLAS operational claims (OGSEarth / LIO MapServer). Unofficial viewing data, not legal title.", "as_of": "2026-09-20", "role": "focus", "color": "#e8b040"}}, {"type": "Feature", "geometry": {"type": "Polygon", "coordinates": [[[-86.275, 48.6917], [-86.275, 48.6958], [-86.2813, 48.6958], [-86.2813, 48.6917], [-86.275, 48.6917]]]}, "properties": {"company_id": "emperor-metals", "jurisdiction": "Ontario", "claim_id": "285721", "claim_name": null, "holder": "(100) Emperor Metals Inc.", "status": "Hold Special Circumstances Apply", "recorded_date": "2018-04-10", "anniversary_or_expiry": "2026-03-07", "area_ha": null, "tenure_type": "Single Cell Mining Claim", "source": "Ontario MLAS operational claims (OGSEarth / LIO MapServer). Unofficial viewing data, not legal title.", "as_of": "2026-09-20", "role": "focus", "color": "#e8b040"}}, {"type": "Feature", "geometry": {"type": "Polygon", "coordinates": [[[-86.2688, 48.6917], [-86.2688, 48.6958], [-86.275, 48.6958], [-86.275, 48.6917], [-86.2688, 48.6917]]]}, "properties": {"company_id": "emperor-metals", "jurisdiction": "Ontario", "claim_id": "293020", "claim_name": null, "holder": "(100) Emperor Metals Inc.", "status": "Hold Special Circumstances Apply", "recorded_date": "2018-04-10", "anniversary_or_expiry": "2026-03-07", "area_ha": null, "tenure_type": "Single Cell Mining Claim", "source": "Ontario MLAS operational claims (OGSEarth / LIO MapServer). Unofficial viewing data, not legal title.", "as_of": "2026-09-20", "role": "focus", "color": "#e8b040"}}, {"type": "Feature", "geometry": {"type": "Polygon", "coordinates": [[[-86.2625, 48.6875], [-86.2625, 48.6917], [-86.2688, 48.6917], [-86.2688, 48.6875], [-86.2625, 48.6875]]]}, "properties": {"company_id": "emperor-metals", "jurisdiction": "Ontario", "claim_id": "293021", "claim_name": null, "holder": "(100) Emperor Metals Inc.", "status": "Hold Special Circumstances Apply", "recorded_date": "2018-04-10", "anniversary_or_expiry": "2026-03-07", "area_ha": null, "tenure_type": "Single Cell Mining Claim", "source": "Ontario MLAS operational claims (OGSEarth / LIO MapServer). Unofficial viewing data, not legal title.", "as_of": "2026-09-20", "role": "focus", "color": "#e8b040"}}, {"type": "Feature", "geometry": {"type": "Polygon", "coordinates": [[[-85.875, 48.8417], [-85.875, 48.8458], [-85.8813, 48.8458], [-85.8813, 48.8417], [-85.875, 48.8417]]]}, "properties": {"company_id": "emperor-metals", "jurisdiction": "Ontario", "claim_id": "292579", "claim_name": null, "holder": "(100) Emperor Metals Inc.", "status": "Active", "recorded_date": "2018-04-10", "anniversary_or_expiry": "2027-02-12", "area_ha": null, "tenure_type": "Single Cell Mining Claim", "source": "Ontario MLAS operational claims (OGSEarth / LIO MapServer). Unofficial viewing data, not legal title.", "as_of": "2026-09-20", "role": "focus", "color": "#e8b040"}}, {"type": "Feature", "geometry": {"type": "Polygon", "coordinates": [[[-85.875, 48.8625], [-85.875, 48.8667], [-85.8813, 48.8667], [-85.8813, 48.8625], [-85.875, 48.8625]]]}, "properties": {"company_id": "emperor-metals", "jurisdiction": "Ontario", "claim_id": "295813", "claim_name": null, "holder": "(100) Emperor Metals Inc.", "status": "Active", "recorded_date": "2018-04-10", "anniversary_or_expiry": "2027-02-12", "area_ha": null, "tenure_type": "Boundary Cell Mining Claim", "source": "Ontario MLAS operational claims (OGSEarth / LIO MapServer). Unofficial viewing data, not legal title.", "as_of": "2026-09-20", "role": "focus", "color": "#e8b040"}}, {"type": "Feature", "geometry": {"type": "Polygon", "coordinates": [[[-86.2563, 48.6833], [-86.2563, 48.6875], [-86.2625, 48.6875], [-86.2625, 48.6833], [-86.2563, 48.6833]]]}, "properties": {"company_id": "emperor-metals", "jurisdiction": "Ontario", "claim_id": "303177", "claim_name": null, "holder": "(100) Emperor Metals Inc.", "status": "Hold Special Circumstances Apply", "recorded_date": "2018-04-10", "anniversary_or_expiry": "2026-03-07", "area_ha": null, "tenure_type": "Single Cell Mining Claim", "source": "Ontario MLAS operational claims (OGSEarth / LIO MapServer). Unofficial viewing data, not legal title.", "as_of": "2026-09-20", "role": "focus", "color": "#e8b040"}}, {"type": "Feature", "geometry": {"type": "Polygon", "coordinates": [[[-85.8875, 48.8458], [-85.8875, 48.85], [-85.8938, 48.85], [-85.8938, 48.8458], [-85.8875, 48.8458]]]}, "properties": {"company_id": "emperor-metals", "jurisdiction": "Ontario", "claim_id": "304735", "claim_name": null, "holder": "(100) Emperor Metals Inc.", "status": "Active", "recorded_date": "2018-04-10", "anniversary_or_expiry": "2027-02-12", "area_ha": null, "tenure_type": "Boundary Cell Mining Claim", "source": "Ontario MLAS operational claims (OGSEarth / LIO MapServer). Unofficial viewing data, not legal title.", "as_of": "2026-09-20", "role": "focus", "color": "#e8b040"}}, {"type": "Feature", "geometry": {"type": "Polygon", "coordinates": [[[-85.875, 48.8333], [-85.875, 48.8375], [-85.8813, 48.8375], [-85.8813, 48.8333], [-85.875, 48.8333]]]}, "properties": {"company_id": "emperor-metals", "jurisdiction": "Ontario", "claim_id": "306775", "claim_name": null, "holder": "(100) Emperor Metals Inc.", "status": "Active", "recorded_date": "2018-04-10", "anniversary_or_expiry": "2027-02-12", "area_ha": null, "tenure_type": "Single Cell Mining Claim", "source": "Ontario MLAS operational claims (OGSEarth / LIO MapServer). Unofficial viewing data, not legal title.", "as_of": "2026-09-20", "role": "focus", "color": "#e8b040"}}, {"type": "Feature", "geometry": {"type": "Polygon", "coordinates": [[[-85.8813, 48.8708], [-85.8813, 48.875], [-85.8875, 48.875], [-85.8875, 48.8708], [-85.8813, 48.8708]]]}, "properties": {"company_id": "emperor-metals", "jurisdiction": "Ontario", "claim_id": "305236", "claim_name": null, "holder": "(100) Emperor Metals Inc.", "status": "Active", "recorded_date": "2018-04-10", "anniversary_or_expiry": "2027-02-12", "area_ha": null, "tenure_type": "Single Cell Mining Claim", "source": "Ontario MLAS operational claims (OGSEarth / LIO MapServer). Unofficial viewing data, not legal title.", "as_of": "2026-09-20", "role": "focus", "color": "#e8b040"}}, {"type": "Feature", "geometry": {"type": "Polygon", "coordinates": [[[-85.8813, 48.8333], [-85.8813, 48.8375], [-85.8875, 48.8375], [-85.8875, 48.8333], [-85.8813, 48.8333]]]}, "properties": {"company_id": "emperor-metals", "jurisdiction": "Ontario", "claim_id": "313508", "claim_name": null, "holder": "(100) Emperor Metals Inc.", "status": "Active", "recorded_date": "2018-04-10", "anniversary_or_expiry": "2027-02-12", "area_ha": null, "tenure_type": "Single Cell Mining Claim", "source": "Ontario MLAS operational claims (OGSEarth / LIO MapServer). Unofficial viewing data, not legal title.", "as_of": "2026-09-20", "role": "focus", "color": "#e8b040"}}, {"type": "Feature", "geometry": {"type": "Polygon", "coordinates": [[[-86.2625, 48.675], [-86.2625, 48.6792], [-86.2688, 48.6792], [-86.2688, 48.675], [-86.2625, 48.675]]]}, "properties": {"company_id": "emperor-metals", "jurisdiction": "Ontario", "claim_id": "322267", "claim_name": null, "holder": "(100) Emperor Metals Inc.", "status": "Hold Special Circumstances Apply", "recorded_date": "2018-04-10", "anniversary_or_expiry": "2026-03-07", "area_ha": null, "tenure_type": "Single Cell Mining Claim", "source": "Ontario MLAS operational claims (OGSEarth / LIO MapServer). Unofficial viewing data, not legal title.", "as_of": "2026-09-20", "role": "focus", "color": "#e8b040"}}, {"type": "Feature", "geometry": {"type": "Polygon", "coordinates": [[[-85.8688, 48.8625], [-85.8688, 48.8667], [-85.875, 48.8667], [-85.875, 48.8625], [-85.8688, 48.8625]]]}, "properties": {"company_id": "emperor-metals", "jurisdiction": "Ontario", "claim_id": "325019", "claim_name": null, "holder": "(100) Emperor Metals Inc.", "status": "Active", "recorded_date": "2018-04-10", "anniversary_or_expiry": "2027-02-12", "area_ha": null, "tenure_type": "Boundary Cell Mining Claim", "source": "Ontario MLAS operational claims (OGSEarth / LIO MapServer). Unofficial viewing data, not legal title.", "as_of": "2026-09-20", "role": "focus", "color": "#e8b040"}}, {"type": "Feature", "geometry": {"type": "Polygon", "coordinates": [[[-85.8813, 48.8625], [-85.8813, 48.8667], [-85.8875, 48.8667], [-85.8875, 48.8625], [-85.8813, 48.8625]]]}, "properties": {"company_id": "emperor-metals", "jurisdiction": "Ontario", "claim_id": "325020", "claim_name": null, "holder": "(100) Emperor Metals Inc.", "status": "Active", "recorded_date": "2018-04-10", "anniversary_or_expiry": "2027-02-12", "area_ha": null, "tenure_type": "Boundary Cell Mining Claim", "source": "Ontario MLAS operational claims (OGSEarth / LIO MapServer). Unofficial viewing data, not legal title.", "as_of": "2026-09-20", "role": "focus", "color": "#e8b040"}}, {"type": "Feature", "geometry": {"type": "Polygon", "coordinates": [[[-85.8688, 48.8583], [-85.8688, 48.8625], [-85.875, 48.8625], [-85.875, 48.8583], [-85.8688, 48.8583]]]}, "properties": {"company_id": "emperor-metals", "jurisdiction": "Ontario", "claim_id": "325021", "claim_name": null, "holder": "(100) Emperor Metals Inc.", "status": "Active", "recorded_date": "2018-04-10", "anniversary_or_expiry": "2027-02-12", "area_ha": null, "tenure_type": "Single Cell Mining Claim", "source": "Ontario MLAS operational claims (OGSEarth / LIO MapServer). Unofficial viewing data, not legal title.", "as_of": "2026-09-20", "role": "focus", "color": "#e8b040"}}, {"type": "Feature", "geometry": {"type": "Polygon", "coordinates": [[[-85.875, 48.8458], [-85.875, 48.85], [-85.8813, 48.85], [-85.8813, 48.8458], [-85.875, 48.8458]]]}, "properties": {"company_id": "emperor-metals", "jurisdiction": "Ontario", "claim_id": "325022", "claim_name": null, "holder": "(100) Emperor Metals Inc.", "status": "Active", "recorded_date": "2018-04-10", "anniversary_or_expiry": "2027-02-12", "area_ha": null, "tenure_type": "Single Cell Mining Claim", "source": "Ontario MLAS operational claims (OGSEarth / LIO MapServer). Unofficial viewing data, not legal title.", "as_of": "2026-09-20", "role": "focus", "color": "#e8b040"}}, {"type": "Feature", "geometry": {"type": "Polygon", "coordinates": [[[-85.8813, 48.875], [-85.8813, 48.8792], [-85.8875, 48.8792], [-85.8875, 48.875], [-85.8813, 48.875]]]}, "properties": {"company_id": "emperor-metals", "jurisdiction": "Ontario", "claim_id": "325273", "claim_name": null, "holder": "(100) Emperor Metals Inc.", "status": "Active", "recorded_date": "2018-04-10", "anniversary_or_expiry": "2027-02-12", "area_ha": null, "tenure_type": "Boundary Cell Mining Claim", "source": "Ontario MLAS operational claims (OGSEarth / LIO MapServer). Unofficial viewing data, not legal title.", "as_of": "2026-09-20", "role": "focus", "color": "#e8b040"}}, {"type": "Feature", "geometry": {"type": "Polygon", "coordinates": [[[-85.8688, 48.8667], [-85.8688, 48.8708], [-85.875, 48.8708], [-85.875, 48.8667], [-85.8688, 48.8667]]]}, "properties": {"company_id": "emperor-metals", "jurisdiction": "Ontario", "claim_id": "325274", "claim_name": null, "holder": "(100) Emperor Metals Inc.", "status": "Active", "recorded_date": "2018-04-10", "anniversary_or_expiry": "2027-02-12", "area_ha": null, "tenure_type": "Boundary Cell Mining Claim", "source": "Ontario MLAS operational claims (OGSEarth / LIO MapServer). Unofficial viewing data, not legal title.", "as_of": "2026-09-20", "role": "focus", "color": "#e8b040"}}, {"type": "Feature", "geometry": {"type": "Polygon", "coordinates": [[[-85.875, 48.8667], [-85.875, 48.8708], [-85.8813, 48.8708], [-85.8813, 48.8667], [-85.875, 48.8667]]]}, "properties": {"company_id": "emperor-metals", "jurisdiction": "Ontario", "claim_id": "325275", "claim_name": null, "holder": "(100) Emperor Metals Inc.", "status": "Active", "recorded_date": "2018-04-10", "anniversary_or_expiry": "2027-02-12", "area_ha": null, "tenure_type": "Boundary Cell Mining Claim", "source": "Ontario MLAS operational claims (OGSEarth / LIO MapServer). Unofficial viewing data, not legal title.", "as_of": "2026-09-20", "role": "focus", "color": "#e8b040"}}, {"type": "Feature", "geometry": {"type": "Polygon", "coordinates": [[[-86.25, 48.6708], [-86.25, 48.675], [-86.2563, 48.675], [-86.2563, 48.6708], [-86.25, 48.6708]]]}, "properties": {"company_id": "emperor-metals", "jurisdiction": "Ontario", "claim_id": "333762", "claim_name": null, "holder": "(100) Emperor Metals Inc.", "status": "Hold Special Circumstances Apply", "recorded_date": "2018-04-10", "anniversary_or_expiry": "2026-03-07", "area_ha": null, "tenure_type": "Single Cell Mining Claim", "source": "Ontario MLAS operational claims (OGSEarth / LIO MapServer). Unofficial viewing data, not legal title.", "as_of": "2026-09-20", "role": "focus", "color": "#e8b040"}}, {"type": "Feature", "geometry": {"type": "Polygon", "coordinates": [[[-85.8875, 48.875], [-85.8875, 48.8792], [-85.8938, 48.8792], [-85.8938, 48.875], [-85.8875, 48.875]]]}, "properties": {"company_id": "emperor-metals", "jurisdiction": "Ontario", "claim_id": "334677", "claim_name": null, "holder": "(100) Emperor Metals Inc.", "status": "Active", "recorded_date": "2018-04-10", "anniversary_or_expiry": "2027-02-12", "area_ha": null, "tenure_type": "Boundary Cell Mining Claim", "source": "Ontario MLAS operational claims (OGSEarth / LIO MapServer). Unofficial viewing data, not legal title.", "as_of": "2026-09-20", "role": "focus", "color": "#e8b040"}}, {"type": "Feature", "geometry": {"type": "Polygon", "coordinates": [[[-85.8875, 48.8667], [-85.8875, 48.8708], [-85.8938, 48.8708], [-85.8938, 48.8667], [-85.8875, 48.8667]]]}, "properties": {"company_id": "emperor-metals", "jurisdiction": "Ontario", "claim_id": "334678", "claim_name": null, "holder": "(100) Emperor Metals Inc.", "status": "Active", "recorded_date": "2018-04-10", "anniversary_or_expiry": "2027-02-12", "area_ha": null, "tenure_type": "Boundary Cell Mining Claim", "source": "Ontario MLAS operational claims (OGSEarth / LIO MapServer). Unofficial viewing data, not legal title.", "as_of": "2026-09-20", "role": "focus", "color": "#e8b040"}}, {"type": "Feature", "geometry": {"type": "Polygon", "coordinates": [[[-85.875, 48.8208], [-85.875, 48.825], [-85.8813, 48.825], [-85.8813, 48.8208], [-85.875, 48.8208]]]}, "properties": {"company_id": "emperor-metals", "jurisdiction": "Ontario", "claim_id": "338414", "claim_name": null, "holder": "(100) Emperor Metals Inc.", "status": "Active", "recorded_date": "2018-04-10", "anniversary_or_expiry": "2027-02-12", "area_ha": null, "tenure_type": "Single Cell Mining Claim", "source": "Ontario MLAS operational claims (OGSEarth / LIO MapServer). Unofficial viewing data, not legal title.", "as_of": "2026-09-20", "role": "focus", "color": "#e8b040"}}, {"type": "Feature", "geometry": {"type": "Polygon", "coordinates": [[[-85.8875, 48.8208], [-85.8875, 48.825], [-85.8938, 48.825], [-85.8938, 48.8208], [-85.8875, 48.8208]]]}, "properties": {"company_id": "emperor-metals", "jurisdiction": "Ontario", "claim_id": "338415", "claim_name": null, "holder": "(100) Emperor Metals Inc.", "status": "Active", "recorded_date": "2018-04-10", "anniversary_or_expiry": "2027-02-12", "area_ha": null, "tenure_type": "Boundary Cell Mining Claim", "source": "Ontario MLAS operational claims (OGSEarth / LIO MapServer). Unofficial viewing data, not legal title.", "as_of": "2026-09-20", "role": "focus", "color": "#e8b040"}}, {"type": "Feature", "geometry": {"type": "Polygon", "coordinates": [[[-85.8688, 48.8125], [-85.8688, 48.8167], [-85.875, 48.8167], [-85.875, 48.8125], [-85.8688, 48.8125]]]}, "properties": {"company_id": "emperor-metals", "jurisdiction": "Ontario", "claim_id": "338416", "claim_name": null, "holder": "(100) Emperor Metals Inc.", "status": "Active", "recorded_date": "2018-04-10", "anniversary_or_expiry": "2027-02-12", "area_ha": null, "tenure_type": "Boundary Cell Mining Claim", "source": "Ontario MLAS operational claims (OGSEarth / LIO MapServer). Unofficial viewing data, not legal title.", "as_of": "2026-09-20", "role": "focus", "color": "#e8b040"}}, {"type": "Feature", "geometry": {"type": "Polygon", "coordinates": [[[-86.2938, 48.6792], [-86.2938, 48.6833], [-86.3, 48.6833], [-86.3, 48.6792], [-86.2938, 48.6792]]]}, "properties": {"company_id": "emperor-metals", "jurisdiction": "Ontario", "claim_id": "344650", "claim_name": null, "holder": "(100) Emperor Metals Inc.", "status": "Hold Special Circumstances Apply", "recorded_date": "2018-04-10", "anniversary_or_expiry": "2026-03-07", "area_ha": null, "tenure_type": "Single Cell Mining Claim", "source": "Ontario MLAS operational claims (OGSEarth / LIO MapServer). Unofficial viewing data, not legal title.", "as_of": "2026-09-20", "role": "focus", "color": "#e8b040"}}, {"type": "Feature", "geometry": {"type": "Polygon", "coordinates": [[[-86.2875, 48.675], [-86.2875, 48.6792], [-86.2938, 48.6792], [-86.2938, 48.675], [-86.2875, 48.675]]]}, "properties": {"company_id": "emperor-metals", "jurisdiction": "Ontario", "claim_id": "344651", "claim_name": null, "holder": "(100) Emperor Metals Inc.", "status": "Hold Special Circumstances Apply", "recorded_date": "2018-04-10", "anniversary_or_expiry": "2026-03-07", "area_ha": null, "tenure_type": "Boundary Cell Mining Claim", "source": "Ontario MLAS operational claims (OGSEarth / LIO MapServer). Unofficial viewing data, not legal title.", "as_of": "2026-09-20", "role": "focus", "color": "#e8b040"}}, {"type": "Feature", "geometry": {"type": "Polygon", "coordinates": [[[-85.8813, 48.8375], [-85.8813, 48.8417], [-85.8875, 48.8417], [-85.8875, 48.8375], [-85.8813, 48.8375]]]}, "properties": {"company_id": "emperor-metals", "jurisdiction": "Ontario", "claim_id": "344133", "claim_name": null, "holder": "(100) Emperor Metals Inc.", "status": "Active", "recorded_date": "2018-04-10", "anniversary_or_expiry": "2027-02-12", "area_ha": null, "tenure_type": "Single Cell Mining Claim", "source": "Ontario MLAS operational claims (OGSEarth / LIO MapServer). Unofficial viewing data, not legal title.", "as_of": "2026-09-20", "role": "focus", "color": "#e8b040"}}, {"type": "Feature", "geometry": {"type": "Polygon", "coordinates": [[[-85.7688, 48.8333], [-85.7688, 48.8375], [-85.775, 48.8375], [-85.775, 48.8333], [-85.7688, 48.8333]]]}, "properties": {"company_id": "emperor-metals", "jurisdiction": "Ontario", "claim_id": "543602", "claim_name": null, "holder": "(100) Emperor Metals Inc.", "status": "Active", "recorded_date": "2019-02-25", "anniversary_or_expiry": "2029-02-25", "area_ha": null, "tenure_type": "Single Cell Mining Claim", "source": "Ontario MLAS operational claims (OGSEarth / LIO MapServer). Unofficial viewing data, not legal title.", "as_of": "2026-09-20", "role": "focus", "color": "#e8b040"}}, {"type": "Feature", "geometry": {"type": "Polygon", "coordinates": [[[-85.775, 48.8333], [-85.775, 48.8375], [-85.7813, 48.8375], [-85.7813, 48.8333], [-85.775, 48.8333]]]}, "properties": {"company_id": "emperor-metals", "jurisdiction": "Ontario", "claim_id": "543603", "claim_name": null, "holder": "(100) Emperor Metals Inc.", "status": "Active", "recorded_date": "2019-02-25", "anniversary_or_expiry": "2029-02-25", "area_ha": null, "tenure_type": "Single Cell Mining Claim", "source": "Ontario MLAS operational claims (OGSEarth / LIO MapServer). Unofficial viewing data, not legal title.", "as_of": "2026-09-20", "role": "focus", "color": "#e8b040"}}, {"type": "Feature", "geometry": {"type": "Polygon", "coordinates": [[[-85.7813, 48.8333], [-85.7813, 48.8375], [-85.7875, 48.8375], [-85.7875, 48.8333], [-85.7813, 48.8333]]]}, "properties": {"company_id": "emperor-metals", "jurisdiction": "Ontario", "claim_id": "108373", "claim_name": null, "holder": "(100) Emperor Metals Inc.", "status": "Active", "recorded_date": "2018-04-10", "anniversary_or_expiry": "2028-08-23", "area_ha": null, "tenure_type": "Boundary Cell Mining Claim", "source": "Ontario MLAS operational claims (OGSEarth / LIO MapServer). Unofficial viewing data, not legal title.", "as_of": "2026-09-20", "role": "focus", "color": "#e8b040"}}, {"type": "Feature", "geometry": {"type": "Polygon", "coordinates": [[[-85.7625, 48.8333], [-85.7625, 48.8375], [-85.7688, 48.8375], [-85.7688, 48.8333], [-85.7625, 48.8333]]]}, "properties": {"company_id": "emperor-metals", "jurisdiction": "Ontario", "claim_id": "172886", "claim_name": null, "holder": "(100) Emperor Metals Inc.", "status": "Active", "recorded_date": "2018-04-10", "anniversary_or_expiry": "2028-08-23", "area_ha": null, "tenure_type": "Boundary Cell Mining Claim", "source": "Ontario MLAS operational claims (OGSEarth / LIO MapServer). Unofficial viewing data, not legal title.", "as_of": "2026-09-20", "role": "focus", "color": "#e8b040"}}, {"type": "Feature", "geometry": {"type": "Polygon", "coordinates": [[[-85.7813, 48.8292], [-85.7813, 48.8333], [-85.7875, 48.8333], [-85.7875, 48.8292], [-85.7813, 48.8292]]]}, "properties": {"company_id": "emperor-metals", "jurisdiction": "Ontario", "claim_id": "190807", "claim_name": null, "holder": "(100) Emperor Metals Inc.", "status": "Active", "recorded_date": "2018-04-10", "anniversary_or_expiry": "2028-08-23", "area_ha": null, "tenure_type": "Boundary Cell Mining Claim", "source": "Ontario MLAS operational claims (OGSEarth / LIO MapServer). Unofficial viewing data, not legal title.", "as_of": "2026-09-20", "role": "focus", "color": "#e8b040"}}, {"type": "Feature", "geometry": {"type": "Polygon", "coordinates": [[[-85.7625, 48.8375], [-85.7625, 48.8417], [-85.7688, 48.8417], [-85.7688, 48.8375], [-85.7625, 48.8375]]]}, "properties": {"company_id": "emperor-metals", "jurisdiction": "Ontario", "claim_id": "202957", "claim_name": null, "holder": "(100) Emperor Metals Inc.", "status": "Active", "recorded_date": "2018-04-10", "anniversary_or_expiry": "2028-08-23", "area_ha": null, "tenure_type": "Boundary Cell Mining Claim", "source": "Ontario MLAS operational claims (OGSEarth / LIO MapServer). Unofficial viewing data, not legal title.", "as_of": "2026-09-20", "role": "focus", "color": "#e8b040"}}, {"type": "Feature", "geometry": {"type": "Polygon", "coordinates": [[[-85.775, 48.8375], [-85.775, 48.8417], [-85.7813, 48.8417], [-85.7813, 48.8375], [-85.775, 48.8375]]]}, "properties": {"company_id": "emperor-metals", "jurisdiction": "Ontario", "claim_id": "202958", "claim_name": null, "holder": "(100) Emperor Metals Inc.", "status": "Active", "recorded_date": "2018-04-10", "anniversary_or_expiry": "2028-08-23", "area_ha": null, "tenure_type": "Boundary Cell Mining Claim", "source": "Ontario MLAS operational claims (OGSEarth / LIO MapServer). Unofficial viewing data, not legal title.", "as_of": "2026-09-20", "role": "focus", "color": "#e8b040"}}, {"type": "Feature", "geometry": {"type": "Polygon", "coordinates": [[[-85.7688, 48.8292], [-85.7688, 48.8333], [-85.775, 48.8333], [-85.775, 48.8292], [-85.7688, 48.8292]]]}, "properties": {"company_id": "emperor-metals", "jurisdiction": "Ontario", "claim_id": "202960", "claim_name": null, "holder": "(100) Emperor Metals Inc.", "status": "Active", "recorded_date": "2018-04-10", "anniversary_or_expiry": "2028-08-23", "area_ha": null, "tenure_type": "Boundary Cell Mining Claim", "source": "Ontario MLAS operational claims (OGSEarth / LIO MapServer). Unofficial viewing data, not legal title.", "as_of": "2026-09-20", "role": "focus", "color": "#e8b040"}}, {"type": "Feature", "geometry": {"type": "Polygon", "coordinates": [[[-85.7813, 48.8375], [-85.7813, 48.8417], [-85.7875, 48.8417], [-85.7875, 48.8375], [-85.7813, 48.8375]]]}, "properties": {"company_id": "emperor-metals", "jurisdiction": "Ontario", "claim_id": "239489", "claim_name": null, "holder": "(100) Emperor Metals Inc.", "status": "Active", "recorded_date": "2018-04-10", "anniversary_or_expiry": "2028-08-23", "area_ha": null, "tenure_type": "Boundary Cell Mining Claim", "source": "Ontario MLAS operational claims (OGSEarth / LIO MapServer). Unofficial viewing data, not legal title.", "as_of": "2026-09-20", "role": "focus", "color": "#e8b040"}}, {"type": "Feature", "geometry": {"type": "Polygon", "coordinates": [[[-85.7688, 48.8375], [-85.7688, 48.8417], [-85.775, 48.8417], [-85.775, 48.8375], [-85.7688, 48.8375]]]}, "properties": {"company_id": "emperor-metals", "jurisdiction": "Ontario", "claim_id": "246970", "claim_name": null, "holder": "(100) Emperor Metals Inc.", "status": "Active", "recorded_date": "2018-04-10", "anniversary_or_expiry": "2028-08-23", "area_ha": null, "tenure_type": "Boundary Cell Mining Claim", "source": "Ontario MLAS operational claims (OGSEarth / LIO MapServer). Unofficial viewing data, not legal title.", "as_of": "2026-09-20", "role": "focus", "color": "#e8b040"}}, {"type": "Feature", "geometry": {"type": "Polygon", "coordinates": [[[-85.7625, 48.8292], [-85.7625, 48.8333], [-85.7688, 48.8333], [-85.7688, 48.8292], [-85.7625, 48.8292]]]}, "properties": {"company_id": "emperor-metals", "jurisdiction": "Ontario", "claim_id": "306813", "claim_name": null, "holder": "(100) Emperor Metals Inc.", "status": "Active", "recorded_date": "2018-04-10", "anniversary_or_expiry": "2028-08-23", "area_ha": null, "tenure_type": "Boundary Cell Mining Claim", "source": "Ontario MLAS operational claims (OGSEarth / LIO MapServer). Unofficial viewing data, not legal title.", "as_of": "2026-09-20", "role": "focus", "color": "#e8b040"}}, {"type": "Feature", "geometry": {"type": "Polygon", "coordinates": [[[-85.775, 48.8292], [-85.775, 48.8333], [-85.7813, 48.8333], [-85.7813, 48.8292], [-85.775, 48.8292]]]}, "properties": {"company_id": "emperor-metals", "jurisdiction": "Ontario", "claim_id": "306814", "claim_name": null, "holder": "(100) Emperor Metals Inc.", "status": "Active", "recorded_date": "2018-04-10", "anniversary_or_expiry": "2028-08-23", "area_ha": null, "tenure_type": "Boundary Cell Mining Claim", "source": "Ontario MLAS operational claims (OGSEarth / LIO MapServer). Unofficial viewing data, not legal title.", "as_of": "2026-09-20", "role": "focus", "color": "#e8b040"}}]}