{"type": "FeatureCollection", "features": [{"type": "Feature", "geometry": {"type": "Polygon", "coordinates": [[[-79.05179824435842, 48.213538925278115], [-79.05156241016934, 48.21261474801974], [-79.0456869981577, 48.21335579551882], [-79.04569674316876, 48.21225399397992], [-79.04569934327077, 48.211960006935385], [-79.04573598339068, 48.207817069182056], [-79.05381327000403, 48.20720893221242], [-79.0573298071831, 48.20643204251943], [-79.05858891095728, 48.20895170335955], [-79.05889071563234, 48.2089159830048], [-79.0631372994891, 48.20841327599641], [-79.06448848664262, 48.211677530091315], [-79.0644491282034, 48.211683349740916], [-79.0644109661445, 48.2116589489911], [-79.06432360423881, 48.211639712257735], [-79.06422080701724, 48.21170061295351], [-79.0641620872987, 48.21172571678089], [-79.0638392301282, 48.211773376941075], [-79.05762319927572, 48.2126907676539], [-79.05762526178832, 48.2140068154565], [-79.05242679866737, 48.21390419821766], [-79.05179824435842, 48.213538925278115]]]}, "properties": {"company_id": "emperor-metals", "jurisdiction": "Quebec", "claim_id": "", "claim_name": null, "holder": "Emperor Metals Inc.", "status": "Active", "recorded_date": null, "anniversary_or_expiry": null, "area_ha": null, "tenure_type": null, "source": "GESTIM active titles (MRNF digital data dump). Not legal title.", "as_of": "2026-09-20", "role": "focus", "color": "#e8b040"}}, {"type": "Feature", "geometry": {"type": "Polygon", "coordinates": [[[-79.075, 48.20833333334353], [-79.0833333333333, 48.20833333334353], [-79.0833333333333, 48.21666666667692], [-79.075, 48.21666666667692], [-79.075, 48.20833333334353]]]}, "properties": {"company_id": "emperor-metals", "jurisdiction": "Quebec", "claim_id": "", "claim_name": null, "holder": "Emperor Metals Inc.", "status": "Active", "recorded_date": null, "anniversary_or_expiry": null, "area_ha": null, "tenure_type": null, "source": "GESTIM active titles (MRNF digital data dump). Not legal title.", "as_of": "2026-09-20", "role": "focus", "color": "#e8b040"}}, {"type": "Feature", "geometry": {"type": "Polygon", "coordinates": [[[-79.08856178245011, 48.20000005885267], [-79.0868660896061, 48.200000079228694], [-79.0834741616034, 48.200000005399474], [-79.08347418176005, 48.19990001955774], [-79.08679780256827, 48.19989762912783], [-79.08686628028074, 48.19989760507435], [-79.08854705827417, 48.199896280577796], [-79.08856178245011, 48.20000005885267]]]}, "properties": {"company_id": "emperor-metals", "jurisdiction": "Quebec", "claim_id": "", "claim_name": null, "holder": "Emperor Metals Inc.", "status": "Active", "recorded_date": null, "anniversary_or_expiry": null, "area_ha": null, "tenure_type": null, "source": "GESTIM active titles (MRNF digital data dump). Not legal title.", "as_of": "2026-09-20", "role": "focus", "color": "#e8b040"}}, {"type": "Feature", "geometry": {"type": "Polygon", "coordinates": [[[-79.06782275461833, 48.200000038768835], [-79.0666666666667, 48.20000000001027], [-79.0666666666667, 48.19961840420883], [-79.06782246987731, 48.19961892677871], [-79.06782275461833, 48.200000038768835]]]}, "properties": {"company_id": "emperor-metals", "jurisdiction": "Quebec", "claim_id": "", "claim_name": null, "holder": "Emperor Metals Inc.", "status": "Active", "recorded_date": null, "anniversary_or_expiry": null, "area_ha": null, "tenure_type": null, "source": "GESTIM active titles (MRNF digital data dump). Not legal title.", "as_of": "2026-09-20", "role": "focus", "color": "#e8b040"}}, {"type": "Feature", "geometry": {"type": "Polygon", "coordinates": [[[-79.0666666666667, 48.20000000001027], [-79.0583333333333, 48.20000000001028], [-79.0583333333333, 48.19961437329172], [-79.06078933956637, 48.19961565800536], [-79.0608015918882, 48.19961552284989], [-79.064305976791, 48.19961735194213], [-79.0643209036206, 48.19961731544412], [-79.0666666666667, 48.19961840420883], [-79.0666666666667, 48.20000000001027]]]}, "properties": {"company_id": "emperor-metals", "jurisdiction": "Quebec", "claim_id": "", "claim_name": null, "holder": "Emperor Metals Inc.", "status": "Active", "recorded_date": null, "anniversary_or_expiry": null, "area_ha": null, "tenure_type": null, "source": "GESTIM active titles (MRNF digital data dump). Not legal title.", "as_of": "2026-09-20", "role": "focus", "color": "#e8b040"}}, {"type": "Feature", "geometry": {"type": "Polygon", "coordinates": [[[-79.0583333333333, 48.20000000001028], [-79.05000000000001, 48.200000000010256], [-79.05000000000001, 48.19960980673352], [-79.05023958264947, 48.19960994737391], [-79.05375607517735, 48.19961195289882], [-79.05376294141854, 48.199611889232486], [-79.05727270539711, 48.199613862076994], [-79.05727270549538, 48.19961386543952], [-79.05728226307625, 48.19961381106958], [-79.0583333333333, 48.19961437329172], [-79.0583333333333, 48.20000000001028]]]}, "properties": {"company_id": "emperor-metals", "jurisdiction": "Quebec", "claim_id": "", "claim_name": null, "holder": "Emperor Metals Inc.", "status": "Active", "recorded_date": null, "anniversary_or_expiry": null, "area_ha": null, "tenure_type": null, "source": "GESTIM active titles (MRNF digital data dump). Not legal title.", "as_of": "2026-09-20", "role": "focus", "color": "#e8b040"}}, {"type": "Feature", "geometry": {"type": "Polygon", "coordinates": [[[-79.05000000000001, 48.200000000010256], [-79.04672308982872, 48.200000077407786], [-79.04320711978099, 48.20000004888919], [-79.04320632628213, 48.19960560305052], [-79.04320705291227, 48.19960560642563], [-79.04672295951936, 48.19960782295941], [-79.04672443968119, 48.19960783012235], [-79.05000000000001, 48.19960980673352], [-79.05000000000001, 48.200000000010256]]]}, "properties": {"company_id": "emperor-metals", "jurisdiction": "Quebec", "claim_id": "", "claim_name": null, "holder": "Emperor Metals Inc.", "status": "Active", "recorded_date": null, "anniversary_or_expiry": null, "area_ha": null, "tenure_type": null, "source": "GESTIM active titles (MRNF digital data dump). Not legal title.", "as_of": "2026-09-20", "role": "focus", "color": "#e8b040"}}, {"type": "Feature", "geometry": {"type": "Polygon", "coordinates": [[[-79.09166666666671, 48.20833333334353], [-79.0833333333333, 48.20833333334353], [-79.0833333333333, 48.20653664252814], [-79.08347442980502, 48.206510916991164], [-79.0834741221338, 48.200619380938726], [-79.0834741616034, 48.200000005399474], [-79.0868660896061, 48.200000079228694], [-79.08856178245011, 48.20000005885267], [-79.08896057699341, 48.20281083699716], [-79.09037770172198, 48.2026801764957], [-79.09166666046329, 48.20256131808987], [-79.09166666666671, 48.20833333334353]]]}, "properties": {"company_id": "emperor-metals", "jurisdiction": "Quebec", "claim_id": "", "claim_name": null, "holder": "Emperor Metals Inc.", "status": "Active", "recorded_date": null, "anniversary_or_expiry": null, "area_ha": null, "tenure_type": null, "source": "GESTIM active titles (MRNF digital data dump). Not legal title.", "as_of": "2026-09-20", "role": "focus", "color": "#e8b040"}}, {"type": "Feature", "geometry": {"type": "Polygon", "coordinates": [[[-79.0833333333333, 48.20833333334353], [-79.075, 48.20833333334353], [-79.07499999999999, 48.20726732679321], [-79.07837943794365, 48.20703811351898], [-79.08188892837289, 48.206799987465665], [-79.08189627408373, 48.206798643485655], [-79.0833333333333, 48.20653664252814], [-79.0833333333333, 48.20833333334353]]]}, "properties": {"company_id": "emperor-metals", "jurisdiction": "Quebec", "claim_id": "", "claim_name": null, "holder": "Emperor Metals Inc.", "status": "Active", "recorded_date": null, "anniversary_or_expiry": null, "area_ha": null, "tenure_type": null, "source": "GESTIM active titles (MRNF digital data dump). Not legal title.", "as_of": "2026-09-20", "role": "focus", "color": "#e8b040"}}, {"type": "Feature", "geometry": {"type": "Polygon", "coordinates": [[[-79.075, 48.20833333334353], [-79.0666666666667, 48.20833333334353], [-79.0666666666667, 48.20000000001027], [-79.06782275461833, 48.200000038768835], [-79.0678271219932, 48.20584493793341], [-79.06929392486947, 48.207628100350824], [-79.06933613600106, 48.2076227632023], [-79.07130256973707, 48.207517976354886], [-79.07134560481987, 48.20751506360629], [-79.07486244144864, 48.207276654515184], [-79.07499999999999, 48.20726732679321], [-79.075, 48.20833333334353]]]}, "properties": {"company_id": "emperor-metals", "jurisdiction": "Quebec", "claim_id": "", "claim_name": null, "holder": "Emperor Metals Inc.", "status": "Active", "recorded_date": null, "anniversary_or_expiry": null, "area_ha": null, "tenure_type": null, "source": "GESTIM active titles (MRNF digital data dump). Not legal title.", "as_of": "2026-09-20", "role": "focus", "color": "#e8b040"}}, {"type": "Feature", "geometry": {"type": "Polygon", "coordinates": [[[-79.0666666666667, 48.20833333334353], [-79.0583333333333, 48.20833333334354], [-79.0583333333333, 48.20000000001028], [-79.0666666666667, 48.20000000001027], [-79.0666666666667, 48.20833333334353]]]}, "properties": {"company_id": "emperor-metals", "jurisdiction": "Quebec", "claim_id": "", "claim_name": null, "holder": "Emperor Metals Inc.", "status": "Active", "recorded_date": null, "anniversary_or_expiry": null, "area_ha": null, "tenure_type": null, "source": "GESTIM active titles (MRNF digital data dump). Not legal title.", "as_of": "2026-09-20", "role": "focus", "color": "#e8b040"}}, {"type": "Feature", "geometry": {"type": "Polygon", "coordinates": [[[-79.0583333333333, 48.20833333334354], [-79.0582798927172, 48.20833333541008], [-79.0573298071831, 48.20643204251943], [-79.05727636608754, 48.20644385675464], [-79.05381327000403, 48.20720893221242], [-79.05000000000001, 48.20749611020426], [-79.05000000000001, 48.200000000010256], [-79.0583333333333, 48.20000000001028], [-79.0583333333333, 48.20833333334354]]]}, "properties": {"company_id": "emperor-metals", "jurisdiction": "Quebec", "claim_id": "", "claim_name": null, "holder": "Emperor Metals Inc.", "status": "Active", "recorded_date": null, "anniversary_or_expiry": null, "area_ha": null, "tenure_type": null, "source": "GESTIM active titles (MRNF digital data dump). Not legal title.", "as_of": "2026-09-20", "role": "focus", "color": "#e8b040"}}, {"type": "Feature", "geometry": {"type": "Polygon", "coordinates": [[[-79.05000000000001, 48.20749611020426], [-79.04573598339068, 48.207817069182056], [-79.04573141717225, 48.20833341437723], [-79.04320864328052, 48.208333382251816], [-79.04320833853708, 48.20718809219868], [-79.04320711978099, 48.20000004888919], [-79.05000000000001, 48.200000000010256], [-79.05000000000001, 48.20749611020426]]]}, "properties": {"company_id": "emperor-metals", "jurisdiction": "Quebec", "claim_id": "", "claim_name": null, "holder": "Emperor Metals Inc.", "status": "Active", "recorded_date": null, "anniversary_or_expiry": null, "area_ha": null, "tenure_type": null, "source": "GESTIM active titles (MRNF digital data dump). Not legal title.", "as_of": "2026-09-20", "role": "focus", "color": "#e8b040"}}, {"type": "Feature", "geometry": {"type": "Polygon", "coordinates": [[[-79.08347520622875, 48.221610003595096], [-79.0833333333333, 48.2216098696049], [-79.0833333333333, 48.21666666667692], [-79.08347057514193, 48.21666667192947], [-79.08347520622875, 48.221610003595096]]]}, "properties": {"company_id": "emperor-metals", "jurisdiction": "Quebec", "claim_id": "", "claim_name": null, "holder": "Emperor Metals Inc.", "status": "Active", "recorded_date": null, "anniversary_or_expiry": null, "area_ha": null, "tenure_type": null, "source": "GESTIM active titles (MRNF digital data dump). Not legal title.", "as_of": "2026-09-20", "role": "focus", "color": "#e8b040"}}, {"type": "Feature", "geometry": {"type": "Polygon", "coordinates": [[[-79.0833333333333, 48.2216098696049], [-79.07840319692355, 48.22160510399694], [-79.078403197007, 48.221605107349774], [-79.075, 48.221601615970506], [-79.075, 48.21666666667692], [-79.0833333333333, 48.21666666667692], [-79.0833333333333, 48.2216098696049]]]}, "properties": {"company_id": "emperor-metals", "jurisdiction": "Quebec", "claim_id": "", "claim_name": null, "holder": "Emperor Metals Inc.", "status": "Active", "recorded_date": null, "anniversary_or_expiry": null, "area_ha": null, "tenure_type": null, "source": "GESTIM active titles (MRNF digital data dump). Not legal title.", "as_of": "2026-09-20", "role": "focus", "color": "#e8b040"}}, {"type": "Feature", "geometry": {"type": "Polygon", "coordinates": [[[-79.075, 48.21666666667692], [-79.0748802707244, 48.21666667126901], [-79.07487958807852, 48.21592346314458], [-79.075, 48.21594734270661], [-79.075, 48.21666666667692]]]}, "properties": {"company_id": "emperor-metals", "jurisdiction": "Quebec", "claim_id": "", "claim_name": null, "holder": "Emperor Metals Inc.", "status": "Active", "recorded_date": null, "anniversary_or_expiry": null, "area_ha": null, "tenure_type": null, "source": "GESTIM active titles (MRNF digital data dump). Not legal title.", "as_of": "2026-09-20", "role": "focus", "color": "#e8b040"}}, {"type": "Feature", "geometry": {"type": "Polygon", "coordinates": [[[-79.0583333333333, 48.20833333334354], [-79.0583333333333, 48.20844026929005], [-79.0582798927172, 48.20833333541008], [-79.0583333333333, 48.20833333334354]]]}, "properties": {"company_id": "emperor-metals", "jurisdiction": "Quebec", "claim_id": "", "claim_name": null, "holder": "Emperor Metals Inc.", "status": "Active", "recorded_date": null, "anniversary_or_expiry": null, "area_ha": null, "tenure_type": null, "source": "GESTIM active titles (MRNF digital data dump). Not legal title.", "as_of": "2026-09-20", "role": "focus", "color": "#e8b040"}}, {"type": "Feature", "geometry": {"type": "Polygon", "coordinates": [[[-79.05000000510947, 48.21666666355023], [-79.04166666666671, 48.21666666667693], [-79.04166666666671, 48.210725392305385], [-79.04320925341985, 48.210626254457935], [-79.04320864328052, 48.208333382251816], [-79.04573141717225, 48.20833341437723], [-79.04569934327077, 48.211960006935385], [-79.04569674316876, 48.21225399397992], [-79.0456869981577, 48.21335579551882], [-79.05000000200327, 48.21281184336003], [-79.05000000510947, 48.21666666355023]]]}, "properties": {"company_id": "emperor-metals", "jurisdiction": "Quebec", "claim_id": "", "claim_name": null, "holder": "Emperor Metals Inc.", "status": "Active", "recorded_date": null, "anniversary_or_expiry": null, "area_ha": null, "tenure_type": null, "source": "GESTIM active titles (MRNF digital data dump). Not legal title.", "as_of": "2026-09-20", "role": "focus", "color": "#e8b040"}}, {"type": "Feature", "geometry": {"type": "Polygon", "coordinates": [[[-79.0333333333333, 48.21666666667692], [-79.0333333333333, 48.20968976999037], [-79.036174603852, 48.21089223556293], [-79.03655598463236, 48.21105369680478], [-79.03969194018458, 48.21085226957684], [-79.04166666666671, 48.210725392305385], [-79.04166666666671, 48.21666666667693], [-79.0333333333333, 48.21666666667692]]]}, "properties": {"company_id": "emperor-metals", "jurisdiction": "Quebec", "claim_id": "", "claim_name": null, "holder": "Emperor Metals Inc.", "status": "Active", "recorded_date": null, "anniversary_or_expiry": null, "area_ha": null, "tenure_type": null, "source": "GESTIM active titles (MRNF digital data dump). Not legal title.", "as_of": "2026-09-20", "role": "focus", "color": "#e8b040"}}, {"type": "Feature", "geometry": {"type": "Polygon", "coordinates": [[[-79.09166666666671, 48.20833333334353], [-79.10000000000001, 48.20833333334353], [-79.10000000000001, 48.21666666667693], [-79.09166666666671, 48.21666666667692], [-79.09166666666671, 48.20833333334353]]]}, "properties": {"company_id": "emperor-metals", "jurisdiction": "Quebec", "claim_id": "", "claim_name": null, "holder": "Emperor Metals Inc.", "status": "Active", "recorded_date": null, "anniversary_or_expiry": null, "area_ha": null, "tenure_type": null, "source": "GESTIM active titles (MRNF digital data dump). Not legal title.", "as_of": "2026-09-20", "role": "focus", "color": "#e8b040"}}, {"type": "Feature", "geometry": {"type": "Polygon", "coordinates": [[[-79.09999999609464, 48.20179249712851], [-79.10000000000001, 48.20833333334353], [-79.09166666666671, 48.20833333334353], [-79.0916666604633, 48.20256131808987], [-79.09999999609464, 48.20179249712851]]]}, "properties": {"company_id": "emperor-metals", "jurisdiction": "Quebec", "claim_id": "", "claim_name": null, "holder": "Emperor Metals Inc.", "status": "Active", "recorded_date": null, "anniversary_or_expiry": null, "area_ha": null, "tenure_type": null, "source": "GESTIM active titles (MRNF digital data dump). Not legal title.", "as_of": "2026-09-20", "role": "focus", "color": "#e8b040"}}, {"type": "Feature", "geometry": {"type": "Polygon", "coordinates": [[[-79.08347057514193, 48.21666667192947], [-79.0833333333333, 48.21666666667692], [-79.0833333333333, 48.20833333334353], [-79.09166666666671, 48.20833333334353], [-79.09166666666671, 48.21666666667692], [-79.08682522850368, 48.216666745619726], [-79.08682934268103, 48.214461346493756], [-79.08436689128443, 48.21446198278924], [-79.0834684586545, 48.21446221893034], [-79.08347057514193, 48.21666667192947]]]}, "properties": {"company_id": "emperor-metals", "jurisdiction": "Quebec", "claim_id": "", "claim_name": null, "holder": "Emperor Metals Inc.", "status": "Active", "recorded_date": null, "anniversary_or_expiry": null, "area_ha": null, "tenure_type": null, "source": "GESTIM active titles (MRNF digital data dump). Not legal title.", "as_of": "2026-09-20", "role": "focus", "color": "#e8b040"}}, {"type": "Feature", "geometry": {"type": "Polygon", "coordinates": [[[-79.075, 48.225000000010205], [-79.06820978567792, 48.225000048930454], [-79.06821683999992, 48.22355250001023], [-79.06814013999995, 48.223509300010235], [-79.06811351999994, 48.22347322001026], [-79.06811389999994, 48.22342825001023], [-79.06808727999997, 48.22339217001025], [-79.06795321999992, 48.22332871001022], [-79.06776530999994, 48.22326506001027], [-79.06760410999992, 48.22322846001022], [-79.06732213999997, 48.22314646001027], [-79.06714769999996, 48.22308284001027], [-79.06693310999997, 48.22299208001023], [-79.06674527999995, 48.222919420010236], [-79.0666666666667, 48.22288901192676], [-79.0666666666667, 48.222011364923745], [-79.06669919999995, 48.222001850010216], [-79.06675325999997, 48.22197507001024], [-79.06676701999997, 48.22193915001022], [-79.06678077999997, 48.22190322001025], [-79.06683552999992, 48.22179549001023], [-79.06684951999995, 48.221732590010255], [-79.06689027999992, 48.22168778001027], [-79.06694425999994, 48.221669980010255], [-79.06702561999998, 48.22159834001026], [-79.06710736999996, 48.22148173001023], [-79.06713458999995, 48.22144585001026], [-79.06713473999997, 48.221427860010266], [-79.06716187999994, 48.22140099001025], [-79.06718909999995, 48.221365110010275], [-79.06725692999997, 48.22130241001027], [-79.06732451999994, 48.22126668001024], [-79.06735158999999, 48.22124880001025], [-79.06733889999997, 48.22115881001028], [-79.06731304, 48.22103279001024], [-79.06731348999993, 48.220978830010225], [-79.06724809999996, 48.22075373001027], [-79.06722192999995, 48.22066369001024], [-79.06714178999992, 48.22059143001026], [-79.06703449999996, 48.22054606001025], [-79.06672540999993, 48.22049093001023], [-79.06667163999998, 48.22048173001025], [-79.0666666666667, 48.22047962692816], [-79.0666666666667, 48.21666666667693], [-79.075, 48.21666666667692], [-79.075, 48.225000000010205]]]}, "properties": {"company_id": "emperor-metals", "jurisdiction": "Quebec", "claim_id": "", "claim_name": null, "holder": "Emperor Metals Inc.", "status": "Active", "recorded_date": null, "anniversary_or_expiry": null, "area_ha": null, "tenure_type": null, "source": "GESTIM active titles (MRNF digital data dump). Not legal title.", "as_of": "2026-09-20", "role": "focus", "color": "#e8b040"}}, {"type": "Feature", "geometry": {"type": "Polygon", "coordinates": [[[-79.05833333569656, 48.21666666404879], [-79.05833333548549, 48.212585983262294], [-79.0638392301282, 48.211773376941075], [-79.0641620872987, 48.21172571678089], [-79.06422080701724, 48.21170061295351], [-79.06432360423881, 48.211639712257735], [-79.0644109661445, 48.2116589489911], [-79.06444911649392, 48.211683342253906], [-79.06448848664262, 48.211677530091315], [-79.0631372994891, 48.20841327599641], [-79.05889071563234, 48.2089159830048], [-79.05858891095728, 48.20895170335955], [-79.0583333333333, 48.20844026929005], [-79.0583333333333, 48.20833333334354], [-79.0666666666667, 48.20833333334353], [-79.0666666666667, 48.21666666667693], [-79.05833333569656, 48.21666666404879]]]}, "properties": {"company_id": "emperor-metals", "jurisdiction": "Quebec", "claim_id": "", "claim_name": null, "holder": "Emperor Metals Inc.", "status": "Active", "recorded_date": null, "anniversary_or_expiry": null, "area_ha": null, "tenure_type": null, "source": "GESTIM active titles (MRNF digital data dump). Not legal title.", "as_of": "2026-09-20", "role": "focus", "color": "#e8b040"}}, {"type": "Feature", "geometry": {"type": "Polygon", "coordinates": [[[-79.05000000510947, 48.21666666355024], [-79.05000000200327, 48.21281184336003], [-79.05156241016934, 48.21261474801974], [-79.05179824435842, 48.213538925278115], [-79.05242679866737, 48.21390419821766], [-79.05762526178832, 48.2140068154565], [-79.05762319927572, 48.2126907676539], [-79.05833333548549, 48.212585983262294], [-79.05833333569656, 48.21666666404879], [-79.05000000510947, 48.21666666355024]]]}, "properties": {"company_id": "emperor-metals", "jurisdiction": "Quebec", "claim_id": "", "claim_name": null, "holder": "Emperor Metals Inc.", "status": "Active", "recorded_date": null, "anniversary_or_expiry": null, "area_ha": null, "tenure_type": null, "source": "GESTIM active titles (MRNF digital data dump). Not legal title.", "as_of": "2026-09-20", "role": "focus", "color": "#e8b040"}}, {"type": "Feature", "geometry": {"type": "Polygon", "coordinates": [[[-79.0666666666667, 48.21666666667693], [-79.0666666666667, 48.20833333334353], [-79.075, 48.20833333334353], [-79.075, 48.21594734270661], [-79.07487958807852, 48.21592346314458], [-79.0748802707244, 48.21666667126901], [-79.0666666666667, 48.21666666667693]]]}, "properties": {"company_id": "emperor-metals", "jurisdiction": "Quebec", "claim_id": "", "claim_name": null, "holder": "Emperor Metals Inc.", "status": "Active", "recorded_date": null, "anniversary_or_expiry": null, "area_ha": null, "tenure_type": null, "source": "GESTIM active titles (MRNF digital data dump). Not legal title.", "as_of": "2026-09-20", "role": "focus", "color": "#e8b040"}}]}