{"type": "FeatureCollection", "features": [{"type": "Feature", "geometry": {"type": "Polygon", "coordinates": [[[-130.9188, 56.8168], [-130.9188, 56.7943], [-130.886, 56.7943], [-130.886, 56.8168], [-130.9188, 56.8168]]]}, "properties": {"company_id": "enduro-metals", "jurisdiction": "British Columbia", "claim_id": 222489, "claim_name": "MCLYMONT #1", "holder": "ENDURO METALS CORPORATION", "status": "Mineral", "recorded_date": "5224608000", "anniversary_or_expiry": "2032-05-01", "area_ha": 500, "tenure_type": "Mineral", "source": "BC MTA Mineral, Placer and Coal Tenure Spatial View (BCGW). Open Government Licence - British Columbia. Not legal title.", "as_of": "2026-09-20", "role": "focus", "color": "#e8b040"}}, {"type": "Feature", "geometry": {"type": "Polygon", "coordinates": [[[-130.9188, 56.8168], [-130.9515, 56.8168], [-130.9515, 56.7943], [-130.9188, 56.7943], [-130.9188, 56.8168]]]}, "properties": {"company_id": "enduro-metals", "jurisdiction": "British Columbia", "claim_id": 222490, "claim_name": "MCLYMONT #2", "holder": "ENDURO METALS CORPORATION", "status": "Mineral", "recorded_date": "5224608000", "anniversary_or_expiry": "2032-05-01", "area_ha": 500, "tenure_type": "Mineral", "source": "BC MTA Mineral, Placer and Coal Tenure Spatial View (BCGW). Open Government Licence - British Columbia. Not legal title.", "as_of": "2026-09-20", "role": "focus", "color": "#e8b040"}}, {"type": "Feature", "geometry": {"type": "Polygon", "coordinates": [[[-130.9188, 56.8168], [-130.9188, 56.8393], [-130.9515, 56.8393], [-130.9515, 56.8168], [-130.9188, 56.8168]]]}, "properties": {"company_id": "enduro-metals", "jurisdiction": "British Columbia", "claim_id": 222491, "claim_name": "MCLYMONT #3", "holder": "ENDURO METALS CORPORATION", "status": "Mineral", "recorded_date": "5224608000", "anniversary_or_expiry": "2032-05-01", "area_ha": 500, "tenure_type": "Mineral", "source": "BC MTA Mineral, Placer and Coal Tenure Spatial View (BCGW). Open Government Licence - British Columbia. Not legal title.", "as_of": "2026-09-20", "role": "focus", "color": "#e8b040"}}, {"type": "Feature", "geometry": {"type": "Polygon", "coordinates": [[[-130.9188, 56.8168], [-130.886, 56.8168], [-130.886, 56.8393], [-130.9188, 56.8393], [-130.9188, 56.8168]]]}, "properties": {"company_id": "enduro-metals", "jurisdiction": "British Columbia", "claim_id": 222492, "claim_name": "MCLYMONT #4", "holder": "ENDURO METALS CORPORATION", "status": "Mineral", "recorded_date": "5224608000", "anniversary_or_expiry": "2032-05-01", "area_ha": 500, "tenure_type": "Mineral", "source": "BC MTA Mineral, Placer and Coal Tenure Spatial View (BCGW). Open Government Licence - British Columbia. Not legal title.", "as_of": "2026-09-20", "role": "focus", "color": "#e8b040"}}, {"type": "Feature", "geometry": {"type": "Polygon", "coordinates": [[[-130.9073, 56.8731], [-130.9483, 56.8731], [-130.9483, 56.8551], [-130.9073, 56.8551], [-130.9073, 56.8731]]]}, "properties": {"company_id": "enduro-metals", "jurisdiction": "British Columbia", "claim_id": 393462, "claim_name": "NEW 1", "holder": "ENDURO METALS CORPORATION", "status": "Mineral", "recorded_date": "2002-05-20", "anniversary_or_expiry": "2031-05-01", "area_ha": 500, "tenure_type": "Mineral", "source": "BC MTA Mineral, Placer and Coal Tenure Spatial View (BCGW). Open Government Licence - British Columbia. Not legal title.", "as_of": "2026-09-20", "role": "focus", "color": "#e8b040"}}, {"type": "Feature", "geometry": {"type": "Polygon", "coordinates": [[[-130.9483, 56.8551], [-130.9483, 56.8731], [-130.9893, 56.8731], [-130.9893, 56.8551], [-130.9483, 56.8551]]]}, "properties": {"company_id": "enduro-metals", "jurisdiction": "British Columbia", "claim_id": 393463, "claim_name": "NEW 2", "holder": "ENDURO METALS CORPORATION", "status": "Mineral", "recorded_date": "2002-05-20", "anniversary_or_expiry": "2031-05-01", "area_ha": 500, "tenure_type": "Mineral", "source": "BC MTA Mineral, Placer and Coal Tenure Spatial View (BCGW). Open Government Licence - British Columbia. Not legal title.", "as_of": "2026-09-20", "role": "focus", "color": "#e8b040"}}, {"type": "Feature", "geometry": {"type": "Polygon", "coordinates": [[[-130.9073, 56.8393], [-130.9073, 56.8551], [-130.9483, 56.8551], [-130.9483, 56.8393], [-130.9073, 56.8393]]]}, "properties": {"company_id": "enduro-metals", "jurisdiction": "British Columbia", "claim_id": 393464, "claim_name": "NEW 3", "holder": "ENDURO METALS CORPORATION", "status": "Mineral", "recorded_date": "2002-05-20", "anniversary_or_expiry": "2031-05-01", "area_ha": 500, "tenure_type": "Mineral", "source": "BC MTA Mineral, Placer and Coal Tenure Spatial View (BCGW). Open Government Licence - British Columbia. Not legal title.", "as_of": "2026-09-20", "role": "focus", "color": "#e8b040"}}, {"type": "Feature", "geometry": {"type": "Polygon", "coordinates": [[[-130.9483, 56.8393], [-130.9483, 56.8551], [-130.9893, 56.8551], [-130.9892, 56.8372], [-130.9515, 56.8372], [-130.9515, 56.8393], [-130.9483, 56.8393]]]}, "properties": {"company_id": "enduro-metals", "jurisdiction": "British Columbia", "claim_id": 393465, "claim_name": "NEW 4", "holder": "ENDURO METALS CORPORATION", "status": "Mineral", "recorded_date": "2002-05-20", "anniversary_or_expiry": "2031-05-01", "area_ha": 500, "tenure_type": "Mineral", "source": "BC MTA Mineral, Placer and Coal Tenure Spatial View (BCGW). Open Government Licence - British Columbia. Not legal title.", "as_of": "2026-09-20", "role": "focus", "color": "#e8b040"}}, {"type": "Feature", "geometry": {"type": "Polygon", "coordinates": [[[-130.9483, 56.8372], [-130.974, 56.8372], [-130.974, 56.8161], [-130.9419, 56.8161], [-130.9419, 56.8372], [-130.9483, 56.8372]]]}, "properties": {"company_id": "enduro-metals", "jurisdiction": "British Columbia", "claim_id": 393466, "claim_name": "MONT 1", "holder": "ENDURO METALS CORPORATION", "status": "Mineral", "recorded_date": "2002-05-20", "anniversary_or_expiry": "2031-05-01", "area_ha": 500, "tenure_type": "Mineral", "source": "BC MTA Mineral, Placer and Coal Tenure Spatial View (BCGW). Open Government Licence - British Columbia. Not legal title.", "as_of": "2026-09-20", "role": "focus", "color": "#e8b040"}}, {"type": "Feature", "geometry": {"type": "Polygon", "coordinates": [[[-130.9892, 56.8386], [-131.0068, 56.8386], [-131.0067, 56.8161], [-130.974, 56.8161], [-130.974, 56.8372], [-130.9892, 56.8372], [-130.9892, 56.8386]]]}, "properties": {"company_id": "enduro-metals", "jurisdiction": "British Columbia", "claim_id": 393467, "claim_name": "MONT 2", "holder": "ENDURO METALS CORPORATION", "status": "Mineral", "recorded_date": "2002-05-20", "anniversary_or_expiry": "2031-05-01", "area_ha": 500, "tenure_type": "Mineral", "source": "BC MTA Mineral, Placer and Coal Tenure Spatial View (BCGW). Open Government Licence - British Columbia. Not legal title.", "as_of": "2026-09-20", "role": "focus", "color": "#e8b040"}}, {"type": "Feature", "geometry": {"type": "Polygon", "coordinates": [[[-130.9515, 56.8161], [-130.974, 56.8161], [-130.974, 56.7936], [-130.9413, 56.7936], [-130.9413, 56.7943], [-130.9515, 56.7943], [-130.9515, 56.8161]]]}, "properties": {"company_id": "enduro-metals", "jurisdiction": "British Columbia", "claim_id": 393468, "claim_name": "MONT 3", "holder": "ENDURO METALS CORPORATION", "status": "Mineral", "recorded_date": "2002-05-20", "anniversary_or_expiry": "2031-05-01", "area_ha": 500, "tenure_type": "Mineral", "source": "BC MTA Mineral, Placer and Coal Tenure Spatial View (BCGW). Open Government Licence - British Columbia. Not legal title.", "as_of": "2026-09-20", "role": "focus", "color": "#e8b040"}}, {"type": "Feature", "geometry": {"type": "Polygon", "coordinates": [[[-130.974, 56.8161], [-131.0067, 56.8161], [-131.0067, 56.7936], [-130.974, 56.7936], [-130.974, 56.8161]]]}, "properties": {"company_id": "enduro-metals", "jurisdiction": "British Columbia", "claim_id": 393469, "claim_name": "MONT 4", "holder": "ENDURO METALS CORPORATION", "status": "Mineral", "recorded_date": "2002-05-20", "anniversary_or_expiry": "2031-05-01", "area_ha": 500, "tenure_type": "Mineral", "source": "BC MTA Mineral, Placer and Coal Tenure Spatial View (BCGW). Open Government Licence - British Columbia. Not legal title.", "as_of": "2026-09-20", "role": "focus", "color": "#e8b040"}}, {"type": "Feature", "geometry": {"type": "Polygon", "coordinates": [[[-130.8499, 56.8543], [-130.8663, 56.8544], [-130.8663, 56.8364], [-130.8499, 56.8364], [-130.8499, 56.8543]]]}, "properties": {"company_id": "enduro-metals", "jurisdiction": "British Columbia", "claim_id": 393653, "claim_name": "MCX 1", "holder": "ENDURO METALS CORPORATION", "status": "Mineral", "recorded_date": "2002-06-03", "anniversary_or_expiry": "2032-05-01", "area_ha": 200, "tenure_type": "Mineral", "source": "BC MTA Mineral, Placer and Coal Tenure Spatial View (BCGW). Open Government Licence - British Columbia. Not legal title.", "as_of": "2026-09-20", "role": "focus", "color": "#e8b040"}}, {"type": "Feature", "geometry": {"type": "Polygon", "coordinates": [[[-130.886, 56.8364], [-130.8663, 56.8364], [-130.8663, 56.8544], [-130.9073, 56.8544], [-130.9073, 56.8393], [-130.886, 56.8393], [-130.886, 56.8364]]]}, "properties": {"company_id": "enduro-metals", "jurisdiction": "British Columbia", "claim_id": 393654, "claim_name": "MCX 2", "holder": "ENDURO METALS CORPORATION", "status": "Mineral", "recorded_date": "2002-06-03", "anniversary_or_expiry": "2032-05-01", "area_ha": 500, "tenure_type": "Mineral", "source": "BC MTA Mineral, Placer and Coal Tenure Spatial View (BCGW). Open Government Licence - British Columbia. Not legal title.", "as_of": "2026-09-20", "role": "focus", "color": "#e8b040"}}, {"type": "Feature", "geometry": {"type": "Polygon", "coordinates": [[[-130.8417, 56.8768], [-130.8745, 56.8768], [-130.8745, 56.8544], [-130.8417, 56.8543], [-130.8417, 56.8768]]]}, "properties": {"company_id": "enduro-metals", "jurisdiction": "British Columbia", "claim_id": 393655, "claim_name": "MCX 3", "holder": "ENDURO METALS CORPORATION", "status": "Mineral", "recorded_date": "2002-06-03", "anniversary_or_expiry": "2032-05-01", "area_ha": 500, "tenure_type": "Mineral", "source": "BC MTA Mineral, Placer and Coal Tenure Spatial View (BCGW). Open Government Licence - British Columbia. Not legal title.", "as_of": "2026-09-20", "role": "focus", "color": "#e8b040"}}, {"type": "Feature", "geometry": {"type": "Polygon", "coordinates": [[[-130.8745, 56.8544], [-130.8745, 56.8768], [-130.9073, 56.8768], [-130.9073, 56.8543], [-130.8745, 56.8544]]]}, "properties": {"company_id": "enduro-metals", "jurisdiction": "British Columbia", "claim_id": 393656, "claim_name": "MCX 4", "holder": "ENDURO METALS CORPORATION", "status": "Mineral", "recorded_date": "2002-06-03", "anniversary_or_expiry": "2032-05-01", "area_ha": 500, "tenure_type": "Mineral", "source": "BC MTA Mineral, Placer and Coal Tenure Spatial View (BCGW). Open Government Licence - British Columbia. Not legal title.", "as_of": "2026-09-20", "role": "focus", "color": "#e8b040"}}, {"type": "Feature", "geometry": {"type": "Polygon", "coordinates": [[[-130.8417, 56.899], [-130.8745, 56.8993], [-130.8745, 56.8768], [-130.8417, 56.8768], [-130.8417, 56.899]]]}, "properties": {"company_id": "enduro-metals", "jurisdiction": "British Columbia", "claim_id": 393657, "claim_name": "MCX 5", "holder": "ENDURO METALS CORPORATION", "status": "Mineral", "recorded_date": "2002-06-04", "anniversary_or_expiry": "2032-05-01", "area_ha": 500, "tenure_type": "Mineral", "source": "BC MTA Mineral, Placer and Coal Tenure Spatial View (BCGW). Open Government Licence - British Columbia. Not legal title.", "as_of": "2026-09-20", "role": "focus", "color": "#e8b040"}}, {"type": "Feature", "geometry": {"type": "Polygon", "coordinates": [[[-130.8745, 56.8948], [-130.9073, 56.8948], [-130.9073, 56.8768], [-130.8745, 56.8768], [-130.8745, 56.8948]]]}, "properties": {"company_id": "enduro-metals", "jurisdiction": "British Columbia", "claim_id": 393658, "claim_name": "MCX 6", "holder": "ENDURO METALS CORPORATION", "status": "Mineral", "recorded_date": "2002-06-04", "anniversary_or_expiry": "2032-05-01", "area_ha": 400, "tenure_type": "Mineral", "source": "BC MTA Mineral, Placer and Coal Tenure Spatial View (BCGW). Open Government Licence - British Columbia. Not legal title.", "as_of": "2026-09-20", "role": "focus", "color": "#e8b040"}}, {"type": "Feature", "geometry": {"type": "Polygon", "coordinates": [[[-130.9073, 56.8768], [-130.9073, 56.8948], [-130.9401, 56.8948], [-130.9401, 56.8731], [-130.9073, 56.8731], [-130.9073, 56.8768]]]}, "properties": {"company_id": "enduro-metals", "jurisdiction": "British Columbia", "claim_id": 393659, "claim_name": "MCX 7", "holder": "ENDURO METALS CORPORATION", "status": "Mineral", "recorded_date": "2002-06-03", "anniversary_or_expiry": "2032-05-01", "area_ha": 500, "tenure_type": "Mineral", "source": "BC MTA Mineral, Placer and Coal Tenure Spatial View (BCGW). Open Government Licence - British Columbia. Not legal title.", "as_of": "2026-09-20", "role": "focus", "color": "#e8b040"}}, {"type": "Feature", "geometry": {"type": "Polygon", "coordinates": [[[-130.8171, 56.8858], [-130.8417, 56.8858], [-130.8417, 56.8633], [-130.8171, 56.8633], [-130.8171, 56.8858]]]}, "properties": {"company_id": "enduro-metals", "jurisdiction": "British Columbia", "claim_id": 393660, "claim_name": "MCX 8", "holder": "ENDURO METALS CORPORATION", "status": "Mineral", "recorded_date": "2002-06-04", "anniversary_or_expiry": "2032-05-01", "area_ha": 375, "tenure_type": "Mineral", "source": "BC MTA Mineral, Placer and Coal Tenure Spatial View (BCGW). Open Government Licence - British Columbia. Not legal title.", "as_of": "2026-09-20", "role": "focus", "color": "#e8b040"}}, {"type": "Feature", "geometry": {"type": "Polygon", "coordinates": [[[-130.8089, 56.9], [-130.8088, 56.9082], [-130.8417, 56.9082], [-130.8417, 56.8858], [-130.8089, 56.8858], [-130.8089, 56.9]]]}, "properties": {"company_id": "enduro-metals", "jurisdiction": "British Columbia", "claim_id": 393661, "claim_name": "MCX 9", "holder": "ENDURO METALS CORPORATION", "status": "Mineral", "recorded_date": "2002-06-04", "anniversary_or_expiry": "2032-05-01", "area_ha": 500, "tenure_type": "Mineral", "source": "BC MTA Mineral, Placer and Coal Tenure Spatial View (BCGW). Open Government Licence - British Columbia. Not legal title.", "as_of": "2026-09-20", "role": "focus", "color": "#e8b040"}}, {"type": "Feature", "geometry": {"type": "Polygon", "coordinates": [[[-130.8417, 56.9], [-130.8417, 56.9082], [-130.8581, 56.9082], [-130.8581, 56.8993], [-130.8417, 56.8993], [-130.8417, 56.9]]]}, "properties": {"company_id": "enduro-metals", "jurisdiction": "British Columbia", "claim_id": 393662, "claim_name": "MCX 10", "holder": "ENDURO METALS CORPORATION", "status": "Mineral", "recorded_date": "2002-06-04", "anniversary_or_expiry": "2031-05-01", "area_ha": 100, "tenure_type": "Mineral", "source": "BC MTA Mineral, Placer and Coal Tenure Spatial View (BCGW). Open Government Licence - British Columbia. Not legal title.", "as_of": "2026-09-20", "role": "focus", "color": "#e8b040"}}, {"type": "Feature", "geometry": {"type": "Polygon", "coordinates": [[[-130.9401, 56.8731], [-130.9401, 56.8776], [-130.9483, 56.8776], [-130.9483, 56.8731], [-130.9401, 56.8731]]]}, "properties": {"company_id": "enduro-metals", "jurisdiction": "British Columbia", "claim_id": 414379, "claim_name": "MCX 11", "holder": "ENDURO METALS CORPORATION", "status": "Mineral", "recorded_date": "2004-09-14", "anniversary_or_expiry": "2032-05-01", "area_ha": 25, "tenure_type": "Mineral", "source": "BC MTA Mineral, Placer and Coal Tenure Spatial View (BCGW). Open Government Licence - British Columbia. Not legal title.", "as_of": "2026-09-20", "role": "focus", "color": "#e8b040"}}, {"type": "Feature", "geometry": {"type": "Polygon", "coordinates": [[[-130.9401, 56.8776], [-130.9401, 56.8821], [-130.9483, 56.8821], [-130.9483, 56.8776], [-130.9401, 56.8776]]]}, "properties": {"company_id": "enduro-metals", "jurisdiction": "British Columbia", "claim_id": 414380, "claim_name": "MCX 12", "holder": "ENDURO METALS CORPORATION", "status": "Mineral", "recorded_date": "2004-09-14", "anniversary_or_expiry": "2032-05-01", "area_ha": 25, "tenure_type": "Mineral", "source": "BC MTA Mineral, Placer and Coal Tenure Spatial View (BCGW). Open Government Licence - British Columbia. Not legal title.", "as_of": "2026-09-20", "role": "focus", "color": "#e8b040"}}, {"type": "Feature", "geometry": {"type": "Polygon", "coordinates": [[[-130.9483, 56.8731], [-130.9483, 56.8776], [-130.9565, 56.8776], [-130.9565, 56.8731], [-130.9483, 56.8731]]]}, "properties": {"company_id": "enduro-metals", "jurisdiction": "British Columbia", "claim_id": 414381, "claim_name": "MCX 13", "holder": "ENDURO METALS CORPORATION", "status": "Mineral", "recorded_date": "2004-09-14", "anniversary_or_expiry": "2032-05-01", "area_ha": 25, "tenure_type": "Mineral", "source": "BC MTA Mineral, Placer and Coal Tenure Spatial View (BCGW). Open Government Licence - British Columbia. Not legal title.", "as_of": "2026-09-20", "role": "focus", "color": "#e8b040"}}, {"type": "Feature", "geometry": {"type": "Polygon", "coordinates": [[[-130.9483, 56.8776], [-130.9483, 56.8821], [-130.9565, 56.8821], [-130.9565, 56.8776], [-130.9483, 56.8776]]]}, "properties": {"company_id": "enduro-metals", "jurisdiction": "British Columbia", "claim_id": 414382, "claim_name": "MCX 14", "holder": "ENDURO METALS CORPORATION", "status": "Mineral", "recorded_date": "2004-09-14", "anniversary_or_expiry": "2032-05-01", "area_ha": 25, "tenure_type": "Mineral", "source": "BC MTA Mineral, Placer and Coal Tenure Spatial View (BCGW). Open Government Licence - British Columbia. Not legal title.", "as_of": "2026-09-20", "role": "focus", "color": "#e8b040"}}, {"type": "Feature", "geometry": {"type": "Polygon", "coordinates": [[[-131.0646, 56.879], [-131.0646, 56.8748], [-131.0145, 56.8748], [-131.0145, 56.8873], [-131.0645, 56.8873], [-131.0646, 56.879]]]}, "properties": {"company_id": "enduro-metals", "jurisdiction": "British Columbia", "claim_id": 510300, "claim_name": null, "holder": "ENDURO METALS CORPORATION", "status": "Mineral", "recorded_date": "2005-04-06", "anniversary_or_expiry": "2032-05-01", "area_ha": 424.356, "tenure_type": "Mineral", "source": "BC MTA Mineral, Placer and Coal Tenure Spatial View (BCGW). Open Government Licence - British Columbia. Not legal title.", "as_of": "2026-09-20", "role": "focus", "color": "#e8b040"}}, {"type": "Feature", "geometry": {"type": "Polygon", "coordinates": [[[-131.0708, 56.8665], [-131.0146, 56.8665], [-131.0145, 56.8748], [-131.0708, 56.8748], [-131.0708, 56.8707], [-131.0771, 56.8707], [-131.0771, 56.8665], [-131.0708, 56.8665]]]}, "properties": {"company_id": "enduro-metals", "jurisdiction": "British Columbia", "claim_id": 510301, "claim_name": null, "holder": "ENDURO METALS CORPORATION", "status": "Mineral", "recorded_date": "2005-04-06", "anniversary_or_expiry": "2032-05-01", "area_ha": 336.043, "tenure_type": "Mineral", "source": "BC MTA Mineral, Placer and Coal Tenure Spatial View (BCGW). Open Government Licence - British Columbia. Not legal title.", "as_of": "2026-09-20", "role": "focus", "color": "#e8b040"}}, {"type": "Feature", "geometry": {"type": "Polygon", "coordinates": [[[-131.0833, 56.8582], [-131.0833, 56.854], [-131.0333, 56.854], [-131.0333, 56.8623], [-131.0271, 56.8623], [-131.0271, 56.8665], [-131.0833, 56.8665], [-131.0833, 56.8582]]]}, "properties": {"company_id": "enduro-metals", "jurisdiction": "British Columbia", "claim_id": 510302, "claim_name": null, "holder": "ENDURO METALS CORPORATION", "status": "Mineral", "recorded_date": "2005-04-06", "anniversary_or_expiry": "2033-05-01", "area_ha": 442.28200000000004, "tenure_type": "Mineral", "source": "BC MTA Mineral, Placer and Coal Tenure Spatial View (BCGW). Open Government Licence - British Columbia. Not legal title.", "as_of": "2026-09-20", "role": "focus", "color": "#e8b040"}}, {"type": "Feature", "geometry": {"type": "Polygon", "coordinates": [[[-130.8645, 56.929], [-130.8645, 56.9248], [-130.8333, 56.9248], [-130.8333, 56.929], [-130.8083, 56.929], [-130.802, 56.929], [-130.802, 56.9248], [-130.7895, 56.9248], [-130.7895, 56.9332], [-130.8645, 56.9332], [-130.8645, 56.929]]]}, "properties": {"company_id": "enduro-metals", "jurisdiction": "British Columbia", "claim_id": 515492, "claim_name": "ICE 2005", "holder": "ENDURO METALS CORPORATION", "status": "Mineral", "recorded_date": "2005-06-28", "anniversary_or_expiry": "2032-05-01", "area_ha": 335.493, "tenure_type": "Mineral", "source": "BC MTA Mineral, Placer and Coal Tenure Spatial View (BCGW). Open Government Licence - British Columbia. Not legal title.", "as_of": "2026-09-20", "role": "focus", "color": "#e8b040"}}, {"type": "Feature", "geometry": {"type": "Polygon", "coordinates": [[[-130.8833, 56.8123], [-130.8833, 56.8082], [-130.877, 56.8082], [-130.877, 56.8165], [-130.8708, 56.8165], [-130.8708, 56.829], [-130.8645, 56.829], [-130.8645, 56.8332], [-130.8833, 56.8332], [-130.8833, 56.8123]]]}, "properties": {"company_id": "enduro-metals", "jurisdiction": "British Columbia", "claim_id": 514295, "claim_name": null, "holder": "ENDURO METALS CORPORATION", "status": "Mineral", "recorded_date": "2005-06-10", "anniversary_or_expiry": "2032-05-01", "area_ha": 194.79, "tenure_type": "Mineral", "source": "BC MTA Mineral, Placer and Coal Tenure Spatial View (BCGW). Open Government Licence - British Columbia. Not legal title.", "as_of": "2026-09-20", "role": "focus", "color": "#e8b040"}}, {"type": "Feature", "geometry": {"type": "Polygon", "coordinates": [[[-130.8395, 56.9665], [-130.8395, 56.9623], [-130.802, 56.9623], [-130.802, 56.9582], [-130.7895, 56.9582], [-130.7895, 56.9707], [-130.8395, 56.9707], [-130.8395, 56.9665]]]}, "properties": {"company_id": "enduro-metals", "jurisdiction": "British Columbia", "claim_id": 525599, "claim_name": null, "holder": "ENDURO METALS CORPORATION", "status": "Mineral", "recorded_date": "2006-01-16", "anniversary_or_expiry": "2032-05-01", "area_ha": 317.533, "tenure_type": "Mineral", "source": "BC MTA Mineral, Placer and Coal Tenure Spatial View (BCGW). Open Government Licence - British Columbia. Not legal title.", "as_of": "2026-09-20", "role": "focus", "color": "#e8b040"}}, {"type": "Feature", "geometry": {"type": "Polygon", "coordinates": [[[-130.9145, 56.8998], [-130.9145, 56.8957], [-130.877, 56.8957], [-130.877, 56.8998], [-130.8645, 56.8998], [-130.8645, 56.9082], [-130.9145, 56.9082], [-130.9145, 56.8998]]]}, "properties": {"company_id": "enduro-metals", "jurisdiction": "British Columbia", "claim_id": 533293, "claim_name": null, "holder": "ENDURO METALS CORPORATION", "status": "Mineral", "recorded_date": "2006-05-01", "anniversary_or_expiry": "2033-06-01", "area_ha": 388.75600000000003, "tenure_type": "Mineral", "source": "BC MTA Mineral, Placer and Coal Tenure Spatial View (BCGW). Open Government Licence - British Columbia. Not legal title.", "as_of": "2026-09-20", "role": "focus", "color": "#e8b040"}}, {"type": "Feature", "geometry": {"type": "Polygon", "coordinates": [[[-130.8895, 56.9123], [-130.8895, 56.9082], [-130.8645, 56.9082], [-130.8645, 56.9332], [-130.8895, 56.9332], [-130.8895, 56.9123]]]}, "properties": {"company_id": "enduro-metals", "jurisdiction": "British Columbia", "claim_id": 533295, "claim_name": null, "holder": "ENDURO METALS CORPORATION", "status": "Mineral", "recorded_date": "2006-05-01", "anniversary_or_expiry": "2033-06-01", "area_ha": 423.877, "tenure_type": "Mineral", "source": "BC MTA Mineral, Placer and Coal Tenure Spatial View (BCGW). Open Government Licence - British Columbia. Not legal title.", "as_of": "2026-09-20", "role": "focus", "color": "#e8b040"}}, {"type": "Feature", "geometry": {"type": "Polygon", "coordinates": [[[-130.877, 56.9373], [-130.877, 56.9332], [-130.8083, 56.9332], [-130.8083, 56.9415], [-130.877, 56.9415], [-130.877, 56.9373]]]}, "properties": {"company_id": "enduro-metals", "jurisdiction": "British Columbia", "claim_id": 533298, "claim_name": null, "holder": "ENDURO METALS CORPORATION", "status": "Mineral", "recorded_date": "2006-05-01", "anniversary_or_expiry": "2033-06-01", "area_ha": 388.384, "tenure_type": "Mineral", "source": "BC MTA Mineral, Placer and Coal Tenure Spatial View (BCGW). Open Government Licence - British Columbia. Not legal title.", "as_of": "2026-09-20", "role": "focus", "color": "#e8b040"}}, {"type": "Feature", "geometry": {"type": "Polygon", "coordinates": [[[-130.8645, 56.9457], [-130.8645, 56.9415], [-130.8083, 56.9415], [-130.8083, 56.9332], [-130.802, 56.9332], [-130.802, 56.9498], [-130.8645, 56.9498], [-130.8645, 56.9457]]]}, "properties": {"company_id": "enduro-metals", "jurisdiction": "British Columbia", "claim_id": 533300, "claim_name": null, "holder": "ENDURO METALS CORPORATION", "status": "Mineral", "recorded_date": "2006-05-01", "anniversary_or_expiry": "2032-05-01", "area_ha": 388.308, "tenure_type": "Mineral", "source": "BC MTA Mineral, Placer and Coal Tenure Spatial View (BCGW). Open Government Licence - British Columbia. Not legal title.", "as_of": "2026-09-20", "role": "focus", "color": "#e8b040"}}, {"type": "Feature", "geometry": {"type": "Polygon", "coordinates": [[[-130.852, 56.954], [-130.852, 56.9498], [-130.802, 56.9498], [-130.802, 56.9623], [-130.852, 56.9623], [-130.852, 56.954]]]}, "properties": {"company_id": "enduro-metals", "jurisdiction": "British Columbia", "claim_id": 533302, "claim_name": null, "holder": "ENDURO METALS CORPORATION", "status": "Mineral", "recorded_date": "2006-05-01", "anniversary_or_expiry": "2032-05-01", "area_ha": 423.48400000000004, "tenure_type": "Mineral", "source": "BC MTA Mineral, Placer and Coal Tenure Spatial View (BCGW). Open Government Licence - British Columbia. Not legal title.", "as_of": "2026-09-20", "role": "focus", "color": "#e8b040"}}, {"type": "Feature", "geometry": {"type": "Polygon", "coordinates": [[[-130.802, 56.9373], [-130.802, 56.9332], [-130.777, 56.9332], [-130.777, 56.9582], [-130.802, 56.9582], [-130.802, 56.9373]]]}, "properties": {"company_id": "enduro-metals", "jurisdiction": "British Columbia", "claim_id": 533304, "claim_name": null, "holder": "ENDURO METALS CORPORATION", "status": "Mineral", "recorded_date": "2006-05-01", "anniversary_or_expiry": "2032-05-01", "area_ha": 423.606, "tenure_type": "Mineral", "source": "BC MTA Mineral, Placer and Coal Tenure Spatial View (BCGW). Open Government Licence - British Columbia. Not legal title.", "as_of": "2026-09-20", "role": "focus", "color": "#e8b040"}}, {"type": "Feature", "geometry": {"type": "Polygon", "coordinates": [[[-130.7895, 56.9123], [-130.7895, 56.9082], [-130.752, 56.9082], [-130.752, 56.9123], [-130.7458, 56.9123], [-130.7458, 56.9165], [-130.7333, 56.9165], [-130.7333, 56.9248], [-130.7708, 56.9248], [-130.7708, 56.9165], [-130.7895, 56.9165], [-130.7895, 56.9123]]]}, "properties": {"company_id": "enduro-metals", "jurisdiction": "British Columbia", "claim_id": 533305, "claim_name": null, "holder": "ENDURO METALS CORPORATION", "status": "Mineral", "recorded_date": "2006-05-01", "anniversary_or_expiry": "2032-05-01", "area_ha": 441.603, "tenure_type": "Mineral", "source": "BC MTA Mineral, Placer and Coal Tenure Spatial View (BCGW). Open Government Licence - British Columbia. Not legal title.", "as_of": "2026-09-20", "role": "focus", "color": "#e8b040"}}, {"type": "Feature", "geometry": {"type": "Polygon", "coordinates": [[[-130.7895, 56.9207], [-130.7895, 56.9165], [-130.7708, 56.9165], [-130.7708, 56.9248], [-130.7583, 56.9248], [-130.7583, 56.9415], [-130.777, 56.9415], [-130.777, 56.9332], [-130.7895, 56.9332], [-130.7895, 56.9207]]]}, "properties": {"company_id": "enduro-metals", "jurisdiction": "British Columbia", "claim_id": 533306, "claim_name": null, "holder": "ENDURO METALS CORPORATION", "status": "Mineral", "recorded_date": "2006-05-01", "anniversary_or_expiry": "2032-05-01", "area_ha": 388.47900000000004, "tenure_type": "Mineral", "source": "BC MTA Mineral, Placer and Coal Tenure Spatial View (BCGW). Open Government Licence - British Columbia. Not legal title.", "as_of": "2026-09-20", "role": "focus", "color": "#e8b040"}}, {"type": "Feature", "geometry": {"type": "Polygon", "coordinates": [[[-130.777, 56.9457], [-130.777, 56.9415], [-130.7583, 56.9415], [-130.7583, 56.9373], [-130.7458, 56.9373], [-130.7458, 56.9582], [-130.777, 56.9582], [-130.777, 56.9457]]]}, "properties": {"company_id": "enduro-metals", "jurisdiction": "British Columbia", "claim_id": 533307, "claim_name": null, "holder": "ENDURO METALS CORPORATION", "status": "Mineral", "recorded_date": "2006-05-01", "anniversary_or_expiry": "2032-05-01", "area_ha": 388.27500000000003, "tenure_type": "Mineral", "source": "BC MTA Mineral, Placer and Coal Tenure Spatial View (BCGW). Open Government Licence - British Columbia. Not legal title.", "as_of": "2026-09-20", "role": "focus", "color": "#e8b040"}}, {"type": "Feature", "geometry": {"type": "Polygon", "coordinates": [[[-130.7583, 56.929], [-130.7583, 56.9248], [-130.7333, 56.9248], [-130.7333, 56.9457], [-130.727, 56.9457], [-130.727, 56.9582], [-130.7458, 56.9582], [-130.7458, 56.9373], [-130.7583, 56.9373], [-130.7583, 56.929]]]}, "properties": {"company_id": "enduro-metals", "jurisdiction": "British Columbia", "claim_id": 533308, "claim_name": null, "holder": "ENDURO METALS CORPORATION", "status": "Mineral", "recorded_date": "2006-05-01", "anniversary_or_expiry": "2032-05-01", "area_ha": 441.32500000000005, "tenure_type": "Mineral", "source": "BC MTA Mineral, Placer and Coal Tenure Spatial View (BCGW). Open Government Licence - British Columbia. Not legal title.", "as_of": "2026-09-20", "role": "focus", "color": "#e8b040"}}, {"type": "Feature", "geometry": {"type": "Polygon", "coordinates": [[[-130.8145, 56.9748], [-130.8145, 56.9707], [-130.7645, 56.9707], [-130.7645, 56.9832], [-130.8208, 56.9832], [-130.8208, 56.979], [-130.8145, 56.979], [-130.8145, 56.9748]]]}, "properties": {"company_id": "enduro-metals", "jurisdiction": "British Columbia", "claim_id": 533310, "claim_name": null, "holder": "ENDURO METALS CORPORATION", "status": "Mineral", "recorded_date": "2006-05-01", "anniversary_or_expiry": "2032-05-01", "area_ha": 440.887, "tenure_type": "Mineral", "source": "BC MTA Mineral, Placer and Coal Tenure Spatial View (BCGW). Open Government Licence - British Columbia. Not legal title.", "as_of": "2026-09-20", "role": "focus", "color": "#e8b040"}}, {"type": "Feature", "geometry": {"type": "Polygon", "coordinates": [[[-130.7645, 56.9748], [-130.7645, 56.9707], [-130.7395, 56.9707], [-130.7395, 56.9582], [-130.7208, 56.9582], [-130.7208, 56.979], [-130.7645, 56.979], [-130.7645, 56.9748]]]}, "properties": {"company_id": "enduro-metals", "jurisdiction": "British Columbia", "claim_id": 533311, "claim_name": null, "holder": "ENDURO METALS CORPORATION", "status": "Mineral", "recorded_date": "2006-05-01", "anniversary_or_expiry": "2032-05-01", "area_ha": 405.692, "tenure_type": "Mineral", "source": "BC MTA Mineral, Placer and Coal Tenure Spatial View (BCGW). Open Government Licence - British Columbia. Not legal title.", "as_of": "2026-09-20", "role": "focus", "color": "#e8b040"}}, {"type": "Feature", "geometry": {"type": "Polygon", "coordinates": [[[-130.8208, 56.9873], [-130.8208, 56.9832], [-130.7895, 56.9832], [-130.7895, 57.0082], [-130.8083, 57.0082], [-130.8083, 57.004], [-130.8145, 57.004], [-130.8145, 56.9915], [-130.8208, 56.9915], [-130.8208, 56.9873]]]}, "properties": {"company_id": "enduro-metals", "jurisdiction": "British Columbia", "claim_id": 533312, "claim_name": null, "holder": "ENDURO METALS CORPORATION", "status": "Mineral", "recorded_date": "2006-05-01", "anniversary_or_expiry": "2032-05-01", "area_ha": 440.68, "tenure_type": "Mineral", "source": "BC MTA Mineral, Placer and Coal Tenure Spatial View (BCGW). Open Government Licence - British Columbia. Not legal title.", "as_of": "2026-09-20", "role": "focus", "color": "#e8b040"}}, {"type": "Feature", "geometry": {"type": "Polygon", "coordinates": [[[-130.802, 57.0123], [-130.802, 57.0082], [-130.7895, 57.0082], [-130.7895, 56.9832], [-130.7708, 56.9832], [-130.7708, 56.9873], [-130.777, 56.9873], [-130.777, 57.0207], [-130.802, 57.0207], [-130.802, 57.0123]]]}, "properties": {"company_id": "enduro-metals", "jurisdiction": "British Columbia", "claim_id": 533313, "claim_name": null, "holder": "ENDURO METALS CORPORATION", "status": "Mineral", "recorded_date": "2006-05-01", "anniversary_or_expiry": "2032-05-01", "area_ha": 440.56800000000004, "tenure_type": "Mineral", "source": "BC MTA Mineral, Placer and Coal Tenure Spatial View (BCGW). Open Government Licence - British Columbia. Not legal title.", "as_of": "2026-09-20", "role": "focus", "color": "#e8b040"}}]}