{"type": "FeatureCollection", "features": [{"type": "Feature", "geometry": {"type": "Polygon", "coordinates": [[[-131.6951, 58.2254], [-131.6951, 58.2374], [-131.7462, 58.2374], [-131.7462, 58.2239], [-131.6951, 58.2239], [-131.6951, 58.2254]]]}, "properties": {"company_id": "energy-fuels", "jurisdiction": "British Columbia", "claim_id": 392224, "claim_name": "COPPER CREEK 1", "holder": "CAVU ENERGY METALS CORP.", "status": "Mineral", "recorded_date": "2002-03-08", "anniversary_or_expiry": "2025-10-31", "area_ha": 450, "tenure_type": "Mineral", "source": "BC MTA Mineral, Placer and Coal Tenure Spatial View (BCGW). Open Government Licence - British Columbia. Not legal title.", "as_of": "2026-09-20", "role": "focus", "color": "#e8b040"}}, {"type": "Feature", "geometry": {"type": "Polygon", "coordinates": [[[-131.6951, 58.2239], [-131.7462, 58.2239], [-131.7462, 58.2104], [-131.6952, 58.2104], [-131.6951, 58.2239]]]}, "properties": {"company_id": "energy-fuels", "jurisdiction": "British Columbia", "claim_id": 392225, "claim_name": "COPPER CREEK 2", "holder": "CAVU ENERGY METALS CORP.", "status": "Mineral", "recorded_date": "2002-03-08", "anniversary_or_expiry": "2025-10-31", "area_ha": 450, "tenure_type": "Mineral", "source": "BC MTA Mineral, Placer and Coal Tenure Spatial View (BCGW). Open Government Licence - British Columbia. Not legal title.", "as_of": "2026-09-20", "role": "focus", "color": "#e8b040"}}, {"type": "Feature", "geometry": {"type": "Polygon", "coordinates": [[[-131.6819, 58.2496], [-131.7245, 58.2496], [-131.7245, 58.2374], [-131.6951, 58.2374], [-131.6951, 58.2316], [-131.6819, 58.2316], [-131.6819, 58.2496]]]}, "properties": {"company_id": "energy-fuels", "jurisdiction": "British Columbia", "claim_id": 400918, "claim_name": "CC 2", "holder": "CAVU ENERGY METALS CORP.", "status": "Mineral", "recorded_date": "2003-03-01", "anniversary_or_expiry": "2025-10-31", "area_ha": 500, "tenure_type": "Mineral", "source": "BC MTA Mineral, Placer and Coal Tenure Spatial View (BCGW). Open Government Licence - British Columbia. Not legal title.", "as_of": "2026-09-20", "role": "focus", "color": "#e8b040"}}, {"type": "Feature", "geometry": {"type": "Polygon", "coordinates": [[[-131.8, 58.2219], [-131.8298, 58.2219], [-131.8298, 58.204], [-131.7873, 58.204], [-131.7873, 58.2219], [-131.8, 58.2219]]]}, "properties": {"company_id": "energy-fuels", "jurisdiction": "British Columbia", "claim_id": 400921, "claim_name": "PC 3", "holder": "CAVU ENERGY METALS CORP.", "status": "Mineral", "recorded_date": "2003-03-01", "anniversary_or_expiry": "2025-10-31", "area_ha": 500, "tenure_type": "Mineral", "source": "BC MTA Mineral, Placer and Coal Tenure Spatial View (BCGW). Open Government Licence - British Columbia. Not legal title.", "as_of": "2026-09-20", "role": "focus", "color": "#e8b040"}}, {"type": "Feature", "geometry": {"type": "Polygon", "coordinates": [[[-131.7462, 58.2219], [-131.7873, 58.2219], [-131.7873, 58.204], [-131.7447, 58.204], [-131.7447, 58.2104], [-131.7462, 58.2104], [-131.7462, 58.2219]]]}, "properties": {"company_id": "energy-fuels", "jurisdiction": "British Columbia", "claim_id": 400922, "claim_name": "PC 4", "holder": "CAVU ENERGY METALS CORP.", "status": "Mineral", "recorded_date": "2003-03-01", "anniversary_or_expiry": "2025-10-31", "area_ha": 500, "tenure_type": "Mineral", "source": "BC MTA Mineral, Placer and Coal Tenure Spatial View (BCGW). Open Government Licence - British Columbia. Not legal title.", "as_of": "2026-09-20", "role": "focus", "color": "#e8b040"}}, {"type": "Feature", "geometry": {"type": "Polygon", "coordinates": [[[-131.6381, 58.2254], [-131.6892, 58.2254], [-131.6891, 58.212], [-131.6381, 58.212], [-131.6381, 58.2254]]]}, "properties": {"company_id": "energy-fuels", "jurisdiction": "British Columbia", "claim_id": 408884, "claim_name": "CC 3", "holder": "CAVU ENERGY METALS CORP.", "status": "Mineral", "recorded_date": "2004-03-05", "anniversary_or_expiry": "2025-10-31", "area_ha": 450, "tenure_type": "Mineral", "source": "BC MTA Mineral, Placer and Coal Tenure Spatial View (BCGW). Open Government Licence - British Columbia. Not legal title.", "as_of": "2026-09-20", "role": "focus", "color": "#e8b040"}}, {"type": "Feature", "geometry": {"type": "Polygon", "coordinates": [[[-131.6381, 58.2], [-131.6381, 58.212], [-131.6891, 58.212], [-131.6891, 58.1985], [-131.6381, 58.1985], [-131.6381, 58.2]]]}, "properties": {"company_id": "energy-fuels", "jurisdiction": "British Columbia", "claim_id": 408885, "claim_name": "CC 4", "holder": "CAVU ENERGY METALS CORP.", "status": "Mineral", "recorded_date": "2004-03-05", "anniversary_or_expiry": "2025-10-31", "area_ha": 450, "tenure_type": "Mineral", "source": "BC MTA Mineral, Placer and Coal Tenure Spatial View (BCGW). Open Government Licence - British Columbia. Not legal title.", "as_of": "2026-09-20", "role": "focus", "color": "#e8b040"}}, {"type": "Feature", "geometry": {"type": "Polygon", "coordinates": [[[-131.6891, 58.2], [-131.6891, 58.203], [-131.6976, 58.203], [-131.6976, 58.1985], [-131.6891, 58.1985], [-131.6891, 58.2]]]}, "properties": {"company_id": "energy-fuels", "jurisdiction": "British Columbia", "claim_id": 408887, "claim_name": "CC 6", "holder": "CAVU ENERGY METALS CORP.", "status": "Mineral", "recorded_date": "2004-03-05", "anniversary_or_expiry": "2025-10-31", "area_ha": 25, "tenure_type": "Mineral", "source": "BC MTA Mineral, Placer and Coal Tenure Spatial View (BCGW). Open Government Licence - British Columbia. Not legal title.", "as_of": "2026-09-20", "role": "focus", "color": "#e8b040"}}, {"type": "Feature", "geometry": {"type": "Polygon", "coordinates": [[[-131.6891, 58.2075], [-131.6976, 58.2075], [-131.6976, 58.203], [-131.6891, 58.203], [-131.6891, 58.2075]]]}, "properties": {"company_id": "energy-fuels", "jurisdiction": "British Columbia", "claim_id": 408888, "claim_name": "CC 7", "holder": "CAVU ENERGY METALS CORP.", "status": "Mineral", "recorded_date": "2004-03-05", "anniversary_or_expiry": "2025-10-31", "area_ha": 25, "tenure_type": "Mineral", "source": "BC MTA Mineral, Placer and Coal Tenure Spatial View (BCGW). Open Government Licence - British Columbia. Not legal title.", "as_of": "2026-09-20", "role": "focus", "color": "#e8b040"}}, {"type": "Feature", "geometry": {"type": "Polygon", "coordinates": [[[-131.6891, 58.212], [-131.6952, 58.212], [-131.6952, 58.2104], [-131.6976, 58.2104], [-131.6976, 58.2075], [-131.6891, 58.2075], [-131.6891, 58.212]]]}, "properties": {"company_id": "energy-fuels", "jurisdiction": "British Columbia", "claim_id": 408889, "claim_name": "CC 8", "holder": "CAVU ENERGY METALS CORP.", "status": "Mineral", "recorded_date": "2004-03-05", "anniversary_or_expiry": "2025-10-31", "area_ha": 25, "tenure_type": "Mineral", "source": "BC MTA Mineral, Placer and Coal Tenure Spatial View (BCGW). Open Government Licence - British Columbia. Not legal title.", "as_of": "2026-09-20", "role": "focus", "color": "#e8b040"}}, {"type": "Feature", "geometry": {"type": "Polygon", "coordinates": [[[-131.6891, 58.2165], [-131.6952, 58.2165], [-131.6952, 58.212], [-131.6891, 58.212], [-131.6891, 58.2165]]]}, "properties": {"company_id": "energy-fuels", "jurisdiction": "British Columbia", "claim_id": 408890, "claim_name": "CC 9", "holder": "CAVU ENERGY METALS CORP.", "status": "Mineral", "recorded_date": "2004-03-05", "anniversary_or_expiry": "2025-10-31", "area_ha": 25, "tenure_type": "Mineral", "source": "BC MTA Mineral, Placer and Coal Tenure Spatial View (BCGW). Open Government Licence - British Columbia. Not legal title.", "as_of": "2026-09-20", "role": "focus", "color": "#e8b040"}}, {"type": "Feature", "geometry": {"type": "Polygon", "coordinates": [[[-131.6892, 58.221], [-131.6952, 58.221], [-131.6952, 58.2165], [-131.6891, 58.2165], [-131.6892, 58.221]]]}, "properties": {"company_id": "energy-fuels", "jurisdiction": "British Columbia", "claim_id": 408891, "claim_name": "CC 10", "holder": "CAVU ENERGY METALS CORP.", "status": "Mineral", "recorded_date": "2004-03-05", "anniversary_or_expiry": "2025-10-31", "area_ha": 25, "tenure_type": "Mineral", "source": "BC MTA Mineral, Placer and Coal Tenure Spatial View (BCGW). Open Government Licence - British Columbia. Not legal title.", "as_of": "2026-09-20", "role": "focus", "color": "#e8b040"}}, {"type": "Feature", "geometry": {"type": "Polygon", "coordinates": [[[-131.6892, 58.2212], [-131.6892, 58.2255], [-131.6951, 58.2254], [-131.6952, 58.221], [-131.6892, 58.2212]]]}, "properties": {"company_id": "energy-fuels", "jurisdiction": "British Columbia", "claim_id": 408892, "claim_name": "CC 11", "holder": "CAVU ENERGY METALS CORP.", "status": "Mineral", "recorded_date": "2004-03-05", "anniversary_or_expiry": "2025-10-31", "area_ha": 25, "tenure_type": "Mineral", "source": "BC MTA Mineral, Placer and Coal Tenure Spatial View (BCGW). Open Government Licence - British Columbia. Not legal title.", "as_of": "2026-09-20", "role": "focus", "color": "#e8b040"}}, {"type": "Feature", "geometry": {"type": "Polygon", "coordinates": [[[-131.6441, 58.2389], [-131.6819, 58.2389], [-131.6819, 58.2316], [-131.6951, 58.2316], [-131.6951, 58.2374], [-131.6951, 58.2254], [-131.6441, 58.2254], [-131.6441, 58.2389]]]}, "properties": {"company_id": "energy-fuels", "jurisdiction": "British Columbia", "claim_id": 408893, "claim_name": "CC 12", "holder": "CAVU ENERGY METALS CORP.", "status": "Mineral", "recorded_date": "2004-03-13", "anniversary_or_expiry": "2025-10-31", "area_ha": 450, "tenure_type": "Mineral", "source": "BC MTA Mineral, Placer and Coal Tenure Spatial View (BCGW). Open Government Licence - British Columbia. Not legal title.", "as_of": "2026-09-20", "role": "focus", "color": "#e8b040"}}, {"type": "Feature", "geometry": {"type": "Polygon", "coordinates": [[[-122.9514, 50.8957], [-122.9514, 50.8916], [-122.9452, 50.8916], [-122.9452, 50.8999], [-122.9514, 50.8999], [-122.9514, 50.8957]]]}, "properties": {"company_id": "energy-fuels", "jurisdiction": "British Columbia", "claim_id": 502808, "claim_name": "Little Gem", "holder": "COBALT ONE ENERGY CORP", "status": "Mineral", "recorded_date": "2005-01-13", "anniversary_or_expiry": "2027-12-31", "area_ha": 40.769000000000005, "tenure_type": "Mineral", "source": "BC MTA Mineral, Placer and Coal Tenure Spatial View (BCGW). Open Government Licence - British Columbia. Not legal title.", "as_of": "2026-09-20", "role": "focus", "color": "#e8b040"}}, {"type": "Feature", "geometry": {"type": "Polygon", "coordinates": [[[-122.9639, 50.8957], [-122.9639, 50.8916], [-122.9514, 50.8916], [-122.9514, 50.8999], [-122.9639, 50.8999], [-122.9639, 50.8957]]]}, "properties": {"company_id": "energy-fuels", "jurisdiction": "British Columbia", "claim_id": 501174, "claim_name": null, "holder": "COBALT ONE ENERGY CORP", "status": "Mineral", "recorded_date": "2005-01-12", "anniversary_or_expiry": "2027-12-31", "area_ha": 81.537, "tenure_type": "Mineral", "source": "BC MTA Mineral, Placer and Coal Tenure Spatial View (BCGW). Open Government Licence - British Columbia. Not legal title.", "as_of": "2026-09-20", "role": "focus", "color": "#e8b040"}}, {"type": "Feature", "geometry": {"type": "Polygon", "coordinates": [[[-122.9702, 50.8957], [-122.9702, 50.8874], [-122.9452, 50.8874], [-122.9452, 50.8916], [-122.9639, 50.8916], [-122.9639, 50.8999], [-122.9702, 50.8999], [-122.9702, 50.8957]]]}, "properties": {"company_id": "energy-fuels", "jurisdiction": "British Columbia", "claim_id": 503409, "claim_name": "Little Gem", "holder": "COBALT ONE ENERGY CORP", "status": "Mineral", "recorded_date": "2005-01-14", "anniversary_or_expiry": "2027-12-31", "area_ha": 122.316, "tenure_type": "Mineral", "source": "BC MTA Mineral, Placer and Coal Tenure Spatial View (BCGW). Open Government Licence - British Columbia. Not legal title.", "as_of": "2026-09-20", "role": "focus", "color": "#e8b040"}}, {"type": "Feature", "geometry": {"type": "Polygon", "coordinates": [[[-120.9388, 50.3666], [-120.9388, 50.3624], [-120.9263, 50.3624], [-120.9263, 50.3832], [-120.9325, 50.3832], [-120.9325, 50.3707], [-120.9388, 50.3707], [-120.9388, 50.3666]]]}, "properties": {"company_id": "energy-fuels", "jurisdiction": "British Columbia", "claim_id": 511809, "claim_name": "NEW RATERIA", "holder": "METAL ENERGY CORP.", "status": "Mineral", "recorded_date": "2005-04-28", "anniversary_or_expiry": "2026-12-31", "area_ha": 144.26500000000001, "tenure_type": "Mineral", "source": "BC MTA Mineral, Placer and Coal Tenure Spatial View (BCGW). Open Government Licence - British Columbia. Not legal title.", "as_of": "2026-09-20", "role": "focus", "color": "#e8b040"}}, {"type": "Feature", "geometry": {"type": "Polygon", "coordinates": [[[-120.9825, 50.3749], [-120.9825, 50.3541], [-120.9513, 50.3541], [-120.9513, 50.3499], [-120.9325, 50.3499], [-120.9325, 50.3624], [-120.9388, 50.3624], [-120.9388, 50.3707], [-120.9325, 50.3707], [-120.9325, 50.3832], [-120.9763, 50.3832], [-120.9763, 50.3791], [-120.9825, 50.3791], [-120.9825, 50.3749]]]}, "properties": {"company_id": "energy-fuels", "jurisdiction": "British Columbia", "claim_id": 513870, "claim_name": null, "holder": "METAL ENERGY CORP.", "status": "Mineral", "recorded_date": "2005-06-03", "anniversary_or_expiry": "2026-12-31", "area_ha": 1154.2060000000001, "tenure_type": "Mineral", "source": "BC MTA Mineral, Placer and Coal Tenure Spatial View (BCGW). Open Government Licence - British Columbia. Not legal title.", "as_of": "2026-09-20", "role": "focus", "color": "#e8b040"}}, {"type": "Feature", "geometry": {"type": "Polygon", "coordinates": [[[-131.7956, 58.2581], [-131.7956, 58.254], [-131.7706, 58.254], [-131.7706, 58.2665], [-131.7956, 58.2665], [-131.7956, 58.2581]]]}, "properties": {"company_id": "energy-fuels", "jurisdiction": "British Columbia", "claim_id": 518533, "claim_name": null, "holder": "CAVU ENERGY METALS CORP.", "status": "Mineral", "recorded_date": "2005-07-29", "anniversary_or_expiry": "2025-10-31", "area_ha": 204.285, "tenure_type": "Mineral", "source": "BC MTA Mineral, Placer and Coal Tenure Spatial View (BCGW). Open Government Licence - British Columbia. Not legal title.", "as_of": "2026-09-20", "role": "focus", "color": "#e8b040"}}, {"type": "Feature", "geometry": {"type": "Polygon", "coordinates": [[[-131.7706, 58.2415], [-131.7706, 58.2373], [-131.7207, 58.2373], [-131.7207, 58.2498], [-131.7706, 58.2498], [-131.7706, 58.2415]]]}, "properties": {"company_id": "energy-fuels", "jurisdiction": "British Columbia", "claim_id": 518534, "claim_name": null, "holder": "CAVU ENERGY METALS CORP.", "status": "Mineral", "recorded_date": "2005-07-29", "anniversary_or_expiry": "2025-10-31", "area_ha": 408.718, "tenure_type": "Mineral", "source": "BC MTA Mineral, Placer and Coal Tenure Spatial View (BCGW). Open Government Licence - British Columbia. Not legal title.", "as_of": "2026-09-20", "role": "focus", "color": "#e8b040"}}, {"type": "Feature", "geometry": {"type": "Polygon", "coordinates": [[[-131.7706, 58.2498], [-131.6769, 58.2498], [-131.6769, 58.2623], [-131.6832, 58.2623], [-131.6832, 58.2665], [-131.7706, 58.2665], [-131.7706, 58.254], [-131.7769, 58.254], [-131.7769, 58.2498], [-131.7706, 58.2498]]]}, "properties": {"company_id": "energy-fuels", "jurisdiction": "British Columbia", "claim_id": 518535, "claim_name": null, "holder": "CAVU ENERGY METALS CORP.", "status": "Mineral", "recorded_date": "2005-07-29", "anniversary_or_expiry": "2025-10-31", "area_ha": 1021.565, "tenure_type": "Mineral", "source": "BC MTA Mineral, Placer and Coal Tenure Spatial View (BCGW). Open Government Licence - British Columbia. Not legal title.", "as_of": "2026-09-20", "role": "focus", "color": "#e8b040"}}, {"type": "Feature", "geometry": {"type": "Polygon", "coordinates": [[[-131.8331, 58.2248], [-131.8331, 58.2206], [-131.7456, 58.2206], [-131.7456, 58.2373], [-131.7706, 58.2373], [-131.7706, 58.2415], [-131.8331, 58.2415], [-131.8331, 58.2248]]]}, "properties": {"company_id": "energy-fuels", "jurisdiction": "British Columbia", "claim_id": 518536, "claim_name": null, "holder": "CAVU ENERGY METALS CORP.", "status": "Mineral", "recorded_date": "2005-07-29", "anniversary_or_expiry": "2025-10-31", "area_ha": 1124.433, "tenure_type": "Mineral", "source": "BC MTA Mineral, Placer and Coal Tenure Spatial View (BCGW). Open Government Licence - British Columbia. Not legal title.", "as_of": "2026-09-20", "role": "focus", "color": "#e8b040"}}, {"type": "Feature", "geometry": {"type": "Polygon", "coordinates": [[[-120.9075, 50.3957], [-120.9075, 50.3832], [-120.87, 50.3832], [-120.87, 50.3999], [-120.9075, 50.3999], [-120.9075, 50.3957]]]}, "properties": {"company_id": "energy-fuels", "jurisdiction": "British Columbia", "claim_id": 528775, "claim_name": "MAL", "holder": "METAL ENERGY CORP.", "status": "Mineral", "recorded_date": "2006-02-23", "anniversary_or_expiry": "2025-12-31", "area_ha": 494.415, "tenure_type": "Mineral", "source": "BC MTA Mineral, Placer and Coal Tenure Spatial View (BCGW). Open Government Licence - British Columbia. Not legal title.", "as_of": "2026-09-20", "role": "focus", "color": "#e8b040"}}, {"type": "Feature", "geometry": {"type": "Polygon", "coordinates": [[[-120.9263, 50.4082], [-120.9263, 50.3999], [-120.87, 50.3999], [-120.87, 50.4082], [-120.8825, 50.4082], [-120.8825, 50.4124], [-120.9263, 50.4124], [-120.9263, 50.4082]]]}, "properties": {"company_id": "energy-fuels", "jurisdiction": "British Columbia", "claim_id": 528778, "claim_name": "MAL 2", "holder": "METAL ENERGY CORP.", "status": "Mineral", "recorded_date": "2006-02-23", "anniversary_or_expiry": "2025-12-31", "area_ha": 514.863, "tenure_type": "Mineral", "source": "BC MTA Mineral, Placer and Coal Tenure Spatial View (BCGW). Open Government Licence - British Columbia. Not legal title.", "as_of": "2026-09-20", "role": "focus", "color": "#e8b040"}}, {"type": "Feature", "geometry": {"type": "Polygon", "coordinates": [[[-120.92, 50.4166], [-120.9263, 50.4166], [-120.9263, 50.4124], [-120.8825, 50.4124], [-120.8825, 50.4082], [-120.87, 50.4082], [-120.87, 50.3999], [-120.8513, 50.3999], [-120.8513, 50.4166], [-120.8888, 50.4166], [-120.8888, 50.4207], [-120.895, 50.4207], [-120.9013, 50.4207], [-120.9013, 50.4166], [-120.92, 50.4166]]]}, "properties": {"company_id": "energy-fuels", "jurisdiction": "British Columbia", "claim_id": 529011, "claim_name": "RATERIA NORTH", "holder": "METAL ENERGY CORP.", "status": "Mineral", "recorded_date": "2006-02-27", "anniversary_or_expiry": "2025-12-31", "area_ha": 514.802, "tenure_type": "Mineral", "source": "BC MTA Mineral, Placer and Coal Tenure Spatial View (BCGW). Open Government Licence - British Columbia. Not legal title.", "as_of": "2026-09-20", "role": "focus", "color": "#e8b040"}}, {"type": "Feature", "geometry": {"type": "Polygon", "coordinates": [[[-120.87, 50.3957], [-120.87, 50.3666], [-120.8513, 50.3666], [-120.8513, 50.3832], [-120.845, 50.3832], [-120.845, 50.3874], [-120.8513, 50.3874], [-120.8513, 50.3999], [-120.87, 50.3999], [-120.87, 50.3957]]]}, "properties": {"company_id": "energy-fuels", "jurisdiction": "British Columbia", "claim_id": 529013, "claim_name": "RATERIA NORTH-2", "holder": "METAL ENERGY CORP.", "status": "Mineral", "recorded_date": "2006-02-27", "anniversary_or_expiry": "2025-12-31", "area_ha": 515.102, "tenure_type": "Mineral", "source": "BC MTA Mineral, Placer and Coal Tenure Spatial View (BCGW). Open Government Licence - British Columbia. Not legal title.", "as_of": "2026-09-20", "role": "focus", "color": "#e8b040"}}, {"type": "Feature", "geometry": {"type": "Polygon", "coordinates": [[[-120.945, 50.3957], [-120.945, 50.3832], [-120.9075, 50.3832], [-120.9075, 50.3999], [-120.945, 50.3999], [-120.945, 50.3957]]]}, "properties": {"company_id": "energy-fuels", "jurisdiction": "British Columbia", "claim_id": 522356, "claim_name": "RATERIA NE", "holder": "METAL ENERGY CORP.", "status": "Mineral", "recorded_date": "2005-11-17", "anniversary_or_expiry": "2026-12-31", "area_ha": 494.41400000000004, "tenure_type": "Mineral", "source": "BC MTA Mineral, Placer and Coal Tenure Spatial View (BCGW). Open Government Licence - British Columbia. Not legal title.", "as_of": "2026-09-20", "role": "focus", "color": "#e8b040"}}, {"type": "Feature", "geometry": {"type": "Polygon", "coordinates": [[[-121.1138, 50.4082], [-121.12, 50.4082], [-121.12, 50.4041], [-121.1138, 50.4041], [-121.1138, 50.4082]]]}, "properties": {"company_id": "energy-fuels", "jurisdiction": "British Columbia", "claim_id": 544902, "claim_name": "COPPER C", "holder": "METAL ENERGY CORP.", "status": "Mineral", "recorded_date": "2006-11-05", "anniversary_or_expiry": "2024-12-31", "area_ha": 20.593700000000002, "tenure_type": "Mineral", "source": "BC MTA Mineral, Placer and Coal Tenure Spatial View (BCGW). Open Government Licence - British Columbia. Not legal title.", "as_of": "2026-09-20", "role": "focus", "color": "#e8b040"}}, {"type": "Feature", "geometry": {"type": "Polygon", "coordinates": [[[-121.095, 50.4082], [-121.1013, 50.4082], [-121.1013, 50.4041], [-121.095, 50.4041], [-121.095, 50.4082]]]}, "properties": {"company_id": "energy-fuels", "jurisdiction": "British Columbia", "claim_id": 544903, "claim_name": "COPPER D", "holder": "METAL ENERGY CORP.", "status": "Mineral", "recorded_date": "2006-11-05", "anniversary_or_expiry": "2024-12-31", "area_ha": 20.5939, "tenure_type": "Mineral", "source": "BC MTA Mineral, Placer and Coal Tenure Spatial View (BCGW). Open Government Licence - British Columbia. Not legal title.", "as_of": "2026-09-20", "role": "focus", "color": "#e8b040"}}]}