{"type": "FeatureCollection", "features": [{"type": "Feature", "geometry": {"type": "Polygon", "coordinates": [[[-128.6849, 58.2703], [-128.6829, 58.2743], [-128.6889, 58.2753], [-128.6898, 58.2736], [-128.6889, 58.2734], [-128.6938, 58.2668], [-128.6871, 58.2659], [-128.6849, 58.2703]]]}, "properties": {"company_id": "enterprise-products-partners", "jurisdiction": "British Columbia", "claim_id": 267396, "claim_name": "J 9", "holder": "GLENPARK ENTERPRISES LTD.", "status": "Placer", "recorded_date": "6194880000", "anniversary_or_expiry": "2029-05-01", "area_ha": 50, "tenure_type": "Placer", "source": "BC MTA Mineral, Placer and Coal Tenure Spatial View (BCGW). Open Government Licence - British Columbia. Not legal title.", "as_of": "2026-09-20", "role": "focus", "color": "#e8b040"}}, {"type": "Feature", "geometry": {"type": "Polygon", "coordinates": [[[-120.8227, 50.9364], [-120.8111, 50.9364], [-120.8111, 50.94], [-120.8169, 50.94], [-120.8169, 50.9436], [-120.8212, 50.9436], [-120.8212, 50.94], [-120.8227, 50.94], [-120.8227, 50.9364]]]}, "properties": {"company_id": "enterprise-products-partners", "jurisdiction": "British Columbia", "claim_id": 310888, "claim_name": null, "holder": "PROGRESSIVE PLANET PRODUCTS INC.", "status": "Mineral", "recorded_date": "7230816000", "anniversary_or_expiry": "2025-11-30", "area_ha": 45.32, "tenure_type": "Mineral", "source": "BC MTA Mineral, Placer and Coal Tenure Spatial View (BCGW). Open Government Licence - British Columbia. Not legal title.", "as_of": "2026-09-20", "role": "focus", "color": "#e8b040"}}, {"type": "Feature", "geometry": {"type": "Polygon", "coordinates": [[[-121.5706, 49.8327], [-121.5765, 49.8351], [-121.5802, 49.8313], [-121.5743, 49.8289], [-121.5706, 49.8327]]]}, "properties": {"company_id": "enterprise-products-partners", "jurisdiction": "British Columbia", "claim_id": 347531, "claim_name": "ITILDO 1", "holder": "TARGET PRODUCTS LTD.", "status": "Mineral", "recorded_date": "8347104000", "anniversary_or_expiry": "2025-06-14", "area_ha": 25, "tenure_type": "Mineral", "source": "BC MTA Mineral, Placer and Coal Tenure Spatial View (BCGW). Open Government Licence - British Columbia. Not legal title.", "as_of": "2026-09-20", "role": "focus", "color": "#e8b040"}}, {"type": "Feature", "geometry": {"type": "Polygon", "coordinates": [[[-121.5743, 49.8289], [-121.5802, 49.8313], [-121.5839, 49.8275], [-121.578, 49.8251], [-121.5743, 49.8289]]]}, "properties": {"company_id": "enterprise-products-partners", "jurisdiction": "British Columbia", "claim_id": 347532, "claim_name": "ITILDO 2", "holder": "TARGET PRODUCTS LTD.", "status": "Mineral", "recorded_date": "8347104000", "anniversary_or_expiry": "2025-06-14", "area_ha": 25, "tenure_type": "Mineral", "source": "BC MTA Mineral, Placer and Coal Tenure Spatial View (BCGW). Open Government Licence - British Columbia. Not legal title.", "as_of": "2026-09-20", "role": "focus", "color": "#e8b040"}}, {"type": "Feature", "geometry": {"type": "Polygon", "coordinates": [[[-128.9934, 58.4143], [-129.0105, 58.4143], [-129.0105, 58.4102], [-129.0115, 58.4116], [-129.0438, 58.4059], [-129.0411, 58.4016], [-129.0106, 58.407], [-129.0108, 58.3879], [-128.9937, 58.3878], [-128.9934, 58.4143]]]}, "properties": {"company_id": "enterprise-products-partners", "jurisdiction": "British Columbia", "claim_id": 366325, "claim_name": null, "holder": "JEDWAY ENTERPRISES LTD.", "status": "Placer", "recorded_date": "9130752000", "anniversary_or_expiry": "2025-12-08", "area_ha": 397.8, "tenure_type": "Placer", "source": "BC MTA Mineral, Placer and Coal Tenure Spatial View (BCGW). Open Government Licence - British Columbia. Not legal title.", "as_of": "2026-09-20", "role": "focus", "color": "#e8b040"}}, {"type": "Feature", "geometry": {"type": "Polygon", "coordinates": [[[-133.4325, 59.5443], [-133.4344, 59.5408], [-133.4375, 59.5412], [-133.441, 59.5371], [-133.4312, 59.5349], [-133.4287, 59.5378], [-133.4172, 59.5336], [-133.4205, 59.5316], [-133.4212, 59.5319], [-133.4172, 59.5294], [-133.4148, 59.5307], [-133.4066, 59.5269], [-133.4041, 59.5266], [-133.403, 59.5259], [-133.4035, 59.5254], [-133.3797, 59.518], [-133.3748, 59.5217], [-133.3963, 59.5285], [-133.4063, 59.5351], [-133.4069, 59.5348], [-133.4175, 59.5395], [-133.4325, 59.5443]]]}, "properties": {"company_id": "enterprise-products-partners", "jurisdiction": "British Columbia", "claim_id": 367170, "claim_name": null, "holder": "RAYNA AU ENTERPRISES LTD.", "status": "Placer", "recorded_date": "9123840000", "anniversary_or_expiry": "2023-11-30", "area_ha": 249.3, "tenure_type": "Placer", "source": "BC MTA Mineral, Placer and Coal Tenure Spatial View (BCGW). Open Government Licence - British Columbia. Not legal title.", "as_of": "2026-09-20", "role": "focus", "color": "#e8b040"}}, {"type": "Feature", "geometry": {"type": "Polygon", "coordinates": [[[-120.5294, 49.3977], [-120.529, 49.4022], [-120.5395, 49.4043], [-120.5411, 49.3999], [-120.536, 49.3991], [-120.5372, 49.3952], [-120.5304, 49.3943], [-120.5294, 49.3977]]]}, "properties": {"company_id": "enterprise-products-partners", "jurisdiction": "British Columbia", "claim_id": 370947, "claim_name": null, "holder": "PROGRESSIVE PLANET PRODUCTS INC.", "status": "Mineral", "recorded_date": "9445248000", "anniversary_or_expiry": "2025-12-07", "area_ha": 61.800000000000004, "tenure_type": "Mineral", "source": "BC MTA Mineral, Placer and Coal Tenure Spatial View (BCGW). Open Government Licence - British Columbia. Not legal title.", "as_of": "2026-09-20", "role": "focus", "color": "#e8b040"}}, {"type": "Feature", "geometry": {"type": "Polygon", "coordinates": [[[-120.8169, 50.94], [-120.8107, 50.94], [-120.8107, 50.9443], [-120.8178, 50.9443], [-120.8178, 50.9436], [-120.8169, 50.9436], [-120.8169, 50.94]]]}, "properties": {"company_id": "enterprise-products-partners", "jurisdiction": "British Columbia", "claim_id": 376818, "claim_name": null, "holder": "PROGRESSIVE PLANET PRODUCTS INC.", "status": "Mineral", "recorded_date": "9687168000", "anniversary_or_expiry": "2025-09-12", "area_ha": 21.400000000000002, "tenure_type": "Mineral", "source": "BC MTA Mineral, Placer and Coal Tenure Spatial View (BCGW). Open Government Licence - British Columbia. Not legal title.", "as_of": "2026-09-20", "role": "focus", "color": "#e8b040"}}, {"type": "Feature", "geometry": {"type": "Polygon", "coordinates": [[[-120.4142, 50.637], [-120.417, 50.6396], [-120.4197, 50.6388], [-120.4201, 50.638], [-120.4142, 50.637]]]}, "properties": {"company_id": "enterprise-products-partners", "jurisdiction": "British Columbia", "claim_id": 398534, "claim_name": "SUGAR 1", "holder": "DISCOVERY-CORP ENTERPRISES INC.", "status": "Mineral", "recorded_date": "2002-11-24", "anniversary_or_expiry": "2025-09-27", "area_ha": 25, "tenure_type": "Mineral", "source": "BC MTA Mineral, Placer and Coal Tenure Spatial View (BCGW). Open Government Licence - British Columbia. Not legal title.", "as_of": "2026-09-20", "role": "focus", "color": "#e8b040"}}, {"type": "Feature", "geometry": {"type": "Polygon", "coordinates": [[[-120.4138, 50.6372], [-120.4125, 50.6398], [-120.4104, 50.6398], [-120.4145, 50.6422], [-120.4177, 50.6409], [-120.4142, 50.637], [-120.4138, 50.6372]]]}, "properties": {"company_id": "enterprise-products-partners", "jurisdiction": "British Columbia", "claim_id": 398535, "claim_name": "SUGAR 2", "holder": "DISCOVERY-CORP ENTERPRISES INC.", "status": "Mineral", "recorded_date": "2002-11-24", "anniversary_or_expiry": "2025-09-27", "area_ha": 25, "tenure_type": "Mineral", "source": "BC MTA Mineral, Placer and Coal Tenure Spatial View (BCGW). Open Government Licence - British Columbia. Not legal title.", "as_of": "2026-09-20", "role": "focus", "color": "#e8b040"}}, {"type": "Feature", "geometry": {"type": "Polygon", "coordinates": [[[-120.4187, 50.6447], [-120.4199, 50.6454], [-120.421, 50.6449], [-120.4196, 50.6436], [-120.4209, 50.6431], [-120.4195, 50.6434], [-120.4177, 50.6409], [-120.4146, 50.6423], [-120.4187, 50.6447]]]}, "properties": {"company_id": "enterprise-products-partners", "jurisdiction": "British Columbia", "claim_id": 398536, "claim_name": "SUGAR 3", "holder": "DISCOVERY-CORP ENTERPRISES INC.", "status": "Mineral", "recorded_date": "2002-11-24", "anniversary_or_expiry": "2025-09-27", "area_ha": 25, "tenure_type": "Mineral", "source": "BC MTA Mineral, Placer and Coal Tenure Spatial View (BCGW). Open Government Licence - British Columbia. Not legal title.", "as_of": "2026-09-20", "role": "focus", "color": "#e8b040"}}, {"type": "Feature", "geometry": {"type": "Polygon", "coordinates": [[[-120.4235, 50.6475], [-120.4253, 50.6485], [-120.4268, 50.6477], [-120.4243, 50.6459], [-120.4229, 50.6465], [-120.4211, 50.6449], [-120.42, 50.6455], [-120.4235, 50.6475]]]}, "properties": {"company_id": "enterprise-products-partners", "jurisdiction": "British Columbia", "claim_id": 398537, "claim_name": "SUGAR 4", "holder": "DISCOVERY-CORP ENTERPRISES INC.", "status": "Mineral", "recorded_date": "2002-11-25", "anniversary_or_expiry": "2025-09-27", "area_ha": 25, "tenure_type": "Mineral", "source": "BC MTA Mineral, Placer and Coal Tenure Spatial View (BCGW). Open Government Licence - British Columbia. Not legal title.", "as_of": "2026-09-20", "role": "focus", "color": "#e8b040"}}, {"type": "Feature", "geometry": {"type": "MultiPolygon", "coordinates": [[[[-120.427, 50.6449], [-120.4243, 50.6459], [-120.4268, 50.6477], [-120.4296, 50.6458], [-120.4288, 50.6449], [-120.4311, 50.6443], [-120.4322, 50.6448], [-120.4314, 50.6442], [-120.427, 50.6449]]], [[[-120.426, 50.6422], [-120.4283, 50.6443], [-120.426, 50.6422], [-120.426, 50.6422]]]]}, "properties": {"company_id": "enterprise-products-partners", "jurisdiction": "British Columbia", "claim_id": 398538, "claim_name": "SUGAR 5", "holder": "DISCOVERY-CORP ENTERPRISES INC.", "status": "Mineral", "recorded_date": "2002-11-25", "anniversary_or_expiry": "2025-09-27", "area_ha": 25, "tenure_type": "Mineral", "source": "BC MTA Mineral, Placer and Coal Tenure Spatial View (BCGW). Open Government Licence - British Columbia. Not legal title.", "as_of": "2026-09-20", "role": "focus", "color": "#e8b040"}}, {"type": "Feature", "geometry": {"type": "Polygon", "coordinates": [[[-120.4283, 50.6503], [-120.4299, 50.65], [-120.4268, 50.6477], [-120.4254, 50.6486], [-120.4283, 50.6503]]]}, "properties": {"company_id": "enterprise-products-partners", "jurisdiction": "British Columbia", "claim_id": 398539, "claim_name": "SUGAR 6", "holder": "DISCOVERY-CORP ENTERPRISES INC.", "status": "Mineral", "recorded_date": "2002-11-25", "anniversary_or_expiry": "2025-09-27", "area_ha": 25, "tenure_type": "Mineral", "source": "BC MTA Mineral, Placer and Coal Tenure Spatial View (BCGW). Open Government Licence - British Columbia. Not legal title.", "as_of": "2026-09-20", "role": "focus", "color": "#e8b040"}}, {"type": "Feature", "geometry": {"type": "Polygon", "coordinates": [[[-120.4268, 50.6477], [-120.4294, 50.6492], [-120.4292, 50.6489], [-120.4316, 50.648], [-120.4296, 50.6458], [-120.4268, 50.6477]]]}, "properties": {"company_id": "enterprise-products-partners", "jurisdiction": "British Columbia", "claim_id": 398540, "claim_name": "SUGAR 7", "holder": "DISCOVERY-CORP ENTERPRISES INC.", "status": "Mineral", "recorded_date": "2002-11-25", "anniversary_or_expiry": "2025-09-27", "area_ha": 25, "tenure_type": "Mineral", "source": "BC MTA Mineral, Placer and Coal Tenure Spatial View (BCGW). Open Government Licence - British Columbia. Not legal title.", "as_of": "2026-09-20", "role": "focus", "color": "#e8b040"}}, {"type": "Feature", "geometry": {"type": "Polygon", "coordinates": [[[-128.683, 58.2831], [-128.6768, 58.2831], [-128.6768, 58.2748], [-128.6643, 58.2748], [-128.6643, 58.2831], [-128.658, 58.2831], [-128.658, 58.2873], [-128.6518, 58.2873], [-128.6518, 58.2998], [-128.658, 58.2998], [-128.658, 58.3039], [-128.6518, 58.3039], [-128.6518, 58.3081], [-128.6643, 58.3081], [-128.6643, 58.3039], [-128.6705, 58.3039], [-128.6705, 58.2998], [-128.6768, 58.2998], [-128.6768, 58.2914], [-128.683, 58.2914], [-128.683, 58.2873], [-128.6893, 58.2873], [-128.6893, 58.2831], [-128.683, 58.2831]]]}, "properties": {"company_id": "enterprise-products-partners", "jurisdiction": "British Columbia", "claim_id": 510832, "claim_name": null, "holder": "GLENPARK ENTERPRISES LTD.", "status": "Placer", "recorded_date": "2005-04-16", "anniversary_or_expiry": "2029-05-01", "area_ha": 442.38300000000004, "tenure_type": "Placer", "source": "BC MTA Mineral, Placer and Coal Tenure Spatial View (BCGW). Open Government Licence - British Columbia. Not legal title.", "as_of": "2026-09-20", "role": "focus", "color": "#e8b040"}}, {"type": "Feature", "geometry": {"type": "Polygon", "coordinates": [[[-128.6518, 58.3081], [-128.6518, 58.3039], [-128.6455, 58.3039], [-128.6455, 58.3123], [-128.6518, 58.3123], [-128.6518, 58.3081]]]}, "properties": {"company_id": "enterprise-products-partners", "jurisdiction": "British Columbia", "claim_id": 510833, "claim_name": null, "holder": "GLENPARK ENTERPRISES LTD.", "status": "Placer", "recorded_date": "2005-04-16", "anniversary_or_expiry": "2029-05-01", "area_ha": 34.014, "tenure_type": "Placer", "source": "BC MTA Mineral, Placer and Coal Tenure Spatial View (BCGW). Open Government Licence - British Columbia. Not legal title.", "as_of": "2026-09-20", "role": "focus", "color": "#e8b040"}}, {"type": "Feature", "geometry": {"type": "Polygon", "coordinates": [[[-128.633, 58.3123], [-128.633, 58.3081], [-128.6268, 58.3081], [-128.6268, 58.3123], [-128.6205, 58.3123], [-128.6205, 58.3164], [-128.633, 58.3164], [-128.633, 58.3123]]]}, "properties": {"company_id": "enterprise-products-partners", "jurisdiction": "British Columbia", "claim_id": 510844, "claim_name": null, "holder": "GLENPARK ENTERPRISES LTD.", "status": "Mineral", "recorded_date": "2005-04-16", "anniversary_or_expiry": "2023-05-01", "area_ha": 51.015, "tenure_type": "Mineral", "source": "BC MTA Mineral, Placer and Coal Tenure Spatial View (BCGW). Open Government Licence - British Columbia. Not legal title.", "as_of": "2026-09-20", "role": "focus", "color": "#e8b040"}}, {"type": "Feature", "geometry": {"type": "Polygon", "coordinates": [[[-128.658, 58.2998], [-128.658, 58.2956], [-128.6518, 58.2956], [-128.6518, 58.3039], [-128.6393, 58.3039], [-128.6393, 58.3081], [-128.658, 58.3081], [-128.658, 58.2998]]]}, "properties": {"company_id": "enterprise-products-partners", "jurisdiction": "British Columbia", "claim_id": 510845, "claim_name": "CAMP BRIDGE", "holder": "GLENPARK ENTERPRISES LTD.", "status": "Mineral", "recorded_date": "2005-04-16", "anniversary_or_expiry": "2024-05-01", "area_ha": 85.046, "tenure_type": "Mineral", "source": "BC MTA Mineral, Placer and Coal Tenure Spatial View (BCGW). Open Government Licence - British Columbia. Not legal title.", "as_of": "2026-09-20", "role": "focus", "color": "#e8b040"}}, {"type": "Feature", "geometry": {"type": "Polygon", "coordinates": [[[-128.633, 58.3123], [-128.6393, 58.3123], [-128.6393, 58.3081], [-128.633, 58.3081], [-128.633, 58.3123]]]}, "properties": {"company_id": "enterprise-products-partners", "jurisdiction": "British Columbia", "claim_id": 510846, "claim_name": "AIRPORT BRIDGE", "holder": "GLENPARK ENTERPRISES LTD.", "status": "Mineral", "recorded_date": "2005-04-16", "anniversary_or_expiry": "2023-08-01", "area_ha": 17.006, "tenure_type": "Mineral", "source": "BC MTA Mineral, Placer and Coal Tenure Spatial View (BCGW). Open Government Licence - British Columbia. Not legal title.", "as_of": "2026-09-20", "role": "focus", "color": "#e8b040"}}, {"type": "Feature", "geometry": {"type": "Polygon", "coordinates": [[[-128.6893, 58.2706], [-128.6893, 58.2664], [-128.6705, 58.2664], [-128.6705, 58.2873], [-128.6893, 58.2873], [-128.6893, 58.2706]]]}, "properties": {"company_id": "enterprise-products-partners", "jurisdiction": "British Columbia", "claim_id": 509796, "claim_name": null, "holder": "GLENPARK ENTERPRISES LTD.", "status": "Mineral", "recorded_date": "2005-03-29", "anniversary_or_expiry": "2027-05-01", "area_ha": 255.317, "tenure_type": "Mineral", "source": "BC MTA Mineral, Placer and Coal Tenure Spatial View (BCGW). Open Government Licence - British Columbia. Not legal title.", "as_of": "2026-09-20", "role": "focus", "color": "#e8b040"}}, {"type": "Feature", "geometry": {"type": "Polygon", "coordinates": [[[-128.8018, 58.2414], [-128.8018, 58.2373], [-128.7768, 58.2373], [-128.7768, 58.2748], [-128.8018, 58.2748], [-128.8018, 58.2414]]]}, "properties": {"company_id": "enterprise-products-partners", "jurisdiction": "British Columbia", "claim_id": 509826, "claim_name": null, "holder": "GLENPARK ENTERPRISES LTD.", "status": "Mineral", "recorded_date": "2005-03-30", "anniversary_or_expiry": "2023-05-01", "area_ha": 613.096, "tenure_type": "Mineral", "source": "BC MTA Mineral, Placer and Coal Tenure Spatial View (BCGW). Open Government Licence - British Columbia. Not legal title.", "as_of": "2026-09-20", "role": "focus", "color": "#e8b040"}}, {"type": "Feature", "geometry": {"type": "Polygon", "coordinates": [[[-128.6955, 58.2373], [-128.6955, 58.2331], [-128.6205, 58.2331], [-128.6205, 58.2456], [-128.6955, 58.2456], [-128.6955, 58.2373]]]}, "properties": {"company_id": "enterprise-products-partners", "jurisdiction": "British Columbia", "claim_id": 509830, "claim_name": null, "holder": "GLENPARK ENTERPRISES LTD.", "status": "Mineral", "recorded_date": "2005-03-30", "anniversary_or_expiry": "2024-05-01", "area_ha": 613.3910000000001, "tenure_type": "Mineral", "source": "BC MTA Mineral, Placer and Coal Tenure Spatial View (BCGW). Open Government Licence - British Columbia. Not legal title.", "as_of": "2026-09-20", "role": "focus", "color": "#e8b040"}}, {"type": "Feature", "geometry": {"type": "Polygon", "coordinates": [[[-128.7393, 58.2248], [-128.7393, 58.2206], [-128.683, 58.2206], [-128.683, 58.2331], [-128.7393, 58.2331], [-128.7393, 58.2248]]]}, "properties": {"company_id": "enterprise-products-partners", "jurisdiction": "British Columbia", "claim_id": 509833, "claim_name": null, "holder": "GLENPARK ENTERPRISES LTD.", "status": "Mineral", "recorded_date": "2005-03-30", "anniversary_or_expiry": "2024-05-01", "area_ha": 460.204, "tenure_type": "Mineral", "source": "BC MTA Mineral, Placer and Coal Tenure Spatial View (BCGW). Open Government Licence - British Columbia. Not legal title.", "as_of": "2026-09-20", "role": "focus", "color": "#e8b040"}}, {"type": "Feature", "geometry": {"type": "Polygon", "coordinates": [[[-128.7768, 58.2414], [-128.7768, 58.2373], [-128.7455, 58.2373], [-128.7455, 58.2581], [-128.7768, 58.2581], [-128.7768, 58.2414]]]}, "properties": {"company_id": "enterprise-products-partners", "jurisdiction": "British Columbia", "claim_id": 509839, "claim_name": null, "holder": "GLENPARK ENTERPRISES LTD.", "status": "Mineral", "recorded_date": "2005-03-30", "anniversary_or_expiry": "2024-05-01", "area_ha": 425.86100000000005, "tenure_type": "Mineral", "source": "BC MTA Mineral, Placer and Coal Tenure Spatial View (BCGW). Open Government Licence - British Columbia. Not legal title.", "as_of": "2026-09-20", "role": "focus", "color": "#e8b040"}}, {"type": "Feature", "geometry": {"type": "Polygon", "coordinates": [[[-128.783, 58.2789], [-128.783, 58.2748], [-128.7768, 58.2748], [-128.7768, 58.2623], [-128.758, 58.2623], [-128.758, 58.2914], [-128.783, 58.2914], [-128.783, 58.2789]]]}, "properties": {"company_id": "enterprise-products-partners", "jurisdiction": "British Columbia", "claim_id": 509844, "claim_name": null, "holder": "GLENPARK ENTERPRISES LTD.", "status": "Mineral", "recorded_date": "2005-03-30", "anniversary_or_expiry": "2024-05-01", "area_ha": 425.50300000000004, "tenure_type": "Mineral", "source": "BC MTA Mineral, Placer and Coal Tenure Spatial View (BCGW). Open Government Licence - British Columbia. Not legal title.", "as_of": "2026-09-20", "role": "focus", "color": "#e8b040"}}, {"type": "Feature", "geometry": {"type": "Polygon", "coordinates": [[[-128.758, 58.2664], [-128.758, 58.2623], [-128.7455, 58.2623], [-128.7455, 58.2914], [-128.758, 58.2914], [-128.758, 58.2664]]]}, "properties": {"company_id": "enterprise-products-partners", "jurisdiction": "British Columbia", "claim_id": 509848, "claim_name": null, "holder": "GLENPARK ENTERPRISES LTD.", "status": "Mineral", "recorded_date": "2005-03-30", "anniversary_or_expiry": "2024-05-01", "area_ha": 238.29100000000003, "tenure_type": "Mineral", "source": "BC MTA Mineral, Placer and Coal Tenure Spatial View (BCGW). Open Government Licence - British Columbia. Not legal title.", "as_of": "2026-09-20", "role": "focus", "color": "#e8b040"}}, {"type": "Feature", "geometry": {"type": "Polygon", "coordinates": [[[-128.7455, 58.2414], [-128.7455, 58.2373], [-128.6955, 58.2373], [-128.6955, 58.2498], [-128.7455, 58.2498], [-128.7455, 58.2414]]]}, "properties": {"company_id": "enterprise-products-partners", "jurisdiction": "British Columbia", "claim_id": 509850, "claim_name": null, "holder": "GLENPARK ENTERPRISES LTD.", "status": "Mineral", "recorded_date": "2005-03-30", "anniversary_or_expiry": "2024-05-01", "area_ha": 408.88100000000003, "tenure_type": "Mineral", "source": "BC MTA Mineral, Placer and Coal Tenure Spatial View (BCGW). Open Government Licence - British Columbia. Not legal title.", "as_of": "2026-09-20", "role": "focus", "color": "#e8b040"}}, {"type": "Feature", "geometry": {"type": "Polygon", "coordinates": [[[-128.7455, 58.2539], [-128.7455, 58.2498], [-128.6955, 58.2498], [-128.6955, 58.2623], [-128.7455, 58.2623], [-128.7455, 58.2539]]]}, "properties": {"company_id": "enterprise-products-partners", "jurisdiction": "British Columbia", "claim_id": 509853, "claim_name": null, "holder": "GLENPARK ENTERPRISES LTD.", "status": "Mineral", "recorded_date": "2005-03-30", "anniversary_or_expiry": "2024-05-01", "area_ha": 408.738, "tenure_type": "Mineral", "source": "BC MTA Mineral, Placer and Coal Tenure Spatial View (BCGW). Open Government Licence - British Columbia. Not legal title.", "as_of": "2026-09-20", "role": "focus", "color": "#e8b040"}}, {"type": "Feature", "geometry": {"type": "Polygon", "coordinates": [[[-128.7455, 58.2664], [-128.7455, 58.2623], [-128.708, 58.2623], [-128.708, 58.2789], [-128.7455, 58.2789], [-128.7455, 58.2664]]]}, "properties": {"company_id": "enterprise-products-partners", "jurisdiction": "British Columbia", "claim_id": 509854, "claim_name": null, "holder": "GLENPARK ENTERPRISES LTD.", "status": "Mineral", "recorded_date": "2005-03-30", "anniversary_or_expiry": "2024-05-01", "area_ha": 408.574, "tenure_type": "Mineral", "source": "BC MTA Mineral, Placer and Coal Tenure Spatial View (BCGW). Open Government Licence - British Columbia. Not legal title.", "as_of": "2026-09-20", "role": "focus", "color": "#e8b040"}}, {"type": "Feature", "geometry": {"type": "Polygon", "coordinates": [[[-128.7018, 58.2748], [-128.7018, 58.2706], [-128.6893, 58.2706], [-128.6893, 58.2873], [-128.7018, 58.2873], [-128.7018, 58.2748]]]}, "properties": {"company_id": "enterprise-products-partners", "jurisdiction": "British Columbia", "claim_id": 509857, "claim_name": null, "holder": "GLENPARK ENTERPRISES LTD.", "status": "Mineral", "recorded_date": "2005-03-30", "anniversary_or_expiry": "2023-05-01", "area_ha": 136.161, "tenure_type": "Mineral", "source": "BC MTA Mineral, Placer and Coal Tenure Spatial View (BCGW). Open Government Licence - British Columbia. Not legal title.", "as_of": "2026-09-20", "role": "focus", "color": "#e8b040"}}, {"type": "Feature", "geometry": {"type": "Polygon", "coordinates": [[[-128.708, 58.2914], [-128.708, 58.2873], [-128.6705, 58.2873], [-128.6705, 58.2998], [-128.708, 58.2998], [-128.708, 58.2914]]]}, "properties": {"company_id": "enterprise-products-partners", "jurisdiction": "British Columbia", "claim_id": 509858, "claim_name": null, "holder": "GLENPARK ENTERPRISES LTD.", "status": "Mineral", "recorded_date": "2005-03-30", "anniversary_or_expiry": "2023-05-01", "area_ha": 306.23900000000003, "tenure_type": "Mineral", "source": "BC MTA Mineral, Placer and Coal Tenure Spatial View (BCGW). Open Government Licence - British Columbia. Not legal title.", "as_of": "2026-09-20", "role": "focus", "color": "#e8b040"}}, {"type": "Feature", "geometry": {"type": "Polygon", "coordinates": [[[-128.6705, 58.2873], [-128.6705, 58.2831], [-128.6455, 58.2831], [-128.6455, 58.2956], [-128.6705, 58.2956], [-128.6705, 58.2873]]]}, "properties": {"company_id": "enterprise-products-partners", "jurisdiction": "British Columbia", "claim_id": 509860, "claim_name": null, "holder": "GLENPARK ENTERPRISES LTD.", "status": "Mineral", "recorded_date": "2005-03-30", "anniversary_or_expiry": "2024-05-01", "area_ha": 204.18800000000002, "tenure_type": "Mineral", "source": "BC MTA Mineral, Placer and Coal Tenure Spatial View (BCGW). Open Government Licence - British Columbia. Not legal title.", "as_of": "2026-09-20", "role": "focus", "color": "#e8b040"}}, {"type": "Feature", "geometry": {"type": "Polygon", "coordinates": [[[-128.6705, 58.2706], [-128.6705, 58.2664], [-128.6518, 58.2664], [-128.6518, 58.2748], [-128.658, 58.2748], [-128.658, 58.2789], [-128.6455, 58.2789], [-128.6455, 58.2831], [-128.6705, 58.2831], [-128.6705, 58.2706]]]}, "properties": {"company_id": "enterprise-products-partners", "jurisdiction": "British Columbia", "claim_id": 509861, "claim_name": null, "holder": "GLENPARK ENTERPRISES LTD.", "status": "Mineral", "recorded_date": "2005-03-30", "anniversary_or_expiry": "2025-05-01", "area_ha": 204.26600000000002, "tenure_type": "Mineral", "source": "BC MTA Mineral, Placer and Coal Tenure Spatial View (BCGW). Open Government Licence - British Columbia. Not legal title.", "as_of": "2026-09-20", "role": "focus", "color": "#e8b040"}}, {"type": "Feature", "geometry": {"type": "Polygon", "coordinates": [[[-128.633, 58.2831], [-128.633, 58.2789], [-128.6143, 58.2789], [-128.6143, 58.2873], [-128.633, 58.2873], [-128.633, 58.2831]]]}, "properties": {"company_id": "enterprise-products-partners", "jurisdiction": "British Columbia", "claim_id": 509863, "claim_name": null, "holder": "GLENPARK ENTERPRISES LTD.", "status": "Mineral", "recorded_date": "2005-03-30", "anniversary_or_expiry": "2024-05-01", "area_ha": 102.11200000000001, "tenure_type": "Mineral", "source": "BC MTA Mineral, Placer and Coal Tenure Spatial View (BCGW). Open Government Licence - British Columbia. Not legal title.", "as_of": "2026-09-20", "role": "focus", "color": "#e8b040"}}, {"type": "Feature", "geometry": {"type": "Polygon", "coordinates": [[[-128.6393, 58.2748], [-128.6393, 58.2706], [-128.6205, 58.2706], [-128.6205, 58.2789], [-128.6393, 58.2789], [-128.6393, 58.2748]]]}, "properties": {"company_id": "enterprise-products-partners", "jurisdiction": "British Columbia", "claim_id": 509866, "claim_name": null, "holder": "GLENPARK ENTERPRISES LTD.", "status": "Mineral", "recorded_date": "2005-03-30", "anniversary_or_expiry": "2025-04-12", "area_ha": 102.135, "tenure_type": "Mineral", "source": "BC MTA Mineral, Placer and Coal Tenure Spatial View (BCGW). Open Government Licence - British Columbia. Not legal title.", "as_of": "2026-09-20", "role": "focus", "color": "#e8b040"}}, {"type": "Feature", "geometry": {"type": "Polygon", "coordinates": [[[-128.6893, 58.2456], [-128.6205, 58.2456], [-128.6205, 58.2539], [-128.6893, 58.2539], [-128.6893, 58.2498], [-128.6955, 58.2498], [-128.6955, 58.2456], [-128.6893, 58.2456]]]}, "properties": {"company_id": "enterprise-products-partners", "jurisdiction": "British Columbia", "claim_id": 509874, "claim_name": null, "holder": "GLENPARK ENTERPRISES LTD.", "status": "Mineral", "recorded_date": "2005-03-30", "anniversary_or_expiry": "2024-04-11", "area_ha": 391.77700000000004, "tenure_type": "Mineral", "source": "BC MTA Mineral, Placer and Coal Tenure Spatial View (BCGW). Open Government Licence - British Columbia. Not legal title.", "as_of": "2026-09-20", "role": "focus", "color": "#e8b040"}}, {"type": "Feature", "geometry": {"type": "Polygon", "coordinates": [[[-128.6893, 58.2581], [-128.6893, 58.2539], [-128.6768, 58.2539], [-128.6768, 58.2581], [-128.6518, 58.2581], [-128.6518, 58.2664], [-128.6893, 58.2664], [-128.6893, 58.2581]]]}, "properties": {"company_id": "enterprise-products-partners", "jurisdiction": "British Columbia", "claim_id": 509878, "claim_name": null, "holder": "GLENPARK ENTERPRISES LTD.", "status": "Mineral", "recorded_date": "2005-03-30", "anniversary_or_expiry": "2024-04-11", "area_ha": 238.39700000000002, "tenure_type": "Mineral", "source": "BC MTA Mineral, Placer and Coal Tenure Spatial View (BCGW). Open Government Licence - British Columbia. Not legal title.", "as_of": "2026-09-20", "role": "focus", "color": "#e8b040"}}, {"type": "Feature", "geometry": {"type": "Polygon", "coordinates": [[[-128.6955, 58.2539], [-128.6955, 58.2498], [-128.6893, 58.2498], [-128.6893, 58.2623], [-128.6955, 58.2623], [-128.6955, 58.2539]]]}, "properties": {"company_id": "enterprise-products-partners", "jurisdiction": "British Columbia", "claim_id": 509879, "claim_name": null, "holder": "GLENPARK ENTERPRISES LTD.", "status": "Mineral", "recorded_date": "2005-03-30", "anniversary_or_expiry": "2023-04-11", "area_ha": 51.092000000000006, "tenure_type": "Mineral", "source": "BC MTA Mineral, Placer and Coal Tenure Spatial View (BCGW). Open Government Licence - British Columbia. Not legal title.", "as_of": "2026-09-20", "role": "focus", "color": "#e8b040"}}, {"type": "Feature", "geometry": {"type": "Polygon", "coordinates": [[[-128.6143, 58.2498], [-128.6018, 58.2498], [-128.6018, 58.2539], [-128.6205, 58.2539], [-128.6205, 58.2498], [-128.6143, 58.2498]]]}, "properties": {"company_id": "enterprise-products-partners", "jurisdiction": "British Columbia", "claim_id": 509887, "claim_name": "Tanya", "holder": "GLENPARK ENTERPRISES LTD.", "status": "Mineral", "recorded_date": "2005-03-30", "anniversary_or_expiry": "2023-04-11", "area_ha": 51.099000000000004, "tenure_type": "Mineral", "source": "BC MTA Mineral, Placer and Coal Tenure Spatial View (BCGW). Open Government Licence - British Columbia. Not legal title.", "as_of": "2026-09-20", "role": "focus", "color": "#e8b040"}}, {"type": "Feature", "geometry": {"type": "Polygon", "coordinates": [[[-128.8705, 58.2956], [-128.8705, 58.2914], [-128.8518, 58.2914], [-128.8518, 58.2998], [-128.858, 58.2998], [-128.858, 58.2956], [-128.8643, 58.2956], [-128.8643, 58.3039], [-128.8705, 58.3039], [-128.8705, 58.2956]]]}, "properties": {"company_id": "enterprise-products-partners", "jurisdiction": "British Columbia", "claim_id": 509890, "claim_name": "Trina", "holder": "GLENPARK ENTERPRISES LTD.", "status": "Mineral", "recorded_date": "2005-03-30", "anniversary_or_expiry": "2024-04-11", "area_ha": 102.06700000000001, "tenure_type": "Mineral", "source": "BC MTA Mineral, Placer and Coal Tenure Spatial View (BCGW). Open Government Licence - British Columbia. Not legal title.", "as_of": "2026-09-20", "role": "focus", "color": "#e8b040"}}, {"type": "Feature", "geometry": {"type": "Polygon", "coordinates": [[[-128.7018, 58.2539], [-128.7018, 58.2498], [-128.6955, 58.2498], [-128.6955, 58.2456], [-128.6893, 58.2456], [-128.6893, 58.2498], [-128.683, 58.2498], [-128.683, 58.2581], [-128.6768, 58.2581], [-128.6768, 58.2664], [-128.6893, 58.2664], [-128.6893, 58.2706], [-128.6955, 58.2706], [-128.6955, 58.2664], [-128.7018, 58.2664], [-128.7018, 58.2539]]]}, "properties": {"company_id": "enterprise-products-partners", "jurisdiction": "British Columbia", "claim_id": 509900, "claim_name": null, "holder": "GLENPARK ENTERPRISES LTD.", "status": "Placer", "recorded_date": "2005-03-31", "anniversary_or_expiry": "2029-05-01", "area_ha": 272.473, "tenure_type": "Placer", "source": "BC MTA Mineral, Placer and Coal Tenure Spatial View (BCGW). Open Government Licence - British Columbia. Not legal title.", "as_of": "2026-09-20", "role": "focus", "color": "#e8b040"}}, {"type": "Feature", "geometry": {"type": "Polygon", "coordinates": [[[-128.7018, 58.2664], [-128.6955, 58.2664], [-128.6955, 58.2706], [-128.6893, 58.2706], [-128.6893, 58.2664], [-128.6768, 58.2664], [-128.6768, 58.2706], [-128.6705, 58.2706], [-128.6705, 58.2748], [-128.7018, 58.2748], [-128.7018, 58.2706], [-128.708, 58.2706], [-128.708, 58.2664], [-128.7018, 58.2664]]]}, "properties": {"company_id": "enterprise-products-partners", "jurisdiction": "British Columbia", "claim_id": 509901, "claim_name": null, "holder": "GLENPARK ENTERPRISES LTD.", "status": "Placer", "recorded_date": "2005-03-31", "anniversary_or_expiry": "2029-05-01", "area_ha": 153.215, "tenure_type": "Placer", "source": "BC MTA Mineral, Placer and Coal Tenure Spatial View (BCGW). Open Government Licence - British Columbia. Not legal title.", "as_of": "2026-09-20", "role": "focus", "color": "#e8b040"}}, {"type": "Feature", "geometry": {"type": "Polygon", "coordinates": [[[-128.7018, 58.2789], [-128.7018, 58.2748], [-128.6768, 58.2748], [-128.6768, 58.2831], [-128.7018, 58.2831], [-128.7018, 58.2789]]]}, "properties": {"company_id": "enterprise-products-partners", "jurisdiction": "British Columbia", "claim_id": 509902, "claim_name": null, "holder": "GLENPARK ENTERPRISES LTD.", "status": "Placer", "recorded_date": "2005-03-31", "anniversary_or_expiry": "2029-05-01", "area_ha": 136.161, "tenure_type": "Placer", "source": "BC MTA Mineral, Placer and Coal Tenure Spatial View (BCGW). Open Government Licence - British Columbia. Not legal title.", "as_of": "2026-09-20", "role": "focus", "color": "#e8b040"}}, {"type": "Feature", "geometry": {"type": "Polygon", "coordinates": [[[-128.6518, 58.2956], [-128.6518, 58.2914], [-128.6393, 58.2914], [-128.6393, 58.2956], [-128.6268, 58.2956], [-128.6268, 58.2998], [-128.633, 58.2998], [-128.633, 58.3081], [-128.6393, 58.3081], [-128.6393, 58.3039], [-128.658, 58.3039], [-128.658, 58.2998], [-128.6518, 58.2998], [-128.6518, 58.2956]]]}, "properties": {"company_id": "enterprise-products-partners", "jurisdiction": "British Columbia", "claim_id": 509903, "claim_name": null, "holder": "GLENPARK ENTERPRISES LTD.", "status": "Placer", "recorded_date": "2005-03-31", "anniversary_or_expiry": "2029-05-01", "area_ha": 187.124, "tenure_type": "Placer", "source": "BC MTA Mineral, Placer and Coal Tenure Spatial View (BCGW). Open Government Licence - British Columbia. Not legal title.", "as_of": "2026-09-20", "role": "focus", "color": "#e8b040"}}, {"type": "Feature", "geometry": {"type": "Polygon", "coordinates": [[[-128.6455, 58.3081], [-128.6455, 58.3039], [-128.6393, 58.3039], [-128.6393, 58.3081], [-128.633, 58.3081], [-128.633, 58.3039], [-128.6205, 58.3039], [-128.6205, 58.3123], [-128.6455, 58.3123], [-128.6455, 58.3081]]]}, "properties": {"company_id": "enterprise-products-partners", "jurisdiction": "British Columbia", "claim_id": 509904, "claim_name": null, "holder": "GLENPARK ENTERPRISES LTD.", "status": "Placer", "recorded_date": "2005-03-31", "anniversary_or_expiry": "2029-05-01", "area_ha": 119.05, "tenure_type": "Placer", "source": "BC MTA Mineral, Placer and Coal Tenure Spatial View (BCGW). Open Government Licence - British Columbia. Not legal title.", "as_of": "2026-09-20", "role": "focus", "color": "#e8b040"}}, {"type": "Feature", "geometry": {"type": "Polygon", "coordinates": [[[-128.6205, 58.3123], [-128.6205, 58.3081], [-128.6143, 58.3081], [-128.6143, 58.3123], [-128.6018, 58.3123], [-128.6018, 58.3164], [-128.608, 58.3164], [-128.608, 58.3206], [-128.6143, 58.3206], [-128.6143, 58.3164], [-128.6268, 58.3164], [-128.6268, 58.3123], [-128.6205, 58.3123]]]}, "properties": {"company_id": "enterprise-products-partners", "jurisdiction": "British Columbia", "claim_id": 509905, "claim_name": null, "holder": "GLENPARK ENTERPRISES LTD.", "status": "Placer", "recorded_date": "2005-03-31", "anniversary_or_expiry": "2029-05-01", "area_ha": 102.027, "tenure_type": "Placer", "source": "BC MTA Mineral, Placer and Coal Tenure Spatial View (BCGW). Open Government Licence - British Columbia. Not legal title.", "as_of": "2026-09-20", "role": "focus", "color": "#e8b040"}}, {"type": "Feature", "geometry": {"type": "Polygon", "coordinates": [[[-128.608, 58.3206], [-128.608, 58.3164], [-128.6018, 58.3164], [-128.6018, 58.3206], [-128.583, 58.3206], [-128.583, 58.3248], [-128.5768, 58.3248], [-128.5768, 58.3289], [-128.6018, 58.3289], [-128.6018, 58.3248], [-128.608, 58.3248], [-128.608, 58.3206]]]}, "properties": {"company_id": "enterprise-products-partners", "jurisdiction": "British Columbia", "claim_id": 509906, "claim_name": null, "holder": "GLENPARK ENTERPRISES LTD.", "status": "Placer", "recorded_date": "2005-03-31", "anniversary_or_expiry": "2029-05-01", "area_ha": 153.001, "tenure_type": "Placer", "source": "BC MTA Mineral, Placer and Coal Tenure Spatial View (BCGW). Open Government Licence - British Columbia. Not legal title.", "as_of": "2026-09-20", "role": "focus", "color": "#e8b040"}}, {"type": "Feature", "geometry": {"type": "Polygon", "coordinates": [[[-128.6143, 58.3414], [-128.6143, 58.3373], [-128.608, 58.3373], [-128.608, 58.3331], [-128.5955, 58.3331], [-128.5955, 58.3373], [-128.583, 58.3373], [-128.583, 58.3456], [-128.5955, 58.3456], [-128.5955, 58.3498], [-128.6017, 58.3498], [-128.6017, 58.3456], [-128.6143, 58.3456], [-128.6143, 58.3414]]]}, "properties": {"company_id": "enterprise-products-partners", "jurisdiction": "British Columbia", "claim_id": 509907, "claim_name": null, "holder": "GLENPARK ENTERPRISES LTD.", "status": "Placer", "recorded_date": "2005-03-31", "anniversary_or_expiry": "2023-05-01", "area_ha": 220.923, "tenure_type": "Placer", "source": "BC MTA Mineral, Placer and Coal Tenure Spatial View (BCGW). Open Government Licence - British Columbia. Not legal title.", "as_of": "2026-09-20", "role": "focus", "color": "#e8b040"}}, {"type": "Feature", "geometry": {"type": "Polygon", "coordinates": [[[-128.708, 58.2664], [-128.708, 58.2623], [-128.7018, 58.2623], [-128.7018, 58.2789], [-128.708, 58.2789], [-128.708, 58.2664]]]}, "properties": {"company_id": "enterprise-products-partners", "jurisdiction": "British Columbia", "claim_id": 509911, "claim_name": "Danny", "holder": "GLENPARK ENTERPRISES LTD.", "status": "Mineral", "recorded_date": "2005-03-31", "anniversary_or_expiry": "2024-04-11", "area_ha": 68.096, "tenure_type": "Mineral", "source": "BC MTA Mineral, Placer and Coal Tenure Spatial View (BCGW). Open Government Licence - British Columbia. Not legal title.", "as_of": "2026-09-20", "role": "focus", "color": "#e8b040"}}, {"type": "Feature", "geometry": {"type": "Polygon", "coordinates": [[[-128.7705, 58.2581], [-128.7455, 58.2581], [-128.7455, 58.2623], [-128.7768, 58.2623], [-128.7768, 58.2581], [-128.7705, 58.2581]]]}, "properties": {"company_id": "enterprise-products-partners", "jurisdiction": "British Columbia", "claim_id": 509912, "claim_name": "Eric", "holder": "GLENPARK ENTERPRISES LTD.", "status": "Mineral", "recorded_date": "2005-03-31", "anniversary_or_expiry": "2024-04-11", "area_ha": 85.143, "tenure_type": "Mineral", "source": "BC MTA Mineral, Placer and Coal Tenure Spatial View (BCGW). Open Government Licence - British Columbia. Not legal title.", "as_of": "2026-09-20", "role": "focus", "color": "#e8b040"}}, {"type": "Feature", "geometry": {"type": "Polygon", "coordinates": [[[-128.733, 58.2331], [-128.6955, 58.2331], [-128.6955, 58.2373], [-128.7393, 58.2373], [-128.7393, 58.2331], [-128.733, 58.2331]]]}, "properties": {"company_id": "enterprise-products-partners", "jurisdiction": "British Columbia", "claim_id": 509913, "claim_name": "Andy", "holder": "GLENPARK ENTERPRISES LTD.", "status": "Mineral", "recorded_date": "2005-03-31", "anniversary_or_expiry": "2024-04-11", "area_ha": 119.284, "tenure_type": "Mineral", "source": "BC MTA Mineral, Placer and Coal Tenure Spatial View (BCGW). Open Government Licence - British Columbia. Not legal title.", "as_of": "2026-09-20", "role": "focus", "color": "#e8b040"}}, {"type": "Feature", "geometry": {"type": "Polygon", "coordinates": [[[-128.633, 58.2831], [-128.6393, 58.2831], [-128.6393, 58.2789], [-128.633, 58.2789], [-128.633, 58.2831]]]}, "properties": {"company_id": "enterprise-products-partners", "jurisdiction": "British Columbia", "claim_id": 509965, "claim_name": null, "holder": "GLENPARK ENTERPRISES LTD.", "status": "Mineral", "recorded_date": "2005-03-31", "anniversary_or_expiry": "2024-05-01", "area_ha": 17.02, "tenure_type": "Mineral", "source": "BC MTA Mineral, Placer and Coal Tenure Spatial View (BCGW). Open Government Licence - British Columbia. Not legal title.", "as_of": "2026-09-20", "role": "focus", "color": "#e8b040"}}, {"type": "Feature", "geometry": {"type": "Polygon", "coordinates": [[[-128.6268, 58.2706], [-128.633, 58.2706], [-128.633, 58.2664], [-128.6268, 58.2664], [-128.6268, 58.2706]]]}, "properties": {"company_id": "enterprise-products-partners", "jurisdiction": "British Columbia", "claim_id": 509970, "claim_name": "Zach", "holder": "GLENPARK ENTERPRISES LTD.", "status": "Mineral", "recorded_date": "2005-03-31", "anniversary_or_expiry": "2025-06-11", "area_ha": 17.025000000000002, "tenure_type": "Mineral", "source": "BC MTA Mineral, Placer and Coal Tenure Spatial View (BCGW). Open Government Licence - British Columbia. Not legal title.", "as_of": "2026-09-20", "role": "focus", "color": "#e8b040"}}, {"type": "Feature", "geometry": {"type": "Polygon", "coordinates": [[[-128.3393, 58.2456], [-128.3393, 58.2414], [-128.308, 58.2414], [-128.308, 58.2498], [-128.3393, 58.2498], [-128.3393, 58.2456]]]}, "properties": {"company_id": "enterprise-products-partners", "jurisdiction": "British Columbia", "claim_id": 518627, "claim_name": "KUTCHO PAST", "holder": "GLENPARK ENTERPRISES LTD.", "status": "Mineral", "recorded_date": "2005-08-02", "anniversary_or_expiry": "2023-05-01", "area_ha": 170.347, "tenure_type": "Mineral", "source": "BC MTA Mineral, Placer and Coal Tenure Spatial View (BCGW). Open Government Licence - British Columbia. Not legal title.", "as_of": "2026-09-20", "role": "focus", "color": "#e8b040"}}, {"type": "Feature", "geometry": {"type": "Polygon", "coordinates": [[[-128.7018, 58.2664], [-128.7018, 58.2623], [-128.6893, 58.2623], [-128.6893, 58.2706], [-128.7018, 58.2706], [-128.7018, 58.2664]]]}, "properties": {"company_id": "enterprise-products-partners", "jurisdiction": "British Columbia", "claim_id": 509856, "claim_name": null, "holder": "GLENPARK ENTERPRISES LTD.", "status": "Mineral", "recorded_date": "2005-03-30", "anniversary_or_expiry": "2023-05-01", "area_ha": 68.104, "tenure_type": "Mineral", "source": "BC MTA Mineral, Placer and Coal Tenure Spatial View (BCGW). Open Government Licence - British Columbia. Not legal title.", "as_of": "2026-09-20", "role": "focus", "color": "#e8b040"}}, {"type": "Feature", "geometry": {"type": "Polygon", "coordinates": [[[-128.6393, 58.2831], [-128.6455, 58.2831], [-128.6455, 58.2789], [-128.6393, 58.2789], [-128.6393, 58.2831]]]}, "properties": {"company_id": "enterprise-products-partners", "jurisdiction": "British Columbia", "claim_id": 509869, "claim_name": null, "holder": "GLENPARK ENTERPRISES LTD.", "status": "Mineral", "recorded_date": "2005-03-30", "anniversary_or_expiry": "2024-05-01", "area_ha": 17.02, "tenure_type": "Mineral", "source": "BC MTA Mineral, Placer and Coal Tenure Spatial View (BCGW). Open Government Licence - British Columbia. Not legal title.", "as_of": "2026-09-20", "role": "focus", "color": "#e8b040"}}, {"type": "Feature", "geometry": {"type": "Polygon", "coordinates": [[[-128.8643, 58.2748], [-128.8643, 58.2706], [-128.8268, 58.2706], [-128.8268, 58.2748], [-128.8205, 58.2748], [-128.8205, 58.2873], [-128.8455, 58.2873], [-128.8455, 58.2914], [-128.858, 58.2914], [-128.858, 58.2789], [-128.8643, 58.2789], [-128.8643, 58.2748]]]}, "properties": {"company_id": "enterprise-products-partners", "jurisdiction": "British Columbia", "claim_id": 509882, "claim_name": null, "holder": "GLENPARK ENTERPRISES LTD.", "status": "Mineral", "recorded_date": "2005-03-30", "anniversary_or_expiry": "2024-04-11", "area_ha": 459.51800000000003, "tenure_type": "Mineral", "source": "BC MTA Mineral, Placer and Coal Tenure Spatial View (BCGW). Open Government Licence - British Columbia. Not legal title.", "as_of": "2026-09-20", "role": "focus", "color": "#e8b040"}}, {"type": "Feature", "geometry": {"type": "Polygon", "coordinates": [[[-128.8143, 58.2789], [-128.8018, 58.2789], [-128.8018, 58.2748], [-128.7955, 58.2748], [-128.7955, 58.2831], [-128.8205, 58.2831], [-128.8205, 58.2789], [-128.8143, 58.2789]]]}, "properties": {"company_id": "enterprise-products-partners", "jurisdiction": "British Columbia", "claim_id": 509888, "claim_name": "Rabina", "holder": "GLENPARK ENTERPRISES LTD.", "status": "Mineral", "recorded_date": "2005-03-30", "anniversary_or_expiry": "2024-04-11", "area_ha": 85.095, "tenure_type": "Mineral", "source": "BC MTA Mineral, Placer and Coal Tenure Spatial View (BCGW). Open Government Licence - British Columbia. Not legal title.", "as_of": "2026-09-20", "role": "focus", "color": "#e8b040"}}, {"type": "Feature", "geometry": {"type": "Polygon", "coordinates": [[[-121.5755, 52.6186], [-121.5617, 52.619], [-121.5623, 52.628], [-121.5761, 52.6276], [-121.5755, 52.6186]]]}, "properties": {"company_id": "enterprise-products-partners", "jurisdiction": "British Columbia", "claim_id": 534112, "claim_name": null, "holder": "SUMMIT CEDAR PRODUCTS LTD.", "status": "Placer", "recorded_date": "2006-05-17", "anniversary_or_expiry": "2025-05-17", "area_ha": 93.25, "tenure_type": "Placer", "source": "BC MTA Mineral, Placer and Coal Tenure Spatial View (BCGW). Open Government Licence - British Columbia. Not legal title.", "as_of": "2026-09-20", "role": "focus", "color": "#e8b040"}}]}