{"type": "FeatureCollection", "features": [{"type": "Feature", "geometry": {"type": "Polygon", "coordinates": [[[-81.2813, 48.3583], [-81.2813, 48.3625], [-81.2875, 48.3625], [-81.2875, 48.3583], [-81.2813, 48.3583]]]}, "properties": {"company_id": "enterprise-products-partners", "jurisdiction": "Ontario", "claim_id": "104488", "claim_name": null, "holder": "(100) GLOBEX MINING ENTERPRISES INC.", "status": "Active", "recorded_date": "2018-04-10", "anniversary_or_expiry": "2027-07-04", "area_ha": null, "tenure_type": "Boundary Cell Mining Claim", "source": "Ontario MLAS operational claims (OGSEarth / LIO MapServer). Unofficial viewing data, not legal title.", "as_of": "2026-09-20", "role": "focus", "color": "#e8b040"}}, {"type": "Feature", "geometry": {"type": "Polygon", "coordinates": [[[-81.2438, 48.3792], [-81.2438, 48.3833], [-81.25, 48.3833], [-81.25, 48.3792], [-81.2438, 48.3792]]]}, "properties": {"company_id": "enterprise-products-partners", "jurisdiction": "Ontario", "claim_id": "103549", "claim_name": null, "holder": "(100) GLOBEX MINING ENTERPRISES INC.", "status": "Active", "recorded_date": "2018-04-10", "anniversary_or_expiry": "2027-08-06", "area_ha": null, "tenure_type": "Single Cell Mining Claim", "source": "Ontario MLAS operational claims (OGSEarth / LIO MapServer). Unofficial viewing data, not legal title.", "as_of": "2026-09-20", "role": "focus", "color": "#e8b040"}}, {"type": "Feature", "geometry": {"type": "Polygon", "coordinates": [[[-80.3938, 48.6292], [-80.3938, 48.6333], [-80.4, 48.6333], [-80.4, 48.6292], [-80.3938, 48.6292]]]}, "properties": {"company_id": "enterprise-products-partners", "jurisdiction": "Ontario", "claim_id": "110083", "claim_name": null, "holder": "(100) GLOBEX MINING ENTERPRISES INC.", "status": "Active", "recorded_date": "2018-04-10", "anniversary_or_expiry": "2027-03-22", "area_ha": null, "tenure_type": "Boundary Cell Mining Claim", "source": "Ontario MLAS operational claims (OGSEarth / LIO MapServer). Unofficial viewing data, not legal title.", "as_of": "2026-09-20", "role": "focus", "color": "#e8b040"}}, {"type": "Feature", "geometry": {"type": "Polygon", "coordinates": [[[-81.2438, 48.3708], [-81.2438, 48.375], [-81.25, 48.375], [-81.25, 48.3708], [-81.2438, 48.3708]]]}, "properties": {"company_id": "enterprise-products-partners", "jurisdiction": "Ontario", "claim_id": "118841", "claim_name": null, "holder": "(100) GLOBEX MINING ENTERPRISES INC.", "status": "Active", "recorded_date": "2018-04-10", "anniversary_or_expiry": "2027-08-06", "area_ha": null, "tenure_type": "Boundary Cell Mining Claim", "source": "Ontario MLAS operational claims (OGSEarth / LIO MapServer). Unofficial viewing data, not legal title.", "as_of": "2026-09-20", "role": "focus", "color": "#e8b040"}}, {"type": "Feature", "geometry": {"type": "Polygon", "coordinates": [[[-80.4813, 48.6208], [-80.4813, 48.625], [-80.4875, 48.625], [-80.4875, 48.6208], [-80.4813, 48.6208]]]}, "properties": {"company_id": "enterprise-products-partners", "jurisdiction": "Ontario", "claim_id": "128619", "claim_name": null, "holder": "(100) GLOBEX MINING ENTERPRISES INC.", "status": "Active", "recorded_date": "2018-04-10", "anniversary_or_expiry": "2027-10-21", "area_ha": null, "tenure_type": "Boundary Cell Mining Claim", "source": "Ontario MLAS operational claims (OGSEarth / LIO MapServer). Unofficial viewing data, not legal title.", "as_of": "2026-09-20", "role": "focus", "color": "#e8b040"}}, {"type": "Feature", "geometry": {"type": "Polygon", "coordinates": [[[-80.4813, 48.6167], [-80.4813, 48.6208], [-80.4875, 48.6208], [-80.4875, 48.6167], [-80.4813, 48.6167]]]}, "properties": {"company_id": "enterprise-products-partners", "jurisdiction": "Ontario", "claim_id": "140099", "claim_name": null, "holder": "(100) GLOBEX MINING ENTERPRISES INC.", "status": "Active", "recorded_date": "2018-04-10", "anniversary_or_expiry": "2027-10-21", "area_ha": null, "tenure_type": "Boundary Cell Mining Claim", "source": "Ontario MLAS operational claims (OGSEarth / LIO MapServer). Unofficial viewing data, not legal title.", "as_of": "2026-09-20", "role": "focus", "color": "#e8b040"}}, {"type": "Feature", "geometry": {"type": "Polygon", "coordinates": [[[-80.3688, 48.625], [-80.3688, 48.6292], [-80.375, 48.6292], [-80.375, 48.625], [-80.3688, 48.625]]]}, "properties": {"company_id": "enterprise-products-partners", "jurisdiction": "Ontario", "claim_id": "155678", "claim_name": null, "holder": "(100) GLOBEX MINING ENTERPRISES INC.", "status": "Active", "recorded_date": "2018-04-10", "anniversary_or_expiry": "2027-03-22", "area_ha": null, "tenure_type": "Boundary Cell Mining Claim", "source": "Ontario MLAS operational claims (OGSEarth / LIO MapServer). Unofficial viewing data, not legal title.", "as_of": "2026-09-20", "role": "focus", "color": "#e8b040"}}, {"type": "Feature", "geometry": {"type": "Polygon", "coordinates": [[[-80.375, 48.6292], [-80.375, 48.6333], [-80.3813, 48.6333], [-80.3813, 48.6292], [-80.375, 48.6292]]]}, "properties": {"company_id": "enterprise-products-partners", "jurisdiction": "Ontario", "claim_id": "158513", "claim_name": null, "holder": "(100) GLOBEX MINING ENTERPRISES INC.", "status": "Active", "recorded_date": "2018-04-10", "anniversary_or_expiry": "2027-03-22", "area_ha": null, "tenure_type": "Boundary Cell Mining Claim", "source": "Ontario MLAS operational claims (OGSEarth / LIO MapServer). Unofficial viewing data, not legal title.", "as_of": "2026-09-20", "role": "focus", "color": "#e8b040"}}, {"type": "Feature", "geometry": {"type": "Polygon", "coordinates": [[[-80.375, 48.6167], [-80.375, 48.6208], [-80.3813, 48.6208], [-80.3813, 48.6167], [-80.375, 48.6167]]]}, "properties": {"company_id": "enterprise-products-partners", "jurisdiction": "Ontario", "claim_id": "163273", "claim_name": null, "holder": "(100) GLOBEX MINING ENTERPRISES INC.", "status": "Active", "recorded_date": "2018-04-10", "anniversary_or_expiry": "2027-01-09", "area_ha": null, "tenure_type": "Boundary Cell Mining Claim", "source": "Ontario MLAS operational claims (OGSEarth / LIO MapServer). Unofficial viewing data, not legal title.", "as_of": "2026-09-20", "role": "focus", "color": "#e8b040"}}, {"type": "Feature", "geometry": {"type": "Polygon", "coordinates": [[[-81.2813, 48.3542], [-81.2813, 48.3583], [-81.2875, 48.3583], [-81.2875, 48.3542], [-81.2813, 48.3542]]]}, "properties": {"company_id": "enterprise-products-partners", "jurisdiction": "Ontario", "claim_id": "163663", "claim_name": null, "holder": "(100) GLOBEX MINING ENTERPRISES INC.", "status": "Active", "recorded_date": "2018-04-10", "anniversary_or_expiry": "2027-07-04", "area_ha": null, "tenure_type": "Boundary Cell Mining Claim", "source": "Ontario MLAS operational claims (OGSEarth / LIO MapServer). Unofficial viewing data, not legal title.", "as_of": "2026-09-20", "role": "focus", "color": "#e8b040"}}, {"type": "Feature", "geometry": {"type": "Polygon", "coordinates": [[[-81.25, 48.3792], [-81.25, 48.3833], [-81.2563, 48.3833], [-81.2563, 48.3792], [-81.25, 48.3792]]]}, "properties": {"company_id": "enterprise-products-partners", "jurisdiction": "Ontario", "claim_id": "167111", "claim_name": null, "holder": "(100) GLOBEX MINING ENTERPRISES INC.", "status": "Active", "recorded_date": "2018-04-10", "anniversary_or_expiry": "2027-08-06", "area_ha": null, "tenure_type": "Single Cell Mining Claim", "source": "Ontario MLAS operational claims (OGSEarth / LIO MapServer). Unofficial viewing data, not legal title.", "as_of": "2026-09-20", "role": "focus", "color": "#e8b040"}}, {"type": "Feature", "geometry": {"type": "Polygon", "coordinates": [[[-81.2375, 48.3667], [-81.2375, 48.3708], [-81.2438, 48.3708], [-81.2438, 48.3667], [-81.2375, 48.3667]]]}, "properties": {"company_id": "enterprise-products-partners", "jurisdiction": "Ontario", "claim_id": "167132", "claim_name": null, "holder": "(100) GLOBEX MINING ENTERPRISES INC.", "status": "Active", "recorded_date": "2018-04-10", "anniversary_or_expiry": "2027-08-06", "area_ha": null, "tenure_type": "Boundary Cell Mining Claim", "source": "Ontario MLAS operational claims (OGSEarth / LIO MapServer). Unofficial viewing data, not legal title.", "as_of": "2026-09-20", "role": "focus", "color": "#e8b040"}}, {"type": "Feature", "geometry": {"type": "Polygon", "coordinates": [[[-81.2813, 48.35], [-81.2813, 48.3542], [-81.2875, 48.3542], [-81.2875, 48.35], [-81.2813, 48.35]]]}, "properties": {"company_id": "enterprise-products-partners", "jurisdiction": "Ontario", "claim_id": "218521", "claim_name": null, "holder": "(100) GLOBEX MINING ENTERPRISES INC.", "status": "Active", "recorded_date": "2018-04-10", "anniversary_or_expiry": "2027-02-16", "area_ha": null, "tenure_type": "Boundary Cell Mining Claim", "source": "Ontario MLAS operational claims (OGSEarth / LIO MapServer). Unofficial viewing data, not legal title.", "as_of": "2026-09-20", "role": "focus", "color": "#e8b040"}}, {"type": "Feature", "geometry": {"type": "Polygon", "coordinates": [[[-80.3813, 48.6292], [-80.3813, 48.6333], [-80.3875, 48.6333], [-80.3875, 48.6292], [-80.3813, 48.6292]]]}, "properties": {"company_id": "enterprise-products-partners", "jurisdiction": "Ontario", "claim_id": "219852", "claim_name": null, "holder": "(100) GLOBEX MINING ENTERPRISES INC.", "status": "Active", "recorded_date": "2018-04-10", "anniversary_or_expiry": "2027-03-22", "area_ha": null, "tenure_type": "Boundary Cell Mining Claim", "source": "Ontario MLAS operational claims (OGSEarth / LIO MapServer). Unofficial viewing data, not legal title.", "as_of": "2026-09-20", "role": "focus", "color": "#e8b040"}}, {"type": "Feature", "geometry": {"type": "Polygon", "coordinates": [[[-80.3688, 48.6208], [-80.3688, 48.625], [-80.375, 48.625], [-80.375, 48.6208], [-80.3688, 48.6208]]]}, "properties": {"company_id": "enterprise-products-partners", "jurisdiction": "Ontario", "claim_id": "221031", "claim_name": null, "holder": "(100) GLOBEX MINING ENTERPRISES INC.", "status": "Active", "recorded_date": "2018-04-10", "anniversary_or_expiry": "2027-03-22", "area_ha": null, "tenure_type": "Boundary Cell Mining Claim", "source": "Ontario MLAS operational claims (OGSEarth / LIO MapServer). Unofficial viewing data, not legal title.", "as_of": "2026-09-20", "role": "focus", "color": "#e8b040"}}, {"type": "Feature", "geometry": {"type": "Polygon", "coordinates": [[[-80.3875, 48.6292], [-80.3875, 48.6333], [-80.3938, 48.6333], [-80.3938, 48.6292], [-80.3875, 48.6292]]]}, "properties": {"company_id": "enterprise-products-partners", "jurisdiction": "Ontario", "claim_id": "227325", "claim_name": null, "holder": "(100) GLOBEX MINING ENTERPRISES INC.", "status": "Active", "recorded_date": "2018-04-10", "anniversary_or_expiry": "2027-03-22", "area_ha": null, "tenure_type": "Single Cell Mining Claim", "source": "Ontario MLAS operational claims (OGSEarth / LIO MapServer). Unofficial viewing data, not legal title.", "as_of": "2026-09-20", "role": "focus", "color": "#e8b040"}}, {"type": "Feature", "geometry": {"type": "Polygon", "coordinates": [[[-80.4938, 48.6333], [-80.4938, 48.6375], [-80.5, 48.6375], [-80.5, 48.6333], [-80.4938, 48.6333]]]}, "properties": {"company_id": "enterprise-products-partners", "jurisdiction": "Ontario", "claim_id": "237696", "claim_name": null, "holder": "(100) GLOBEX MINING ENTERPRISES INC.", "status": "Active", "recorded_date": "2018-04-10", "anniversary_or_expiry": "2027-10-21", "area_ha": null, "tenure_type": "Boundary Cell Mining Claim", "source": "Ontario MLAS operational claims (OGSEarth / LIO MapServer). Unofficial viewing data, not legal title.", "as_of": "2026-09-20", "role": "focus", "color": "#e8b040"}}, {"type": "Feature", "geometry": {"type": "Polygon", "coordinates": [[[-80.5063, 48.6333], [-80.5063, 48.6375], [-80.5125, 48.6375], [-80.5125, 48.6333], [-80.5063, 48.6333]]]}, "properties": {"company_id": "enterprise-products-partners", "jurisdiction": "Ontario", "claim_id": "241175", "claim_name": null, "holder": "(100) GLOBEX MINING ENTERPRISES INC.", "status": "Active", "recorded_date": "2018-04-10", "anniversary_or_expiry": "2027-10-21", "area_ha": null, "tenure_type": "Boundary Cell Mining Claim", "source": "Ontario MLAS operational claims (OGSEarth / LIO MapServer). Unofficial viewing data, not legal title.", "as_of": "2026-09-20", "role": "focus", "color": "#e8b040"}}, {"type": "Feature", "geometry": {"type": "Polygon", "coordinates": [[[-80.4188, 48.6333], [-80.4188, 48.6375], [-80.425, 48.6375], [-80.425, 48.6333], [-80.4188, 48.6333]]]}, "properties": {"company_id": "enterprise-products-partners", "jurisdiction": "Ontario", "claim_id": "246756", "claim_name": null, "holder": "(100) GLOBEX MINING ENTERPRISES INC.", "status": "Active", "recorded_date": "2018-04-10", "anniversary_or_expiry": "2027-03-22", "area_ha": null, "tenure_type": "Boundary Cell Mining Claim", "source": "Ontario MLAS operational claims (OGSEarth / LIO MapServer). Unofficial viewing data, not legal title.", "as_of": "2026-09-20", "role": "focus", "color": "#e8b040"}}, {"type": "Feature", "geometry": {"type": "Polygon", "coordinates": [[[-80.5, 48.6333], [-80.5, 48.6375], [-80.5063, 48.6375], [-80.5063, 48.6333], [-80.5, 48.6333]]]}, "properties": {"company_id": "enterprise-products-partners", "jurisdiction": "Ontario", "claim_id": "257733", "claim_name": null, "holder": "(100) GLOBEX MINING ENTERPRISES INC.", "status": "Active", "recorded_date": "2018-04-10", "anniversary_or_expiry": "2027-10-21", "area_ha": null, "tenure_type": "Boundary Cell Mining Claim", "source": "Ontario MLAS operational claims (OGSEarth / LIO MapServer). Unofficial viewing data, not legal title.", "as_of": "2026-09-20", "role": "focus", "color": "#e8b040"}}, {"type": "Feature", "geometry": {"type": "Polygon", "coordinates": [[[-80.3813, 48.6167], [-80.3813, 48.6208], [-80.3875, 48.6208], [-80.3875, 48.6167], [-80.3813, 48.6167]]]}, "properties": {"company_id": "enterprise-products-partners", "jurisdiction": "Ontario", "claim_id": "278554", "claim_name": null, "holder": "(100) GLOBEX MINING ENTERPRISES INC.", "status": "Active", "recorded_date": "2018-04-10", "anniversary_or_expiry": "2027-01-09", "area_ha": null, "tenure_type": "Single Cell Mining Claim", "source": "Ontario MLAS operational claims (OGSEarth / LIO MapServer). Unofficial viewing data, not legal title.", "as_of": "2026-09-20", "role": "focus", "color": "#e8b040"}}, {"type": "Feature", "geometry": {"type": "Polygon", "coordinates": [[[-81.2813, 48.3458], [-81.2813, 48.35], [-81.2875, 48.35], [-81.2875, 48.3458], [-81.2813, 48.3458]]]}, "properties": {"company_id": "enterprise-products-partners", "jurisdiction": "Ontario", "claim_id": "284491", "claim_name": null, "holder": "(100) GLOBEX MINING ENTERPRISES INC.", "status": "Active", "recorded_date": "2018-04-10", "anniversary_or_expiry": "2027-02-16", "area_ha": null, "tenure_type": "Boundary Cell Mining Claim", "source": "Ontario MLAS operational claims (OGSEarth / LIO MapServer). Unofficial viewing data, not legal title.", "as_of": "2026-09-20", "role": "focus", "color": "#e8b040"}}, {"type": "Feature", "geometry": {"type": "Polygon", "coordinates": [[[-80.4188, 48.6292], [-80.4188, 48.6333], [-80.425, 48.6333], [-80.425, 48.6292], [-80.4188, 48.6292]]]}, "properties": {"company_id": "enterprise-products-partners", "jurisdiction": "Ontario", "claim_id": "290672", "claim_name": null, "holder": "(100) GLOBEX MINING ENTERPRISES INC.", "status": "Active", "recorded_date": "2018-04-10", "anniversary_or_expiry": "2027-03-22", "area_ha": null, "tenure_type": "Boundary Cell Mining Claim", "source": "Ontario MLAS operational claims (OGSEarth / LIO MapServer). Unofficial viewing data, not legal title.", "as_of": "2026-09-20", "role": "focus", "color": "#e8b040"}}, {"type": "Feature", "geometry": {"type": "Polygon", "coordinates": [[[-80.4, 48.6292], [-80.4, 48.6333], [-80.4063, 48.6333], [-80.4063, 48.6292], [-80.4, 48.6292]]]}, "properties": {"company_id": "enterprise-products-partners", "jurisdiction": "Ontario", "claim_id": "290817", "claim_name": null, "holder": "(100) GLOBEX MINING ENTERPRISES INC.", "status": "Active", "recorded_date": "2018-04-10", "anniversary_or_expiry": "2027-03-22", "area_ha": null, "tenure_type": "Boundary Cell Mining Claim", "source": "Ontario MLAS operational claims (OGSEarth / LIO MapServer). Unofficial viewing data, not legal title.", "as_of": "2026-09-20", "role": "focus", "color": "#e8b040"}}, {"type": "Feature", "geometry": {"type": "Polygon", "coordinates": [[[-80.4938, 48.6292], [-80.4938, 48.6333], [-80.5, 48.6333], [-80.5, 48.6292], [-80.4938, 48.6292]]]}, "properties": {"company_id": "enterprise-products-partners", "jurisdiction": "Ontario", "claim_id": "307099", "claim_name": null, "holder": "(100) GLOBEX MINING ENTERPRISES INC.", "status": "Active", "recorded_date": "2018-04-10", "anniversary_or_expiry": "2027-10-21", "area_ha": null, "tenure_type": "Boundary Cell Mining Claim", "source": "Ontario MLAS operational claims (OGSEarth / LIO MapServer). Unofficial viewing data, not legal title.", "as_of": "2026-09-20", "role": "focus", "color": "#e8b040"}}, {"type": "Feature", "geometry": {"type": "Polygon", "coordinates": [[[-80.4188, 48.6375], [-80.4188, 48.6417], [-80.425, 48.6417], [-80.425, 48.6375], [-80.4188, 48.6375]]]}, "properties": {"company_id": "enterprise-products-partners", "jurisdiction": "Ontario", "claim_id": "311847", "claim_name": null, "holder": "(100) GLOBEX MINING ENTERPRISES INC.", "status": "Active", "recorded_date": "2018-04-10", "anniversary_or_expiry": "2027-03-22", "area_ha": null, "tenure_type": "Boundary Cell Mining Claim", "source": "Ontario MLAS operational claims (OGSEarth / LIO MapServer). Unofficial viewing data, not legal title.", "as_of": "2026-09-20", "role": "focus", "color": "#e8b040"}}, {"type": "Feature", "geometry": {"type": "Polygon", "coordinates": [[[-80.4125, 48.6292], [-80.4125, 48.6333], [-80.4188, 48.6333], [-80.4188, 48.6292], [-80.4125, 48.6292]]]}, "properties": {"company_id": "enterprise-products-partners", "jurisdiction": "Ontario", "claim_id": "315591", "claim_name": null, "holder": "(100) GLOBEX MINING ENTERPRISES INC.", "status": "Active", "recorded_date": "2018-04-10", "anniversary_or_expiry": "2027-03-22", "area_ha": null, "tenure_type": "Boundary Cell Mining Claim", "source": "Ontario MLAS operational claims (OGSEarth / LIO MapServer). Unofficial viewing data, not legal title.", "as_of": "2026-09-20", "role": "focus", "color": "#e8b040"}}, {"type": "Feature", "geometry": {"type": "Polygon", "coordinates": [[[-81.2813, 48.3625], [-81.2813, 48.3667], [-81.2875, 48.3667], [-81.2875, 48.3625], [-81.2813, 48.3625]]]}, "properties": {"company_id": "enterprise-products-partners", "jurisdiction": "Ontario", "claim_id": "317786", "claim_name": null, "holder": "(100) GLOBEX MINING ENTERPRISES INC.", "status": "Active", "recorded_date": "2018-04-10", "anniversary_or_expiry": "2027-07-04", "area_ha": null, "tenure_type": "Boundary Cell Mining Claim", "source": "Ontario MLAS operational claims (OGSEarth / LIO MapServer). Unofficial viewing data, not legal title.", "as_of": "2026-09-20", "role": "focus", "color": "#e8b040"}}, {"type": "Feature", "geometry": {"type": "Polygon", "coordinates": [[[-80.375, 48.625], [-80.375, 48.6292], [-80.3813, 48.6292], [-80.3813, 48.625], [-80.375, 48.625]]]}, "properties": {"company_id": "enterprise-products-partners", "jurisdiction": "Ontario", "claim_id": "324317", "claim_name": null, "holder": "(100) GLOBEX MINING ENTERPRISES INC.", "status": "Active", "recorded_date": "2018-04-10", "anniversary_or_expiry": "2027-03-22", "area_ha": null, "tenure_type": "Boundary Cell Mining Claim", "source": "Ontario MLAS operational claims (OGSEarth / LIO MapServer). Unofficial viewing data, not legal title.", "as_of": "2026-09-20", "role": "focus", "color": "#e8b040"}}, {"type": "Feature", "geometry": {"type": "Polygon", "coordinates": [[[-80.375, 48.6208], [-80.375, 48.625], [-80.3813, 48.625], [-80.3813, 48.6208], [-80.375, 48.6208]]]}, "properties": {"company_id": "enterprise-products-partners", "jurisdiction": "Ontario", "claim_id": "324318", "claim_name": null, "holder": "(100) GLOBEX MINING ENTERPRISES INC.", "status": "Active", "recorded_date": "2018-04-10", "anniversary_or_expiry": "2027-03-22", "area_ha": null, "tenure_type": "Boundary Cell Mining Claim", "source": "Ontario MLAS operational claims (OGSEarth / LIO MapServer). Unofficial viewing data, not legal title.", "as_of": "2026-09-20", "role": "focus", "color": "#e8b040"}}, {"type": "Feature", "geometry": {"type": "Polygon", "coordinates": [[[-80.4063, 48.6292], [-80.4063, 48.6333], [-80.4125, 48.6333], [-80.4125, 48.6292], [-80.4063, 48.6292]]]}, "properties": {"company_id": "enterprise-products-partners", "jurisdiction": "Ontario", "claim_id": "336447", "claim_name": null, "holder": "(100) GLOBEX MINING ENTERPRISES INC.", "status": "Active", "recorded_date": "2018-04-10", "anniversary_or_expiry": "2027-03-22", "area_ha": null, "tenure_type": "Boundary Cell Mining Claim", "source": "Ontario MLAS operational claims (OGSEarth / LIO MapServer). Unofficial viewing data, not legal title.", "as_of": "2026-09-20", "role": "focus", "color": "#e8b040"}}, {"type": "Feature", "geometry": {"type": "Polygon", "coordinates": [[[-81.2438, 48.3667], [-81.2438, 48.3708], [-81.25, 48.3708], [-81.25, 48.3667], [-81.2438, 48.3667]]]}, "properties": {"company_id": "enterprise-products-partners", "jurisdiction": "Ontario", "claim_id": "342047", "claim_name": null, "holder": "(100) GLOBEX MINING ENTERPRISES INC.", "status": "Active", "recorded_date": "2018-04-10", "anniversary_or_expiry": "2027-08-06", "area_ha": null, "tenure_type": "Boundary Cell Mining Claim", "source": "Ontario MLAS operational claims (OGSEarth / LIO MapServer). Unofficial viewing data, not legal title.", "as_of": "2026-09-20", "role": "focus", "color": "#e8b040"}}, {"type": "Feature", "geometry": {"type": "Polygon", "coordinates": [[[-81.2188, 48.3708], [-81.2188, 48.375], [-81.225, 48.375], [-81.225, 48.3708], [-81.2188, 48.3708]]]}, "properties": {"company_id": "enterprise-products-partners", "jurisdiction": "Ontario", "claim_id": "501618", "claim_name": null, "holder": "(100) GLOBEX MINING ENTERPRISES INC.", "status": "Active", "recorded_date": "2018-04-10", "anniversary_or_expiry": "2027-04-10", "area_ha": null, "tenure_type": "Single Cell Mining Claim", "source": "Ontario MLAS operational claims (OGSEarth / LIO MapServer). Unofficial viewing data, not legal title.", "as_of": "2026-09-20", "role": "focus", "color": "#e8b040"}}, {"type": "Feature", "geometry": {"type": "Polygon", "coordinates": [[[-81.2188, 48.375], [-81.2188, 48.3792], [-81.225, 48.3792], [-81.225, 48.375], [-81.2188, 48.375]]]}, "properties": {"company_id": "enterprise-products-partners", "jurisdiction": "Ontario", "claim_id": "521672", "claim_name": null, "holder": "(100) GLOBEX MINING ENTERPRISES INC.", "status": "Active", "recorded_date": "2018-05-20", "anniversary_or_expiry": "2027-05-20", "area_ha": null, "tenure_type": "Single Cell Mining Claim", "source": "Ontario MLAS operational claims (OGSEarth / LIO MapServer). Unofficial viewing data, not legal title.", "as_of": "2026-09-20", "role": "focus", "color": "#e8b040"}}, {"type": "Feature", "geometry": {"type": "Polygon", "coordinates": [[[-81.2188, 48.3667], [-81.2188, 48.3708], [-81.225, 48.3708], [-81.225, 48.3667], [-81.2188, 48.3667]]]}, "properties": {"company_id": "enterprise-products-partners", "jurisdiction": "Ontario", "claim_id": "521673", "claim_name": null, "holder": "(100) GLOBEX MINING ENTERPRISES INC.", "status": "Active", "recorded_date": "2018-05-20", "anniversary_or_expiry": "2027-05-20", "area_ha": null, "tenure_type": "Single Cell Mining Claim", "source": "Ontario MLAS operational claims (OGSEarth / LIO MapServer). Unofficial viewing data, not legal title.", "as_of": "2026-09-20", "role": "focus", "color": "#e8b040"}}, {"type": "Feature", "geometry": {"type": "Polygon", "coordinates": [[[-81.3188, 48.35], [-81.3188, 48.3458], [-81.2875, 48.3458], [-81.2875, 48.3583], [-81.3188, 48.3583], [-81.3188, 48.35]]]}, "properties": {"company_id": "enterprise-products-partners", "jurisdiction": "Ontario", "claim_id": "538643", "claim_name": null, "holder": "(100) GLOBEX MINING ENTERPRISES INC.", "status": "Active", "recorded_date": "2019-01-09", "anniversary_or_expiry": "2027-02-16", "area_ha": null, "tenure_type": "Multi-cell Mining Claim", "source": "Ontario MLAS operational claims (OGSEarth / LIO MapServer). Unofficial viewing data, not legal title.", "as_of": "2026-09-20", "role": "focus", "color": "#e8b040"}}, {"type": "Feature", "geometry": {"type": "Polygon", "coordinates": [[[-80.4563, 48.625], [-80.4563, 48.6208], [-80.4438, 48.6208], [-80.4438, 48.6292], [-80.4563, 48.6292], [-80.4563, 48.625]]]}, "properties": {"company_id": "enterprise-products-partners", "jurisdiction": "Ontario", "claim_id": "538644", "claim_name": null, "holder": "(100) GLOBEX MINING ENTERPRISES INC.", "status": "Active", "recorded_date": "2019-01-09", "anniversary_or_expiry": "2026-10-21", "area_ha": null, "tenure_type": "Multi-cell Mining Claim", "source": "Ontario MLAS operational claims (OGSEarth / LIO MapServer). Unofficial viewing data, not legal title.", "as_of": "2026-09-20", "role": "focus", "color": "#e8b040"}}, {"type": "Feature", "geometry": {"type": "Polygon", "coordinates": [[[-80.4125, 48.625], [-80.4125, 48.6208], [-80.3813, 48.6208], [-80.3813, 48.6292], [-80.4125, 48.6292], [-80.4125, 48.625]]]}, "properties": {"company_id": "enterprise-products-partners", "jurisdiction": "Ontario", "claim_id": "538645", "claim_name": null, "holder": "(100) GLOBEX MINING ENTERPRISES INC.", "status": "Active", "recorded_date": "2019-01-09", "anniversary_or_expiry": "2026-09-30", "area_ha": null, "tenure_type": "Multi-cell Mining Claim", "source": "Ontario MLAS operational claims (OGSEarth / LIO MapServer). Unofficial viewing data, not legal title.", "as_of": "2026-09-20", "role": "focus", "color": "#e8b040"}}, {"type": "Feature", "geometry": {"type": "Polygon", "coordinates": [[[-80.4188, 48.625], [-80.4188, 48.6208], [-80.4125, 48.6208], [-80.4125, 48.6292], [-80.4188, 48.6292], [-80.4188, 48.625]]]}, "properties": {"company_id": "enterprise-products-partners", "jurisdiction": "Ontario", "claim_id": "538646", "claim_name": null, "holder": "(100) GLOBEX MINING ENTERPRISES INC.", "status": "Active", "recorded_date": "2019-01-09", "anniversary_or_expiry": "2027-03-22", "area_ha": null, "tenure_type": "Multi-cell Mining Claim", "source": "Ontario MLAS operational claims (OGSEarth / LIO MapServer). Unofficial viewing data, not legal title.", "as_of": "2026-09-20", "role": "focus", "color": "#e8b040"}}, {"type": "Feature", "geometry": {"type": "Polygon", "coordinates": [[[-81.2938, 48.3625], [-81.2938, 48.3583], [-81.2875, 48.3583], [-81.2875, 48.3667], [-81.2938, 48.3667], [-81.2938, 48.3625]]]}, "properties": {"company_id": "enterprise-products-partners", "jurisdiction": "Ontario", "claim_id": "538647", "claim_name": null, "holder": "(100) GLOBEX MINING ENTERPRISES INC.", "status": "Active", "recorded_date": "2019-01-09", "anniversary_or_expiry": "2027-07-04", "area_ha": null, "tenure_type": "Multi-cell Mining Claim", "source": "Ontario MLAS operational claims (OGSEarth / LIO MapServer). Unofficial viewing data, not legal title.", "as_of": "2026-09-20", "role": "focus", "color": "#e8b040"}}, {"type": "Feature", "geometry": {"type": "Polygon", "coordinates": [[[-81.3063, 48.3625], [-81.3063, 48.3583], [-81.2938, 48.3583], [-81.2938, 48.3667], [-81.3063, 48.3667], [-81.3063, 48.3625]]]}, "properties": {"company_id": "enterprise-products-partners", "jurisdiction": "Ontario", "claim_id": "538648", "claim_name": null, "holder": "(100) GLOBEX MINING ENTERPRISES INC.", "status": "Active", "recorded_date": "2019-01-09", "anniversary_or_expiry": "2027-07-04", "area_ha": null, "tenure_type": "Multi-cell Mining Claim", "source": "Ontario MLAS operational claims (OGSEarth / LIO MapServer). Unofficial viewing data, not legal title.", "as_of": "2026-09-20", "role": "focus", "color": "#e8b040"}}, {"type": "Feature", "geometry": {"type": "Polygon", "coordinates": [[[-81.3125, 48.3667], [-81.3125, 48.3625], [-81.3063, 48.3625], [-81.3063, 48.3667], [-81.2875, 48.3667], [-81.2875, 48.375], [-81.3, 48.375], [-81.3, 48.3708], [-81.3125, 48.3708], [-81.3125, 48.3667]]]}, "properties": {"company_id": "enterprise-products-partners", "jurisdiction": "Ontario", "claim_id": "538649", "claim_name": null, "holder": "(100) GLOBEX MINING ENTERPRISES INC.", "status": "Active", "recorded_date": "2019-01-09", "anniversary_or_expiry": "2027-07-15", "area_ha": null, "tenure_type": "Multi-cell Mining Claim", "source": "Ontario MLAS operational claims (OGSEarth / LIO MapServer). Unofficial viewing data, not legal title.", "as_of": "2026-09-20", "role": "focus", "color": "#e8b040"}}, {"type": "Feature", "geometry": {"type": "Polygon", "coordinates": [[[-81.25, 48.375], [-81.2438, 48.375], [-81.2438, 48.3708], [-81.2375, 48.3708], [-81.2375, 48.3667], [-81.225, 48.3667], [-81.225, 48.3792], [-81.2375, 48.3792], [-81.2375, 48.3833], [-81.2438, 48.3833], [-81.2438, 48.3792], [-81.2563, 48.3792], [-81.2563, 48.375], [-81.25, 48.375]]]}, "properties": {"company_id": "enterprise-products-partners", "jurisdiction": "Ontario", "claim_id": "538650", "claim_name": null, "holder": "(100) GLOBEX MINING ENTERPRISES INC.", "status": "Active", "recorded_date": "2019-01-09", "anniversary_or_expiry": "2027-08-06", "area_ha": null, "tenure_type": "Multi-cell Mining Claim", "source": "Ontario MLAS operational claims (OGSEarth / LIO MapServer). Unofficial viewing data, not legal title.", "as_of": "2026-09-20", "role": "focus", "color": "#e8b040"}}, {"type": "Feature", "geometry": {"type": "Polygon", "coordinates": [[[-80.4625, 48.625], [-80.4625, 48.6208], [-80.4563, 48.6208], [-80.4563, 48.6292], [-80.4625, 48.6292], [-80.4625, 48.625]]]}, "properties": {"company_id": "enterprise-products-partners", "jurisdiction": "Ontario", "claim_id": "538652", "claim_name": null, "holder": "(100) GLOBEX MINING ENTERPRISES INC.", "status": "Active", "recorded_date": "2019-01-09", "anniversary_or_expiry": "2026-10-21", "area_ha": null, "tenure_type": "Multi-cell Mining Claim", "source": "Ontario MLAS operational claims (OGSEarth / LIO MapServer). Unofficial viewing data, not legal title.", "as_of": "2026-09-20", "role": "focus", "color": "#e8b040"}}, {"type": "Feature", "geometry": {"type": "Polygon", "coordinates": [[[-80.4625, 48.6167], [-80.4625, 48.6125], [-80.45, 48.6125], [-80.45, 48.6208], [-80.4625, 48.6208], [-80.4625, 48.6167]]]}, "properties": {"company_id": "enterprise-products-partners", "jurisdiction": "Ontario", "claim_id": "538653", "claim_name": null, "holder": "(100) GLOBEX MINING ENTERPRISES INC.", "status": "Active", "recorded_date": "2019-01-09", "anniversary_or_expiry": "2026-10-21", "area_ha": null, "tenure_type": "Multi-cell Mining Claim", "source": "Ontario MLAS operational claims (OGSEarth / LIO MapServer). Unofficial viewing data, not legal title.", "as_of": "2026-09-20", "role": "focus", "color": "#e8b040"}}, {"type": "Feature", "geometry": {"type": "Polygon", "coordinates": [[[-80.4688, 48.6167], [-80.4688, 48.6125], [-80.4625, 48.6125], [-80.4625, 48.6208], [-80.4688, 48.6208], [-80.4688, 48.6167]]]}, "properties": {"company_id": "enterprise-products-partners", "jurisdiction": "Ontario", "claim_id": "538654", "claim_name": null, "holder": "(100) GLOBEX MINING ENTERPRISES INC.", "status": "Active", "recorded_date": "2019-01-09", "anniversary_or_expiry": "2026-10-21", "area_ha": null, "tenure_type": "Multi-cell Mining Claim", "source": "Ontario MLAS operational claims (OGSEarth / LIO MapServer). Unofficial viewing data, not legal title.", "as_of": "2026-09-20", "role": "focus", "color": "#e8b040"}}, {"type": "Feature", "geometry": {"type": "Polygon", "coordinates": [[[-80.475, 48.625], [-80.475, 48.6208], [-80.4625, 48.6208], [-80.4625, 48.6292], [-80.475, 48.6292], [-80.475, 48.625]]]}, "properties": {"company_id": "enterprise-products-partners", "jurisdiction": "Ontario", "claim_id": "538655", "claim_name": null, "holder": "(100) GLOBEX MINING ENTERPRISES INC.", "status": "Active", "recorded_date": "2019-01-09", "anniversary_or_expiry": "2026-10-21", "area_ha": null, "tenure_type": "Multi-cell Mining Claim", "source": "Ontario MLAS operational claims (OGSEarth / LIO MapServer). Unofficial viewing data, not legal title.", "as_of": "2026-09-20", "role": "focus", "color": "#e8b040"}}, {"type": "Feature", "geometry": {"type": "Polygon", "coordinates": [[[-80.4813, 48.6167], [-80.4813, 48.6125], [-80.4688, 48.6125], [-80.4688, 48.6208], [-80.475, 48.6208], [-80.475, 48.625], [-80.4813, 48.625], [-80.4813, 48.6167]]]}, "properties": {"company_id": "enterprise-products-partners", "jurisdiction": "Ontario", "claim_id": "538656", "claim_name": null, "holder": "(100) GLOBEX MINING ENTERPRISES INC.", "status": "Active", "recorded_date": "2019-01-09", "anniversary_or_expiry": "2026-10-21", "area_ha": null, "tenure_type": "Multi-cell Mining Claim", "source": "Ontario MLAS operational claims (OGSEarth / LIO MapServer). Unofficial viewing data, not legal title.", "as_of": "2026-09-20", "role": "focus", "color": "#e8b040"}}, {"type": "Feature", "geometry": {"type": "Polygon", "coordinates": [[[-80.4438, 48.6125], [-80.4375, 48.6125], [-80.4375, 48.6167], [-80.45, 48.6167], [-80.45, 48.6125], [-80.4438, 48.6125]]]}, "properties": {"company_id": "enterprise-products-partners", "jurisdiction": "Ontario", "claim_id": "538657", "claim_name": null, "holder": "(100) GLOBEX MINING ENTERPRISES INC.", "status": "Active", "recorded_date": "2019-01-09", "anniversary_or_expiry": "2026-10-21", "area_ha": null, "tenure_type": "Multi-cell Mining Claim", "source": "Ontario MLAS operational claims (OGSEarth / LIO MapServer). Unofficial viewing data, not legal title.", "as_of": "2026-09-20", "role": "focus", "color": "#e8b040"}}, {"type": "Feature", "geometry": {"type": "Polygon", "coordinates": [[[-80.4688, 48.6292], [-80.4625, 48.6292], [-80.4625, 48.6333], [-80.475, 48.6333], [-80.475, 48.6292], [-80.4688, 48.6292]]]}, "properties": {"company_id": "enterprise-products-partners", "jurisdiction": "Ontario", "claim_id": "538658", "claim_name": null, "holder": "(100) GLOBEX MINING ENTERPRISES INC.", "status": "Active", "recorded_date": "2019-01-09", "anniversary_or_expiry": "2026-10-21", "area_ha": null, "tenure_type": "Multi-cell Mining Claim", "source": "Ontario MLAS operational claims (OGSEarth / LIO MapServer). Unofficial viewing data, not legal title.", "as_of": "2026-09-20", "role": "focus", "color": "#e8b040"}}, {"type": "Feature", "geometry": {"type": "Polygon", "coordinates": [[[-80.4688, 48.6333], [-80.4625, 48.6333], [-80.4625, 48.6375], [-80.475, 48.6375], [-80.475, 48.6333], [-80.4688, 48.6333]]]}, "properties": {"company_id": "enterprise-products-partners", "jurisdiction": "Ontario", "claim_id": "538659", "claim_name": null, "holder": "(100) GLOBEX MINING ENTERPRISES INC.", "status": "Active", "recorded_date": "2019-01-09", "anniversary_or_expiry": "2026-10-21", "area_ha": null, "tenure_type": "Multi-cell Mining Claim", "source": "Ontario MLAS operational claims (OGSEarth / LIO MapServer). Unofficial viewing data, not legal title.", "as_of": "2026-09-20", "role": "focus", "color": "#e8b040"}}, {"type": "Feature", "geometry": {"type": "Polygon", "coordinates": [[[-80.4438, 48.625], [-80.4438, 48.6208], [-80.4375, 48.6208], [-80.4375, 48.6333], [-80.45, 48.6333], [-80.45, 48.6292], [-80.4438, 48.6292], [-80.4438, 48.625]]]}, "properties": {"company_id": "enterprise-products-partners", "jurisdiction": "Ontario", "claim_id": "538660", "claim_name": null, "holder": "(100) GLOBEX MINING ENTERPRISES INC.", "status": "Active", "recorded_date": "2019-01-09", "anniversary_or_expiry": "2026-10-21", "area_ha": null, "tenure_type": "Multi-cell Mining Claim", "source": "Ontario MLAS operational claims (OGSEarth / LIO MapServer). Unofficial viewing data, not legal title.", "as_of": "2026-09-20", "role": "focus", "color": "#e8b040"}}, {"type": "Feature", "geometry": {"type": "Polygon", "coordinates": [[[-80.4375, 48.625], [-80.4375, 48.6208], [-80.4313, 48.6208], [-80.4313, 48.6333], [-80.4375, 48.6333], [-80.4375, 48.625]]]}, "properties": {"company_id": "enterprise-products-partners", "jurisdiction": "Ontario", "claim_id": "538661", "claim_name": null, "holder": "(100) GLOBEX MINING ENTERPRISES INC.", "status": "Active", "recorded_date": "2019-01-09", "anniversary_or_expiry": "2026-10-21", "area_ha": null, "tenure_type": "Multi-cell Mining Claim", "source": "Ontario MLAS operational claims (OGSEarth / LIO MapServer). Unofficial viewing data, not legal title.", "as_of": "2026-09-20", "role": "focus", "color": "#e8b040"}}, {"type": "Feature", "geometry": {"type": "Polygon", "coordinates": [[[-80.4313, 48.625], [-80.4313, 48.6208], [-80.425, 48.6208], [-80.425, 48.625], [-80.4188, 48.625], [-80.4188, 48.6292], [-80.425, 48.6292], [-80.425, 48.6333], [-80.4313, 48.6333], [-80.4313, 48.625]]]}, "properties": {"company_id": "enterprise-products-partners", "jurisdiction": "Ontario", "claim_id": "538662", "claim_name": null, "holder": "(100) GLOBEX MINING ENTERPRISES INC.", "status": "Active", "recorded_date": "2019-01-09", "anniversary_or_expiry": "2026-10-21", "area_ha": null, "tenure_type": "Multi-cell Mining Claim", "source": "Ontario MLAS operational claims (OGSEarth / LIO MapServer). Unofficial viewing data, not legal title.", "as_of": "2026-09-20", "role": "focus", "color": "#e8b040"}}, {"type": "Feature", "geometry": {"type": "Polygon", "coordinates": [[[-80.4813, 48.6375], [-80.4813, 48.6333], [-80.475, 48.6333], [-80.475, 48.6375], [-80.4625, 48.6375], [-80.4625, 48.6417], [-80.4813, 48.6417], [-80.4813, 48.6375]]]}, "properties": {"company_id": "enterprise-products-partners", "jurisdiction": "Ontario", "claim_id": "538712", "claim_name": null, "holder": "(100) GLOBEX MINING ENTERPRISES INC.", "status": "Active", "recorded_date": "2019-01-09", "anniversary_or_expiry": "2026-10-21", "area_ha": null, "tenure_type": "Multi-cell Mining Claim", "source": "Ontario MLAS operational claims (OGSEarth / LIO MapServer). Unofficial viewing data, not legal title.", "as_of": "2026-09-20", "role": "focus", "color": "#e8b040"}}, {"type": "Feature", "geometry": {"type": "Polygon", "coordinates": [[[-80.4875, 48.6333], [-80.4875, 48.6292], [-80.475, 48.6292], [-80.475, 48.6333], [-80.4813, 48.6333], [-80.4813, 48.6417], [-80.4875, 48.6417], [-80.4875, 48.6333]]]}, "properties": {"company_id": "enterprise-products-partners", "jurisdiction": "Ontario", "claim_id": "538802", "claim_name": null, "holder": "(100) GLOBEX MINING ENTERPRISES INC.", "status": "Active", "recorded_date": "2019-01-09", "anniversary_or_expiry": "2026-10-21", "area_ha": null, "tenure_type": "Multi-cell Mining Claim", "source": "Ontario MLAS operational claims (OGSEarth / LIO MapServer). Unofficial viewing data, not legal title.", "as_of": "2026-09-20", "role": "focus", "color": "#e8b040"}}, {"type": "Feature", "geometry": {"type": "Polygon", "coordinates": [[[-80.4938, 48.6333], [-80.4938, 48.6292], [-80.4875, 48.6292], [-80.4875, 48.6417], [-80.4938, 48.6417], [-80.4938, 48.6333]]]}, "properties": {"company_id": "enterprise-products-partners", "jurisdiction": "Ontario", "claim_id": "538803", "claim_name": null, "holder": "(100) GLOBEX MINING ENTERPRISES INC.", "status": "Active", "recorded_date": "2019-01-09", "anniversary_or_expiry": "2026-10-21", "area_ha": null, "tenure_type": "Multi-cell Mining Claim", "source": "Ontario MLAS operational claims (OGSEarth / LIO MapServer). Unofficial viewing data, not legal title.", "as_of": "2026-09-20", "role": "focus", "color": "#e8b040"}}, {"type": "Feature", "geometry": {"type": "Polygon", "coordinates": [[[-80.5063, 48.6375], [-80.4938, 48.6375], [-80.4938, 48.6417], [-80.5125, 48.6417], [-80.5125, 48.6375], [-80.5063, 48.6375]]]}, "properties": {"company_id": "enterprise-products-partners", "jurisdiction": "Ontario", "claim_id": "538804", "claim_name": null, "holder": "(100) GLOBEX MINING ENTERPRISES INC.", "status": "Active", "recorded_date": "2019-01-09", "anniversary_or_expiry": "2026-10-21", "area_ha": null, "tenure_type": "Multi-cell Mining Claim", "source": "Ontario MLAS operational claims (OGSEarth / LIO MapServer). Unofficial viewing data, not legal title.", "as_of": "2026-09-20", "role": "focus", "color": "#e8b040"}}, {"type": "Feature", "geometry": {"type": "Polygon", "coordinates": [[[-80.4313, 48.6125], [-80.4313, 48.6083], [-80.4188, 48.6083], [-80.4188, 48.6167], [-80.4313, 48.6167], [-80.4313, 48.6125]]]}, "properties": {"company_id": "enterprise-products-partners", "jurisdiction": "Ontario", "claim_id": "538805", "claim_name": null, "holder": "(100) GLOBEX MINING ENTERPRISES INC.", "status": "Active", "recorded_date": "2019-01-09", "anniversary_or_expiry": "2027-06-21", "area_ha": null, "tenure_type": "Multi-cell Mining Claim", "source": "Ontario MLAS operational claims (OGSEarth / LIO MapServer). Unofficial viewing data, not legal title.", "as_of": "2026-09-20", "role": "focus", "color": "#e8b040"}}, {"type": "Feature", "geometry": {"type": "Polygon", "coordinates": [[[-80.4375, 48.6125], [-80.4375, 48.6083], [-80.4313, 48.6083], [-80.4313, 48.6167], [-80.4375, 48.6167], [-80.4375, 48.6125]]]}, "properties": {"company_id": "enterprise-products-partners", "jurisdiction": "Ontario", "claim_id": "538806", "claim_name": null, "holder": "(100) GLOBEX MINING ENTERPRISES INC.", "status": "Active", "recorded_date": "2019-01-09", "anniversary_or_expiry": "2027-06-21", "area_ha": null, "tenure_type": "Multi-cell Mining Claim", "source": "Ontario MLAS operational claims (OGSEarth / LIO MapServer). Unofficial viewing data, not legal title.", "as_of": "2026-09-20", "role": "focus", "color": "#e8b040"}}, {"type": "Feature", "geometry": {"type": "Polygon", "coordinates": [[[-80.45, 48.6083], [-80.4375, 48.6083], [-80.4375, 48.6125], [-80.4563, 48.6125], [-80.4563, 48.6083], [-80.45, 48.6083]]]}, "properties": {"company_id": "enterprise-products-partners", "jurisdiction": "Ontario", "claim_id": "538857", "claim_name": null, "holder": "(100) GLOBEX MINING ENTERPRISES INC.", "status": "Active", "recorded_date": "2019-01-09", "anniversary_or_expiry": "2027-06-21", "area_ha": null, "tenure_type": "Multi-cell Mining Claim", "source": "Ontario MLAS operational claims (OGSEarth / LIO MapServer). Unofficial viewing data, not legal title.", "as_of": "2026-09-20", "role": "focus", "color": "#e8b040"}}, {"type": "Feature", "geometry": {"type": "Polygon", "coordinates": [[[-80.4438, 48.6333], [-80.425, 48.6333], [-80.425, 48.6417], [-80.4313, 48.6417], [-80.4313, 48.6375], [-80.45, 48.6375], [-80.45, 48.6333], [-80.4438, 48.6333]]]}, "properties": {"company_id": "enterprise-products-partners", "jurisdiction": "Ontario", "claim_id": "538858", "claim_name": null, "holder": "(100) GLOBEX MINING ENTERPRISES INC.", "status": "Active", "recorded_date": "2019-01-09", "anniversary_or_expiry": "2027-03-22", "area_ha": null, "tenure_type": "Multi-cell Mining Claim", "source": "Ontario MLAS operational claims (OGSEarth / LIO MapServer). Unofficial viewing data, not legal title.", "as_of": "2026-09-20", "role": "focus", "color": "#e8b040"}}, {"type": "Feature", "geometry": {"type": "Polygon", "coordinates": [[[-80.425, 48.6042], [-80.4188, 48.6042], [-80.4188, 48.6083], [-80.4313, 48.6083], [-80.4313, 48.6042], [-80.425, 48.6042]]]}, "properties": {"company_id": "enterprise-products-partners", "jurisdiction": "Ontario", "claim_id": "538859", "claim_name": null, "holder": "(100) GLOBEX MINING ENTERPRISES INC.", "status": "Active", "recorded_date": "2019-01-09", "anniversary_or_expiry": "2027-03-22", "area_ha": null, "tenure_type": "Multi-cell Mining Claim", "source": "Ontario MLAS operational claims (OGSEarth / LIO MapServer). Unofficial viewing data, not legal title.", "as_of": "2026-09-20", "role": "focus", "color": "#e8b040"}}, {"type": "Feature", "geometry": {"type": "Polygon", "coordinates": [[[-80.0125, 47.9375], [-80.0125, 47.9333], [-80.0063, 47.9333], [-80.0063, 47.925], [-79.9938, 47.925], [-79.9938, 47.9417], [-80.0125, 47.9417], [-80.0125, 47.9375]]]}, "properties": {"company_id": "enterprise-products-partners", "jurisdiction": "Ontario", "claim_id": "538895", "claim_name": null, "holder": "(100) GLOBEX MINING ENTERPRISES INC.", "status": "Active", "recorded_date": "2019-01-09", "anniversary_or_expiry": "2026-10-03", "area_ha": null, "tenure_type": "Multi-cell Mining Claim", "source": "Ontario MLAS operational claims (OGSEarth / LIO MapServer). Unofficial viewing data, not legal title.", "as_of": "2026-09-20", "role": "focus", "color": "#e8b040"}}, {"type": "Feature", "geometry": {"type": "Polygon", "coordinates": [[[-79.2438, 46.7833], [-79.2438, 46.7875], [-79.25, 46.7875], [-79.25, 46.7833], [-79.2438, 46.7833]]]}, "properties": {"company_id": "enterprise-products-partners", "jurisdiction": "Ontario", "claim_id": "549799", "claim_name": null, "holder": "(100) GLOBEX MINING ENTERPRISES INC.", "status": "Active", "recorded_date": "2019-05-10", "anniversary_or_expiry": "2027-05-10", "area_ha": null, "tenure_type": "Single Cell Mining Claim", "source": "Ontario MLAS operational claims (OGSEarth / LIO MapServer). Unofficial viewing data, not legal title.", "as_of": "2026-09-20", "role": "focus", "color": "#e8b040"}}, {"type": "Feature", "geometry": {"type": "Polygon", "coordinates": [[[-79.2375, 46.7833], [-79.2375, 46.7875], [-79.2438, 46.7875], [-79.2438, 46.7833], [-79.2375, 46.7833]]]}, "properties": {"company_id": "enterprise-products-partners", "jurisdiction": "Ontario", "claim_id": "549800", "claim_name": null, "holder": "(100) GLOBEX MINING ENTERPRISES INC.", "status": "Active", "recorded_date": "2019-05-10", "anniversary_or_expiry": "2027-05-10", "area_ha": null, "tenure_type": "Single Cell Mining Claim", "source": "Ontario MLAS operational claims (OGSEarth / LIO MapServer). Unofficial viewing data, not legal title.", "as_of": "2026-09-20", "role": "focus", "color": "#e8b040"}}, {"type": "Feature", "geometry": {"type": "Polygon", "coordinates": [[[-79.2313, 46.7833], [-79.2313, 46.7875], [-79.2375, 46.7875], [-79.2375, 46.7833], [-79.2313, 46.7833]]]}, "properties": {"company_id": "enterprise-products-partners", "jurisdiction": "Ontario", "claim_id": "549801", "claim_name": null, "holder": "(100) GLOBEX MINING ENTERPRISES INC.", "status": "Active", "recorded_date": "2019-05-10", "anniversary_or_expiry": "2027-05-10", "area_ha": null, "tenure_type": "Single Cell Mining Claim", "source": "Ontario MLAS operational claims (OGSEarth / LIO MapServer). Unofficial viewing data, not legal title.", "as_of": "2026-09-20", "role": "focus", "color": "#e8b040"}}, {"type": "Feature", "geometry": {"type": "Polygon", "coordinates": [[[-79.2438, 46.7792], [-79.2438, 46.7833], [-79.25, 46.7833], [-79.25, 46.7792], [-79.2438, 46.7792]]]}, "properties": {"company_id": "enterprise-products-partners", "jurisdiction": "Ontario", "claim_id": "549802", "claim_name": null, "holder": "(100) GLOBEX MINING ENTERPRISES INC.", "status": "Active", "recorded_date": "2019-05-10", "anniversary_or_expiry": "2027-05-10", "area_ha": null, "tenure_type": "Single Cell Mining Claim", "source": "Ontario MLAS operational claims (OGSEarth / LIO MapServer). Unofficial viewing data, not legal title.", "as_of": "2026-09-20", "role": "focus", "color": "#e8b040"}}, {"type": "Feature", "geometry": {"type": "Polygon", "coordinates": [[[-79.2375, 46.7792], [-79.2375, 46.7833], [-79.2438, 46.7833], [-79.2438, 46.7792], [-79.2375, 46.7792]]]}, "properties": {"company_id": "enterprise-products-partners", "jurisdiction": "Ontario", "claim_id": "549803", "claim_name": null, "holder": "(100) GLOBEX MINING ENTERPRISES INC.", "status": "Active", "recorded_date": "2019-05-10", "anniversary_or_expiry": "2027-05-10", "area_ha": null, "tenure_type": "Single Cell Mining Claim", "source": "Ontario MLAS operational claims (OGSEarth / LIO MapServer). Unofficial viewing data, not legal title.", "as_of": "2026-09-20", "role": "focus", "color": "#e8b040"}}, {"type": "Feature", "geometry": {"type": "Polygon", "coordinates": [[[-79.2313, 46.7792], [-79.2313, 46.7833], [-79.2375, 46.7833], [-79.2375, 46.7792], [-79.2313, 46.7792]]]}, "properties": {"company_id": "enterprise-products-partners", "jurisdiction": "Ontario", "claim_id": "549804", "claim_name": null, "holder": "(100) GLOBEX MINING ENTERPRISES INC.", "status": "Active", "recorded_date": "2019-05-10", "anniversary_or_expiry": "2027-05-10", "area_ha": null, "tenure_type": "Single Cell Mining Claim", "source": "Ontario MLAS operational claims (OGSEarth / LIO MapServer). Unofficial viewing data, not legal title.", "as_of": "2026-09-20", "role": "focus", "color": "#e8b040"}}, {"type": "Feature", "geometry": {"type": "Polygon", "coordinates": [[[-79.25, 46.7833], [-79.25, 46.7875], [-79.2563, 46.7875], [-79.2563, 46.7833], [-79.25, 46.7833]]]}, "properties": {"company_id": "enterprise-products-partners", "jurisdiction": "Ontario", "claim_id": "549810", "claim_name": null, "holder": "(100) GLOBEX MINING ENTERPRISES INC.", "status": "Active", "recorded_date": "2019-05-10", "anniversary_or_expiry": "2027-05-10", "area_ha": null, "tenure_type": "Single Cell Mining Claim", "source": "Ontario MLAS operational claims (OGSEarth / LIO MapServer). Unofficial viewing data, not legal title.", "as_of": "2026-09-20", "role": "focus", "color": "#e8b040"}}, {"type": "Feature", "geometry": {"type": "Polygon", "coordinates": [[[-79.25, 46.7792], [-79.25, 46.7833], [-79.2563, 46.7833], [-79.2563, 46.7792], [-79.25, 46.7792]]]}, "properties": {"company_id": "enterprise-products-partners", "jurisdiction": "Ontario", "claim_id": "549811", "claim_name": null, "holder": "(100) GLOBEX MINING ENTERPRISES INC.", "status": "Active", "recorded_date": "2019-05-10", "anniversary_or_expiry": "2027-05-10", "area_ha": null, "tenure_type": "Single Cell Mining Claim", "source": "Ontario MLAS operational claims (OGSEarth / LIO MapServer). Unofficial viewing data, not legal title.", "as_of": "2026-09-20", "role": "focus", "color": "#e8b040"}}, {"type": "Feature", "geometry": {"type": "Polygon", "coordinates": [[[-79.225, 46.7833], [-79.225, 46.7875], [-79.2313, 46.7875], [-79.2313, 46.7833], [-79.225, 46.7833]]]}, "properties": {"company_id": "enterprise-products-partners", "jurisdiction": "Ontario", "claim_id": "549813", "claim_name": null, "holder": "(100) GLOBEX MINING ENTERPRISES INC.", "status": "Active", "recorded_date": "2019-05-10", "anniversary_or_expiry": "2027-05-10", "area_ha": null, "tenure_type": "Single Cell Mining Claim", "source": "Ontario MLAS operational claims (OGSEarth / LIO MapServer). Unofficial viewing data, not legal title.", "as_of": "2026-09-20", "role": "focus", "color": "#e8b040"}}, {"type": "Feature", "geometry": {"type": "Polygon", "coordinates": [[[-79.1313, 46.6583], [-79.1313, 46.6625], [-79.1375, 46.6625], [-79.1375, 46.6583], [-79.1313, 46.6583]]]}, "properties": {"company_id": "enterprise-products-partners", "jurisdiction": "Ontario", "claim_id": "901314", "claim_name": null, "holder": "(100) GLOBEX MINING ENTERPRISES INC.", "status": "Active", "recorded_date": "2024-09-11", "anniversary_or_expiry": "2026-09-11", "area_ha": null, "tenure_type": "Single Cell Mining Claim", "source": "Ontario MLAS operational claims (OGSEarth / LIO MapServer). Unofficial viewing data, not legal title.", "as_of": "2026-09-20", "role": "focus", "color": "#e8b040"}}, {"type": "Feature", "geometry": {"type": "Polygon", "coordinates": [[[-79.125, 46.6583], [-79.125, 46.6625], [-79.1313, 46.6625], [-79.1313, 46.6583], [-79.125, 46.6583]]]}, "properties": {"company_id": "enterprise-products-partners", "jurisdiction": "Ontario", "claim_id": "901315", "claim_name": null, "holder": "(100) GLOBEX MINING ENTERPRISES INC.", "status": "Active", "recorded_date": "2024-09-11", "anniversary_or_expiry": "2026-09-11", "area_ha": null, "tenure_type": "Single Cell Mining Claim", "source": "Ontario MLAS operational claims (OGSEarth / LIO MapServer). Unofficial viewing data, not legal title.", "as_of": "2026-09-20", "role": "focus", "color": "#e8b040"}}, {"type": "Feature", "geometry": {"type": "Polygon", "coordinates": [[[-79.1313, 46.6542], [-79.1313, 46.6583], [-79.1375, 46.6583], [-79.1375, 46.6542], [-79.1313, 46.6542]]]}, "properties": {"company_id": "enterprise-products-partners", "jurisdiction": "Ontario", "claim_id": "901316", "claim_name": null, "holder": "(100) GLOBEX MINING ENTERPRISES INC.", "status": "Active", "recorded_date": "2024-09-11", "anniversary_or_expiry": "2026-09-11", "area_ha": null, "tenure_type": "Single Cell Mining Claim", "source": "Ontario MLAS operational claims (OGSEarth / LIO MapServer). Unofficial viewing data, not legal title.", "as_of": "2026-09-20", "role": "focus", "color": "#e8b040"}}, {"type": "Feature", "geometry": {"type": "Polygon", "coordinates": [[[-79.125, 46.6542], [-79.125, 46.6583], [-79.1313, 46.6583], [-79.1313, 46.6542], [-79.125, 46.6542]]]}, "properties": {"company_id": "enterprise-products-partners", "jurisdiction": "Ontario", "claim_id": "901317", "claim_name": null, "holder": "(100) GLOBEX MINING ENTERPRISES INC.", "status": "Active", "recorded_date": "2024-09-11", "anniversary_or_expiry": "2026-09-11", "area_ha": null, "tenure_type": "Single Cell Mining Claim", "source": "Ontario MLAS operational claims (OGSEarth / LIO MapServer). Unofficial viewing data, not legal title.", "as_of": "2026-09-20", "role": "focus", "color": "#e8b040"}}, {"type": "Feature", "geometry": {"type": "Polygon", "coordinates": [[[-79.1313, 46.65], [-79.1313, 46.6542], [-79.1375, 46.6542], [-79.1375, 46.65], [-79.1313, 46.65]]]}, "properties": {"company_id": "enterprise-products-partners", "jurisdiction": "Ontario", "claim_id": "901318", "claim_name": null, "holder": "(100) GLOBEX MINING ENTERPRISES INC.", "status": "Active", "recorded_date": "2024-09-11", "anniversary_or_expiry": "2026-09-11", "area_ha": null, "tenure_type": "Single Cell Mining Claim", "source": "Ontario MLAS operational claims (OGSEarth / LIO MapServer). Unofficial viewing data, not legal title.", "as_of": "2026-09-20", "role": "focus", "color": "#e8b040"}}, {"type": "Feature", "geometry": {"type": "Polygon", "coordinates": [[[-79.125, 46.65], [-79.125, 46.6542], [-79.1313, 46.6542], [-79.1313, 46.65], [-79.125, 46.65]]]}, "properties": {"company_id": "enterprise-products-partners", "jurisdiction": "Ontario", "claim_id": "901319", "claim_name": null, "holder": "(100) GLOBEX MINING ENTERPRISES INC.", "status": "Active", "recorded_date": "2024-09-11", "anniversary_or_expiry": "2026-09-11", "area_ha": null, "tenure_type": "Single Cell Mining Claim", "source": "Ontario MLAS operational claims (OGSEarth / LIO MapServer). Unofficial viewing data, not legal title.", "as_of": "2026-09-20", "role": "focus", "color": "#e8b040"}}, {"type": "Feature", "geometry": {"type": "Polygon", "coordinates": [[[-79.1313, 46.6458], [-79.1313, 46.65], [-79.1375, 46.65], [-79.1375, 46.6458], [-79.1313, 46.6458]]]}, "properties": {"company_id": "enterprise-products-partners", "jurisdiction": "Ontario", "claim_id": "901320", "claim_name": null, "holder": "(100) GLOBEX MINING ENTERPRISES INC.", "status": "Active", "recorded_date": "2024-09-11", "anniversary_or_expiry": "2026-09-11", "area_ha": null, "tenure_type": "Single Cell Mining Claim", "source": "Ontario MLAS operational claims (OGSEarth / LIO MapServer). Unofficial viewing data, not legal title.", "as_of": "2026-09-20", "role": "focus", "color": "#e8b040"}}, {"type": "Feature", "geometry": {"type": "Polygon", "coordinates": [[[-79.125, 46.6458], [-79.125, 46.65], [-79.1313, 46.65], [-79.1313, 46.6458], [-79.125, 46.6458]]]}, "properties": {"company_id": "enterprise-products-partners", "jurisdiction": "Ontario", "claim_id": "901321", "claim_name": null, "holder": "(100) GLOBEX MINING ENTERPRISES INC.", "status": "Active", "recorded_date": "2024-09-11", "anniversary_or_expiry": "2026-09-11", "area_ha": null, "tenure_type": "Single Cell Mining Claim", "source": "Ontario MLAS operational claims (OGSEarth / LIO MapServer). Unofficial viewing data, not legal title.", "as_of": "2026-09-20", "role": "focus", "color": "#e8b040"}}, {"type": "Feature", "geometry": {"type": "Polygon", "coordinates": [[[-79.1813, 46.7083], [-79.1813, 46.7125], [-79.1875, 46.7125], [-79.1875, 46.7083], [-79.1813, 46.7083]]]}, "properties": {"company_id": "enterprise-products-partners", "jurisdiction": "Ontario", "claim_id": "901329", "claim_name": null, "holder": "(100) GLOBEX MINING ENTERPRISES INC.", "status": "Active", "recorded_date": "2024-09-11", "anniversary_or_expiry": "2026-09-11", "area_ha": null, "tenure_type": "Single Cell Mining Claim", "source": "Ontario MLAS operational claims (OGSEarth / LIO MapServer). Unofficial viewing data, not legal title.", "as_of": "2026-09-20", "role": "focus", "color": "#e8b040"}}, {"type": "Feature", "geometry": {"type": "Polygon", "coordinates": [[[-79.1875, 46.7042], [-79.1875, 46.7083], [-79.1938, 46.7083], [-79.1938, 46.7042], [-79.1875, 46.7042]]]}, "properties": {"company_id": "enterprise-products-partners", "jurisdiction": "Ontario", "claim_id": "901330", "claim_name": null, "holder": "(100) GLOBEX MINING ENTERPRISES INC.", "status": "Active", "recorded_date": "2024-09-11", "anniversary_or_expiry": "2026-09-11", "area_ha": null, "tenure_type": "Single Cell Mining Claim", "source": "Ontario MLAS operational claims (OGSEarth / LIO MapServer). Unofficial viewing data, not legal title.", "as_of": "2026-09-20", "role": "focus", "color": "#e8b040"}}, {"type": "Feature", "geometry": {"type": "Polygon", "coordinates": [[[-79.1813, 46.7042], [-79.1813, 46.7083], [-79.1875, 46.7083], [-79.1875, 46.7042], [-79.1813, 46.7042]]]}, "properties": {"company_id": "enterprise-products-partners", "jurisdiction": "Ontario", "claim_id": "901331", "claim_name": null, "holder": "(100) GLOBEX MINING ENTERPRISES INC.", "status": "Active", "recorded_date": "2024-09-11", "anniversary_or_expiry": "2026-09-11", "area_ha": null, "tenure_type": "Single Cell Mining Claim", "source": "Ontario MLAS operational claims (OGSEarth / LIO MapServer). Unofficial viewing data, not legal title.", "as_of": "2026-09-20", "role": "focus", "color": "#e8b040"}}, {"type": "Feature", "geometry": {"type": "Polygon", "coordinates": [[[-79.2688, 46.7417], [-79.2688, 46.7458], [-79.275, 46.7458], [-79.275, 46.7417], [-79.2688, 46.7417]]]}, "properties": {"company_id": "enterprise-products-partners", "jurisdiction": "Ontario", "claim_id": "901337", "claim_name": null, "holder": "(100) GLOBEX MINING ENTERPRISES INC.", "status": "Active", "recorded_date": "2024-09-11", "anniversary_or_expiry": "2026-09-11", "area_ha": null, "tenure_type": "Single Cell Mining Claim", "source": "Ontario MLAS operational claims (OGSEarth / LIO MapServer). Unofficial viewing data, not legal title.", "as_of": "2026-09-20", "role": "focus", "color": "#e8b040"}}, {"type": "Feature", "geometry": {"type": "Polygon", "coordinates": [[[-80.425, 48.5792], [-80.425, 48.5833], [-80.4313, 48.5833], [-80.4313, 48.5792], [-80.425, 48.5792]]]}, "properties": {"company_id": "enterprise-products-partners", "jurisdiction": "Ontario", "claim_id": "919507", "claim_name": null, "holder": "(100) GLOBEX MINING ENTERPRISES INC.", "status": "Active", "recorded_date": "2025-01-09", "anniversary_or_expiry": "2027-01-09", "area_ha": null, "tenure_type": "Single Cell Mining Claim", "source": "Ontario MLAS operational claims (OGSEarth / LIO MapServer). Unofficial viewing data, not legal title.", "as_of": "2026-09-20", "role": "focus", "color": "#e8b040"}}, {"type": "Feature", "geometry": {"type": "Polygon", "coordinates": [[[-80.4188, 48.5792], [-80.4188, 48.5833], [-80.425, 48.5833], [-80.425, 48.5792], [-80.4188, 48.5792]]]}, "properties": {"company_id": "enterprise-products-partners", "jurisdiction": "Ontario", "claim_id": "919508", "claim_name": null, "holder": "(100) GLOBEX MINING ENTERPRISES INC.", "status": "Active", "recorded_date": "2025-01-09", "anniversary_or_expiry": "2027-01-09", "area_ha": null, "tenure_type": "Single Cell Mining Claim", "source": "Ontario MLAS operational claims (OGSEarth / LIO MapServer). Unofficial viewing data, not legal title.", "as_of": "2026-09-20", "role": "focus", "color": "#e8b040"}}, {"type": "Feature", "geometry": {"type": "Polygon", "coordinates": [[[-80.425, 48.6], [-80.425, 48.6042], [-80.4313, 48.6042], [-80.4313, 48.6], [-80.425, 48.6]]]}, "properties": {"company_id": "enterprise-products-partners", "jurisdiction": "Ontario", "claim_id": "919509", "claim_name": null, "holder": "(100) GLOBEX MINING ENTERPRISES INC.", "status": "Active", "recorded_date": "2025-01-09", "anniversary_or_expiry": "2027-01-09", "area_ha": null, "tenure_type": "Single Cell Mining Claim", "source": "Ontario MLAS operational claims (OGSEarth / LIO MapServer). Unofficial viewing data, not legal title.", "as_of": "2026-09-20", "role": "focus", "color": "#e8b040"}}, {"type": "Feature", "geometry": {"type": "Polygon", "coordinates": [[[-80.4188, 48.6], [-80.4188, 48.6042], [-80.425, 48.6042], [-80.425, 48.6], [-80.4188, 48.6]]]}, "properties": {"company_id": "enterprise-products-partners", "jurisdiction": "Ontario", "claim_id": "919510", "claim_name": null, "holder": "(100) GLOBEX MINING ENTERPRISES INC.", "status": "Active", "recorded_date": "2025-01-09", "anniversary_or_expiry": "2027-01-09", "area_ha": null, "tenure_type": "Single Cell Mining Claim", "source": "Ontario MLAS operational claims (OGSEarth / LIO MapServer). Unofficial viewing data, not legal title.", "as_of": "2026-09-20", "role": "focus", "color": "#e8b040"}}, {"type": "Feature", "geometry": {"type": "Polygon", "coordinates": [[[-80.425, 48.5958], [-80.425, 48.6], [-80.4313, 48.6], [-80.4313, 48.5958], [-80.425, 48.5958]]]}, "properties": {"company_id": "enterprise-products-partners", "jurisdiction": "Ontario", "claim_id": "919511", "claim_name": null, "holder": "(100) GLOBEX MINING ENTERPRISES INC.", "status": "Active", "recorded_date": "2025-01-09", "anniversary_or_expiry": "2027-01-09", "area_ha": null, "tenure_type": "Single Cell Mining Claim", "source": "Ontario MLAS operational claims (OGSEarth / LIO MapServer). Unofficial viewing data, not legal title.", "as_of": "2026-09-20", "role": "focus", "color": "#e8b040"}}, {"type": "Feature", "geometry": {"type": "Polygon", "coordinates": [[[-80.4188, 48.5958], [-80.4188, 48.6], [-80.425, 48.6], [-80.425, 48.5958], [-80.4188, 48.5958]]]}, "properties": {"company_id": "enterprise-products-partners", "jurisdiction": "Ontario", "claim_id": "919512", "claim_name": null, "holder": "(100) GLOBEX MINING ENTERPRISES INC.", "status": "Active", "recorded_date": "2025-01-09", "anniversary_or_expiry": "2027-01-09", "area_ha": null, "tenure_type": "Single Cell Mining Claim", "source": "Ontario MLAS operational claims (OGSEarth / LIO MapServer). Unofficial viewing data, not legal title.", "as_of": "2026-09-20", "role": "focus", "color": "#e8b040"}}, {"type": "Feature", "geometry": {"type": "Polygon", "coordinates": [[[-80.425, 48.5917], [-80.425, 48.5958], [-80.4313, 48.5958], [-80.4313, 48.5917], [-80.425, 48.5917]]]}, "properties": {"company_id": "enterprise-products-partners", "jurisdiction": "Ontario", "claim_id": "919513", "claim_name": null, "holder": "(100) GLOBEX MINING ENTERPRISES INC.", "status": "Active", "recorded_date": "2025-01-09", "anniversary_or_expiry": "2027-01-09", "area_ha": null, "tenure_type": "Single Cell Mining Claim", "source": "Ontario MLAS operational claims (OGSEarth / LIO MapServer). Unofficial viewing data, not legal title.", "as_of": "2026-09-20", "role": "focus", "color": "#e8b040"}}, {"type": "Feature", "geometry": {"type": "Polygon", "coordinates": [[[-80.4188, 48.5917], [-80.4188, 48.5958], [-80.425, 48.5958], [-80.425, 48.5917], [-80.4188, 48.5917]]]}, "properties": {"company_id": "enterprise-products-partners", "jurisdiction": "Ontario", "claim_id": "919514", "claim_name": null, "holder": "(100) GLOBEX MINING ENTERPRISES INC.", "status": "Active", "recorded_date": "2025-01-09", "anniversary_or_expiry": "2027-01-09", "area_ha": null, "tenure_type": "Single Cell Mining Claim", "source": "Ontario MLAS operational claims (OGSEarth / LIO MapServer). Unofficial viewing data, not legal title.", "as_of": "2026-09-20", "role": "focus", "color": "#e8b040"}}, {"type": "Feature", "geometry": {"type": "Polygon", "coordinates": [[[-80.425, 48.5875], [-80.425, 48.5917], [-80.4313, 48.5917], [-80.4313, 48.5875], [-80.425, 48.5875]]]}, "properties": {"company_id": "enterprise-products-partners", "jurisdiction": "Ontario", "claim_id": "919515", "claim_name": null, "holder": "(100) GLOBEX MINING ENTERPRISES INC.", "status": "Active", "recorded_date": "2025-01-09", "anniversary_or_expiry": "2027-01-09", "area_ha": null, "tenure_type": "Single Cell Mining Claim", "source": "Ontario MLAS operational claims (OGSEarth / LIO MapServer). Unofficial viewing data, not legal title.", "as_of": "2026-09-20", "role": "focus", "color": "#e8b040"}}, {"type": "Feature", "geometry": {"type": "Polygon", "coordinates": [[[-80.4188, 48.5875], [-80.4188, 48.5917], [-80.425, 48.5917], [-80.425, 48.5875], [-80.4188, 48.5875]]]}, "properties": {"company_id": "enterprise-products-partners", "jurisdiction": "Ontario", "claim_id": "919516", "claim_name": null, "holder": "(100) GLOBEX MINING ENTERPRISES INC.", "status": "Active", "recorded_date": "2025-01-09", "anniversary_or_expiry": "2027-01-09", "area_ha": null, "tenure_type": "Single Cell Mining Claim", "source": "Ontario MLAS operational claims (OGSEarth / LIO MapServer). Unofficial viewing data, not legal title.", "as_of": "2026-09-20", "role": "focus", "color": "#e8b040"}}, {"type": "Feature", "geometry": {"type": "Polygon", "coordinates": [[[-80.425, 48.5833], [-80.425, 48.5875], [-80.4313, 48.5875], [-80.4313, 48.5833], [-80.425, 48.5833]]]}, "properties": {"company_id": "enterprise-products-partners", "jurisdiction": "Ontario", "claim_id": "919517", "claim_name": null, "holder": "(100) GLOBEX MINING ENTERPRISES INC.", "status": "Active", "recorded_date": "2025-01-09", "anniversary_or_expiry": "2027-01-09", "area_ha": null, "tenure_type": "Single Cell Mining Claim", "source": "Ontario MLAS operational claims (OGSEarth / LIO MapServer). Unofficial viewing data, not legal title.", "as_of": "2026-09-20", "role": "focus", "color": "#e8b040"}}, {"type": "Feature", "geometry": {"type": "Polygon", "coordinates": [[[-80.4188, 48.5833], [-80.4188, 48.5875], [-80.425, 48.5875], [-80.425, 48.5833], [-80.4188, 48.5833]]]}, "properties": {"company_id": "enterprise-products-partners", "jurisdiction": "Ontario", "claim_id": "919518", "claim_name": null, "holder": "(100) GLOBEX MINING ENTERPRISES INC.", "status": "Active", "recorded_date": "2025-01-09", "anniversary_or_expiry": "2027-01-09", "area_ha": null, "tenure_type": "Single Cell Mining Claim", "source": "Ontario MLAS operational claims (OGSEarth / LIO MapServer). Unofficial viewing data, not legal title.", "as_of": "2026-09-20", "role": "focus", "color": "#e8b040"}}, {"type": "Feature", "geometry": {"type": "Polygon", "coordinates": [[[-80.4, 48.5833], [-80.4, 48.5875], [-80.4063, 48.5875], [-80.4063, 48.5833], [-80.4, 48.5833]]]}, "properties": {"company_id": "enterprise-products-partners", "jurisdiction": "Ontario", "claim_id": "940855", "claim_name": null, "holder": "(100) GLOBEX MINING ENTERPRISES INC.", "status": "Active", "recorded_date": "2025-03-27", "anniversary_or_expiry": "2027-03-27", "area_ha": null, "tenure_type": "Single Cell Mining Claim", "source": "Ontario MLAS operational claims (OGSEarth / LIO MapServer). Unofficial viewing data, not legal title.", "as_of": "2026-09-20", "role": "focus", "color": "#e8b040"}}, {"type": "Feature", "geometry": {"type": "Polygon", "coordinates": [[[-80.3938, 48.5792], [-80.3938, 48.5833], [-80.4, 48.5833], [-80.4, 48.5792], [-80.3938, 48.5792]]]}, "properties": {"company_id": "enterprise-products-partners", "jurisdiction": "Ontario", "claim_id": "940856", "claim_name": null, "holder": "(100) GLOBEX MINING ENTERPRISES INC.", "status": "Active", "recorded_date": "2025-03-27", "anniversary_or_expiry": "2027-03-27", "area_ha": null, "tenure_type": "Single Cell Mining Claim", "source": "Ontario MLAS operational claims (OGSEarth / LIO MapServer). Unofficial viewing data, not legal title.", "as_of": "2026-09-20", "role": "focus", "color": "#e8b040"}}, {"type": "Feature", "geometry": {"type": "Polygon", "coordinates": [[[-80.4, 48.5792], [-80.4, 48.5833], [-80.4063, 48.5833], [-80.4063, 48.5792], [-80.4, 48.5792]]]}, "properties": {"company_id": "enterprise-products-partners", "jurisdiction": "Ontario", "claim_id": "940857", "claim_name": null, "holder": "(100) GLOBEX MINING ENTERPRISES INC.", "status": "Active", "recorded_date": "2025-03-27", "anniversary_or_expiry": "2027-03-27", "area_ha": null, "tenure_type": "Single Cell Mining Claim", "source": "Ontario MLAS operational claims (OGSEarth / LIO MapServer). Unofficial viewing data, not legal title.", "as_of": "2026-09-20", "role": "focus", "color": "#e8b040"}}, {"type": "Feature", "geometry": {"type": "Polygon", "coordinates": [[[-80.4, 48.5875], [-80.4, 48.5917], [-80.4063, 48.5917], [-80.4063, 48.5875], [-80.4, 48.5875]]]}, "properties": {"company_id": "enterprise-products-partners", "jurisdiction": "Ontario", "claim_id": "940858", "claim_name": null, "holder": "(100) GLOBEX MINING ENTERPRISES INC.", "status": "Active", "recorded_date": "2025-03-27", "anniversary_or_expiry": "2027-03-27", "area_ha": null, "tenure_type": "Single Cell Mining Claim", "source": "Ontario MLAS operational claims (OGSEarth / LIO MapServer). Unofficial viewing data, not legal title.", "as_of": "2026-09-20", "role": "focus", "color": "#e8b040"}}, {"type": "Feature", "geometry": {"type": "Polygon", "coordinates": [[[-80.3938, 48.5833], [-80.3938, 48.5875], [-80.4, 48.5875], [-80.4, 48.5833], [-80.3938, 48.5833]]]}, "properties": {"company_id": "enterprise-products-partners", "jurisdiction": "Ontario", "claim_id": "940859", "claim_name": null, "holder": "(100) GLOBEX MINING ENTERPRISES INC.", "status": "Active", "recorded_date": "2025-03-27", "anniversary_or_expiry": "2027-03-27", "area_ha": null, "tenure_type": "Single Cell Mining Claim", "source": "Ontario MLAS operational claims (OGSEarth / LIO MapServer). Unofficial viewing data, not legal title.", "as_of": "2026-09-20", "role": "focus", "color": "#e8b040"}}, {"type": "Feature", "geometry": {"type": "Polygon", "coordinates": [[[-80.3938, 48.5875], [-80.3938, 48.5917], [-80.4, 48.5917], [-80.4, 48.5875], [-80.3938, 48.5875]]]}, "properties": {"company_id": "enterprise-products-partners", "jurisdiction": "Ontario", "claim_id": "940860", "claim_name": null, "holder": "(100) GLOBEX MINING ENTERPRISES INC.", "status": "Active", "recorded_date": "2025-03-27", "anniversary_or_expiry": "2027-03-27", "area_ha": null, "tenure_type": "Single Cell Mining Claim", "source": "Ontario MLAS operational claims (OGSEarth / LIO MapServer). Unofficial viewing data, not legal title.", "as_of": "2026-09-20", "role": "focus", "color": "#e8b040"}}, {"type": "Feature", "geometry": {"type": "Polygon", "coordinates": [[[-80.4375, 48.6042], [-80.4375, 48.6083], [-80.4438, 48.6083], [-80.4438, 48.6042], [-80.4375, 48.6042]]]}, "properties": {"company_id": "enterprise-products-partners", "jurisdiction": "Ontario", "claim_id": "942036", "claim_name": null, "holder": "(100) GLOBEX MINING ENTERPRISES INC.", "status": "Active", "recorded_date": "2025-04-08", "anniversary_or_expiry": "2027-04-08", "area_ha": null, "tenure_type": "Single Cell Mining Claim", "source": "Ontario MLAS operational claims (OGSEarth / LIO MapServer). Unofficial viewing data, not legal title.", "as_of": "2026-09-20", "role": "focus", "color": "#e8b040"}}, {"type": "Feature", "geometry": {"type": "Polygon", "coordinates": [[[-80.4313, 48.6042], [-80.4313, 48.6083], [-80.4375, 48.6083], [-80.4375, 48.6042], [-80.4313, 48.6042]]]}, "properties": {"company_id": "enterprise-products-partners", "jurisdiction": "Ontario", "claim_id": "942037", "claim_name": null, "holder": "(100) GLOBEX MINING ENTERPRISES INC.", "status": "Active", "recorded_date": "2025-04-08", "anniversary_or_expiry": "2027-04-08", "area_ha": null, "tenure_type": "Single Cell Mining Claim", "source": "Ontario MLAS operational claims (OGSEarth / LIO MapServer). Unofficial viewing data, not legal title.", "as_of": "2026-09-20", "role": "focus", "color": "#e8b040"}}, {"type": "Feature", "geometry": {"type": "Polygon", "coordinates": [[[-80.4375, 48.6], [-80.4375, 48.6042], [-80.4438, 48.6042], [-80.4438, 48.6], [-80.4375, 48.6]]]}, "properties": {"company_id": "enterprise-products-partners", "jurisdiction": "Ontario", "claim_id": "942038", "claim_name": null, "holder": "(100) GLOBEX MINING ENTERPRISES INC.", "status": "Active", "recorded_date": "2025-04-08", "anniversary_or_expiry": "2027-04-08", "area_ha": null, "tenure_type": "Single Cell Mining Claim", "source": "Ontario MLAS operational claims (OGSEarth / LIO MapServer). Unofficial viewing data, not legal title.", "as_of": "2026-09-20", "role": "focus", "color": "#e8b040"}}, {"type": "Feature", "geometry": {"type": "Polygon", "coordinates": [[[-80.4313, 48.6], [-80.4313, 48.6042], [-80.4375, 48.6042], [-80.4375, 48.6], [-80.4313, 48.6]]]}, "properties": {"company_id": "enterprise-products-partners", "jurisdiction": "Ontario", "claim_id": "942039", "claim_name": null, "holder": "(100) GLOBEX MINING ENTERPRISES INC.", "status": "Active", "recorded_date": "2025-04-08", "anniversary_or_expiry": "2027-04-08", "area_ha": null, "tenure_type": "Single Cell Mining Claim", "source": "Ontario MLAS operational claims (OGSEarth / LIO MapServer). Unofficial viewing data, not legal title.", "as_of": "2026-09-20", "role": "focus", "color": "#e8b040"}}, {"type": "Feature", "geometry": {"type": "Polygon", "coordinates": [[[-80.4063, 48.5917], [-80.4063, 48.5958], [-80.4125, 48.5958], [-80.4125, 48.5917], [-80.4063, 48.5917]]]}, "properties": {"company_id": "enterprise-products-partners", "jurisdiction": "Ontario", "claim_id": "942040", "claim_name": null, "holder": "(100) GLOBEX MINING ENTERPRISES INC.", "status": "Active", "recorded_date": "2025-04-08", "anniversary_or_expiry": "2027-04-08", "area_ha": null, "tenure_type": "Single Cell Mining Claim", "source": "Ontario MLAS operational claims (OGSEarth / LIO MapServer). Unofficial viewing data, not legal title.", "as_of": "2026-09-20", "role": "focus", "color": "#e8b040"}}, {"type": "Feature", "geometry": {"type": "Polygon", "coordinates": [[[-80.4063, 48.5875], [-80.4063, 48.5917], [-80.4125, 48.5917], [-80.4125, 48.5875], [-80.4063, 48.5875]]]}, "properties": {"company_id": "enterprise-products-partners", "jurisdiction": "Ontario", "claim_id": "942041", "claim_name": null, "holder": "(100) GLOBEX MINING ENTERPRISES INC.", "status": "Active", "recorded_date": "2025-04-08", "anniversary_or_expiry": "2027-04-08", "area_ha": null, "tenure_type": "Single Cell Mining Claim", "source": "Ontario MLAS operational claims (OGSEarth / LIO MapServer). Unofficial viewing data, not legal title.", "as_of": "2026-09-20", "role": "focus", "color": "#e8b040"}}, {"type": "Feature", "geometry": {"type": "Polygon", "coordinates": [[[-80.3938, 48.5917], [-80.3938, 48.5958], [-80.4, 48.5958], [-80.4, 48.5917], [-80.3938, 48.5917]]]}, "properties": {"company_id": "enterprise-products-partners", "jurisdiction": "Ontario", "claim_id": "942042", "claim_name": null, "holder": "(100) GLOBEX MINING ENTERPRISES INC.", "status": "Active", "recorded_date": "2025-04-08", "anniversary_or_expiry": "2027-04-08", "area_ha": null, "tenure_type": "Single Cell Mining Claim", "source": "Ontario MLAS operational claims (OGSEarth / LIO MapServer). Unofficial viewing data, not legal title.", "as_of": "2026-09-20", "role": "focus", "color": "#e8b040"}}, {"type": "Feature", "geometry": {"type": "Polygon", "coordinates": [[[-80.4063, 48.5833], [-80.4063, 48.5875], [-80.4125, 48.5875], [-80.4125, 48.5833], [-80.4063, 48.5833]]]}, "properties": {"company_id": "enterprise-products-partners", "jurisdiction": "Ontario", "claim_id": "942043", "claim_name": null, "holder": "(100) GLOBEX MINING ENTERPRISES INC.", "status": "Active", "recorded_date": "2025-04-08", "anniversary_or_expiry": "2027-04-08", "area_ha": null, "tenure_type": "Single Cell Mining Claim", "source": "Ontario MLAS operational claims (OGSEarth / LIO MapServer). Unofficial viewing data, not legal title.", "as_of": "2026-09-20", "role": "focus", "color": "#e8b040"}}, {"type": "Feature", "geometry": {"type": "Polygon", "coordinates": [[[-80.4, 48.5917], [-80.4, 48.5958], [-80.4063, 48.5958], [-80.4063, 48.5917], [-80.4, 48.5917]]]}, "properties": {"company_id": "enterprise-products-partners", "jurisdiction": "Ontario", "claim_id": "942044", "claim_name": null, "holder": "(100) GLOBEX MINING ENTERPRISES INC.", "status": "Active", "recorded_date": "2025-04-08", "anniversary_or_expiry": "2027-04-08", "area_ha": null, "tenure_type": "Single Cell Mining Claim", "source": "Ontario MLAS operational claims (OGSEarth / LIO MapServer). Unofficial viewing data, not legal title.", "as_of": "2026-09-20", "role": "focus", "color": "#e8b040"}}, {"type": "Feature", "geometry": {"type": "Polygon", "coordinates": [[[-79.275, 46.7417], [-79.275, 46.7458], [-79.2813, 46.7458], [-79.2813, 46.7417], [-79.275, 46.7417]]]}, "properties": {"company_id": "enterprise-products-partners", "jurisdiction": "Ontario", "claim_id": "958245", "claim_name": null, "holder": "(100) GLOBEX MINING ENTERPRISES INC.", "status": "Active", "recorded_date": "2025-07-31", "anniversary_or_expiry": "2027-07-31", "area_ha": null, "tenure_type": "Single Cell Mining Claim", "source": "Ontario MLAS operational claims (OGSEarth / LIO MapServer). Unofficial viewing data, not legal title.", "as_of": "2026-09-20", "role": "focus", "color": "#e8b040"}}, {"type": "Feature", "geometry": {"type": "Polygon", "coordinates": [[[-81.5188, 46.7625], [-81.5188, 46.7667], [-81.525, 46.7667], [-81.525, 46.7625], [-81.5188, 46.7625]]]}, "properties": {"company_id": "enterprise-products-partners", "jurisdiction": "Ontario", "claim_id": "1044558", "claim_name": null, "holder": "(100) GLOBEX MINING ENTERPRISES INC.", "status": "Active", "recorded_date": "2026-04-26", "anniversary_or_expiry": "2028-04-26", "area_ha": null, "tenure_type": "Single Cell Mining Claim", "source": "Ontario MLAS operational claims (OGSEarth / LIO MapServer). Unofficial viewing data, not legal title.", "as_of": "2026-09-20", "role": "focus", "color": "#e8b040"}}, {"type": "Feature", "geometry": {"type": "Polygon", "coordinates": [[[-81.5, 46.7625], [-81.5, 46.7667], [-81.5063, 46.7667], [-81.5063, 46.7625], [-81.5, 46.7625]]]}, "properties": {"company_id": "enterprise-products-partners", "jurisdiction": "Ontario", "claim_id": "1044559", "claim_name": null, "holder": "(100) GLOBEX MINING ENTERPRISES INC.", "status": "Active", "recorded_date": "2026-04-26", "anniversary_or_expiry": "2028-04-26", "area_ha": null, "tenure_type": "Single Cell Mining Claim", "source": "Ontario MLAS operational claims (OGSEarth / LIO MapServer). Unofficial viewing data, not legal title.", "as_of": "2026-09-20", "role": "focus", "color": "#e8b040"}}, {"type": "Feature", "geometry": {"type": "Polygon", "coordinates": [[[-81.5125, 46.7667], [-81.5125, 46.7708], [-81.5188, 46.7708], [-81.5188, 46.7667], [-81.5125, 46.7667]]]}, "properties": {"company_id": "enterprise-products-partners", "jurisdiction": "Ontario", "claim_id": "1044560", "claim_name": null, "holder": "(100) GLOBEX MINING ENTERPRISES INC.", "status": "Active", "recorded_date": "2026-04-26", "anniversary_or_expiry": "2028-04-26", "area_ha": null, "tenure_type": "Single Cell Mining Claim", "source": "Ontario MLAS operational claims (OGSEarth / LIO MapServer). Unofficial viewing data, not legal title.", "as_of": "2026-09-20", "role": "focus", "color": "#e8b040"}}, {"type": "Feature", "geometry": {"type": "Polygon", "coordinates": [[[-81.5063, 46.7625], [-81.5063, 46.7667], [-81.5125, 46.7667], [-81.5125, 46.7625], [-81.5063, 46.7625]]]}, "properties": {"company_id": "enterprise-products-partners", "jurisdiction": "Ontario", "claim_id": "1044561", "claim_name": null, "holder": "(100) GLOBEX MINING ENTERPRISES INC.", "status": "Active", "recorded_date": "2026-04-26", "anniversary_or_expiry": "2028-04-26", "area_ha": null, "tenure_type": "Single Cell Mining Claim", "source": "Ontario MLAS operational claims (OGSEarth / LIO MapServer). Unofficial viewing data, not legal title.", "as_of": "2026-09-20", "role": "focus", "color": "#e8b040"}}, {"type": "Feature", "geometry": {"type": "Polygon", "coordinates": [[[-81.5063, 46.7667], [-81.5063, 46.7708], [-81.5125, 46.7708], [-81.5125, 46.7667], [-81.5063, 46.7667]]]}, "properties": {"company_id": "enterprise-products-partners", "jurisdiction": "Ontario", "claim_id": "1044562", "claim_name": null, "holder": "(100) GLOBEX MINING ENTERPRISES INC.", "status": "Active", "recorded_date": "2026-04-26", "anniversary_or_expiry": "2028-04-26", "area_ha": null, "tenure_type": "Single Cell Mining Claim", "source": "Ontario MLAS operational claims (OGSEarth / LIO MapServer). Unofficial viewing data, not legal title.", "as_of": "2026-09-20", "role": "focus", "color": "#e8b040"}}, {"type": "Feature", "geometry": {"type": "Polygon", "coordinates": [[[-81.5063, 46.7708], [-81.5063, 46.775], [-81.5125, 46.775], [-81.5125, 46.7708], [-81.5063, 46.7708]]]}, "properties": {"company_id": "enterprise-products-partners", "jurisdiction": "Ontario", "claim_id": "1044563", "claim_name": null, "holder": "(100) GLOBEX MINING ENTERPRISES INC.", "status": "Active", "recorded_date": "2026-04-26", "anniversary_or_expiry": "2028-04-26", "area_ha": null, "tenure_type": "Single Cell Mining Claim", "source": "Ontario MLAS operational claims (OGSEarth / LIO MapServer). Unofficial viewing data, not legal title.", "as_of": "2026-09-20", "role": "focus", "color": "#e8b040"}}, {"type": "Feature", "geometry": {"type": "Polygon", "coordinates": [[[-81.5, 46.7667], [-81.5, 46.7708], [-81.5063, 46.7708], [-81.5063, 46.7667], [-81.5, 46.7667]]]}, "properties": {"company_id": "enterprise-products-partners", "jurisdiction": "Ontario", "claim_id": "1044564", "claim_name": null, "holder": "(100) GLOBEX MINING ENTERPRISES INC.", "status": "Active", "recorded_date": "2026-04-26", "anniversary_or_expiry": "2028-04-26", "area_ha": null, "tenure_type": "Single Cell Mining Claim", "source": "Ontario MLAS operational claims (OGSEarth / LIO MapServer). Unofficial viewing data, not legal title.", "as_of": "2026-09-20", "role": "focus", "color": "#e8b040"}}, {"type": "Feature", "geometry": {"type": "Polygon", "coordinates": [[[-81.5125, 46.7625], [-81.5125, 46.7667], [-81.5188, 46.7667], [-81.5188, 46.7625], [-81.5125, 46.7625]]]}, "properties": {"company_id": "enterprise-products-partners", "jurisdiction": "Ontario", "claim_id": "1044565", "claim_name": null, "holder": "(100) GLOBEX MINING ENTERPRISES INC.", "status": "Active", "recorded_date": "2026-04-26", "anniversary_or_expiry": "2028-04-26", "area_ha": null, "tenure_type": "Single Cell Mining Claim", "source": "Ontario MLAS operational claims (OGSEarth / LIO MapServer). Unofficial viewing data, not legal title.", "as_of": "2026-09-20", "role": "focus", "color": "#e8b040"}}, {"type": "Feature", "geometry": {"type": "Polygon", "coordinates": [[[-81.5188, 46.7708], [-81.5188, 46.775], [-81.525, 46.775], [-81.525, 46.7708], [-81.5188, 46.7708]]]}, "properties": {"company_id": "enterprise-products-partners", "jurisdiction": "Ontario", "claim_id": "1044566", "claim_name": null, "holder": "(100) GLOBEX MINING ENTERPRISES INC.", "status": "Active", "recorded_date": "2026-04-26", "anniversary_or_expiry": "2028-04-26", "area_ha": null, "tenure_type": "Single Cell Mining Claim", "source": "Ontario MLAS operational claims (OGSEarth / LIO MapServer). Unofficial viewing data, not legal title.", "as_of": "2026-09-20", "role": "focus", "color": "#e8b040"}}, {"type": "Feature", "geometry": {"type": "Polygon", "coordinates": [[[-81.5, 46.7708], [-81.5, 46.775], [-81.5063, 46.775], [-81.5063, 46.7708], [-81.5, 46.7708]]]}, "properties": {"company_id": "enterprise-products-partners", "jurisdiction": "Ontario", "claim_id": "1044567", "claim_name": null, "holder": "(100) GLOBEX MINING ENTERPRISES INC.", "status": "Active", "recorded_date": "2026-04-26", "anniversary_or_expiry": "2028-04-26", "area_ha": null, "tenure_type": "Single Cell Mining Claim", "source": "Ontario MLAS operational claims (OGSEarth / LIO MapServer). Unofficial viewing data, not legal title.", "as_of": "2026-09-20", "role": "focus", "color": "#e8b040"}}, {"type": "Feature", "geometry": {"type": "Polygon", "coordinates": [[[-81.5125, 46.7708], [-81.5125, 46.775], [-81.5188, 46.775], [-81.5188, 46.7708], [-81.5125, 46.7708]]]}, "properties": {"company_id": "enterprise-products-partners", "jurisdiction": "Ontario", "claim_id": "1044568", "claim_name": null, "holder": "(100) GLOBEX MINING ENTERPRISES INC.", "status": "Active", "recorded_date": "2026-04-26", "anniversary_or_expiry": "2028-04-26", "area_ha": null, "tenure_type": "Single Cell Mining Claim", "source": "Ontario MLAS operational claims (OGSEarth / LIO MapServer). Unofficial viewing data, not legal title.", "as_of": "2026-09-20", "role": "focus", "color": "#e8b040"}}, {"type": "Feature", "geometry": {"type": "Polygon", "coordinates": [[[-81.5188, 46.7667], [-81.5188, 46.7708], [-81.525, 46.7708], [-81.525, 46.7667], [-81.5188, 46.7667]]]}, "properties": {"company_id": "enterprise-products-partners", "jurisdiction": "Ontario", "claim_id": "1044569", "claim_name": null, "holder": "(100) GLOBEX MINING ENTERPRISES INC.", "status": "Active", "recorded_date": "2026-04-26", "anniversary_or_expiry": "2028-04-26", "area_ha": null, "tenure_type": "Single Cell Mining Claim", "source": "Ontario MLAS operational claims (OGSEarth / LIO MapServer). Unofficial viewing data, not legal title.", "as_of": "2026-09-20", "role": "focus", "color": "#e8b040"}}, {"type": "Feature", "geometry": {"type": "Polygon", "coordinates": [[[-94.3438, 49.725], [-94.3438, 49.7292], [-94.35, 49.7292], [-94.35, 49.725], [-94.3438, 49.725]]]}, "properties": {"company_id": "enterprise-products-partners", "jurisdiction": "Ontario", "claim_id": "1046372", "claim_name": null, "holder": "(100) GLOBEX MINING ENTERPRISES INC.", "status": "Active", "recorded_date": "2026-05-14", "anniversary_or_expiry": "2028-05-14", "area_ha": null, "tenure_type": "Single Cell Mining Claim", "source": "Ontario MLAS operational claims (OGSEarth / LIO MapServer). Unofficial viewing data, not legal title.", "as_of": "2026-09-20", "role": "focus", "color": "#e8b040"}}, {"type": "Feature", "geometry": {"type": "Polygon", "coordinates": [[[-94.3375, 49.7208], [-94.3375, 49.725], [-94.3438, 49.725], [-94.3438, 49.7208], [-94.3375, 49.7208]]]}, "properties": {"company_id": "enterprise-products-partners", "jurisdiction": "Ontario", "claim_id": "1048100", "claim_name": null, "holder": "(100) GLOBEX MINING ENTERPRISES INC.", "status": "Active", "recorded_date": "2026-06-01", "anniversary_or_expiry": "2028-06-01", "area_ha": null, "tenure_type": "Single Cell Mining Claim", "source": "Ontario MLAS operational claims (OGSEarth / LIO MapServer). Unofficial viewing data, not legal title.", "as_of": "2026-09-20", "role": "focus", "color": "#e8b040"}}, {"type": "Feature", "geometry": {"type": "Polygon", "coordinates": [[[-94.3438, 49.7208], [-94.3438, 49.725], [-94.35, 49.725], [-94.35, 49.7208], [-94.3438, 49.7208]]]}, "properties": {"company_id": "enterprise-products-partners", "jurisdiction": "Ontario", "claim_id": "1048101", "claim_name": null, "holder": "(100) GLOBEX MINING ENTERPRISES INC.", "status": "Active", "recorded_date": "2026-06-01", "anniversary_or_expiry": "2028-06-01", "area_ha": null, "tenure_type": "Single Cell Mining Claim", "source": "Ontario MLAS operational claims (OGSEarth / LIO MapServer). Unofficial viewing data, not legal title.", "as_of": "2026-09-20", "role": "focus", "color": "#e8b040"}}]}