{"type": "FeatureCollection", "features": [{"type": "Feature", "geometry": {"type": "Polygon", "coordinates": [[[-126.7517, 54.0874], [-126.7517, 54.0832], [-126.7392, 54.0832], [-126.7392, 54.0874], [-126.7329, 54.0874], [-126.7204, 54.0874], [-126.7204, 54.0832], [-126.6767, 54.0832], [-126.6767, 54.1041], [-126.7517, 54.1041], [-126.7517, 54.0874]]]}, "properties": {"company_id": "equity-metals", "jurisdiction": "British Columbia", "claim_id": 516670, "claim_name": null, "holder": "EQUITY METALS CORPORATION", "status": "Mineral", "recorded_date": "2005-07-11", "anniversary_or_expiry": "2034-10-21", "area_ha": 1080.999, "tenure_type": "Mineral", "source": "BC MTA Mineral, Placer and Coal Tenure Spatial View (BCGW). Open Government Licence - British Columbia. Not legal title.", "as_of": "2026-09-20", "role": "focus", "color": "#e8b040"}}, {"type": "Feature", "geometry": {"type": "Polygon", "coordinates": [[[-126.7517, 54.0707], [-126.7517, 54.0666], [-126.7204, 54.0666], [-126.7204, 54.0624], [-126.6767, 54.0624], [-126.6767, 54.0832], [-126.7267, 54.0832], [-126.7267, 54.0749], [-126.7329, 54.0749], [-126.7329, 54.0832], [-126.7517, 54.0832], [-126.7517, 54.0707]]]}, "properties": {"company_id": "equity-metals", "jurisdiction": "British Columbia", "claim_id": 516671, "claim_name": null, "holder": "EQUITY METALS CORPORATION", "status": "Mineral", "recorded_date": "2005-07-11", "anniversary_or_expiry": "2034-10-21", "area_ha": 1005.5830000000001, "tenure_type": "Mineral", "source": "BC MTA Mineral, Placer and Coal Tenure Spatial View (BCGW). Open Government Licence - British Columbia. Not legal title.", "as_of": "2026-09-20", "role": "focus", "color": "#e8b040"}}, {"type": "Feature", "geometry": {"type": "Polygon", "coordinates": [[[-126.7517, 54.0499], [-126.7517, 54.0457], [-126.6767, 54.0457], [-126.6767, 54.0624], [-126.7204, 54.0624], [-126.7204, 54.0666], [-126.7517, 54.0666], [-126.7517, 54.0499]]]}, "properties": {"company_id": "equity-metals", "jurisdiction": "British Columbia", "claim_id": 516672, "claim_name": null, "holder": "EQUITY METALS CORPORATION", "status": "Mineral", "recorded_date": "2005-07-11", "anniversary_or_expiry": "2034-10-21", "area_ha": 1006.028, "tenure_type": "Mineral", "source": "BC MTA Mineral, Placer and Coal Tenure Spatial View (BCGW). Open Government Licence - British Columbia. Not legal title.", "as_of": "2026-09-20", "role": "focus", "color": "#e8b040"}}, {"type": "Feature", "geometry": {"type": "Polygon", "coordinates": [[[-126.7329, 54.0791], [-126.7329, 54.0749], [-126.7267, 54.0749], [-126.7267, 54.0832], [-126.7204, 54.0832], [-126.7204, 54.0874], [-126.7392, 54.0874], [-126.7392, 54.0832], [-126.7329, 54.0832], [-126.7329, 54.0791]]]}, "properties": {"company_id": "equity-metals", "jurisdiction": "British Columbia", "claim_id": 525871, "claim_name": "SQ CGS", "holder": "EQUITY METALS CORPORATION", "status": "Mineral", "recorded_date": "2006-01-19", "anniversary_or_expiry": "2034-10-21", "area_ha": 94.849, "tenure_type": "Mineral", "source": "BC MTA Mineral, Placer and Coal Tenure Spatial View (BCGW). Open Government Licence - British Columbia. Not legal title.", "as_of": "2026-09-20", "role": "focus", "color": "#e8b040"}}]}