{"type": "FeatureCollection", "features": [{"type": "Feature", "geometry": {"type": "Polygon", "coordinates": [[[-83.3375, 53.5375], [-83.3375, 53.5417], [-83.3438, 53.5417], [-83.3438, 53.5375], [-83.3375, 53.5375]]]}, "properties": {"company_id": "fancamp-exploration", "jurisdiction": "Ontario", "claim_id": "109078", "claim_name": null, "holder": "(100) FANCAMP EXPLORATION LTD.", "status": "Active", "recorded_date": "2018-04-10", "anniversary_or_expiry": "2029-04-21", "area_ha": null, "tenure_type": "Single Cell Mining Claim", "source": "Ontario MLAS operational claims (OGSEarth / LIO MapServer). Unofficial viewing data, not legal title.", "as_of": "2026-09-20", "role": "focus", "color": "#e8b040"}}, {"type": "Feature", "geometry": {"type": "Polygon", "coordinates": [[[-83.35, 53.5458], [-83.35, 53.55], [-83.3563, 53.55], [-83.3563, 53.5458], [-83.35, 53.5458]]]}, "properties": {"company_id": "fancamp-exploration", "jurisdiction": "Ontario", "claim_id": "109136", "claim_name": null, "holder": "(100) FANCAMP EXPLORATION LTD.", "status": "Active", "recorded_date": "2018-04-10", "anniversary_or_expiry": "2029-04-21", "area_ha": null, "tenure_type": "Single Cell Mining Claim", "source": "Ontario MLAS operational claims (OGSEarth / LIO MapServer). Unofficial viewing data, not legal title.", "as_of": "2026-09-20", "role": "focus", "color": "#e8b040"}}, {"type": "Feature", "geometry": {"type": "Polygon", "coordinates": [[[-83.3375, 53.5417], [-83.3375, 53.5458], [-83.3438, 53.5458], [-83.3438, 53.5417], [-83.3375, 53.5417]]]}, "properties": {"company_id": "fancamp-exploration", "jurisdiction": "Ontario", "claim_id": "109137", "claim_name": null, "holder": "(100) FANCAMP EXPLORATION LTD.", "status": "Active", "recorded_date": "2018-04-10", "anniversary_or_expiry": "2029-04-21", "area_ha": null, "tenure_type": "Single Cell Mining Claim", "source": "Ontario MLAS operational claims (OGSEarth / LIO MapServer). Unofficial viewing data, not legal title.", "as_of": "2026-09-20", "role": "focus", "color": "#e8b040"}}, {"type": "Feature", "geometry": {"type": "Polygon", "coordinates": [[[-83.2875, 53.5458], [-83.2875, 53.55], [-83.2938, 53.55], [-83.2938, 53.5458], [-83.2875, 53.5458]]]}, "properties": {"company_id": "fancamp-exploration", "jurisdiction": "Ontario", "claim_id": "110274", "claim_name": null, "holder": "(100) FANCAMP EXPLORATION LTD.", "status": "Active", "recorded_date": "2018-04-10", "anniversary_or_expiry": "2029-04-21", "area_ha": null, "tenure_type": "Single Cell Mining Claim", "source": "Ontario MLAS operational claims (OGSEarth / LIO MapServer). Unofficial viewing data, not legal title.", "as_of": "2026-09-20", "role": "focus", "color": "#e8b040"}}, {"type": "Feature", "geometry": {"type": "Polygon", "coordinates": [[[-83.3063, 53.5417], [-83.3063, 53.5458], [-83.3125, 53.5458], [-83.3125, 53.5417], [-83.3063, 53.5417]]]}, "properties": {"company_id": "fancamp-exploration", "jurisdiction": "Ontario", "claim_id": "110275", "claim_name": null, "holder": "(100) FANCAMP EXPLORATION LTD.", "status": "Active", "recorded_date": "2018-04-10", "anniversary_or_expiry": "2029-04-21", "area_ha": null, "tenure_type": "Single Cell Mining Claim", "source": "Ontario MLAS operational claims (OGSEarth / LIO MapServer). Unofficial viewing data, not legal title.", "as_of": "2026-09-20", "role": "focus", "color": "#e8b040"}}, {"type": "Feature", "geometry": {"type": "Polygon", "coordinates": [[[-83.2875, 53.5375], [-83.2875, 53.5417], [-83.2938, 53.5417], [-83.2938, 53.5375], [-83.2875, 53.5375]]]}, "properties": {"company_id": "fancamp-exploration", "jurisdiction": "Ontario", "claim_id": "110276", "claim_name": null, "holder": "(100) FANCAMP EXPLORATION LTD.", "status": "Active", "recorded_date": "2018-04-10", "anniversary_or_expiry": "2029-04-21", "area_ha": null, "tenure_type": "Single Cell Mining Claim", "source": "Ontario MLAS operational claims (OGSEarth / LIO MapServer). Unofficial viewing data, not legal title.", "as_of": "2026-09-20", "role": "focus", "color": "#e8b040"}}, {"type": "Feature", "geometry": {"type": "Polygon", "coordinates": [[[-83.2875, 53.5542], [-83.2875, 53.5583], [-83.2938, 53.5583], [-83.2938, 53.5542], [-83.2875, 53.5542]]]}, "properties": {"company_id": "fancamp-exploration", "jurisdiction": "Ontario", "claim_id": "110546", "claim_name": null, "holder": "(100) FANCAMP EXPLORATION LTD.", "status": "Active", "recorded_date": "2018-04-10", "anniversary_or_expiry": "2029-04-21", "area_ha": null, "tenure_type": "Single Cell Mining Claim", "source": "Ontario MLAS operational claims (OGSEarth / LIO MapServer). Unofficial viewing data, not legal title.", "as_of": "2026-09-20", "role": "focus", "color": "#e8b040"}}, {"type": "Feature", "geometry": {"type": "Polygon", "coordinates": [[[-83.3063, 53.5583], [-83.3063, 53.5625], [-83.3125, 53.5625], [-83.3125, 53.5583], [-83.3063, 53.5583]]]}, "properties": {"company_id": "fancamp-exploration", "jurisdiction": "Ontario", "claim_id": "114462", "claim_name": null, "holder": "(100) FANCAMP EXPLORATION LTD.", "status": "Active", "recorded_date": "2018-04-10", "anniversary_or_expiry": "2029-04-21", "area_ha": null, "tenure_type": "Single Cell Mining Claim", "source": "Ontario MLAS operational claims (OGSEarth / LIO MapServer). Unofficial viewing data, not legal title.", "as_of": "2026-09-20", "role": "focus", "color": "#e8b040"}}, {"type": "Feature", "geometry": {"type": "Polygon", "coordinates": [[[-83.3563, 53.575], [-83.3563, 53.5792], [-83.3625, 53.5792], [-83.3625, 53.575], [-83.3563, 53.575]]]}, "properties": {"company_id": "fancamp-exploration", "jurisdiction": "Ontario", "claim_id": "114051", "claim_name": null, "holder": "(100) FANCAMP EXPLORATION LTD.", "status": "Active", "recorded_date": "2018-04-10", "anniversary_or_expiry": "2029-04-21", "area_ha": null, "tenure_type": "Single Cell Mining Claim", "source": "Ontario MLAS operational claims (OGSEarth / LIO MapServer). Unofficial viewing data, not legal title.", "as_of": "2026-09-20", "role": "focus", "color": "#e8b040"}}, {"type": "Feature", "geometry": {"type": "Polygon", "coordinates": [[[-83.3, 53.55], [-83.3, 53.5542], [-83.3063, 53.5542], [-83.3063, 53.55], [-83.3, 53.55]]]}, "properties": {"company_id": "fancamp-exploration", "jurisdiction": "Ontario", "claim_id": "122293", "claim_name": null, "holder": "(100) FANCAMP EXPLORATION LTD.", "status": "Active", "recorded_date": "2018-04-10", "anniversary_or_expiry": "2029-04-21", "area_ha": null, "tenure_type": "Single Cell Mining Claim", "source": "Ontario MLAS operational claims (OGSEarth / LIO MapServer). Unofficial viewing data, not legal title.", "as_of": "2026-09-20", "role": "focus", "color": "#e8b040"}}, {"type": "Feature", "geometry": {"type": "Polygon", "coordinates": [[[-83.3, 53.5458], [-83.3, 53.55], [-83.3063, 53.55], [-83.3063, 53.5458], [-83.3, 53.5458]]]}, "properties": {"company_id": "fancamp-exploration", "jurisdiction": "Ontario", "claim_id": "122294", "claim_name": null, "holder": "(100) FANCAMP EXPLORATION LTD.", "status": "Active", "recorded_date": "2018-04-10", "anniversary_or_expiry": "2029-04-21", "area_ha": null, "tenure_type": "Single Cell Mining Claim", "source": "Ontario MLAS operational claims (OGSEarth / LIO MapServer). Unofficial viewing data, not legal title.", "as_of": "2026-09-20", "role": "focus", "color": "#e8b040"}}, {"type": "Feature", "geometry": {"type": "Polygon", "coordinates": [[[-83.2813, 53.5417], [-83.2813, 53.5458], [-83.2875, 53.5458], [-83.2875, 53.5417], [-83.2813, 53.5417]]]}, "properties": {"company_id": "fancamp-exploration", "jurisdiction": "Ontario", "claim_id": "122295", "claim_name": null, "holder": "(100) FANCAMP EXPLORATION LTD.", "status": "Active", "recorded_date": "2018-04-10", "anniversary_or_expiry": "2029-04-21", "area_ha": null, "tenure_type": "Single Cell Mining Claim", "source": "Ontario MLAS operational claims (OGSEarth / LIO MapServer). Unofficial viewing data, not legal title.", "as_of": "2026-09-20", "role": "focus", "color": "#e8b040"}}, {"type": "Feature", "geometry": {"type": "Polygon", "coordinates": [[[-83.3313, 53.5583], [-83.3313, 53.5625], [-83.3375, 53.5625], [-83.3375, 53.5583], [-83.3313, 53.5583]]]}, "properties": {"company_id": "fancamp-exploration", "jurisdiction": "Ontario", "claim_id": "129408", "claim_name": null, "holder": "(100) FANCAMP EXPLORATION LTD.", "status": "Active", "recorded_date": "2018-04-10", "anniversary_or_expiry": "2029-04-21", "area_ha": null, "tenure_type": "Single Cell Mining Claim", "source": "Ontario MLAS operational claims (OGSEarth / LIO MapServer). Unofficial viewing data, not legal title.", "as_of": "2026-09-20", "role": "focus", "color": "#e8b040"}}, {"type": "Feature", "geometry": {"type": "Polygon", "coordinates": [[[-83.3313, 53.5375], [-83.3313, 53.5417], [-83.3375, 53.5417], [-83.3375, 53.5375], [-83.3313, 53.5375]]]}, "properties": {"company_id": "fancamp-exploration", "jurisdiction": "Ontario", "claim_id": "131701", "claim_name": null, "holder": "(100) FANCAMP EXPLORATION LTD.", "status": "Active", "recorded_date": "2018-04-10", "anniversary_or_expiry": "2029-04-21", "area_ha": null, "tenure_type": "Single Cell Mining Claim", "source": "Ontario MLAS operational claims (OGSEarth / LIO MapServer). Unofficial viewing data, not legal title.", "as_of": "2026-09-20", "role": "focus", "color": "#e8b040"}}, {"type": "Feature", "geometry": {"type": "Polygon", "coordinates": [[[-83.3563, 53.5375], [-83.3563, 53.5417], [-83.3625, 53.5417], [-83.3625, 53.5375], [-83.3563, 53.5375]]]}, "properties": {"company_id": "fancamp-exploration", "jurisdiction": "Ontario", "claim_id": "131702", "claim_name": null, "holder": "(100) FANCAMP EXPLORATION LTD.", "status": "Active", "recorded_date": "2018-04-10", "anniversary_or_expiry": "2029-04-21", "area_ha": null, "tenure_type": "Single Cell Mining Claim", "source": "Ontario MLAS operational claims (OGSEarth / LIO MapServer). Unofficial viewing data, not legal title.", "as_of": "2026-09-20", "role": "focus", "color": "#e8b040"}}, {"type": "Feature", "geometry": {"type": "Polygon", "coordinates": [[[-83.3125, 53.5542], [-83.3125, 53.5583], [-83.3188, 53.5583], [-83.3188, 53.5542], [-83.3125, 53.5542]]]}, "properties": {"company_id": "fancamp-exploration", "jurisdiction": "Ontario", "claim_id": "131964", "claim_name": null, "holder": "(100) FANCAMP EXPLORATION LTD.", "status": "Active", "recorded_date": "2018-04-10", "anniversary_or_expiry": "2029-04-21", "area_ha": null, "tenure_type": "Single Cell Mining Claim", "source": "Ontario MLAS operational claims (OGSEarth / LIO MapServer). Unofficial viewing data, not legal title.", "as_of": "2026-09-20", "role": "focus", "color": "#e8b040"}}, {"type": "Feature", "geometry": {"type": "Polygon", "coordinates": [[[-83.3188, 53.5708], [-83.3188, 53.575], [-83.325, 53.575], [-83.325, 53.5708], [-83.3188, 53.5708]]]}, "properties": {"company_id": "fancamp-exploration", "jurisdiction": "Ontario", "claim_id": "132797", "claim_name": null, "holder": "(100) FANCAMP EXPLORATION LTD.", "status": "Active", "recorded_date": "2018-04-10", "anniversary_or_expiry": "2029-04-21", "area_ha": null, "tenure_type": "Single Cell Mining Claim", "source": "Ontario MLAS operational claims (OGSEarth / LIO MapServer). Unofficial viewing data, not legal title.", "as_of": "2026-09-20", "role": "focus", "color": "#e8b040"}}, {"type": "Feature", "geometry": {"type": "Polygon", "coordinates": [[[-83.3313, 53.5417], [-83.3313, 53.5458], [-83.3375, 53.5458], [-83.3375, 53.5417], [-83.3313, 53.5417]]]}, "properties": {"company_id": "fancamp-exploration", "jurisdiction": "Ontario", "claim_id": "132274", "claim_name": null, "holder": "(100) FANCAMP EXPLORATION LTD.", "status": "Active", "recorded_date": "2018-04-10", "anniversary_or_expiry": "2029-04-21", "area_ha": null, "tenure_type": "Single Cell Mining Claim", "source": "Ontario MLAS operational claims (OGSEarth / LIO MapServer). Unofficial viewing data, not legal title.", "as_of": "2026-09-20", "role": "focus", "color": "#e8b040"}}, {"type": "Feature", "geometry": {"type": "Polygon", "coordinates": [[[-83.3063, 53.5375], [-83.3063, 53.5417], [-83.3125, 53.5417], [-83.3125, 53.5375], [-83.3063, 53.5375]]]}, "properties": {"company_id": "fancamp-exploration", "jurisdiction": "Ontario", "claim_id": "135068", "claim_name": null, "holder": "(100) FANCAMP EXPLORATION LTD.", "status": "Active", "recorded_date": "2018-04-10", "anniversary_or_expiry": "2029-04-21", "area_ha": null, "tenure_type": "Single Cell Mining Claim", "source": "Ontario MLAS operational claims (OGSEarth / LIO MapServer). Unofficial viewing data, not legal title.", "as_of": "2026-09-20", "role": "focus", "color": "#e8b040"}}, {"type": "Feature", "geometry": {"type": "Polygon", "coordinates": [[[-83.2938, 53.5542], [-83.2938, 53.5583], [-83.3, 53.5583], [-83.3, 53.5542], [-83.2938, 53.5542]]]}, "properties": {"company_id": "fancamp-exploration", "jurisdiction": "Ontario", "claim_id": "136332", "claim_name": null, "holder": "(100) FANCAMP EXPLORATION LTD.", "status": "Active", "recorded_date": "2018-04-10", "anniversary_or_expiry": "2029-04-21", "area_ha": null, "tenure_type": "Single Cell Mining Claim", "source": "Ontario MLAS operational claims (OGSEarth / LIO MapServer). Unofficial viewing data, not legal title.", "as_of": "2026-09-20", "role": "focus", "color": "#e8b040"}}, {"type": "Feature", "geometry": {"type": "Polygon", "coordinates": [[[-83.2875, 53.55], [-83.2875, 53.5542], [-83.2938, 53.5542], [-83.2938, 53.55], [-83.2875, 53.55]]]}, "properties": {"company_id": "fancamp-exploration", "jurisdiction": "Ontario", "claim_id": "136333", "claim_name": null, "holder": "(100) FANCAMP EXPLORATION LTD.", "status": "Active", "recorded_date": "2018-04-10", "anniversary_or_expiry": "2029-04-21", "area_ha": null, "tenure_type": "Single Cell Mining Claim", "source": "Ontario MLAS operational claims (OGSEarth / LIO MapServer). Unofficial viewing data, not legal title.", "as_of": "2026-09-20", "role": "focus", "color": "#e8b040"}}, {"type": "Feature", "geometry": {"type": "Polygon", "coordinates": [[[-83.35, 53.5583], [-83.35, 53.5625], [-83.3563, 53.5625], [-83.3563, 53.5583], [-83.35, 53.5583]]]}, "properties": {"company_id": "fancamp-exploration", "jurisdiction": "Ontario", "claim_id": "140953", "claim_name": null, "holder": "(100) FANCAMP EXPLORATION LTD.", "status": "Active", "recorded_date": "2018-04-10", "anniversary_or_expiry": "2029-04-21", "area_ha": null, "tenure_type": "Single Cell Mining Claim", "source": "Ontario MLAS operational claims (OGSEarth / LIO MapServer). Unofficial viewing data, not legal title.", "as_of": "2026-09-20", "role": "focus", "color": "#e8b040"}}, {"type": "Feature", "geometry": {"type": "Polygon", "coordinates": [[[-83.3313, 53.5542], [-83.3313, 53.5583], [-83.3375, 53.5583], [-83.3375, 53.5542], [-83.3313, 53.5542]]]}, "properties": {"company_id": "fancamp-exploration", "jurisdiction": "Ontario", "claim_id": "140954", "claim_name": null, "holder": "(100) FANCAMP EXPLORATION LTD.", "status": "Active", "recorded_date": "2018-04-10", "anniversary_or_expiry": "2029-04-21", "area_ha": null, "tenure_type": "Single Cell Mining Claim", "source": "Ontario MLAS operational claims (OGSEarth / LIO MapServer). Unofficial viewing data, not legal title.", "as_of": "2026-09-20", "role": "focus", "color": "#e8b040"}}, {"type": "Feature", "geometry": {"type": "Polygon", "coordinates": [[[-83.3313, 53.55], [-83.3313, 53.5542], [-83.3375, 53.5542], [-83.3375, 53.55], [-83.3313, 53.55]]]}, "properties": {"company_id": "fancamp-exploration", "jurisdiction": "Ontario", "claim_id": "140955", "claim_name": null, "holder": "(100) FANCAMP EXPLORATION LTD.", "status": "Active", "recorded_date": "2018-04-10", "anniversary_or_expiry": "2029-04-21", "area_ha": null, "tenure_type": "Single Cell Mining Claim", "source": "Ontario MLAS operational claims (OGSEarth / LIO MapServer). Unofficial viewing data, not legal title.", "as_of": "2026-09-20", "role": "focus", "color": "#e8b040"}}, {"type": "Feature", "geometry": {"type": "Polygon", "coordinates": [[[-83.3063, 53.55], [-83.3063, 53.5542], [-83.3125, 53.5542], [-83.3125, 53.55], [-83.3063, 53.55]]]}, "properties": {"company_id": "fancamp-exploration", "jurisdiction": "Ontario", "claim_id": "141136", "claim_name": null, "holder": "(100) FANCAMP EXPLORATION LTD.", "status": "Active", "recorded_date": "2018-04-10", "anniversary_or_expiry": "2029-04-21", "area_ha": null, "tenure_type": "Single Cell Mining Claim", "source": "Ontario MLAS operational claims (OGSEarth / LIO MapServer). Unofficial viewing data, not legal title.", "as_of": "2026-09-20", "role": "focus", "color": "#e8b040"}}, {"type": "Feature", "geometry": {"type": "Polygon", "coordinates": [[[-83.3375, 53.5708], [-83.3375, 53.575], [-83.3438, 53.575], [-83.3438, 53.5708], [-83.3375, 53.5708]]]}, "properties": {"company_id": "fancamp-exploration", "jurisdiction": "Ontario", "claim_id": "146634", "claim_name": null, "holder": "(100) FANCAMP EXPLORATION LTD.", "status": "Active", "recorded_date": "2018-04-10", "anniversary_or_expiry": "2029-04-21", "area_ha": null, "tenure_type": "Single Cell Mining Claim", "source": "Ontario MLAS operational claims (OGSEarth / LIO MapServer). Unofficial viewing data, not legal title.", "as_of": "2026-09-20", "role": "focus", "color": "#e8b040"}}, {"type": "Feature", "geometry": {"type": "Polygon", "coordinates": [[[-83.3563, 53.5708], [-83.3563, 53.575], [-83.3625, 53.575], [-83.3625, 53.5708], [-83.3563, 53.5708]]]}, "properties": {"company_id": "fancamp-exploration", "jurisdiction": "Ontario", "claim_id": "146635", "claim_name": null, "holder": "(100) FANCAMP EXPLORATION LTD.", "status": "Active", "recorded_date": "2018-04-10", "anniversary_or_expiry": "2029-04-21", "area_ha": null, "tenure_type": "Single Cell Mining Claim", "source": "Ontario MLAS operational claims (OGSEarth / LIO MapServer). Unofficial viewing data, not legal title.", "as_of": "2026-09-20", "role": "focus", "color": "#e8b040"}}, {"type": "Feature", "geometry": {"type": "Polygon", "coordinates": [[[-83.3438, 53.5542], [-83.3438, 53.5583], [-83.35, 53.5583], [-83.35, 53.5542], [-83.3438, 53.5542]]]}, "properties": {"company_id": "fancamp-exploration", "jurisdiction": "Ontario", "claim_id": "146897", "claim_name": null, "holder": "(100) FANCAMP EXPLORATION LTD.", "status": "Active", "recorded_date": "2018-04-10", "anniversary_or_expiry": "2029-04-21", "area_ha": null, "tenure_type": "Single Cell Mining Claim", "source": "Ontario MLAS operational claims (OGSEarth / LIO MapServer). Unofficial viewing data, not legal title.", "as_of": "2026-09-20", "role": "focus", "color": "#e8b040"}}, {"type": "Feature", "geometry": {"type": "Polygon", "coordinates": [[[-83.3438, 53.575], [-83.3438, 53.5792], [-83.35, 53.5792], [-83.35, 53.575], [-83.3438, 53.575]]]}, "properties": {"company_id": "fancamp-exploration", "jurisdiction": "Ontario", "claim_id": "160679", "claim_name": null, "holder": "(100) FANCAMP EXPLORATION LTD.", "status": "Active", "recorded_date": "2018-04-10", "anniversary_or_expiry": "2029-04-21", "area_ha": null, "tenure_type": "Single Cell Mining Claim", "source": "Ontario MLAS operational claims (OGSEarth / LIO MapServer). Unofficial viewing data, not legal title.", "as_of": "2026-09-20", "role": "focus", "color": "#e8b040"}}, {"type": "Feature", "geometry": {"type": "Polygon", "coordinates": [[[-83.3563, 53.5792], [-83.3563, 53.5833], [-83.3625, 53.5833], [-83.3625, 53.5792], [-83.3563, 53.5792]]]}, "properties": {"company_id": "fancamp-exploration", "jurisdiction": "Ontario", "claim_id": "166009", "claim_name": null, "holder": "(100) FANCAMP EXPLORATION LTD.", "status": "Active", "recorded_date": "2018-04-10", "anniversary_or_expiry": "2029-04-21", "area_ha": null, "tenure_type": "Single Cell Mining Claim", "source": "Ontario MLAS operational claims (OGSEarth / LIO MapServer). Unofficial viewing data, not legal title.", "as_of": "2026-09-20", "role": "focus", "color": "#e8b040"}}, {"type": "Feature", "geometry": {"type": "Polygon", "coordinates": [[[-83.3188, 53.5542], [-83.3188, 53.5583], [-83.325, 53.5583], [-83.325, 53.5542], [-83.3188, 53.5542]]]}, "properties": {"company_id": "fancamp-exploration", "jurisdiction": "Ontario", "claim_id": "167418", "claim_name": null, "holder": "(100) FANCAMP EXPLORATION LTD.", "status": "Active", "recorded_date": "2018-04-10", "anniversary_or_expiry": "2029-04-21", "area_ha": null, "tenure_type": "Single Cell Mining Claim", "source": "Ontario MLAS operational claims (OGSEarth / LIO MapServer). Unofficial viewing data, not legal title.", "as_of": "2026-09-20", "role": "focus", "color": "#e8b040"}}, {"type": "Feature", "geometry": {"type": "Polygon", "coordinates": [[[-83.2938, 53.5458], [-83.2938, 53.55], [-83.3, 53.55], [-83.3, 53.5458], [-83.2938, 53.5458]]]}, "properties": {"company_id": "fancamp-exploration", "jurisdiction": "Ontario", "claim_id": "187684", "claim_name": null, "holder": "(100) FANCAMP EXPLORATION LTD.", "status": "Active", "recorded_date": "2018-04-10", "anniversary_or_expiry": "2029-04-21", "area_ha": null, "tenure_type": "Single Cell Mining Claim", "source": "Ontario MLAS operational claims (OGSEarth / LIO MapServer). Unofficial viewing data, not legal title.", "as_of": "2026-09-20", "role": "focus", "color": "#e8b040"}}, {"type": "Feature", "geometry": {"type": "Polygon", "coordinates": [[[-83.2813, 53.5375], [-83.2813, 53.5417], [-83.2875, 53.5417], [-83.2875, 53.5375], [-83.2813, 53.5375]]]}, "properties": {"company_id": "fancamp-exploration", "jurisdiction": "Ontario", "claim_id": "187685", "claim_name": null, "holder": "(100) FANCAMP EXPLORATION LTD.", "status": "Active", "recorded_date": "2018-04-10", "anniversary_or_expiry": "2029-04-21", "area_ha": null, "tenure_type": "Single Cell Mining Claim", "source": "Ontario MLAS operational claims (OGSEarth / LIO MapServer). Unofficial viewing data, not legal title.", "as_of": "2026-09-20", "role": "focus", "color": "#e8b040"}}, {"type": "Feature", "geometry": {"type": "Polygon", "coordinates": [[[-83.3313, 53.5625], [-83.3313, 53.5667], [-83.3375, 53.5667], [-83.3375, 53.5625], [-83.3313, 53.5625]]]}, "properties": {"company_id": "fancamp-exploration", "jurisdiction": "Ontario", "claim_id": "192939", "claim_name": null, "holder": "(100) FANCAMP EXPLORATION LTD.", "status": "Active", "recorded_date": "2018-04-10", "anniversary_or_expiry": "2029-04-21", "area_ha": null, "tenure_type": "Single Cell Mining Claim", "source": "Ontario MLAS operational claims (OGSEarth / LIO MapServer). Unofficial viewing data, not legal title.", "as_of": "2026-09-20", "role": "focus", "color": "#e8b040"}}, {"type": "Feature", "geometry": {"type": "Polygon", "coordinates": [[[-83.3563, 53.5583], [-83.3563, 53.5625], [-83.3625, 53.5625], [-83.3625, 53.5583], [-83.3563, 53.5583]]]}, "properties": {"company_id": "fancamp-exploration", "jurisdiction": "Ontario", "claim_id": "192940", "claim_name": null, "holder": "(100) FANCAMP EXPLORATION LTD.", "status": "Active", "recorded_date": "2018-04-10", "anniversary_or_expiry": "2029-04-21", "area_ha": null, "tenure_type": "Single Cell Mining Claim", "source": "Ontario MLAS operational claims (OGSEarth / LIO MapServer). Unofficial viewing data, not legal title.", "as_of": "2026-09-20", "role": "focus", "color": "#e8b040"}}, {"type": "Feature", "geometry": {"type": "Polygon", "coordinates": [[[-83.35, 53.55], [-83.35, 53.5542], [-83.3563, 53.5542], [-83.3563, 53.55], [-83.35, 53.55]]]}, "properties": {"company_id": "fancamp-exploration", "jurisdiction": "Ontario", "claim_id": "192941", "claim_name": null, "holder": "(100) FANCAMP EXPLORATION LTD.", "status": "Active", "recorded_date": "2018-04-10", "anniversary_or_expiry": "2029-04-21", "area_ha": null, "tenure_type": "Single Cell Mining Claim", "source": "Ontario MLAS operational claims (OGSEarth / LIO MapServer). Unofficial viewing data, not legal title.", "as_of": "2026-09-20", "role": "focus", "color": "#e8b040"}}, {"type": "Feature", "geometry": {"type": "Polygon", "coordinates": [[[-83.3375, 53.5583], [-83.3375, 53.5625], [-83.3438, 53.5625], [-83.3438, 53.5583], [-83.3375, 53.5583]]]}, "properties": {"company_id": "fancamp-exploration", "jurisdiction": "Ontario", "claim_id": "194990", "claim_name": null, "holder": "(100) FANCAMP EXPLORATION LTD.", "status": "Active", "recorded_date": "2018-04-10", "anniversary_or_expiry": "2029-04-21", "area_ha": null, "tenure_type": "Single Cell Mining Claim", "source": "Ontario MLAS operational claims (OGSEarth / LIO MapServer). Unofficial viewing data, not legal title.", "as_of": "2026-09-20", "role": "focus", "color": "#e8b040"}}, {"type": "Feature", "geometry": {"type": "Polygon", "coordinates": [[[-83.2938, 53.5375], [-83.2938, 53.5417], [-83.3, 53.5417], [-83.3, 53.5375], [-83.2938, 53.5375]]]}, "properties": {"company_id": "fancamp-exploration", "jurisdiction": "Ontario", "claim_id": "200391", "claim_name": null, "holder": "(100) FANCAMP EXPLORATION LTD.", "status": "Active", "recorded_date": "2018-04-10", "anniversary_or_expiry": "2029-04-21", "area_ha": null, "tenure_type": "Single Cell Mining Claim", "source": "Ontario MLAS operational claims (OGSEarth / LIO MapServer). Unofficial viewing data, not legal title.", "as_of": "2026-09-20", "role": "focus", "color": "#e8b040"}}, {"type": "Feature", "geometry": {"type": "Polygon", "coordinates": [[[-83.3063, 53.5458], [-83.3063, 53.55], [-83.3125, 53.55], [-83.3125, 53.5458], [-83.3063, 53.5458]]]}, "properties": {"company_id": "fancamp-exploration", "jurisdiction": "Ontario", "claim_id": "207205", "claim_name": null, "holder": "(100) FANCAMP EXPLORATION LTD.", "status": "Active", "recorded_date": "2018-04-10", "anniversary_or_expiry": "2029-04-21", "area_ha": null, "tenure_type": "Single Cell Mining Claim", "source": "Ontario MLAS operational claims (OGSEarth / LIO MapServer). Unofficial viewing data, not legal title.", "as_of": "2026-09-20", "role": "focus", "color": "#e8b040"}}, {"type": "Feature", "geometry": {"type": "Polygon", "coordinates": [[[-83.3375, 53.5625], [-83.3375, 53.5667], [-83.3438, 53.5667], [-83.3438, 53.5625], [-83.3375, 53.5625]]]}, "properties": {"company_id": "fancamp-exploration", "jurisdiction": "Ontario", "claim_id": "211685", "claim_name": null, "holder": "(100) FANCAMP EXPLORATION LTD.", "status": "Active", "recorded_date": "2018-04-10", "anniversary_or_expiry": "2029-04-21", "area_ha": null, "tenure_type": "Single Cell Mining Claim", "source": "Ontario MLAS operational claims (OGSEarth / LIO MapServer). Unofficial viewing data, not legal title.", "as_of": "2026-09-20", "role": "focus", "color": "#e8b040"}}, {"type": "Feature", "geometry": {"type": "Polygon", "coordinates": [[[-83.35, 53.5625], [-83.35, 53.5667], [-83.3563, 53.5667], [-83.3563, 53.5625], [-83.35, 53.5625]]]}, "properties": {"company_id": "fancamp-exploration", "jurisdiction": "Ontario", "claim_id": "211686", "claim_name": null, "holder": "(100) FANCAMP EXPLORATION LTD.", "status": "Active", "recorded_date": "2018-04-10", "anniversary_or_expiry": "2029-04-21", "area_ha": null, "tenure_type": "Single Cell Mining Claim", "source": "Ontario MLAS operational claims (OGSEarth / LIO MapServer). Unofficial viewing data, not legal title.", "as_of": "2026-09-20", "role": "focus", "color": "#e8b040"}}, {"type": "Feature", "geometry": {"type": "Polygon", "coordinates": [[[-83.35, 53.5542], [-83.35, 53.5583], [-83.3563, 53.5583], [-83.3563, 53.5542], [-83.35, 53.5542]]]}, "properties": {"company_id": "fancamp-exploration", "jurisdiction": "Ontario", "claim_id": "211687", "claim_name": null, "holder": "(100) FANCAMP EXPLORATION LTD.", "status": "Active", "recorded_date": "2018-04-10", "anniversary_or_expiry": "2029-04-21", "area_ha": null, "tenure_type": "Single Cell Mining Claim", "source": "Ontario MLAS operational claims (OGSEarth / LIO MapServer). Unofficial viewing data, not legal title.", "as_of": "2026-09-20", "role": "focus", "color": "#e8b040"}}, {"type": "Feature", "geometry": {"type": "Polygon", "coordinates": [[[-83.3438, 53.5792], [-83.3438, 53.5833], [-83.35, 53.5833], [-83.35, 53.5792], [-83.3438, 53.5792]]]}, "properties": {"company_id": "fancamp-exploration", "jurisdiction": "Ontario", "claim_id": "213329", "claim_name": null, "holder": "(100) FANCAMP EXPLORATION LTD.", "status": "Active", "recorded_date": "2018-04-10", "anniversary_or_expiry": "2029-04-21", "area_ha": null, "tenure_type": "Single Cell Mining Claim", "source": "Ontario MLAS operational claims (OGSEarth / LIO MapServer). Unofficial viewing data, not legal title.", "as_of": "2026-09-20", "role": "focus", "color": "#e8b040"}}, {"type": "Feature", "geometry": {"type": "Polygon", "coordinates": [[[-83.3188, 53.55], [-83.3188, 53.5542], [-83.325, 53.5542], [-83.325, 53.55], [-83.3188, 53.55]]]}, "properties": {"company_id": "fancamp-exploration", "jurisdiction": "Ontario", "claim_id": "214760", "claim_name": null, "holder": "(100) FANCAMP EXPLORATION LTD.", "status": "Active", "recorded_date": "2018-04-10", "anniversary_or_expiry": "2029-04-21", "area_ha": null, "tenure_type": "Single Cell Mining Claim", "source": "Ontario MLAS operational claims (OGSEarth / LIO MapServer). Unofficial viewing data, not legal title.", "as_of": "2026-09-20", "role": "focus", "color": "#e8b040"}}, {"type": "Feature", "geometry": {"type": "Polygon", "coordinates": [[[-83.3438, 53.5375], [-83.3438, 53.5417], [-83.35, 53.5417], [-83.35, 53.5375], [-83.3438, 53.5375]]]}, "properties": {"company_id": "fancamp-exploration", "jurisdiction": "Ontario", "claim_id": "213728", "claim_name": null, "holder": "(100) FANCAMP EXPLORATION LTD.", "status": "Active", "recorded_date": "2018-04-10", "anniversary_or_expiry": "2029-04-21", "area_ha": null, "tenure_type": "Single Cell Mining Claim", "source": "Ontario MLAS operational claims (OGSEarth / LIO MapServer). Unofficial viewing data, not legal title.", "as_of": "2026-09-20", "role": "focus", "color": "#e8b040"}}, {"type": "Feature", "geometry": {"type": "Polygon", "coordinates": [[[-83.3188, 53.5625], [-83.3188, 53.5667], [-83.325, 53.5667], [-83.325, 53.5625], [-83.3188, 53.5625]]]}, "properties": {"company_id": "fancamp-exploration", "jurisdiction": "Ontario", "claim_id": "216278", "claim_name": null, "holder": "(100) FANCAMP EXPLORATION LTD.", "status": "Active", "recorded_date": "2018-04-10", "anniversary_or_expiry": "2029-04-21", "area_ha": null, "tenure_type": "Single Cell Mining Claim", "source": "Ontario MLAS operational claims (OGSEarth / LIO MapServer). Unofficial viewing data, not legal title.", "as_of": "2026-09-20", "role": "focus", "color": "#e8b040"}}, {"type": "Feature", "geometry": {"type": "Polygon", "coordinates": [[[-83.3188, 53.575], [-83.3188, 53.5792], [-83.325, 53.5792], [-83.325, 53.575], [-83.3188, 53.575]]]}, "properties": {"company_id": "fancamp-exploration", "jurisdiction": "Ontario", "claim_id": "224574", "claim_name": null, "holder": "(100) FANCAMP EXPLORATION LTD.", "status": "Active", "recorded_date": "2018-04-10", "anniversary_or_expiry": "2029-04-21", "area_ha": null, "tenure_type": "Single Cell Mining Claim", "source": "Ontario MLAS operational claims (OGSEarth / LIO MapServer). Unofficial viewing data, not legal title.", "as_of": "2026-09-20", "role": "focus", "color": "#e8b040"}}, {"type": "Feature", "geometry": {"type": "Polygon", "coordinates": [[[-83.35, 53.5667], [-83.35, 53.5708], [-83.3563, 53.5708], [-83.3563, 53.5667], [-83.35, 53.5667]]]}, "properties": {"company_id": "fancamp-exploration", "jurisdiction": "Ontario", "claim_id": "230052", "claim_name": null, "holder": "(100) FANCAMP EXPLORATION LTD.", "status": "Active", "recorded_date": "2018-04-10", "anniversary_or_expiry": "2029-04-21", "area_ha": null, "tenure_type": "Single Cell Mining Claim", "source": "Ontario MLAS operational claims (OGSEarth / LIO MapServer). Unofficial viewing data, not legal title.", "as_of": "2026-09-20", "role": "focus", "color": "#e8b040"}}, {"type": "Feature", "geometry": {"type": "Polygon", "coordinates": [[[-83.3438, 53.5583], [-83.3438, 53.5625], [-83.35, 53.5625], [-83.35, 53.5583], [-83.3438, 53.5583]]]}, "properties": {"company_id": "fancamp-exploration", "jurisdiction": "Ontario", "claim_id": "230053", "claim_name": null, "holder": "(100) FANCAMP EXPLORATION LTD.", "status": "Active", "recorded_date": "2018-04-10", "anniversary_or_expiry": "2029-04-21", "area_ha": null, "tenure_type": "Single Cell Mining Claim", "source": "Ontario MLAS operational claims (OGSEarth / LIO MapServer). Unofficial viewing data, not legal title.", "as_of": "2026-09-20", "role": "focus", "color": "#e8b040"}}, {"type": "Feature", "geometry": {"type": "Polygon", "coordinates": [[[-83.325, 53.5625], [-83.325, 53.5667], [-83.3313, 53.5667], [-83.3313, 53.5625], [-83.325, 53.5625]]]}, "properties": {"company_id": "fancamp-exploration", "jurisdiction": "Ontario", "claim_id": "233411", "claim_name": null, "holder": "(100) FANCAMP EXPLORATION LTD.", "status": "Active", "recorded_date": "2018-04-10", "anniversary_or_expiry": "2029-04-21", "area_ha": null, "tenure_type": "Single Cell Mining Claim", "source": "Ontario MLAS operational claims (OGSEarth / LIO MapServer). Unofficial viewing data, not legal title.", "as_of": "2026-09-20", "role": "focus", "color": "#e8b040"}}, {"type": "Feature", "geometry": {"type": "Polygon", "coordinates": [[[-83.3188, 53.5583], [-83.3188, 53.5625], [-83.325, 53.5625], [-83.325, 53.5583], [-83.3188, 53.5583]]]}, "properties": {"company_id": "fancamp-exploration", "jurisdiction": "Ontario", "claim_id": "233412", "claim_name": null, "holder": "(100) FANCAMP EXPLORATION LTD.", "status": "Active", "recorded_date": "2018-04-10", "anniversary_or_expiry": "2029-04-21", "area_ha": null, "tenure_type": "Single Cell Mining Claim", "source": "Ontario MLAS operational claims (OGSEarth / LIO MapServer). Unofficial viewing data, not legal title.", "as_of": "2026-09-20", "role": "focus", "color": "#e8b040"}}, {"type": "Feature", "geometry": {"type": "Polygon", "coordinates": [[[-83.325, 53.55], [-83.325, 53.5542], [-83.3313, 53.5542], [-83.3313, 53.55], [-83.325, 53.55]]]}, "properties": {"company_id": "fancamp-exploration", "jurisdiction": "Ontario", "claim_id": "233413", "claim_name": null, "holder": "(100) FANCAMP EXPLORATION LTD.", "status": "Active", "recorded_date": "2018-04-10", "anniversary_or_expiry": "2029-04-21", "area_ha": null, "tenure_type": "Single Cell Mining Claim", "source": "Ontario MLAS operational claims (OGSEarth / LIO MapServer). Unofficial viewing data, not legal title.", "as_of": "2026-09-20", "role": "focus", "color": "#e8b040"}}, {"type": "Feature", "geometry": {"type": "Polygon", "coordinates": [[[-83.325, 53.575], [-83.325, 53.5792], [-83.3313, 53.5792], [-83.3313, 53.575], [-83.325, 53.575]]]}, "properties": {"company_id": "fancamp-exploration", "jurisdiction": "Ontario", "claim_id": "232612", "claim_name": null, "holder": "(100) FANCAMP EXPLORATION LTD.", "status": "Active", "recorded_date": "2018-04-10", "anniversary_or_expiry": "2029-04-21", "area_ha": null, "tenure_type": "Single Cell Mining Claim", "source": "Ontario MLAS operational claims (OGSEarth / LIO MapServer). Unofficial viewing data, not legal title.", "as_of": "2026-09-20", "role": "focus", "color": "#e8b040"}}, {"type": "Feature", "geometry": {"type": "Polygon", "coordinates": [[[-83.325, 53.5667], [-83.325, 53.5708], [-83.3313, 53.5708], [-83.3313, 53.5667], [-83.325, 53.5667]]]}, "properties": {"company_id": "fancamp-exploration", "jurisdiction": "Ontario", "claim_id": "232613", "claim_name": null, "holder": "(100) FANCAMP EXPLORATION LTD.", "status": "Active", "recorded_date": "2018-04-10", "anniversary_or_expiry": "2029-04-21", "area_ha": null, "tenure_type": "Single Cell Mining Claim", "source": "Ontario MLAS operational claims (OGSEarth / LIO MapServer). Unofficial viewing data, not legal title.", "as_of": "2026-09-20", "role": "focus", "color": "#e8b040"}}, {"type": "Feature", "geometry": {"type": "Polygon", "coordinates": [[[-83.2813, 53.5458], [-83.2813, 53.55], [-83.2875, 53.55], [-83.2875, 53.5458], [-83.2813, 53.5458]]]}, "properties": {"company_id": "fancamp-exploration", "jurisdiction": "Ontario", "claim_id": "236348", "claim_name": null, "holder": "(100) FANCAMP EXPLORATION LTD.", "status": "Active", "recorded_date": "2018-04-10", "anniversary_or_expiry": "2029-04-21", "area_ha": null, "tenure_type": "Single Cell Mining Claim", "source": "Ontario MLAS operational claims (OGSEarth / LIO MapServer). Unofficial viewing data, not legal title.", "as_of": "2026-09-20", "role": "focus", "color": "#e8b040"}}, {"type": "Feature", "geometry": {"type": "Polygon", "coordinates": [[[-83.2938, 53.5417], [-83.2938, 53.5458], [-83.3, 53.5458], [-83.3, 53.5417], [-83.2938, 53.5417]]]}, "properties": {"company_id": "fancamp-exploration", "jurisdiction": "Ontario", "claim_id": "236349", "claim_name": null, "holder": "(100) FANCAMP EXPLORATION LTD.", "status": "Active", "recorded_date": "2018-04-10", "anniversary_or_expiry": "2029-04-21", "area_ha": null, "tenure_type": "Single Cell Mining Claim", "source": "Ontario MLAS operational claims (OGSEarth / LIO MapServer). Unofficial viewing data, not legal title.", "as_of": "2026-09-20", "role": "focus", "color": "#e8b040"}}, {"type": "Feature", "geometry": {"type": "Polygon", "coordinates": [[[-83.3063, 53.5542], [-83.3063, 53.5583], [-83.3125, 53.5583], [-83.3125, 53.5542], [-83.3063, 53.5542]]]}, "properties": {"company_id": "fancamp-exploration", "jurisdiction": "Ontario", "claim_id": "237626", "claim_name": null, "holder": "(100) FANCAMP EXPLORATION LTD.", "status": "Active", "recorded_date": "2018-04-10", "anniversary_or_expiry": "2029-04-21", "area_ha": null, "tenure_type": "Single Cell Mining Claim", "source": "Ontario MLAS operational claims (OGSEarth / LIO MapServer). Unofficial viewing data, not legal title.", "as_of": "2026-09-20", "role": "focus", "color": "#e8b040"}}, {"type": "Feature", "geometry": {"type": "Polygon", "coordinates": [[[-83.3563, 53.5542], [-83.3563, 53.5583], [-83.3625, 53.5583], [-83.3625, 53.5542], [-83.3563, 53.5542]]]}, "properties": {"company_id": "fancamp-exploration", "jurisdiction": "Ontario", "claim_id": "241578", "claim_name": null, "holder": "(100) FANCAMP EXPLORATION LTD.", "status": "Active", "recorded_date": "2018-04-10", "anniversary_or_expiry": "2029-04-21", "area_ha": null, "tenure_type": "Single Cell Mining Claim", "source": "Ontario MLAS operational claims (OGSEarth / LIO MapServer). Unofficial viewing data, not legal title.", "as_of": "2026-09-20", "role": "focus", "color": "#e8b040"}}, {"type": "Feature", "geometry": {"type": "Polygon", "coordinates": [[[-83.325, 53.5792], [-83.325, 53.5833], [-83.3313, 53.5833], [-83.3313, 53.5792], [-83.325, 53.5792]]]}, "properties": {"company_id": "fancamp-exploration", "jurisdiction": "Ontario", "claim_id": "244761", "claim_name": null, "holder": "(100) FANCAMP EXPLORATION LTD.", "status": "Active", "recorded_date": "2018-04-10", "anniversary_or_expiry": "2029-04-21", "area_ha": null, "tenure_type": "Single Cell Mining Claim", "source": "Ontario MLAS operational claims (OGSEarth / LIO MapServer). Unofficial viewing data, not legal title.", "as_of": "2026-09-20", "role": "focus", "color": "#e8b040"}}, {"type": "Feature", "geometry": {"type": "Polygon", "coordinates": [[[-83.3313, 53.575], [-83.3313, 53.5792], [-83.3375, 53.5792], [-83.3375, 53.575], [-83.3313, 53.575]]]}, "properties": {"company_id": "fancamp-exploration", "jurisdiction": "Ontario", "claim_id": "244762", "claim_name": null, "holder": "(100) FANCAMP EXPLORATION LTD.", "status": "Active", "recorded_date": "2018-04-10", "anniversary_or_expiry": "2029-04-21", "area_ha": null, "tenure_type": "Single Cell Mining Claim", "source": "Ontario MLAS operational claims (OGSEarth / LIO MapServer). Unofficial viewing data, not legal title.", "as_of": "2026-09-20", "role": "focus", "color": "#e8b040"}}, {"type": "Feature", "geometry": {"type": "Polygon", "coordinates": [[[-83.325, 53.5708], [-83.325, 53.575], [-83.3313, 53.575], [-83.3313, 53.5708], [-83.325, 53.5708]]]}, "properties": {"company_id": "fancamp-exploration", "jurisdiction": "Ontario", "claim_id": "244763", "claim_name": null, "holder": "(100) FANCAMP EXPLORATION LTD.", "status": "Active", "recorded_date": "2018-04-10", "anniversary_or_expiry": "2029-04-21", "area_ha": null, "tenure_type": "Single Cell Mining Claim", "source": "Ontario MLAS operational claims (OGSEarth / LIO MapServer). Unofficial viewing data, not legal title.", "as_of": "2026-09-20", "role": "focus", "color": "#e8b040"}}, {"type": "Feature", "geometry": {"type": "Polygon", "coordinates": [[[-83.3313, 53.5667], [-83.3313, 53.5708], [-83.3375, 53.5708], [-83.3375, 53.5667], [-83.3313, 53.5667]]]}, "properties": {"company_id": "fancamp-exploration", "jurisdiction": "Ontario", "claim_id": "244764", "claim_name": null, "holder": "(100) FANCAMP EXPLORATION LTD.", "status": "Active", "recorded_date": "2018-04-10", "anniversary_or_expiry": "2029-04-21", "area_ha": null, "tenure_type": "Single Cell Mining Claim", "source": "Ontario MLAS operational claims (OGSEarth / LIO MapServer). Unofficial viewing data, not legal title.", "as_of": "2026-09-20", "role": "focus", "color": "#e8b040"}}, {"type": "Feature", "geometry": {"type": "Polygon", "coordinates": [[[-83.3375, 53.5667], [-83.3375, 53.5708], [-83.3438, 53.5708], [-83.3438, 53.5667], [-83.3375, 53.5667]]]}, "properties": {"company_id": "fancamp-exploration", "jurisdiction": "Ontario", "claim_id": "249583", "claim_name": null, "holder": "(100) FANCAMP EXPLORATION LTD.", "status": "Active", "recorded_date": "2018-04-10", "anniversary_or_expiry": "2029-04-21", "area_ha": null, "tenure_type": "Single Cell Mining Claim", "source": "Ontario MLAS operational claims (OGSEarth / LIO MapServer). Unofficial viewing data, not legal title.", "as_of": "2026-09-20", "role": "focus", "color": "#e8b040"}}, {"type": "Feature", "geometry": {"type": "Polygon", "coordinates": [[[-83.3563, 53.5625], [-83.3563, 53.5667], [-83.3625, 53.5667], [-83.3625, 53.5625], [-83.3563, 53.5625]]]}, "properties": {"company_id": "fancamp-exploration", "jurisdiction": "Ontario", "claim_id": "249584", "claim_name": null, "holder": "(100) FANCAMP EXPLORATION LTD.", "status": "Active", "recorded_date": "2018-04-10", "anniversary_or_expiry": "2029-04-21", "area_ha": null, "tenure_type": "Single Cell Mining Claim", "source": "Ontario MLAS operational claims (OGSEarth / LIO MapServer). Unofficial viewing data, not legal title.", "as_of": "2026-09-20", "role": "focus", "color": "#e8b040"}}, {"type": "Feature", "geometry": {"type": "Polygon", "coordinates": [[[-83.3438, 53.55], [-83.3438, 53.5542], [-83.35, 53.5542], [-83.35, 53.55], [-83.3438, 53.55]]]}, "properties": {"company_id": "fancamp-exploration", "jurisdiction": "Ontario", "claim_id": "249585", "claim_name": null, "holder": "(100) FANCAMP EXPLORATION LTD.", "status": "Active", "recorded_date": "2018-04-10", "anniversary_or_expiry": "2029-04-21", "area_ha": null, "tenure_type": "Single Cell Mining Claim", "source": "Ontario MLAS operational claims (OGSEarth / LIO MapServer). Unofficial viewing data, not legal title.", "as_of": "2026-09-20", "role": "focus", "color": "#e8b040"}}, {"type": "Feature", "geometry": {"type": "Polygon", "coordinates": [[[-83.3563, 53.55], [-83.3563, 53.5542], [-83.3625, 53.5542], [-83.3625, 53.55], [-83.3563, 53.55]]]}, "properties": {"company_id": "fancamp-exploration", "jurisdiction": "Ontario", "claim_id": "249586", "claim_name": null, "holder": "(100) FANCAMP EXPLORATION LTD.", "status": "Active", "recorded_date": "2018-04-10", "anniversary_or_expiry": "2029-04-21", "area_ha": null, "tenure_type": "Single Cell Mining Claim", "source": "Ontario MLAS operational claims (OGSEarth / LIO MapServer). Unofficial viewing data, not legal title.", "as_of": "2026-09-20", "role": "focus", "color": "#e8b040"}}, {"type": "Feature", "geometry": {"type": "Polygon", "coordinates": [[[-83.325, 53.5583], [-83.325, 53.5625], [-83.3313, 53.5625], [-83.3313, 53.5583], [-83.325, 53.5583]]]}, "properties": {"company_id": "fancamp-exploration", "jurisdiction": "Ontario", "claim_id": "251302", "claim_name": null, "holder": "(100) FANCAMP EXPLORATION LTD.", "status": "Active", "recorded_date": "2018-04-10", "anniversary_or_expiry": "2029-04-21", "area_ha": null, "tenure_type": "Single Cell Mining Claim", "source": "Ontario MLAS operational claims (OGSEarth / LIO MapServer). Unofficial viewing data, not legal title.", "as_of": "2026-09-20", "role": "focus", "color": "#e8b040"}}, {"type": "Feature", "geometry": {"type": "Polygon", "coordinates": [[[-83.3563, 53.5458], [-83.3563, 53.55], [-83.3625, 53.55], [-83.3625, 53.5458], [-83.3563, 53.5458]]]}, "properties": {"company_id": "fancamp-exploration", "jurisdiction": "Ontario", "claim_id": "251713", "claim_name": null, "holder": "(100) FANCAMP EXPLORATION LTD.", "status": "Active", "recorded_date": "2018-04-10", "anniversary_or_expiry": "2029-04-21", "area_ha": null, "tenure_type": "Single Cell Mining Claim", "source": "Ontario MLAS operational claims (OGSEarth / LIO MapServer). Unofficial viewing data, not legal title.", "as_of": "2026-09-20", "role": "focus", "color": "#e8b040"}}, {"type": "Feature", "geometry": {"type": "Polygon", "coordinates": [[[-83.3313, 53.5792], [-83.3313, 53.5833], [-83.3375, 53.5833], [-83.3375, 53.5792], [-83.3313, 53.5792]]]}, "properties": {"company_id": "fancamp-exploration", "jurisdiction": "Ontario", "claim_id": "252119", "claim_name": null, "holder": "(100) FANCAMP EXPLORATION LTD.", "status": "Active", "recorded_date": "2018-04-10", "anniversary_or_expiry": "2029-04-21", "area_ha": null, "tenure_type": "Single Cell Mining Claim", "source": "Ontario MLAS operational claims (OGSEarth / LIO MapServer). Unofficial viewing data, not legal title.", "as_of": "2026-09-20", "role": "focus", "color": "#e8b040"}}, {"type": "Feature", "geometry": {"type": "Polygon", "coordinates": [[[-83.3313, 53.5708], [-83.3313, 53.575], [-83.3375, 53.575], [-83.3375, 53.5708], [-83.3313, 53.5708]]]}, "properties": {"company_id": "fancamp-exploration", "jurisdiction": "Ontario", "claim_id": "252120", "claim_name": null, "holder": "(100) FANCAMP EXPLORATION LTD.", "status": "Active", "recorded_date": "2018-04-10", "anniversary_or_expiry": "2029-04-21", "area_ha": null, "tenure_type": "Single Cell Mining Claim", "source": "Ontario MLAS operational claims (OGSEarth / LIO MapServer). Unofficial viewing data, not legal title.", "as_of": "2026-09-20", "role": "focus", "color": "#e8b040"}}, {"type": "Feature", "geometry": {"type": "Polygon", "coordinates": [[[-83.3, 53.5417], [-83.3, 53.5458], [-83.3063, 53.5458], [-83.3063, 53.5417], [-83.3, 53.5417]]]}, "properties": {"company_id": "fancamp-exploration", "jurisdiction": "Ontario", "claim_id": "255022", "claim_name": null, "holder": "(100) FANCAMP EXPLORATION LTD.", "status": "Active", "recorded_date": "2018-04-10", "anniversary_or_expiry": "2029-04-21", "area_ha": null, "tenure_type": "Single Cell Mining Claim", "source": "Ontario MLAS operational claims (OGSEarth / LIO MapServer). Unofficial viewing data, not legal title.", "as_of": "2026-09-20", "role": "focus", "color": "#e8b040"}}, {"type": "Feature", "geometry": {"type": "Polygon", "coordinates": [[[-83.2938, 53.55], [-83.2938, 53.5542], [-83.3, 53.5542], [-83.3, 53.55], [-83.2938, 53.55]]]}, "properties": {"company_id": "fancamp-exploration", "jurisdiction": "Ontario", "claim_id": "266485", "claim_name": null, "holder": "(100) FANCAMP EXPLORATION LTD.", "status": "Active", "recorded_date": "2018-04-10", "anniversary_or_expiry": "2029-04-21", "area_ha": null, "tenure_type": "Single Cell Mining Claim", "source": "Ontario MLAS operational claims (OGSEarth / LIO MapServer). Unofficial viewing data, not legal title.", "as_of": "2026-09-20", "role": "focus", "color": "#e8b040"}}, {"type": "Feature", "geometry": {"type": "Polygon", "coordinates": [[[-83.35, 53.5792], [-83.35, 53.5833], [-83.3563, 53.5833], [-83.3563, 53.5792], [-83.35, 53.5792]]]}, "properties": {"company_id": "fancamp-exploration", "jurisdiction": "Ontario", "claim_id": "268746", "claim_name": null, "holder": "(100) FANCAMP EXPLORATION LTD.", "status": "Active", "recorded_date": "2018-04-10", "anniversary_or_expiry": "2029-04-21", "area_ha": null, "tenure_type": "Single Cell Mining Claim", "source": "Ontario MLAS operational claims (OGSEarth / LIO MapServer). Unofficial viewing data, not legal title.", "as_of": "2026-09-20", "role": "focus", "color": "#e8b040"}}, {"type": "Feature", "geometry": {"type": "Polygon", "coordinates": [[[-83.2875, 53.5417], [-83.2875, 53.5458], [-83.2938, 53.5458], [-83.2938, 53.5417], [-83.2875, 53.5417]]]}, "properties": {"company_id": "fancamp-exploration", "jurisdiction": "Ontario", "claim_id": "273115", "claim_name": null, "holder": "(100) FANCAMP EXPLORATION LTD.", "status": "Active", "recorded_date": "2018-04-10", "anniversary_or_expiry": "2029-04-21", "area_ha": null, "tenure_type": "Single Cell Mining Claim", "source": "Ontario MLAS operational claims (OGSEarth / LIO MapServer). Unofficial viewing data, not legal title.", "as_of": "2026-09-20", "role": "focus", "color": "#e8b040"}}, {"type": "Feature", "geometry": {"type": "Polygon", "coordinates": [[[-83.3375, 53.5792], [-83.3375, 53.5833], [-83.3438, 53.5833], [-83.3438, 53.5792], [-83.3375, 53.5792]]]}, "properties": {"company_id": "fancamp-exploration", "jurisdiction": "Ontario", "claim_id": "280620", "claim_name": null, "holder": "(100) FANCAMP EXPLORATION LTD.", "status": "Active", "recorded_date": "2018-04-10", "anniversary_or_expiry": "2029-04-21", "area_ha": null, "tenure_type": "Single Cell Mining Claim", "source": "Ontario MLAS operational claims (OGSEarth / LIO MapServer). Unofficial viewing data, not legal title.", "as_of": "2026-09-20", "role": "focus", "color": "#e8b040"}}, {"type": "Feature", "geometry": {"type": "Polygon", "coordinates": [[[-83.3438, 53.5625], [-83.3438, 53.5667], [-83.35, 53.5667], [-83.35, 53.5625], [-83.3438, 53.5625]]]}, "properties": {"company_id": "fancamp-exploration", "jurisdiction": "Ontario", "claim_id": "296723", "claim_name": null, "holder": "(100) FANCAMP EXPLORATION LTD.", "status": "Active", "recorded_date": "2018-04-10", "anniversary_or_expiry": "2029-04-21", "area_ha": null, "tenure_type": "Single Cell Mining Claim", "source": "Ontario MLAS operational claims (OGSEarth / LIO MapServer). Unofficial viewing data, not legal title.", "as_of": "2026-09-20", "role": "focus", "color": "#e8b040"}}, {"type": "Feature", "geometry": {"type": "Polygon", "coordinates": [[[-83.3125, 53.5667], [-83.3125, 53.5708], [-83.3188, 53.5708], [-83.3188, 53.5667], [-83.3125, 53.5667]]]}, "properties": {"company_id": "fancamp-exploration", "jurisdiction": "Ontario", "claim_id": "299308", "claim_name": null, "holder": "(100) FANCAMP EXPLORATION LTD.", "status": "Active", "recorded_date": "2018-04-10", "anniversary_or_expiry": "2029-04-21", "area_ha": null, "tenure_type": "Single Cell Mining Claim", "source": "Ontario MLAS operational claims (OGSEarth / LIO MapServer). Unofficial viewing data, not legal title.", "as_of": "2026-09-20", "role": "focus", "color": "#e8b040"}}, {"type": "Feature", "geometry": {"type": "Polygon", "coordinates": [[[-83.35, 53.5417], [-83.35, 53.5458], [-83.3563, 53.5458], [-83.3563, 53.5417], [-83.35, 53.5417]]]}, "properties": {"company_id": "fancamp-exploration", "jurisdiction": "Ontario", "claim_id": "298814", "claim_name": null, "holder": "(100) FANCAMP EXPLORATION LTD.", "status": "Active", "recorded_date": "2018-04-10", "anniversary_or_expiry": "2029-04-21", "area_ha": null, "tenure_type": "Single Cell Mining Claim", "source": "Ontario MLAS operational claims (OGSEarth / LIO MapServer). Unofficial viewing data, not legal title.", "as_of": "2026-09-20", "role": "focus", "color": "#e8b040"}}, {"type": "Feature", "geometry": {"type": "Polygon", "coordinates": [[[-83.325, 53.5542], [-83.325, 53.5583], [-83.3313, 53.5583], [-83.3313, 53.5542], [-83.325, 53.5542]]]}, "properties": {"company_id": "fancamp-exploration", "jurisdiction": "Ontario", "claim_id": "299995", "claim_name": null, "holder": "(100) FANCAMP EXPLORATION LTD.", "status": "Active", "recorded_date": "2018-04-10", "anniversary_or_expiry": "2029-04-21", "area_ha": null, "tenure_type": "Single Cell Mining Claim", "source": "Ontario MLAS operational claims (OGSEarth / LIO MapServer). Unofficial viewing data, not legal title.", "as_of": "2026-09-20", "role": "focus", "color": "#e8b040"}}, {"type": "Feature", "geometry": {"type": "Polygon", "coordinates": [[[-83.3125, 53.5792], [-83.3125, 53.5833], [-83.3188, 53.5833], [-83.3188, 53.5792], [-83.3125, 53.5792]]]}, "properties": {"company_id": "fancamp-exploration", "jurisdiction": "Ontario", "claim_id": "300857", "claim_name": null, "holder": "(100) FANCAMP EXPLORATION LTD.", "status": "Active", "recorded_date": "2018-04-10", "anniversary_or_expiry": "2029-04-21", "area_ha": null, "tenure_type": "Single Cell Mining Claim", "source": "Ontario MLAS operational claims (OGSEarth / LIO MapServer). Unofficial viewing data, not legal title.", "as_of": "2026-09-20", "role": "focus", "color": "#e8b040"}}, {"type": "Feature", "geometry": {"type": "Polygon", "coordinates": [[[-83.3125, 53.5708], [-83.3125, 53.575], [-83.3188, 53.575], [-83.3188, 53.5708], [-83.3125, 53.5708]]]}, "properties": {"company_id": "fancamp-exploration", "jurisdiction": "Ontario", "claim_id": "300858", "claim_name": null, "holder": "(100) FANCAMP EXPLORATION LTD.", "status": "Active", "recorded_date": "2018-04-10", "anniversary_or_expiry": "2029-04-21", "area_ha": null, "tenure_type": "Single Cell Mining Claim", "source": "Ontario MLAS operational claims (OGSEarth / LIO MapServer). Unofficial viewing data, not legal title.", "as_of": "2026-09-20", "role": "focus", "color": "#e8b040"}}, {"type": "Feature", "geometry": {"type": "Polygon", "coordinates": [[[-83.3, 53.5542], [-83.3, 53.5583], [-83.3063, 53.5583], [-83.3063, 53.5542], [-83.3, 53.5542]]]}, "properties": {"company_id": "fancamp-exploration", "jurisdiction": "Ontario", "claim_id": "304368", "claim_name": null, "holder": "(100) FANCAMP EXPLORATION LTD.", "status": "Active", "recorded_date": "2018-04-10", "anniversary_or_expiry": "2029-04-21", "area_ha": null, "tenure_type": "Single Cell Mining Claim", "source": "Ontario MLAS operational claims (OGSEarth / LIO MapServer). Unofficial viewing data, not legal title.", "as_of": "2026-09-20", "role": "focus", "color": "#e8b040"}}, {"type": "Feature", "geometry": {"type": "Polygon", "coordinates": [[[-83.3375, 53.575], [-83.3375, 53.5792], [-83.3438, 53.5792], [-83.3438, 53.575], [-83.3375, 53.575]]]}, "properties": {"company_id": "fancamp-exploration", "jurisdiction": "Ontario", "claim_id": "309172", "claim_name": null, "holder": "(100) FANCAMP EXPLORATION LTD.", "status": "Active", "recorded_date": "2018-04-10", "anniversary_or_expiry": "2029-04-21", "area_ha": null, "tenure_type": "Single Cell Mining Claim", "source": "Ontario MLAS operational claims (OGSEarth / LIO MapServer). Unofficial viewing data, not legal title.", "as_of": "2026-09-20", "role": "focus", "color": "#e8b040"}}, {"type": "Feature", "geometry": {"type": "Polygon", "coordinates": [[[-83.35, 53.575], [-83.35, 53.5792], [-83.3563, 53.5792], [-83.3563, 53.575], [-83.35, 53.575]]]}, "properties": {"company_id": "fancamp-exploration", "jurisdiction": "Ontario", "claim_id": "309173", "claim_name": null, "holder": "(100) FANCAMP EXPLORATION LTD.", "status": "Active", "recorded_date": "2018-04-10", "anniversary_or_expiry": "2029-04-21", "area_ha": null, "tenure_type": "Single Cell Mining Claim", "source": "Ontario MLAS operational claims (OGSEarth / LIO MapServer). Unofficial viewing data, not legal title.", "as_of": "2026-09-20", "role": "focus", "color": "#e8b040"}}, {"type": "Feature", "geometry": {"type": "Polygon", "coordinates": [[[-83.3438, 53.5708], [-83.3438, 53.575], [-83.35, 53.575], [-83.35, 53.5708], [-83.3438, 53.5708]]]}, "properties": {"company_id": "fancamp-exploration", "jurisdiction": "Ontario", "claim_id": "309174", "claim_name": null, "holder": "(100) FANCAMP EXPLORATION LTD.", "status": "Active", "recorded_date": "2018-04-10", "anniversary_or_expiry": "2029-04-21", "area_ha": null, "tenure_type": "Single Cell Mining Claim", "source": "Ontario MLAS operational claims (OGSEarth / LIO MapServer). Unofficial viewing data, not legal title.", "as_of": "2026-09-20", "role": "focus", "color": "#e8b040"}}, {"type": "Feature", "geometry": {"type": "Polygon", "coordinates": [[[-83.3438, 53.5667], [-83.3438, 53.5708], [-83.35, 53.5708], [-83.35, 53.5667], [-83.3438, 53.5667]]]}, "properties": {"company_id": "fancamp-exploration", "jurisdiction": "Ontario", "claim_id": "316181", "claim_name": null, "holder": "(100) FANCAMP EXPLORATION LTD.", "status": "Active", "recorded_date": "2018-04-10", "anniversary_or_expiry": "2029-04-21", "area_ha": null, "tenure_type": "Single Cell Mining Claim", "source": "Ontario MLAS operational claims (OGSEarth / LIO MapServer). Unofficial viewing data, not legal title.", "as_of": "2026-09-20", "role": "focus", "color": "#e8b040"}}, {"type": "Feature", "geometry": {"type": "Polygon", "coordinates": [[[-83.3375, 53.5542], [-83.3375, 53.5583], [-83.3438, 53.5583], [-83.3438, 53.5542], [-83.3375, 53.5542]]]}, "properties": {"company_id": "fancamp-exploration", "jurisdiction": "Ontario", "claim_id": "316182", "claim_name": null, "holder": "(100) FANCAMP EXPLORATION LTD.", "status": "Active", "recorded_date": "2018-04-10", "anniversary_or_expiry": "2029-04-21", "area_ha": null, "tenure_type": "Single Cell Mining Claim", "source": "Ontario MLAS operational claims (OGSEarth / LIO MapServer). Unofficial viewing data, not legal title.", "as_of": "2026-09-20", "role": "focus", "color": "#e8b040"}}, {"type": "Feature", "geometry": {"type": "Polygon", "coordinates": [[[-83.3188, 53.5792], [-83.3188, 53.5833], [-83.325, 53.5833], [-83.325, 53.5792], [-83.3188, 53.5792]]]}, "properties": {"company_id": "fancamp-exploration", "jurisdiction": "Ontario", "claim_id": "317494", "claim_name": null, "holder": "(100) FANCAMP EXPLORATION LTD.", "status": "Active", "recorded_date": "2018-04-10", "anniversary_or_expiry": "2029-04-21", "area_ha": null, "tenure_type": "Single Cell Mining Claim", "source": "Ontario MLAS operational claims (OGSEarth / LIO MapServer). Unofficial viewing data, not legal title.", "as_of": "2026-09-20", "role": "focus", "color": "#e8b040"}}, {"type": "Feature", "geometry": {"type": "Polygon", "coordinates": [[[-83.3125, 53.575], [-83.3125, 53.5792], [-83.3188, 53.5792], [-83.3188, 53.575], [-83.3125, 53.575]]]}, "properties": {"company_id": "fancamp-exploration", "jurisdiction": "Ontario", "claim_id": "317495", "claim_name": null, "holder": "(100) FANCAMP EXPLORATION LTD.", "status": "Active", "recorded_date": "2018-04-10", "anniversary_or_expiry": "2029-04-21", "area_ha": null, "tenure_type": "Single Cell Mining Claim", "source": "Ontario MLAS operational claims (OGSEarth / LIO MapServer). Unofficial viewing data, not legal title.", "as_of": "2026-09-20", "role": "focus", "color": "#e8b040"}}, {"type": "Feature", "geometry": {"type": "Polygon", "coordinates": [[[-83.3188, 53.5667], [-83.3188, 53.5708], [-83.325, 53.5708], [-83.325, 53.5667], [-83.3188, 53.5667]]]}, "properties": {"company_id": "fancamp-exploration", "jurisdiction": "Ontario", "claim_id": "317496", "claim_name": null, "holder": "(100) FANCAMP EXPLORATION LTD.", "status": "Active", "recorded_date": "2018-04-10", "anniversary_or_expiry": "2029-04-21", "area_ha": null, "tenure_type": "Single Cell Mining Claim", "source": "Ontario MLAS operational claims (OGSEarth / LIO MapServer). Unofficial viewing data, not legal title.", "as_of": "2026-09-20", "role": "focus", "color": "#e8b040"}}, {"type": "Feature", "geometry": {"type": "Polygon", "coordinates": [[[-83.3563, 53.5417], [-83.3563, 53.5458], [-83.3625, 53.5458], [-83.3625, 53.5417], [-83.3563, 53.5417]]]}, "properties": {"company_id": "fancamp-exploration", "jurisdiction": "Ontario", "claim_id": "317682", "claim_name": null, "holder": "(100) FANCAMP EXPLORATION LTD.", "status": "Active", "recorded_date": "2018-04-10", "anniversary_or_expiry": "2029-04-21", "area_ha": null, "tenure_type": "Single Cell Mining Claim", "source": "Ontario MLAS operational claims (OGSEarth / LIO MapServer). Unofficial viewing data, not legal title.", "as_of": "2026-09-20", "role": "focus", "color": "#e8b040"}}, {"type": "Feature", "geometry": {"type": "Polygon", "coordinates": [[[-83.3313, 53.5458], [-83.3313, 53.55], [-83.3375, 53.55], [-83.3375, 53.5458], [-83.3313, 53.5458]]]}, "properties": {"company_id": "fancamp-exploration", "jurisdiction": "Ontario", "claim_id": "318251", "claim_name": null, "holder": "(100) FANCAMP EXPLORATION LTD.", "status": "Active", "recorded_date": "2018-04-10", "anniversary_or_expiry": "2029-04-21", "area_ha": null, "tenure_type": "Single Cell Mining Claim", "source": "Ontario MLAS operational claims (OGSEarth / LIO MapServer). Unofficial viewing data, not legal title.", "as_of": "2026-09-20", "role": "focus", "color": "#e8b040"}}, {"type": "Feature", "geometry": {"type": "Polygon", "coordinates": [[[-83.3438, 53.5417], [-83.3438, 53.5458], [-83.35, 53.5458], [-83.35, 53.5417], [-83.3438, 53.5417]]]}, "properties": {"company_id": "fancamp-exploration", "jurisdiction": "Ontario", "claim_id": "318252", "claim_name": null, "holder": "(100) FANCAMP EXPLORATION LTD.", "status": "Active", "recorded_date": "2018-04-10", "anniversary_or_expiry": "2029-04-21", "area_ha": null, "tenure_type": "Single Cell Mining Claim", "source": "Ontario MLAS operational claims (OGSEarth / LIO MapServer). Unofficial viewing data, not legal title.", "as_of": "2026-09-20", "role": "focus", "color": "#e8b040"}}, {"type": "Feature", "geometry": {"type": "Polygon", "coordinates": [[[-83.3125, 53.5583], [-83.3125, 53.5625], [-83.3188, 53.5625], [-83.3188, 53.5583], [-83.3125, 53.5583]]]}, "properties": {"company_id": "fancamp-exploration", "jurisdiction": "Ontario", "claim_id": "317310", "claim_name": null, "holder": "(100) FANCAMP EXPLORATION LTD.", "status": "Active", "recorded_date": "2018-04-10", "anniversary_or_expiry": "2029-04-21", "area_ha": null, "tenure_type": "Single Cell Mining Claim", "source": "Ontario MLAS operational claims (OGSEarth / LIO MapServer). Unofficial viewing data, not legal title.", "as_of": "2026-09-20", "role": "focus", "color": "#e8b040"}}, {"type": "Feature", "geometry": {"type": "Polygon", "coordinates": [[[-83.3063, 53.5625], [-83.3063, 53.5667], [-83.3125, 53.5667], [-83.3125, 53.5625], [-83.3063, 53.5625]]]}, "properties": {"company_id": "fancamp-exploration", "jurisdiction": "Ontario", "claim_id": "332604", "claim_name": null, "holder": "(100) FANCAMP EXPLORATION LTD.", "status": "Active", "recorded_date": "2018-04-10", "anniversary_or_expiry": "2029-04-21", "area_ha": null, "tenure_type": "Single Cell Mining Claim", "source": "Ontario MLAS operational claims (OGSEarth / LIO MapServer). Unofficial viewing data, not legal title.", "as_of": "2026-09-20", "role": "focus", "color": "#e8b040"}}, {"type": "Feature", "geometry": {"type": "Polygon", "coordinates": [[[-83.3125, 53.55], [-83.3125, 53.5542], [-83.3188, 53.5542], [-83.3188, 53.55], [-83.3125, 53.55]]]}, "properties": {"company_id": "fancamp-exploration", "jurisdiction": "Ontario", "claim_id": "332605", "claim_name": null, "holder": "(100) FANCAMP EXPLORATION LTD.", "status": "Active", "recorded_date": "2018-04-10", "anniversary_or_expiry": "2029-04-21", "area_ha": null, "tenure_type": "Single Cell Mining Claim", "source": "Ontario MLAS operational claims (OGSEarth / LIO MapServer). Unofficial viewing data, not legal title.", "as_of": "2026-09-20", "role": "focus", "color": "#e8b040"}}, {"type": "Feature", "geometry": {"type": "Polygon", "coordinates": [[[-83.35, 53.5708], [-83.35, 53.575], [-83.3563, 53.575], [-83.3563, 53.5708], [-83.35, 53.5708]]]}, "properties": {"company_id": "fancamp-exploration", "jurisdiction": "Ontario", "claim_id": "332177", "claim_name": null, "holder": "(100) FANCAMP EXPLORATION LTD.", "status": "Active", "recorded_date": "2018-04-10", "anniversary_or_expiry": "2029-04-21", "area_ha": null, "tenure_type": "Single Cell Mining Claim", "source": "Ontario MLAS operational claims (OGSEarth / LIO MapServer). Unofficial viewing data, not legal title.", "as_of": "2026-09-20", "role": "focus", "color": "#e8b040"}}, {"type": "Feature", "geometry": {"type": "Polygon", "coordinates": [[[-83.3125, 53.5625], [-83.3125, 53.5667], [-83.3188, 53.5667], [-83.3188, 53.5625], [-83.3125, 53.5625]]]}, "properties": {"company_id": "fancamp-exploration", "jurisdiction": "Ontario", "claim_id": "330626", "claim_name": null, "holder": "(100) FANCAMP EXPLORATION LTD.", "status": "Active", "recorded_date": "2018-04-10", "anniversary_or_expiry": "2029-04-21", "area_ha": null, "tenure_type": "Single Cell Mining Claim", "source": "Ontario MLAS operational claims (OGSEarth / LIO MapServer). Unofficial viewing data, not legal title.", "as_of": "2026-09-20", "role": "focus", "color": "#e8b040"}}, {"type": "Feature", "geometry": {"type": "Polygon", "coordinates": [[[-83.3563, 53.5667], [-83.3563, 53.5708], [-83.3625, 53.5708], [-83.3625, 53.5667], [-83.3563, 53.5667]]]}, "properties": {"company_id": "fancamp-exploration", "jurisdiction": "Ontario", "claim_id": "337048", "claim_name": null, "holder": "(100) FANCAMP EXPLORATION LTD.", "status": "Active", "recorded_date": "2018-04-10", "anniversary_or_expiry": "2029-04-21", "area_ha": null, "tenure_type": "Single Cell Mining Claim", "source": "Ontario MLAS operational claims (OGSEarth / LIO MapServer). Unofficial viewing data, not legal title.", "as_of": "2026-09-20", "role": "focus", "color": "#e8b040"}}, {"type": "Feature", "geometry": {"type": "Polygon", "coordinates": [[[-83.3375, 53.55], [-83.3375, 53.5542], [-83.3438, 53.5542], [-83.3438, 53.55], [-83.3375, 53.55]]]}, "properties": {"company_id": "fancamp-exploration", "jurisdiction": "Ontario", "claim_id": "337049", "claim_name": null, "holder": "(100) FANCAMP EXPLORATION LTD.", "status": "Active", "recorded_date": "2018-04-10", "anniversary_or_expiry": "2029-04-21", "area_ha": null, "tenure_type": "Single Cell Mining Claim", "source": "Ontario MLAS operational claims (OGSEarth / LIO MapServer). Unofficial viewing data, not legal title.", "as_of": "2026-09-20", "role": "focus", "color": "#e8b040"}}, {"type": "Feature", "geometry": {"type": "Polygon", "coordinates": [[[-83.35, 53.5375], [-83.35, 53.5417], [-83.3563, 53.5417], [-83.3563, 53.5375], [-83.35, 53.5375]]]}, "properties": {"company_id": "fancamp-exploration", "jurisdiction": "Ontario", "claim_id": "339066", "claim_name": null, "holder": "(100) FANCAMP EXPLORATION LTD.", "status": "Active", "recorded_date": "2018-04-10", "anniversary_or_expiry": "2029-04-21", "area_ha": null, "tenure_type": "Single Cell Mining Claim", "source": "Ontario MLAS operational claims (OGSEarth / LIO MapServer). Unofficial viewing data, not legal title.", "as_of": "2026-09-20", "role": "focus", "color": "#e8b040"}}, {"type": "Feature", "geometry": {"type": "Polygon", "coordinates": [[[-83.3375, 53.5458], [-83.3375, 53.55], [-83.3438, 53.55], [-83.3438, 53.5458], [-83.3375, 53.5458]]]}, "properties": {"company_id": "fancamp-exploration", "jurisdiction": "Ontario", "claim_id": "339125", "claim_name": null, "holder": "(100) FANCAMP EXPLORATION LTD.", "status": "Active", "recorded_date": "2018-04-10", "anniversary_or_expiry": "2029-04-21", "area_ha": null, "tenure_type": "Single Cell Mining Claim", "source": "Ontario MLAS operational claims (OGSEarth / LIO MapServer). Unofficial viewing data, not legal title.", "as_of": "2026-09-20", "role": "focus", "color": "#e8b040"}}, {"type": "Feature", "geometry": {"type": "Polygon", "coordinates": [[[-83.3438, 53.5458], [-83.3438, 53.55], [-83.35, 53.55], [-83.35, 53.5458], [-83.3438, 53.5458]]]}, "properties": {"company_id": "fancamp-exploration", "jurisdiction": "Ontario", "claim_id": "339126", "claim_name": null, "holder": "(100) FANCAMP EXPLORATION LTD.", "status": "Active", "recorded_date": "2018-04-10", "anniversary_or_expiry": "2029-04-21", "area_ha": null, "tenure_type": "Single Cell Mining Claim", "source": "Ontario MLAS operational claims (OGSEarth / LIO MapServer). Unofficial viewing data, not legal title.", "as_of": "2026-09-20", "role": "focus", "color": "#e8b040"}}, {"type": "Feature", "geometry": {"type": "Polygon", "coordinates": [[[-83.3, 53.5375], [-83.3, 53.5417], [-83.3063, 53.5417], [-83.3063, 53.5375], [-83.3, 53.5375]]]}, "properties": {"company_id": "fancamp-exploration", "jurisdiction": "Ontario", "claim_id": "341865", "claim_name": null, "holder": "(100) FANCAMP EXPLORATION LTD.", "status": "Active", "recorded_date": "2018-04-10", "anniversary_or_expiry": "2029-04-21", "area_ha": null, "tenure_type": "Single Cell Mining Claim", "source": "Ontario MLAS operational claims (OGSEarth / LIO MapServer). Unofficial viewing data, not legal title.", "as_of": "2026-09-20", "role": "focus", "color": "#e8b040"}}]}