{"type": "FeatureCollection", "features": [{"type": "Feature", "geometry": {"type": "Polygon", "coordinates": [[[-119.802, 51.171], [-119.804, 51.1706], [-119.8091, 51.1655], [-119.8102, 51.1653], [-119.8097, 51.1643], [-119.8243, 51.1607], [-119.8258, 51.1593], [-119.8269, 51.1569], [-119.8269, 51.1441], [-119.8159, 51.1441], [-119.816, 51.1446], [-119.8085, 51.1458], [-119.8094, 51.1484], [-119.8092, 51.1503], [-119.8126, 51.1541], [-119.8121, 51.1557], [-119.8132, 51.156], [-119.8124, 51.1592], [-119.8087, 51.1602], [-119.8078, 51.1613], [-119.8041, 51.1633], [-119.7983, 51.1639], [-119.796, 51.1654], [-119.7963, 51.1669], [-119.7937, 51.168], [-119.799, 51.171], [-119.802, 51.171]]]}, "properties": {"company_id": "first-quantum-minerals", "jurisdiction": "British Columbia", "claim_id": 219959, "claim_name": null, "holder": "FIRST QUANTUM MINERALS LTD.", "status": "Mineral", "recorded_date": "6233760000", "anniversary_or_expiry": "2025-10-03", "area_ha": 289, "tenure_type": "Mineral", "source": "BC MTA Mineral, Placer and Coal Tenure Spatial View (BCGW). Open Government Licence - British Columbia. Not legal title.", "as_of": "2026-09-20", "role": "focus", "color": "#e8b040"}}, {"type": "Feature", "geometry": {"type": "Polygon", "coordinates": [[[-120.7638, 50.3249], [-120.77, 50.3249], [-120.77, 50.3207], [-120.7575, 50.3207], [-120.7575, 50.3124], [-120.7513, 50.3124], [-120.7513, 50.3249], [-120.7638, 50.3249]]]}, "properties": {"company_id": "first-quantum-minerals", "jurisdiction": "British Columbia", "claim_id": 544671, "claim_name": "ZONE 2 NE", "holder": "FIRST ATLANTIC NICKEL CORP.", "status": "Mineral", "recorded_date": "2006-10-30", "anniversary_or_expiry": "2027-05-11", "area_ha": 103.15140000000001, "tenure_type": "Mineral", "source": "BC MTA Mineral, Placer and Coal Tenure Spatial View (BCGW). Open Government Licence - British Columbia. Not legal title.", "as_of": "2026-09-20", "role": "focus", "color": "#e8b040"}}]}