{"type": "FeatureCollection", "features": [{"type": "Feature", "geometry": {"type": "Polygon", "coordinates": [[[-80.6813, 48.85], [-80.6813, 48.8542], [-80.6875, 48.8542], [-80.6875, 48.85], [-80.6813, 48.85]]]}, "properties": {"company_id": "freeman-gold", "jurisdiction": "Ontario", "claim_id": "929285", "claim_name": null, "holder": "(100) Freeman  Smith", "status": "Active", "recorded_date": "2025-02-13", "anniversary_or_expiry": "2027-02-13", "area_ha": null, "tenure_type": "Single Cell Mining Claim", "source": "Ontario MLAS operational claims (OGSEarth / LIO MapServer). Unofficial viewing data, not legal title.", "as_of": "2026-09-20", "role": "focus", "color": "#e8b040"}}, {"type": "Feature", "geometry": {"type": "Polygon", "coordinates": [[[-80.6625, 48.85], [-80.6625, 48.8542], [-80.6688, 48.8542], [-80.6688, 48.85], [-80.6625, 48.85]]]}, "properties": {"company_id": "freeman-gold", "jurisdiction": "Ontario", "claim_id": "929286", "claim_name": null, "holder": "(100) Freeman  Smith", "status": "Active", "recorded_date": "2025-02-13", "anniversary_or_expiry": "2027-02-13", "area_ha": null, "tenure_type": "Single Cell Mining Claim", "source": "Ontario MLAS operational claims (OGSEarth / LIO MapServer). Unofficial viewing data, not legal title.", "as_of": "2026-09-20", "role": "focus", "color": "#e8b040"}}, {"type": "Feature", "geometry": {"type": "Polygon", "coordinates": [[[-80.65, 48.8542], [-80.65, 48.8583], [-80.6563, 48.8583], [-80.6563, 48.8542], [-80.65, 48.8542]]]}, "properties": {"company_id": "freeman-gold", "jurisdiction": "Ontario", "claim_id": "929287", "claim_name": null, "holder": "(100) Freeman  Smith", "status": "Active", "recorded_date": "2025-02-13", "anniversary_or_expiry": "2027-02-13", "area_ha": null, "tenure_type": "Single Cell Mining Claim", "source": "Ontario MLAS operational claims (OGSEarth / LIO MapServer). Unofficial viewing data, not legal title.", "as_of": "2026-09-20", "role": "focus", "color": "#e8b040"}}, {"type": "Feature", "geometry": {"type": "Polygon", "coordinates": [[[-80.6563, 48.85], [-80.6563, 48.8542], [-80.6625, 48.8542], [-80.6625, 48.85], [-80.6563, 48.85]]]}, "properties": {"company_id": "freeman-gold", "jurisdiction": "Ontario", "claim_id": "929288", "claim_name": null, "holder": "(100) Freeman  Smith", "status": "Active", "recorded_date": "2025-02-13", "anniversary_or_expiry": "2027-02-13", "area_ha": null, "tenure_type": "Single Cell Mining Claim", "source": "Ontario MLAS operational claims (OGSEarth / LIO MapServer). Unofficial viewing data, not legal title.", "as_of": "2026-09-20", "role": "focus", "color": "#e8b040"}}, {"type": "Feature", "geometry": {"type": "Polygon", "coordinates": [[[-80.675, 48.85], [-80.675, 48.8542], [-80.6813, 48.8542], [-80.6813, 48.85], [-80.675, 48.85]]]}, "properties": {"company_id": "freeman-gold", "jurisdiction": "Ontario", "claim_id": "929289", "claim_name": null, "holder": "(100) Freeman  Smith", "status": "Active", "recorded_date": "2025-02-13", "anniversary_or_expiry": "2027-02-13", "area_ha": null, "tenure_type": "Single Cell Mining Claim", "source": "Ontario MLAS operational claims (OGSEarth / LIO MapServer). Unofficial viewing data, not legal title.", "as_of": "2026-09-20", "role": "focus", "color": "#e8b040"}}, {"type": "Feature", "geometry": {"type": "Polygon", "coordinates": [[[-80.6688, 48.85], [-80.6688, 48.8542], [-80.675, 48.8542], [-80.675, 48.85], [-80.6688, 48.85]]]}, "properties": {"company_id": "freeman-gold", "jurisdiction": "Ontario", "claim_id": "929290", "claim_name": null, "holder": "(100) Freeman  Smith", "status": "Active", "recorded_date": "2025-02-13", "anniversary_or_expiry": "2027-02-13", "area_ha": null, "tenure_type": "Single Cell Mining Claim", "source": "Ontario MLAS operational claims (OGSEarth / LIO MapServer). Unofficial viewing data, not legal title.", "as_of": "2026-09-20", "role": "focus", "color": "#e8b040"}}, {"type": "Feature", "geometry": {"type": "Polygon", "coordinates": [[[-80.6688, 48.8542], [-80.6688, 48.8583], [-80.675, 48.8583], [-80.675, 48.8542], [-80.6688, 48.8542]]]}, "properties": {"company_id": "freeman-gold", "jurisdiction": "Ontario", "claim_id": "929291", "claim_name": null, "holder": "(100) Freeman  Smith", "status": "Active", "recorded_date": "2025-02-13", "anniversary_or_expiry": "2027-02-13", "area_ha": null, "tenure_type": "Single Cell Mining Claim", "source": "Ontario MLAS operational claims (OGSEarth / LIO MapServer). Unofficial viewing data, not legal title.", "as_of": "2026-09-20", "role": "focus", "color": "#e8b040"}}, {"type": "Feature", "geometry": {"type": "Polygon", "coordinates": [[[-80.6563, 48.8542], [-80.6563, 48.8583], [-80.6625, 48.8583], [-80.6625, 48.8542], [-80.6563, 48.8542]]]}, "properties": {"company_id": "freeman-gold", "jurisdiction": "Ontario", "claim_id": "929292", "claim_name": null, "holder": "(100) Freeman  Smith", "status": "Active", "recorded_date": "2025-02-13", "anniversary_or_expiry": "2027-02-13", "area_ha": null, "tenure_type": "Single Cell Mining Claim", "source": "Ontario MLAS operational claims (OGSEarth / LIO MapServer). Unofficial viewing data, not legal title.", "as_of": "2026-09-20", "role": "focus", "color": "#e8b040"}}, {"type": "Feature", "geometry": {"type": "Polygon", "coordinates": [[[-80.65, 48.8458], [-80.65, 48.85], [-80.6563, 48.85], [-80.6563, 48.8458], [-80.65, 48.8458]]]}, "properties": {"company_id": "freeman-gold", "jurisdiction": "Ontario", "claim_id": "929293", "claim_name": null, "holder": "(100) Freeman  Smith", "status": "Active", "recorded_date": "2025-02-13", "anniversary_or_expiry": "2027-02-13", "area_ha": null, "tenure_type": "Single Cell Mining Claim", "source": "Ontario MLAS operational claims (OGSEarth / LIO MapServer). Unofficial viewing data, not legal title.", "as_of": "2026-09-20", "role": "focus", "color": "#e8b040"}}, {"type": "Feature", "geometry": {"type": "Polygon", "coordinates": [[[-80.65, 48.85], [-80.65, 48.8542], [-80.6563, 48.8542], [-80.6563, 48.85], [-80.65, 48.85]]]}, "properties": {"company_id": "freeman-gold", "jurisdiction": "Ontario", "claim_id": "929294", "claim_name": null, "holder": "(100) Freeman  Smith", "status": "Active", "recorded_date": "2025-02-13", "anniversary_or_expiry": "2027-02-13", "area_ha": null, "tenure_type": "Single Cell Mining Claim", "source": "Ontario MLAS operational claims (OGSEarth / LIO MapServer). Unofficial viewing data, not legal title.", "as_of": "2026-09-20", "role": "focus", "color": "#e8b040"}}, {"type": "Feature", "geometry": {"type": "Polygon", "coordinates": [[[-80.6813, 48.8542], [-80.6813, 48.8583], [-80.6875, 48.8583], [-80.6875, 48.8542], [-80.6813, 48.8542]]]}, "properties": {"company_id": "freeman-gold", "jurisdiction": "Ontario", "claim_id": "929295", "claim_name": null, "holder": "(100) Freeman  Smith", "status": "Active", "recorded_date": "2025-02-13", "anniversary_or_expiry": "2027-02-13", "area_ha": null, "tenure_type": "Single Cell Mining Claim", "source": "Ontario MLAS operational claims (OGSEarth / LIO MapServer). Unofficial viewing data, not legal title.", "as_of": "2026-09-20", "role": "focus", "color": "#e8b040"}}, {"type": "Feature", "geometry": {"type": "Polygon", "coordinates": [[[-80.675, 48.8542], [-80.675, 48.8583], [-80.6813, 48.8583], [-80.6813, 48.8542], [-80.675, 48.8542]]]}, "properties": {"company_id": "freeman-gold", "jurisdiction": "Ontario", "claim_id": "929296", "claim_name": null, "holder": "(100) Freeman  Smith", "status": "Active", "recorded_date": "2025-02-13", "anniversary_or_expiry": "2027-02-13", "area_ha": null, "tenure_type": "Single Cell Mining Claim", "source": "Ontario MLAS operational claims (OGSEarth / LIO MapServer). Unofficial viewing data, not legal title.", "as_of": "2026-09-20", "role": "focus", "color": "#e8b040"}}, {"type": "Feature", "geometry": {"type": "Polygon", "coordinates": [[[-80.6625, 48.8542], [-80.6625, 48.8583], [-80.6688, 48.8583], [-80.6688, 48.8542], [-80.6625, 48.8542]]]}, "properties": {"company_id": "freeman-gold", "jurisdiction": "Ontario", "claim_id": "929297", "claim_name": null, "holder": "(100) Freeman  Smith", "status": "Active", "recorded_date": "2025-02-13", "anniversary_or_expiry": "2027-02-13", "area_ha": null, "tenure_type": "Single Cell Mining Claim", "source": "Ontario MLAS operational claims (OGSEarth / LIO MapServer). Unofficial viewing data, not legal title.", "as_of": "2026-09-20", "role": "focus", "color": "#e8b040"}}, {"type": "Feature", "geometry": {"type": "Polygon", "coordinates": [[[-80.6625, 48.8417], [-80.6625, 48.8458], [-80.6688, 48.8458], [-80.6688, 48.8417], [-80.6625, 48.8417]]]}, "properties": {"company_id": "freeman-gold", "jurisdiction": "Ontario", "claim_id": "931626", "claim_name": null, "holder": "(100) Freeman  Smith", "status": "Active", "recorded_date": "2025-02-19", "anniversary_or_expiry": "2027-02-19", "area_ha": null, "tenure_type": "Single Cell Mining Claim", "source": "Ontario MLAS operational claims (OGSEarth / LIO MapServer). Unofficial viewing data, not legal title.", "as_of": "2026-09-20", "role": "focus", "color": "#e8b040"}}, {"type": "Feature", "geometry": {"type": "Polygon", "coordinates": [[[-80.6563, 48.8417], [-80.6563, 48.8458], [-80.6625, 48.8458], [-80.6625, 48.8417], [-80.6563, 48.8417]]]}, "properties": {"company_id": "freeman-gold", "jurisdiction": "Ontario", "claim_id": "931627", "claim_name": null, "holder": "(100) Freeman  Smith", "status": "Active", "recorded_date": "2025-02-19", "anniversary_or_expiry": "2027-02-19", "area_ha": null, "tenure_type": "Single Cell Mining Claim", "source": "Ontario MLAS operational claims (OGSEarth / LIO MapServer). Unofficial viewing data, not legal title.", "as_of": "2026-09-20", "role": "focus", "color": "#e8b040"}}, {"type": "Feature", "geometry": {"type": "Polygon", "coordinates": [[[-80.6813, 48.8417], [-80.6813, 48.8458], [-80.6875, 48.8458], [-80.6875, 48.8417], [-80.6813, 48.8417]]]}, "properties": {"company_id": "freeman-gold", "jurisdiction": "Ontario", "claim_id": "931628", "claim_name": null, "holder": "(100) Freeman  Smith", "status": "Active", "recorded_date": "2025-02-19", "anniversary_or_expiry": "2027-02-19", "area_ha": null, "tenure_type": "Single Cell Mining Claim", "source": "Ontario MLAS operational claims (OGSEarth / LIO MapServer). Unofficial viewing data, not legal title.", "as_of": "2026-09-20", "role": "focus", "color": "#e8b040"}}, {"type": "Feature", "geometry": {"type": "Polygon", "coordinates": [[[-80.65, 48.8417], [-80.65, 48.8458], [-80.6563, 48.8458], [-80.6563, 48.8417], [-80.65, 48.8417]]]}, "properties": {"company_id": "freeman-gold", "jurisdiction": "Ontario", "claim_id": "931629", "claim_name": null, "holder": "(100) Freeman  Smith", "status": "Active", "recorded_date": "2025-02-19", "anniversary_or_expiry": "2027-02-19", "area_ha": null, "tenure_type": "Single Cell Mining Claim", "source": "Ontario MLAS operational claims (OGSEarth / LIO MapServer). Unofficial viewing data, not legal title.", "as_of": "2026-09-20", "role": "focus", "color": "#e8b040"}}, {"type": "Feature", "geometry": {"type": "Polygon", "coordinates": [[[-80.6688, 48.8417], [-80.6688, 48.8458], [-80.675, 48.8458], [-80.675, 48.8417], [-80.6688, 48.8417]]]}, "properties": {"company_id": "freeman-gold", "jurisdiction": "Ontario", "claim_id": "931630", "claim_name": null, "holder": "(100) Freeman  Smith", "status": "Active", "recorded_date": "2025-02-19", "anniversary_or_expiry": "2027-02-19", "area_ha": null, "tenure_type": "Single Cell Mining Claim", "source": "Ontario MLAS operational claims (OGSEarth / LIO MapServer). Unofficial viewing data, not legal title.", "as_of": "2026-09-20", "role": "focus", "color": "#e8b040"}}, {"type": "Feature", "geometry": {"type": "Polygon", "coordinates": [[[-80.675, 48.8417], [-80.675, 48.8458], [-80.6813, 48.8458], [-80.6813, 48.8417], [-80.675, 48.8417]]]}, "properties": {"company_id": "freeman-gold", "jurisdiction": "Ontario", "claim_id": "931631", "claim_name": null, "holder": "(100) Freeman  Smith", "status": "Active", "recorded_date": "2025-02-19", "anniversary_or_expiry": "2027-02-19", "area_ha": null, "tenure_type": "Single Cell Mining Claim", "source": "Ontario MLAS operational claims (OGSEarth / LIO MapServer). Unofficial viewing data, not legal title.", "as_of": "2026-09-20", "role": "focus", "color": "#e8b040"}}, {"type": "Feature", "geometry": {"type": "Polygon", "coordinates": [[[-80.6813, 48.8458], [-80.6813, 48.85], [-80.6875, 48.85], [-80.6875, 48.8458], [-80.6813, 48.8458]]]}, "properties": {"company_id": "freeman-gold", "jurisdiction": "Ontario", "claim_id": "931632", "claim_name": null, "holder": "(100) Freeman  Smith", "status": "Active", "recorded_date": "2025-02-19", "anniversary_or_expiry": "2027-02-19", "area_ha": null, "tenure_type": "Single Cell Mining Claim", "source": "Ontario MLAS operational claims (OGSEarth / LIO MapServer). Unofficial viewing data, not legal title.", "as_of": "2026-09-20", "role": "focus", "color": "#e8b040"}}, {"type": "Feature", "geometry": {"type": "Polygon", "coordinates": [[[-80.6438, 48.8583], [-80.6438, 48.8625], [-80.65, 48.8625], [-80.65, 48.8583], [-80.6438, 48.8583]]]}, "properties": {"company_id": "freeman-gold", "jurisdiction": "Ontario", "claim_id": "941851", "claim_name": null, "holder": "(100) Freeman  Smith", "status": "Active", "recorded_date": "2025-04-04", "anniversary_or_expiry": "2027-04-04", "area_ha": null, "tenure_type": "Single Cell Mining Claim", "source": "Ontario MLAS operational claims (OGSEarth / LIO MapServer). Unofficial viewing data, not legal title.", "as_of": "2026-09-20", "role": "focus", "color": "#e8b040"}}, {"type": "Feature", "geometry": {"type": "Polygon", "coordinates": [[[-80.65, 48.8667], [-80.65, 48.8708], [-80.6563, 48.8708], [-80.6563, 48.8667], [-80.65, 48.8667]]]}, "properties": {"company_id": "freeman-gold", "jurisdiction": "Ontario", "claim_id": "941852", "claim_name": null, "holder": "(100) Freeman  Smith", "status": "Active", "recorded_date": "2025-04-04", "anniversary_or_expiry": "2027-04-04", "area_ha": null, "tenure_type": "Single Cell Mining Claim", "source": "Ontario MLAS operational claims (OGSEarth / LIO MapServer). Unofficial viewing data, not legal title.", "as_of": "2026-09-20", "role": "focus", "color": "#e8b040"}}, {"type": "Feature", "geometry": {"type": "Polygon", "coordinates": [[[-80.6625, 48.8625], [-80.6625, 48.8667], [-80.6688, 48.8667], [-80.6688, 48.8625], [-80.6625, 48.8625]]]}, "properties": {"company_id": "freeman-gold", "jurisdiction": "Ontario", "claim_id": "941853", "claim_name": null, "holder": "(100) Freeman  Smith", "status": "Active", "recorded_date": "2025-04-04", "anniversary_or_expiry": "2027-04-04", "area_ha": null, "tenure_type": "Single Cell Mining Claim", "source": "Ontario MLAS operational claims (OGSEarth / LIO MapServer). Unofficial viewing data, not legal title.", "as_of": "2026-09-20", "role": "focus", "color": "#e8b040"}}, {"type": "Feature", "geometry": {"type": "Polygon", "coordinates": [[[-80.65, 48.8583], [-80.65, 48.8625], [-80.6563, 48.8625], [-80.6563, 48.8583], [-80.65, 48.8583]]]}, "properties": {"company_id": "freeman-gold", "jurisdiction": "Ontario", "claim_id": "941854", "claim_name": null, "holder": "(100) Freeman  Smith", "status": "Active", "recorded_date": "2025-04-04", "anniversary_or_expiry": "2027-04-04", "area_ha": null, "tenure_type": "Single Cell Mining Claim", "source": "Ontario MLAS operational claims (OGSEarth / LIO MapServer). Unofficial viewing data, not legal title.", "as_of": "2026-09-20", "role": "focus", "color": "#e8b040"}}, {"type": "Feature", "geometry": {"type": "Polygon", "coordinates": [[[-80.6563, 48.8583], [-80.6563, 48.8625], [-80.6625, 48.8625], [-80.6625, 48.8583], [-80.6563, 48.8583]]]}, "properties": {"company_id": "freeman-gold", "jurisdiction": "Ontario", "claim_id": "941855", "claim_name": null, "holder": "(100) Freeman  Smith", "status": "Active", "recorded_date": "2025-04-04", "anniversary_or_expiry": "2027-04-04", "area_ha": null, "tenure_type": "Single Cell Mining Claim", "source": "Ontario MLAS operational claims (OGSEarth / LIO MapServer). Unofficial viewing data, not legal title.", "as_of": "2026-09-20", "role": "focus", "color": "#e8b040"}}, {"type": "Feature", "geometry": {"type": "Polygon", "coordinates": [[[-80.6438, 48.8667], [-80.6438, 48.8708], [-80.65, 48.8708], [-80.65, 48.8667], [-80.6438, 48.8667]]]}, "properties": {"company_id": "freeman-gold", "jurisdiction": "Ontario", "claim_id": "941856", "claim_name": null, "holder": "(100) Freeman  Smith", "status": "Active", "recorded_date": "2025-04-04", "anniversary_or_expiry": "2027-04-04", "area_ha": null, "tenure_type": "Single Cell Mining Claim", "source": "Ontario MLAS operational claims (OGSEarth / LIO MapServer). Unofficial viewing data, not legal title.", "as_of": "2026-09-20", "role": "focus", "color": "#e8b040"}}, {"type": "Feature", "geometry": {"type": "Polygon", "coordinates": [[[-80.6625, 48.8667], [-80.6625, 48.8708], [-80.6688, 48.8708], [-80.6688, 48.8667], [-80.6625, 48.8667]]]}, "properties": {"company_id": "freeman-gold", "jurisdiction": "Ontario", "claim_id": "941857", "claim_name": null, "holder": "(100) Freeman  Smith", "status": "Active", "recorded_date": "2025-04-04", "anniversary_or_expiry": "2027-04-04", "area_ha": null, "tenure_type": "Single Cell Mining Claim", "source": "Ontario MLAS operational claims (OGSEarth / LIO MapServer). Unofficial viewing data, not legal title.", "as_of": "2026-09-20", "role": "focus", "color": "#e8b040"}}, {"type": "Feature", "geometry": {"type": "Polygon", "coordinates": [[[-80.6563, 48.8667], [-80.6563, 48.8708], [-80.6625, 48.8708], [-80.6625, 48.8667], [-80.6563, 48.8667]]]}, "properties": {"company_id": "freeman-gold", "jurisdiction": "Ontario", "claim_id": "941858", "claim_name": null, "holder": "(100) Freeman  Smith", "status": "Active", "recorded_date": "2025-04-04", "anniversary_or_expiry": "2027-04-04", "area_ha": null, "tenure_type": "Single Cell Mining Claim", "source": "Ontario MLAS operational claims (OGSEarth / LIO MapServer). Unofficial viewing data, not legal title.", "as_of": "2026-09-20", "role": "focus", "color": "#e8b040"}}, {"type": "Feature", "geometry": {"type": "Polygon", "coordinates": [[[-80.65, 48.8625], [-80.65, 48.8667], [-80.6563, 48.8667], [-80.6563, 48.8625], [-80.65, 48.8625]]]}, "properties": {"company_id": "freeman-gold", "jurisdiction": "Ontario", "claim_id": "941859", "claim_name": null, "holder": "(100) Freeman  Smith", "status": "Active", "recorded_date": "2025-04-04", "anniversary_or_expiry": "2027-04-04", "area_ha": null, "tenure_type": "Single Cell Mining Claim", "source": "Ontario MLAS operational claims (OGSEarth / LIO MapServer). Unofficial viewing data, not legal title.", "as_of": "2026-09-20", "role": "focus", "color": "#e8b040"}}, {"type": "Feature", "geometry": {"type": "Polygon", "coordinates": [[[-80.6625, 48.8583], [-80.6625, 48.8625], [-80.6688, 48.8625], [-80.6688, 48.8583], [-80.6625, 48.8583]]]}, "properties": {"company_id": "freeman-gold", "jurisdiction": "Ontario", "claim_id": "941860", "claim_name": null, "holder": "(100) Freeman  Smith", "status": "Active", "recorded_date": "2025-04-04", "anniversary_or_expiry": "2027-04-04", "area_ha": null, "tenure_type": "Single Cell Mining Claim", "source": "Ontario MLAS operational claims (OGSEarth / LIO MapServer). Unofficial viewing data, not legal title.", "as_of": "2026-09-20", "role": "focus", "color": "#e8b040"}}, {"type": "Feature", "geometry": {"type": "Polygon", "coordinates": [[[-80.6563, 48.8625], [-80.6563, 48.8667], [-80.6625, 48.8667], [-80.6625, 48.8625], [-80.6563, 48.8625]]]}, "properties": {"company_id": "freeman-gold", "jurisdiction": "Ontario", "claim_id": "941861", "claim_name": null, "holder": "(100) Freeman  Smith", "status": "Active", "recorded_date": "2025-04-04", "anniversary_or_expiry": "2027-04-04", "area_ha": null, "tenure_type": "Single Cell Mining Claim", "source": "Ontario MLAS operational claims (OGSEarth / LIO MapServer). Unofficial viewing data, not legal title.", "as_of": "2026-09-20", "role": "focus", "color": "#e8b040"}}, {"type": "Feature", "geometry": {"type": "Polygon", "coordinates": [[[-80.6438, 48.8625], [-80.6438, 48.8667], [-80.65, 48.8667], [-80.65, 48.8625], [-80.6438, 48.8625]]]}, "properties": {"company_id": "freeman-gold", "jurisdiction": "Ontario", "claim_id": "941862", "claim_name": null, "holder": "(100) Freeman  Smith", "status": "Active", "recorded_date": "2025-04-04", "anniversary_or_expiry": "2027-04-04", "area_ha": null, "tenure_type": "Single Cell Mining Claim", "source": "Ontario MLAS operational claims (OGSEarth / LIO MapServer). Unofficial viewing data, not legal title.", "as_of": "2026-09-20", "role": "focus", "color": "#e8b040"}}, {"type": "Feature", "geometry": {"type": "Polygon", "coordinates": [[[-80.6188, 48.8375], [-80.6188, 48.8417], [-80.625, 48.8417], [-80.625, 48.8375], [-80.6188, 48.8375]]]}, "properties": {"company_id": "freeman-gold", "jurisdiction": "Ontario", "claim_id": "941863", "claim_name": null, "holder": "(100) Freeman  Smith", "status": "Active", "recorded_date": "2025-04-04", "anniversary_or_expiry": "2027-04-04", "area_ha": null, "tenure_type": "Single Cell Mining Claim", "source": "Ontario MLAS operational claims (OGSEarth / LIO MapServer). Unofficial viewing data, not legal title.", "as_of": "2026-09-20", "role": "focus", "color": "#e8b040"}}, {"type": "Feature", "geometry": {"type": "Polygon", "coordinates": [[[-80.6125, 48.8375], [-80.6125, 48.8417], [-80.6188, 48.8417], [-80.6188, 48.8375], [-80.6125, 48.8375]]]}, "properties": {"company_id": "freeman-gold", "jurisdiction": "Ontario", "claim_id": "941864", "claim_name": null, "holder": "(100) Freeman  Smith", "status": "Active", "recorded_date": "2025-04-04", "anniversary_or_expiry": "2027-04-04", "area_ha": null, "tenure_type": "Single Cell Mining Claim", "source": "Ontario MLAS operational claims (OGSEarth / LIO MapServer). Unofficial viewing data, not legal title.", "as_of": "2026-09-20", "role": "focus", "color": "#e8b040"}}, {"type": "Feature", "geometry": {"type": "Polygon", "coordinates": [[[-80.6188, 48.8417], [-80.6188, 48.8458], [-80.625, 48.8458], [-80.625, 48.8417], [-80.6188, 48.8417]]]}, "properties": {"company_id": "freeman-gold", "jurisdiction": "Ontario", "claim_id": "941865", "claim_name": null, "holder": "(100) Freeman  Smith", "status": "Active", "recorded_date": "2025-04-04", "anniversary_or_expiry": "2027-04-04", "area_ha": null, "tenure_type": "Single Cell Mining Claim", "source": "Ontario MLAS operational claims (OGSEarth / LIO MapServer). Unofficial viewing data, not legal title.", "as_of": "2026-09-20", "role": "focus", "color": "#e8b040"}}]}