{"type": "FeatureCollection", "features": [{"type": "Feature", "geometry": {"type": "Polygon", "coordinates": [[[-80.3188, 46.6667], [-80.3188, 46.6708], [-80.325, 46.6708], [-80.325, 46.6667], [-80.3188, 46.6667]]]}, "properties": {"company_id": "freegold-ventures", "jurisdiction": "Ontario", "claim_id": "108177", "claim_name": null, "holder": "(30) FREEGOLD VENTURES LIMITED, (70) NEW AGE METALS INC.", "status": "Active", "recorded_date": "2018-04-10", "anniversary_or_expiry": "2027-12-10", "area_ha": null, "tenure_type": "Single Cell Mining Claim", "source": "Ontario MLAS operational claims (OGSEarth / LIO MapServer). Unofficial viewing data, not legal title.", "as_of": "2026-09-20", "role": "focus", "color": "#e8b040"}}, {"type": "Feature", "geometry": {"type": "Polygon", "coordinates": [[[-80.3125, 46.6625], [-80.3125, 46.6667], [-80.3188, 46.6667], [-80.3188, 46.6625], [-80.3125, 46.6625]]]}, "properties": {"company_id": "freegold-ventures", "jurisdiction": "Ontario", "claim_id": "108178", "claim_name": null, "holder": "(30) FREEGOLD VENTURES LIMITED, (70) NEW AGE METALS INC.", "status": "Active", "recorded_date": "2018-04-10", "anniversary_or_expiry": "2027-12-10", "area_ha": null, "tenure_type": "Boundary Cell Mining Claim", "source": "Ontario MLAS operational claims (OGSEarth / LIO MapServer). Unofficial viewing data, not legal title.", "as_of": "2026-09-20", "role": "focus", "color": "#e8b040"}}, {"type": "Feature", "geometry": {"type": "Polygon", "coordinates": [[[-80.3125, 46.6583], [-80.3125, 46.6625], [-80.3188, 46.6625], [-80.3188, 46.6583], [-80.3125, 46.6583]]]}, "properties": {"company_id": "freegold-ventures", "jurisdiction": "Ontario", "claim_id": "126094", "claim_name": null, "holder": "(30) FREEGOLD VENTURES LIMITED, (70) NEW AGE METALS INC.", "status": "Active", "recorded_date": "2018-04-10", "anniversary_or_expiry": "2027-12-17", "area_ha": null, "tenure_type": "Boundary Cell Mining Claim", "source": "Ontario MLAS operational claims (OGSEarth / LIO MapServer). Unofficial viewing data, not legal title.", "as_of": "2026-09-20", "role": "focus", "color": "#e8b040"}}, {"type": "Feature", "geometry": {"type": "Polygon", "coordinates": [[[-80.3188, 46.6625], [-80.3188, 46.6667], [-80.325, 46.6667], [-80.325, 46.6625], [-80.3188, 46.6625]]]}, "properties": {"company_id": "freegold-ventures", "jurisdiction": "Ontario", "claim_id": "137601", "claim_name": null, "holder": "(30) FREEGOLD VENTURES LIMITED, (70) NEW AGE METALS INC.", "status": "Active", "recorded_date": "2018-04-10", "anniversary_or_expiry": "2027-12-10", "area_ha": null, "tenure_type": "Single Cell Mining Claim", "source": "Ontario MLAS operational claims (OGSEarth / LIO MapServer). Unofficial viewing data, not legal title.", "as_of": "2026-09-20", "role": "focus", "color": "#e8b040"}}, {"type": "Feature", "geometry": {"type": "Polygon", "coordinates": [[[-80.3313, 46.6625], [-80.3313, 46.6667], [-80.3375, 46.6667], [-80.3375, 46.6625], [-80.3313, 46.6625]]]}, "properties": {"company_id": "freegold-ventures", "jurisdiction": "Ontario", "claim_id": "137602", "claim_name": null, "holder": "(30) FREEGOLD VENTURES LIMITED, (70) NEW AGE METALS INC.", "status": "Active", "recorded_date": "2018-04-10", "anniversary_or_expiry": "2027-12-10", "area_ha": null, "tenure_type": "Single Cell Mining Claim", "source": "Ontario MLAS operational claims (OGSEarth / LIO MapServer). Unofficial viewing data, not legal title.", "as_of": "2026-09-20", "role": "focus", "color": "#e8b040"}}, {"type": "Feature", "geometry": {"type": "Polygon", "coordinates": [[[-80.3063, 46.65], [-80.3063, 46.6542], [-80.3125, 46.6542], [-80.3125, 46.65], [-80.3063, 46.65]]]}, "properties": {"company_id": "freegold-ventures", "jurisdiction": "Ontario", "claim_id": "155440", "claim_name": null, "holder": "(30) FREEGOLD VENTURES LIMITED, (70) NEW AGE METALS INC.", "status": "Active", "recorded_date": "2018-04-10", "anniversary_or_expiry": "2027-12-17", "area_ha": null, "tenure_type": "Boundary Cell Mining Claim", "source": "Ontario MLAS operational claims (OGSEarth / LIO MapServer). Unofficial viewing data, not legal title.", "as_of": "2026-09-20", "role": "focus", "color": "#e8b040"}}, {"type": "Feature", "geometry": {"type": "Polygon", "coordinates": [[[-80.3375, 46.6667], [-80.3375, 46.6708], [-80.3438, 46.6708], [-80.3438, 46.6667], [-80.3375, 46.6667]]]}, "properties": {"company_id": "freegold-ventures", "jurisdiction": "Ontario", "claim_id": "182812", "claim_name": null, "holder": "(30) FREEGOLD VENTURES LIMITED, (70) NEW AGE METALS INC.", "status": "Active", "recorded_date": "2018-04-10", "anniversary_or_expiry": "2027-12-10", "area_ha": null, "tenure_type": "Boundary Cell Mining Claim", "source": "Ontario MLAS operational claims (OGSEarth / LIO MapServer). Unofficial viewing data, not legal title.", "as_of": "2026-09-20", "role": "focus", "color": "#e8b040"}}, {"type": "Feature", "geometry": {"type": "Polygon", "coordinates": [[[-80.3375, 46.6583], [-80.3375, 46.6625], [-80.3438, 46.6625], [-80.3438, 46.6583], [-80.3375, 46.6583]]]}, "properties": {"company_id": "freegold-ventures", "jurisdiction": "Ontario", "claim_id": "202249", "claim_name": null, "holder": "(30) FREEGOLD VENTURES LIMITED, (70) NEW AGE METALS INC.", "status": "Active", "recorded_date": "2018-04-10", "anniversary_or_expiry": "2027-12-10", "area_ha": null, "tenure_type": "Single Cell Mining Claim", "source": "Ontario MLAS operational claims (OGSEarth / LIO MapServer). Unofficial viewing data, not legal title.", "as_of": "2026-09-20", "role": "focus", "color": "#e8b040"}}, {"type": "Feature", "geometry": {"type": "Polygon", "coordinates": [[[-80.3188, 46.6708], [-80.3188, 46.675], [-80.325, 46.675], [-80.325, 46.6708], [-80.3188, 46.6708]]]}, "properties": {"company_id": "freegold-ventures", "jurisdiction": "Ontario", "claim_id": "219498", "claim_name": null, "holder": "(30) FREEGOLD VENTURES LIMITED, (70) NEW AGE METALS INC.", "status": "Active", "recorded_date": "2018-04-10", "anniversary_or_expiry": "2027-12-10", "area_ha": null, "tenure_type": "Boundary Cell Mining Claim", "source": "Ontario MLAS operational claims (OGSEarth / LIO MapServer). Unofficial viewing data, not legal title.", "as_of": "2026-09-20", "role": "focus", "color": "#e8b040"}}, {"type": "Feature", "geometry": {"type": "Polygon", "coordinates": [[[-80.3313, 46.6667], [-80.3313, 46.6708], [-80.3375, 46.6708], [-80.3375, 46.6667], [-80.3313, 46.6667]]]}, "properties": {"company_id": "freegold-ventures", "jurisdiction": "Ontario", "claim_id": "219499", "claim_name": null, "holder": "(30) FREEGOLD VENTURES LIMITED, (70) NEW AGE METALS INC.", "status": "Active", "recorded_date": "2018-04-10", "anniversary_or_expiry": "2027-12-10", "area_ha": null, "tenure_type": "Single Cell Mining Claim", "source": "Ontario MLAS operational claims (OGSEarth / LIO MapServer). Unofficial viewing data, not legal title.", "as_of": "2026-09-20", "role": "focus", "color": "#e8b040"}}, {"type": "Feature", "geometry": {"type": "Polygon", "coordinates": [[[-80.3313, 46.6583], [-80.3313, 46.6625], [-80.3375, 46.6625], [-80.3375, 46.6583], [-80.3313, 46.6583]]]}, "properties": {"company_id": "freegold-ventures", "jurisdiction": "Ontario", "claim_id": "219500", "claim_name": null, "holder": "(30) FREEGOLD VENTURES LIMITED, (70) NEW AGE METALS INC.", "status": "Active", "recorded_date": "2018-04-10", "anniversary_or_expiry": "2027-12-10", "area_ha": null, "tenure_type": "Single Cell Mining Claim", "source": "Ontario MLAS operational claims (OGSEarth / LIO MapServer). Unofficial viewing data, not legal title.", "as_of": "2026-09-20", "role": "focus", "color": "#e8b040"}}, {"type": "Feature", "geometry": {"type": "Polygon", "coordinates": [[[-80.325, 46.6708], [-80.325, 46.675], [-80.3313, 46.675], [-80.3313, 46.6708], [-80.325, 46.6708]]]}, "properties": {"company_id": "freegold-ventures", "jurisdiction": "Ontario", "claim_id": "238216", "claim_name": null, "holder": "(30) FREEGOLD VENTURES LIMITED, (70) NEW AGE METALS INC.", "status": "Active", "recorded_date": "2018-04-10", "anniversary_or_expiry": "2027-12-10", "area_ha": null, "tenure_type": "Single Cell Mining Claim", "source": "Ontario MLAS operational claims (OGSEarth / LIO MapServer). Unofficial viewing data, not legal title.", "as_of": "2026-09-20", "role": "focus", "color": "#e8b040"}}, {"type": "Feature", "geometry": {"type": "Polygon", "coordinates": [[[-80.3375, 46.6625], [-80.3375, 46.6667], [-80.3438, 46.6667], [-80.3438, 46.6625], [-80.3375, 46.6625]]]}, "properties": {"company_id": "freegold-ventures", "jurisdiction": "Ontario", "claim_id": "238217", "claim_name": null, "holder": "(30) FREEGOLD VENTURES LIMITED, (70) NEW AGE METALS INC.", "status": "Active", "recorded_date": "2018-04-10", "anniversary_or_expiry": "2027-12-10", "area_ha": null, "tenure_type": "Boundary Cell Mining Claim", "source": "Ontario MLAS operational claims (OGSEarth / LIO MapServer). Unofficial viewing data, not legal title.", "as_of": "2026-09-20", "role": "focus", "color": "#e8b040"}}, {"type": "Feature", "geometry": {"type": "Polygon", "coordinates": [[[-80.3125, 46.6708], [-80.3125, 46.675], [-80.3188, 46.675], [-80.3188, 46.6708], [-80.3125, 46.6708]]]}, "properties": {"company_id": "freegold-ventures", "jurisdiction": "Ontario", "claim_id": "256861", "claim_name": null, "holder": "(30) FREEGOLD VENTURES LIMITED, (70) NEW AGE METALS INC.", "status": "Active", "recorded_date": "2018-04-10", "anniversary_or_expiry": "2027-12-10", "area_ha": null, "tenure_type": "Boundary Cell Mining Claim", "source": "Ontario MLAS operational claims (OGSEarth / LIO MapServer). Unofficial viewing data, not legal title.", "as_of": "2026-09-20", "role": "focus", "color": "#e8b040"}}, {"type": "Feature", "geometry": {"type": "Polygon", "coordinates": [[[-80.3375, 46.6708], [-80.3375, 46.675], [-80.3438, 46.675], [-80.3438, 46.6708], [-80.3375, 46.6708]]]}, "properties": {"company_id": "freegold-ventures", "jurisdiction": "Ontario", "claim_id": "256862", "claim_name": null, "holder": "(30) FREEGOLD VENTURES LIMITED, (70) NEW AGE METALS INC.", "status": "Active", "recorded_date": "2018-04-10", "anniversary_or_expiry": "2027-12-10", "area_ha": null, "tenure_type": "Boundary Cell Mining Claim", "source": "Ontario MLAS operational claims (OGSEarth / LIO MapServer). Unofficial viewing data, not legal title.", "as_of": "2026-09-20", "role": "focus", "color": "#e8b040"}}, {"type": "Feature", "geometry": {"type": "Polygon", "coordinates": [[[-80.3125, 46.6542], [-80.3125, 46.6583], [-80.3188, 46.6583], [-80.3188, 46.6542], [-80.3125, 46.6542]]]}, "properties": {"company_id": "freegold-ventures", "jurisdiction": "Ontario", "claim_id": "267334", "claim_name": null, "holder": "(30) FREEGOLD VENTURES LIMITED, (70) NEW AGE METALS INC.", "status": "Active", "recorded_date": "2018-04-10", "anniversary_or_expiry": "2027-12-17", "area_ha": null, "tenure_type": "Single Cell Mining Claim", "source": "Ontario MLAS operational claims (OGSEarth / LIO MapServer). Unofficial viewing data, not legal title.", "as_of": "2026-09-20", "role": "focus", "color": "#e8b040"}}, {"type": "Feature", "geometry": {"type": "Polygon", "coordinates": [[[-80.3125, 46.65], [-80.3125, 46.6542], [-80.3188, 46.6542], [-80.3188, 46.65], [-80.3125, 46.65]]]}, "properties": {"company_id": "freegold-ventures", "jurisdiction": "Ontario", "claim_id": "267335", "claim_name": null, "holder": "(30) FREEGOLD VENTURES LIMITED, (70) NEW AGE METALS INC.", "status": "Active", "recorded_date": "2018-04-10", "anniversary_or_expiry": "2027-12-17", "area_ha": null, "tenure_type": "Single Cell Mining Claim", "source": "Ontario MLAS operational claims (OGSEarth / LIO MapServer). Unofficial viewing data, not legal title.", "as_of": "2026-09-20", "role": "focus", "color": "#e8b040"}}, {"type": "Feature", "geometry": {"type": "Polygon", "coordinates": [[[-80.3125, 46.6458], [-80.3125, 46.65], [-80.3188, 46.65], [-80.3188, 46.6458], [-80.3125, 46.6458]]]}, "properties": {"company_id": "freegold-ventures", "jurisdiction": "Ontario", "claim_id": "274588", "claim_name": null, "holder": "(30) FREEGOLD VENTURES LIMITED, (70) NEW AGE METALS INC.", "status": "Active", "recorded_date": "2018-04-10", "anniversary_or_expiry": "2027-12-17", "area_ha": null, "tenure_type": "Single Cell Mining Claim", "source": "Ontario MLAS operational claims (OGSEarth / LIO MapServer). Unofficial viewing data, not legal title.", "as_of": "2026-09-20", "role": "focus", "color": "#e8b040"}}, {"type": "Feature", "geometry": {"type": "Polygon", "coordinates": [[[-80.3313, 46.6708], [-80.3313, 46.675], [-80.3375, 46.675], [-80.3375, 46.6708], [-80.3313, 46.6708]]]}, "properties": {"company_id": "freegold-ventures", "jurisdiction": "Ontario", "claim_id": "293433", "claim_name": null, "holder": "(30) FREEGOLD VENTURES LIMITED, (70) NEW AGE METALS INC.", "status": "Active", "recorded_date": "2018-04-10", "anniversary_or_expiry": "2027-12-10", "area_ha": null, "tenure_type": "Single Cell Mining Claim", "source": "Ontario MLAS operational claims (OGSEarth / LIO MapServer). Unofficial viewing data, not legal title.", "as_of": "2026-09-20", "role": "focus", "color": "#e8b040"}}, {"type": "Feature", "geometry": {"type": "Polygon", "coordinates": [[[-80.325, 46.6625], [-80.325, 46.6667], [-80.3313, 46.6667], [-80.3313, 46.6625], [-80.325, 46.6625]]]}, "properties": {"company_id": "freegold-ventures", "jurisdiction": "Ontario", "claim_id": "306098", "claim_name": null, "holder": "(30) FREEGOLD VENTURES LIMITED, (70) NEW AGE METALS INC.", "status": "Active", "recorded_date": "2018-04-10", "anniversary_or_expiry": "2027-12-10", "area_ha": null, "tenure_type": "Single Cell Mining Claim", "source": "Ontario MLAS operational claims (OGSEarth / LIO MapServer). Unofficial viewing data, not legal title.", "as_of": "2026-09-20", "role": "focus", "color": "#e8b040"}}, {"type": "Feature", "geometry": {"type": "Polygon", "coordinates": [[[-80.3188, 46.6583], [-80.3188, 46.6625], [-80.325, 46.6625], [-80.325, 46.6583], [-80.3188, 46.6583]]]}, "properties": {"company_id": "freegold-ventures", "jurisdiction": "Ontario", "claim_id": "306099", "claim_name": null, "holder": "(30) FREEGOLD VENTURES LIMITED, (70) NEW AGE METALS INC.", "status": "Active", "recorded_date": "2018-04-10", "anniversary_or_expiry": "2027-12-10", "area_ha": null, "tenure_type": "Single Cell Mining Claim", "source": "Ontario MLAS operational claims (OGSEarth / LIO MapServer). Unofficial viewing data, not legal title.", "as_of": "2026-09-20", "role": "focus", "color": "#e8b040"}}, {"type": "Feature", "geometry": {"type": "Polygon", "coordinates": [[[-80.325, 46.6583], [-80.325, 46.6625], [-80.3313, 46.6625], [-80.3313, 46.6583], [-80.325, 46.6583]]]}, "properties": {"company_id": "freegold-ventures", "jurisdiction": "Ontario", "claim_id": "306100", "claim_name": null, "holder": "(30) FREEGOLD VENTURES LIMITED, (70) NEW AGE METALS INC.", "status": "Active", "recorded_date": "2018-04-10", "anniversary_or_expiry": "2027-12-10", "area_ha": null, "tenure_type": "Single Cell Mining Claim", "source": "Ontario MLAS operational claims (OGSEarth / LIO MapServer). Unofficial viewing data, not legal title.", "as_of": "2026-09-20", "role": "focus", "color": "#e8b040"}}, {"type": "Feature", "geometry": {"type": "Polygon", "coordinates": [[[-80.3063, 46.6583], [-80.3063, 46.6625], [-80.3125, 46.6625], [-80.3125, 46.6583], [-80.3063, 46.6583]]]}, "properties": {"company_id": "freegold-ventures", "jurisdiction": "Ontario", "claim_id": "311177", "claim_name": null, "holder": "(30) FREEGOLD VENTURES LIMITED, (70) NEW AGE METALS INC.", "status": "Active", "recorded_date": "2018-04-10", "anniversary_or_expiry": "2027-12-17", "area_ha": null, "tenure_type": "Boundary Cell Mining Claim", "source": "Ontario MLAS operational claims (OGSEarth / LIO MapServer). Unofficial viewing data, not legal title.", "as_of": "2026-09-20", "role": "focus", "color": "#e8b040"}}, {"type": "Feature", "geometry": {"type": "Polygon", "coordinates": [[[-80.3063, 46.6542], [-80.3063, 46.6583], [-80.3125, 46.6583], [-80.3125, 46.6542], [-80.3063, 46.6542]]]}, "properties": {"company_id": "freegold-ventures", "jurisdiction": "Ontario", "claim_id": "311178", "claim_name": null, "holder": "(30) FREEGOLD VENTURES LIMITED, (70) NEW AGE METALS INC.", "status": "Active", "recorded_date": "2018-04-10", "anniversary_or_expiry": "2027-12-17", "area_ha": null, "tenure_type": "Boundary Cell Mining Claim", "source": "Ontario MLAS operational claims (OGSEarth / LIO MapServer). Unofficial viewing data, not legal title.", "as_of": "2026-09-20", "role": "focus", "color": "#e8b040"}}, {"type": "Feature", "geometry": {"type": "Polygon", "coordinates": [[[-80.325, 46.6667], [-80.325, 46.6708], [-80.3313, 46.6708], [-80.3313, 46.6667], [-80.325, 46.6667]]]}, "properties": {"company_id": "freegold-ventures", "jurisdiction": "Ontario", "claim_id": "312841", "claim_name": null, "holder": "(30) FREEGOLD VENTURES LIMITED, (70) NEW AGE METALS INC.", "status": "Active", "recorded_date": "2018-04-10", "anniversary_or_expiry": "2027-12-10", "area_ha": null, "tenure_type": "Single Cell Mining Claim", "source": "Ontario MLAS operational claims (OGSEarth / LIO MapServer). Unofficial viewing data, not legal title.", "as_of": "2026-09-20", "role": "focus", "color": "#e8b040"}}, {"type": "Feature", "geometry": {"type": "Polygon", "coordinates": [[[-80.3063, 46.6458], [-80.3063, 46.65], [-80.3125, 46.65], [-80.3125, 46.6458], [-80.3063, 46.6458]]]}, "properties": {"company_id": "freegold-ventures", "jurisdiction": "Ontario", "claim_id": "323412", "claim_name": null, "holder": "(30) FREEGOLD VENTURES LIMITED, (70) NEW AGE METALS INC.", "status": "Active", "recorded_date": "2018-04-10", "anniversary_or_expiry": "2027-12-17", "area_ha": null, "tenure_type": "Boundary Cell Mining Claim", "source": "Ontario MLAS operational claims (OGSEarth / LIO MapServer). Unofficial viewing data, not legal title.", "as_of": "2026-09-20", "role": "focus", "color": "#e8b040"}}, {"type": "Feature", "geometry": {"type": "Polygon", "coordinates": [[[-80.3125, 46.6667], [-80.3125, 46.6708], [-80.3188, 46.6708], [-80.3188, 46.6667], [-80.3125, 46.6667]]]}, "properties": {"company_id": "freegold-ventures", "jurisdiction": "Ontario", "claim_id": "344324", "claim_name": null, "holder": "(30) FREEGOLD VENTURES LIMITED, (70) NEW AGE METALS INC.", "status": "Active", "recorded_date": "2018-04-10", "anniversary_or_expiry": "2027-12-10", "area_ha": null, "tenure_type": "Boundary Cell Mining Claim", "source": "Ontario MLAS operational claims (OGSEarth / LIO MapServer). Unofficial viewing data, not legal title.", "as_of": "2026-09-20", "role": "focus", "color": "#e8b040"}}]}