{"type": "FeatureCollection", "features": [{"type": "Feature", "geometry": {"type": "Polygon", "coordinates": [[[-75.98333333335633, 49.57500000582357], [-75.98333333300207, 49.58333334011997], [-75.97500000396377, 49.583333332641374], [-75.9749999989647, 49.575000001665494], [-75.98333333335633, 49.57500000582357]]]}, "properties": {"company_id": "g2-goldfields", "jurisdiction": "Quebec", "claim_id": "", "claim_name": null, "holder": "CENTRAL ASIA GOLDFIELDS CORPORATION", "status": "Active", "recorded_date": null, "anniversary_or_expiry": null, "area_ha": null, "tenure_type": null, "source": "GESTIM active titles (MRNF digital data dump). Not legal title.", "as_of": "2026-09-20", "role": "focus", "color": "#e8b040"}}, {"type": "Feature", "geometry": {"type": "Polygon", "coordinates": [[[-75.9749999989647, 49.575000001665494], [-75.97500000396377, 49.583333332641374], [-75.96666666458754, 49.5833333367841], [-75.96666666788202, 49.57499999999117], [-75.9749999989647, 49.575000001665494]]]}, "properties": {"company_id": "g2-goldfields", "jurisdiction": "Quebec", "claim_id": "", "claim_name": null, "holder": "CENTRAL ASIA GOLDFIELDS CORPORATION", "status": "Active", "recorded_date": null, "anniversary_or_expiry": null, "area_ha": null, "tenure_type": null, "source": "GESTIM active titles (MRNF digital data dump). Not legal title.", "as_of": "2026-09-20", "role": "focus", "color": "#e8b040"}}, {"type": "Feature", "geometry": {"type": "Polygon", "coordinates": [[[-75.96666666788202, 49.57499999999117], [-75.96666666458754, 49.5833333367841], [-75.9583333283194, 49.58333333444705], [-75.95833334007921, 49.575000000803804], [-75.96666666788202, 49.57499999999117]]]}, "properties": {"company_id": "g2-goldfields", "jurisdiction": "Quebec", "claim_id": "", "claim_name": null, "holder": "CENTRAL ASIA GOLDFIELDS CORPORATION", "status": "Active", "recorded_date": null, "anniversary_or_expiry": null, "area_ha": null, "tenure_type": null, "source": "GESTIM active titles (MRNF digital data dump). Not legal title.", "as_of": "2026-09-20", "role": "focus", "color": "#e8b040"}}, {"type": "Feature", "geometry": {"type": "Polygon", "coordinates": [[[-75.9880628099669, 49.58333341089087], [-75.98333333300207, 49.58333334011997], [-75.98333333335633, 49.57500000582357], [-75.98807585090688, 49.575000080319505], [-75.98807557418137, 49.57516861165021], [-75.98806982854883, 49.57885138085575], [-75.988063696468, 49.58272926879858], [-75.9880628099669, 49.58333341089087]]]}, "properties": {"company_id": "g2-goldfields", "jurisdiction": "Quebec", "claim_id": "", "claim_name": null, "holder": "CENTRAL ASIA GOLDFIELDS CORPORATION", "status": "Active", "recorded_date": null, "anniversary_or_expiry": null, "area_ha": null, "tenure_type": null, "source": "GESTIM active titles (MRNF digital data dump). Not legal title.", "as_of": "2026-09-20", "role": "focus", "color": "#e8b040"}}, {"type": "Feature", "geometry": {"type": "Polygon", "coordinates": [[[-75.98333333335634, 49.57500000582357], [-75.98333333090402, 49.572083723505926], [-75.98808046694012, 49.57208400088995], [-75.98807585344657, 49.57500008031947], [-75.98333333335634, 49.57500000582357]]]}, "properties": {"company_id": "g2-goldfields", "jurisdiction": "Quebec", "claim_id": "", "claim_name": null, "holder": "CENTRAL ASIA GOLDFIELDS CORPORATION", "status": "Active", "recorded_date": null, "anniversary_or_expiry": null, "area_ha": null, "tenure_type": null, "source": "GESTIM active titles (MRNF digital data dump). Not legal title.", "as_of": "2026-09-20", "role": "focus", "color": "#e8b040"}}, {"type": "Feature", "geometry": {"type": "Polygon", "coordinates": [[[-75.9880628099669, 49.58333341089087], [-75.98805838049526, 49.58634324555577], [-75.98807390039286, 49.589928640363894], [-75.98807453157697, 49.59007444524648], [-75.9878068143311, 49.5900737769765], [-75.98333333844167, 49.590062549559285], [-75.9833333330021, 49.58333334011997], [-75.9880628099669, 49.58333341089087]]]}, "properties": {"company_id": "g2-goldfields", "jurisdiction": "Quebec", "claim_id": "", "claim_name": null, "holder": "CENTRAL ASIA GOLDFIELDS CORPORATION", "status": "Active", "recorded_date": null, "anniversary_or_expiry": null, "area_ha": null, "tenure_type": null, "source": "GESTIM active titles (MRNF digital data dump). Not legal title.", "as_of": "2026-09-20", "role": "focus", "color": "#e8b040"}}, {"type": "Feature", "geometry": {"type": "Polygon", "coordinates": [[[-75.9833333330021, 49.58333334011997], [-75.98333333844167, 49.590062549559285], [-75.98218187146594, 49.59005963330095], [-75.98171057983105, 49.590033004159196], [-75.97662671408737, 49.59004539568528], [-75.97500000256048, 49.590050388966425], [-75.97500000396373, 49.583333332641374], [-75.9833333330021, 49.58333334011997]]]}, "properties": {"company_id": "g2-goldfields", "jurisdiction": "Quebec", "claim_id": "", "claim_name": null, "holder": "CENTRAL ASIA GOLDFIELDS CORPORATION", "status": "Active", "recorded_date": null, "anniversary_or_expiry": null, "area_ha": null, "tenure_type": null, "source": "GESTIM active titles (MRNF digital data dump). Not legal title.", "as_of": "2026-09-20", "role": "focus", "color": "#e8b040"}}, {"type": "Feature", "geometry": {"type": "Polygon", "coordinates": [[[-75.98333333335634, 49.57500000582357], [-75.97499999896463, 49.57500000166551], [-75.97499999965166, 49.57201237291392], [-75.97685287869302, 49.57201134687081], [-75.98251094480918, 49.57208365707181], [-75.98333333090402, 49.572083723505926], [-75.98333333335634, 49.57500000582357]]]}, "properties": {"company_id": "g2-goldfields", "jurisdiction": "Quebec", "claim_id": "", "claim_name": null, "holder": "CENTRAL ASIA GOLDFIELDS CORPORATION", "status": "Active", "recorded_date": null, "anniversary_or_expiry": null, "area_ha": null, "tenure_type": null, "source": "GESTIM active titles (MRNF digital data dump). Not legal title.", "as_of": "2026-09-20", "role": "focus", "color": "#e8b040"}}, {"type": "Feature", "geometry": {"type": "Polygon", "coordinates": [[[-75.97500000396373, 49.583333332641374], [-75.97500000256048, 49.590050388966425], [-75.97111772760809, 49.59006222002541], [-75.96666666736984, 49.59007247132087], [-75.96666666458744, 49.58333333678407], [-75.97500000396373, 49.583333332641374]]]}, "properties": {"company_id": "g2-goldfields", "jurisdiction": "Quebec", "claim_id": "", "claim_name": null, "holder": "CENTRAL ASIA GOLDFIELDS CORPORATION", "status": "Active", "recorded_date": null, "anniversary_or_expiry": null, "area_ha": null, "tenure_type": null, "source": "GESTIM active titles (MRNF digital data dump). Not legal title.", "as_of": "2026-09-20", "role": "focus", "color": "#e8b040"}}, {"type": "Feature", "geometry": {"type": "Polygon", "coordinates": [[[-75.97499999896463, 49.57500000166551], [-75.96666666788207, 49.57499999999117], [-75.96666666659375, 49.572034951545014], [-75.97120797194084, 49.572014386872134], [-75.97499999965166, 49.57201237291392], [-75.97499999896463, 49.57500000166551]]]}, "properties": {"company_id": "g2-goldfields", "jurisdiction": "Quebec", "claim_id": "", "claim_name": null, "holder": "CENTRAL ASIA GOLDFIELDS CORPORATION", "status": "Active", "recorded_date": null, "anniversary_or_expiry": null, "area_ha": null, "tenure_type": null, "source": "GESTIM active titles (MRNF digital data dump). Not legal title.", "as_of": "2026-09-20", "role": "focus", "color": "#e8b040"}}, {"type": "Feature", "geometry": {"type": "Polygon", "coordinates": [[[-75.96666666458744, 49.58333333678407], [-75.96666666736984, 49.59007247132087], [-75.96588945442198, 49.59007424502924], [-75.96546585261056, 49.590077779369224], [-75.96005250694118, 49.59009219070176], [-75.95833333544871, 49.59008022705022], [-75.95833332831938, 49.58333333444705], [-75.96666666458744, 49.58333333678407]]]}, "properties": {"company_id": "g2-goldfields", "jurisdiction": "Quebec", "claim_id": "", "claim_name": null, "holder": "CENTRAL ASIA GOLDFIELDS CORPORATION", "status": "Active", "recorded_date": null, "anniversary_or_expiry": null, "area_ha": null, "tenure_type": null, "source": "GESTIM active titles (MRNF digital data dump). Not legal title.", "as_of": "2026-09-20", "role": "focus", "color": "#e8b040"}}, {"type": "Feature", "geometry": {"type": "Polygon", "coordinates": [[[-75.96666666788207, 49.57499999999117], [-75.95833334007921, 49.575000000803804], [-75.95833333682869, 49.572044568192304], [-75.96009493160085, 49.57203772027367], [-75.96584232465926, 49.57203866671173], [-75.96666666659375, 49.572034951545014], [-75.96666666788207, 49.57499999999117]]]}, "properties": {"company_id": "g2-goldfields", "jurisdiction": "Quebec", "claim_id": "", "claim_name": null, "holder": "CENTRAL ASIA GOLDFIELDS CORPORATION", "status": "Active", "recorded_date": null, "anniversary_or_expiry": null, "area_ha": null, "tenure_type": null, "source": "GESTIM active titles (MRNF digital data dump). Not legal title.", "as_of": "2026-09-20", "role": "focus", "color": "#e8b040"}}, {"type": "Feature", "geometry": {"type": "Polygon", "coordinates": [[[-75.95833334007921, 49.575000000803804], [-75.95833332831938, 49.58333333444705], [-75.95469321697472, 49.583333403066554], [-75.95469232242313, 49.58280963702501], [-75.95469205603327, 49.58274390248647], [-75.9546775713167, 49.57916938579844], [-75.95474442022558, 49.57558429061133], [-75.95474792488653, 49.57500007058339], [-75.95833334007921, 49.575000000803804]]]}, "properties": {"company_id": "g2-goldfields", "jurisdiction": "Quebec", "claim_id": "", "claim_name": null, "holder": "CENTRAL ASIA GOLDFIELDS CORPORATION", "status": "Active", "recorded_date": null, "anniversary_or_expiry": null, "area_ha": null, "tenure_type": null, "source": "GESTIM active titles (MRNF digital data dump). Not legal title.", "as_of": "2026-09-20", "role": "focus", "color": "#e8b040"}}, {"type": "Feature", "geometry": {"type": "Polygon", "coordinates": [[[-75.95833332831938, 49.58333333444705], [-75.95833333544871, 49.59008022705022], [-75.95402607284291, 49.59005014881456], [-75.95400277548823, 49.58632389942387], [-75.95469832477966, 49.586323849733006], [-75.95469321697472, 49.583333403066554], [-75.95833332831938, 49.58333333444705]]]}, "properties": {"company_id": "g2-goldfields", "jurisdiction": "Quebec", "claim_id": "", "claim_name": null, "holder": "CENTRAL ASIA GOLDFIELDS CORPORATION", "status": "Active", "recorded_date": null, "anniversary_or_expiry": null, "area_ha": null, "tenure_type": null, "source": "GESTIM active titles (MRNF digital data dump). Not legal title.", "as_of": "2026-09-20", "role": "focus", "color": "#e8b040"}}, {"type": "Feature", "geometry": {"type": "Polygon", "coordinates": [[[-75.95833334007921, 49.575000000803804], [-75.95474792488653, 49.57500007058339], [-75.95476557059338, 49.5720583610065], [-75.95833333682869, 49.572044568192304], [-75.95833334007921, 49.575000000803804]]]}, "properties": {"company_id": "g2-goldfields", "jurisdiction": "Quebec", "claim_id": "", "claim_name": null, "holder": "CENTRAL ASIA GOLDFIELDS CORPORATION", "status": "Active", "recorded_date": null, "anniversary_or_expiry": null, "area_ha": null, "tenure_type": null, "source": "GESTIM active titles (MRNF digital data dump). Not legal title.", "as_of": "2026-09-20", "role": "focus", "color": "#e8b040"}}, {"type": "Feature", "geometry": {"type": "Polygon", "coordinates": [[[-79.0833333333333, 48.27500000001005], [-79.0833333333333, 48.280596244712086], [-79.08055921143139, 48.28082676363655], [-79.07676076368165, 48.28103496312052], [-79.075, 48.281131437458285], [-79.075, 48.27987554366545], [-79.075, 48.275000000010046], [-79.0833333333333, 48.27500000001005]]]}, "properties": {"company_id": "g2-goldfields", "jurisdiction": "Quebec", "claim_id": "", "claim_name": null, "holder": "CENTRAL ASIA GOLDFIELDS CORPORATION", "status": "Active", "recorded_date": null, "anniversary_or_expiry": null, "area_ha": null, "tenure_type": null, "source": "GESTIM active titles (MRNF digital data dump). Not legal title.", "as_of": "2026-09-20", "role": "focus", "color": "#e8b040"}}, {"type": "Feature", "geometry": {"type": "Polygon", "coordinates": [[[-79.0666666666667, 48.27958665638222], [-79.06666666666672, 48.279893894947676], [-79.06614648764544, 48.279895023451616], [-79.06469523877585, 48.279898169149504], [-79.0666666666667, 48.27958665638222]]]}, "properties": {"company_id": "g2-goldfields", "jurisdiction": "Quebec", "claim_id": "", "claim_name": null, "holder": "CENTRAL ASIA GOLDFIELDS CORPORATION", "status": "Active", "recorded_date": null, "anniversary_or_expiry": null, "area_ha": null, "tenure_type": null, "source": "GESTIM active titles (MRNF digital data dump). Not legal title.", "as_of": "2026-09-20", "role": "focus", "color": "#e8b040"}}, {"type": "Feature", "geometry": {"type": "Polygon", "coordinates": [[[-79.075, 48.275000000010046], [-79.075, 48.281131437458285], [-79.07322316801881, 48.28125551596782], [-79.06968557191642, 48.28150529124853], [-79.06834616572596, 48.2815998305132], [-79.06773325781182, 48.27989157313502], [-79.06666666666672, 48.279893894947676], [-79.0666666666667, 48.27958665638222], [-79.06757983846694, 48.27944234903574], [-79.0666666666667, 48.276577713523565], [-79.0666666666667, 48.275000000010046], [-79.075, 48.275000000010046]]]}, "properties": {"company_id": "g2-goldfields", "jurisdiction": "Quebec", "claim_id": "", "claim_name": null, "holder": "CENTRAL ASIA GOLDFIELDS CORPORATION", "status": "Active", "recorded_date": null, "anniversary_or_expiry": null, "area_ha": null, "tenure_type": null, "source": "GESTIM active titles (MRNF digital data dump). Not legal title.", "as_of": "2026-09-20", "role": "focus", "color": "#e8b040"}}, {"type": "Feature", "geometry": {"type": "Polygon", "coordinates": [[[-79.10833333333332, 48.26523010941162], [-79.10833333333332, 48.26666666667675], [-79.10087937291144, 48.26666669725482], [-79.1008834685955, 48.26523149345136], [-79.10440230902739, 48.26521682964938], [-79.10791398939303, 48.26522994889013], [-79.10833333333332, 48.26523010941162]]]}, "properties": {"company_id": "g2-goldfields", "jurisdiction": "Quebec", "claim_id": "", "claim_name": null, "holder": "CENTRAL ASIA GOLDFIELDS CORPORATION", "status": "Active", "recorded_date": null, "anniversary_or_expiry": null, "area_ha": null, "tenure_type": null, "source": "GESTIM active titles (MRNF digital data dump). Not legal title.", "as_of": "2026-09-20", "role": "focus", "color": "#e8b040"}}, {"type": "Feature", "geometry": {"type": "Polygon", "coordinates": [[[-79.0666666666667, 48.275000000010046], [-79.0666666666667, 48.276577713523565], [-79.06627760095733, 48.27535710411085], [-79.066173735606, 48.275000018036195], [-79.0666666666667, 48.275000000010046]]]}, "properties": {"company_id": "g2-goldfields", "jurisdiction": "Quebec", "claim_id": "", "claim_name": null, "holder": "CENTRAL ASIA GOLDFIELDS CORPORATION", "status": "Active", "recorded_date": null, "anniversary_or_expiry": null, "area_ha": null, "tenure_type": null, "source": "GESTIM active titles (MRNF digital data dump). Not legal title.", "as_of": "2026-09-20", "role": "focus", "color": "#e8b040"}}, {"type": "Feature", "geometry": {"type": "Polygon", "coordinates": [[[-79.1, 48.283333333343315], [-79.10000000000001, 48.28711974037142], [-79.09837748990707, 48.287112013265286], [-79.09731905145117, 48.28710695928273], [-79.09380310543054, 48.28709460220086], [-79.09287891784722, 48.2870553509112], [-79.09287671224232, 48.28705537026385], [-79.09166666666671, 48.28446928501348], [-79.09166666666671, 48.283333333343315], [-79.1, 48.283333333343315]]]}, "properties": {"company_id": "g2-goldfields", "jurisdiction": "Quebec", "claim_id": "", "claim_name": null, "holder": "CENTRAL ASIA GOLDFIELDS CORPORATION", "status": "Active", "recorded_date": null, "anniversary_or_expiry": null, "area_ha": null, "tenure_type": null, "source": "GESTIM active titles (MRNF digital data dump). Not legal title.", "as_of": "2026-09-20", "role": "focus", "color": "#e8b040"}}, {"type": "Feature", "geometry": {"type": "Polygon", "coordinates": [[[-79.11841058578808, 48.27500005360845], [-79.11841022433288, 48.27524939843569], [-79.11840272130584, 48.28042454799744], [-79.1166666666667, 48.2809301422158], [-79.11666666666672, 48.275000000010046], [-79.11841058578808, 48.27500005360845]]]}, "properties": {"company_id": "g2-goldfields", "jurisdiction": "Quebec", "claim_id": "", "claim_name": null, "holder": "CENTRAL ASIA GOLDFIELDS CORPORATION", "status": "Active", "recorded_date": null, "anniversary_or_expiry": null, "area_ha": null, "tenure_type": null, "source": "GESTIM active titles (MRNF digital data dump). Not legal title.", "as_of": "2026-09-20", "role": "focus", "color": "#e8b040"}}, {"type": "Feature", "geometry": {"type": "Polygon", "coordinates": [[[-79.09166666666671, 48.283333333343315], [-79.09166666666671, 48.28446928501348], [-79.09113519898425, 48.28333335268004], [-79.09166666666671, 48.283333333343315]]]}, "properties": {"company_id": "g2-goldfields", "jurisdiction": "Quebec", "claim_id": "", "claim_name": null, "holder": "CENTRAL ASIA GOLDFIELDS CORPORATION", "status": "Active", "recorded_date": null, "anniversary_or_expiry": null, "area_ha": null, "tenure_type": null, "source": "GESTIM active titles (MRNF digital data dump). Not legal title.", "as_of": "2026-09-20", "role": "focus", "color": "#e8b040"}}, {"type": "Feature", "geometry": {"type": "Polygon", "coordinates": [[[-79.0666666666667, 48.27258527996626], [-79.0666666666667, 48.275000000010046], [-79.066173735606, 48.275000018036195], [-79.06546984377519, 48.27257991911762], [-79.0666666666667, 48.27258527996626]]]}, "properties": {"company_id": "g2-goldfields", "jurisdiction": "Quebec", "claim_id": "", "claim_name": null, "holder": "CENTRAL ASIA GOLDFIELDS CORPORATION", "status": "Active", "recorded_date": null, "anniversary_or_expiry": null, "area_ha": null, "tenure_type": null, "source": "GESTIM active titles (MRNF digital data dump). Not legal title.", "as_of": "2026-09-20", "role": "focus", "color": "#e8b040"}}, {"type": "Feature", "geometry": {"type": "Polygon", "coordinates": [[[-79.11903434061487, 48.2652336505276], [-79.11902369598178, 48.266666732389204], [-79.1166666666667, 48.26666666667676], [-79.11666666666672, 48.26523295907611], [-79.11903434061487, 48.2652336505276]]]}, "properties": {"company_id": "g2-goldfields", "jurisdiction": "Quebec", "claim_id": "", "claim_name": null, "holder": "CENTRAL ASIA GOLDFIELDS CORPORATION", "status": "Active", "recorded_date": null, "anniversary_or_expiry": null, "area_ha": null, "tenure_type": null, "source": "GESTIM active titles (MRNF digital data dump). Not legal title.", "as_of": "2026-09-20", "role": "focus", "color": "#e8b040"}}, {"type": "Feature", "geometry": {"type": "Polygon", "coordinates": [[[-79.1166666666667, 48.26666666667676], [-79.11666666666672, 48.275000000010046], [-79.10833333333332, 48.27500000001005], [-79.10833333333332, 48.26666666667675], [-79.1166666666667, 48.26666666667676]]]}, "properties": {"company_id": "g2-goldfields", "jurisdiction": "Quebec", "claim_id": "", "claim_name": null, "holder": "CENTRAL ASIA GOLDFIELDS CORPORATION", "status": "Active", "recorded_date": null, "anniversary_or_expiry": null, "area_ha": null, "tenure_type": null, "source": "GESTIM active titles (MRNF digital data dump). Not legal title.", "as_of": "2026-09-20", "role": "focus", "color": "#e8b040"}}, {"type": "Feature", "geometry": {"type": "Polygon", "coordinates": [[[-79.09166666666671, 48.27091770131125], [-79.09166666666671, 48.27500000001005], [-79.0833333333333, 48.27500000001005], [-79.0833333333333, 48.270998357514806], [-79.0836984917193, 48.27098893719143], [-79.08369851558156, 48.270987938885675], [-79.08679071900086, 48.27095061319703], [-79.08874710248023, 48.27092695918424], [-79.09030992653345, 48.27092201709534], [-79.09166666666671, 48.27091770131125]]]}, "properties": {"company_id": "g2-goldfields", "jurisdiction": "Quebec", "claim_id": "", "claim_name": null, "holder": "CENTRAL ASIA GOLDFIELDS CORPORATION", "status": "Active", "recorded_date": null, "anniversary_or_expiry": null, "area_ha": null, "tenure_type": null, "source": "GESTIM active titles (MRNF digital data dump). Not legal title.", "as_of": "2026-09-20", "role": "focus", "color": "#e8b040"}}, {"type": "Feature", "geometry": {"type": "Polygon", "coordinates": [[[-79.10000000000001, 48.27500000001005], [-79.1, 48.283333333343315], [-79.09166666666671, 48.283333333343315], [-79.09166666666671, 48.27500000001005], [-79.10000000000001, 48.27500000001005]]]}, "properties": {"company_id": "g2-goldfields", "jurisdiction": "Quebec", "claim_id": "", "claim_name": null, "holder": "CENTRAL ASIA GOLDFIELDS CORPORATION", "status": "Active", "recorded_date": null, "anniversary_or_expiry": null, "area_ha": null, "tenure_type": null, "source": "GESTIM active titles (MRNF digital data dump). Not legal title.", "as_of": "2026-09-20", "role": "focus", "color": "#e8b040"}}, {"type": "Feature", "geometry": {"type": "Polygon", "coordinates": [[[-79.11666666666672, 48.26523295907611], [-79.1166666666667, 48.26666666667676], [-79.10833333333332, 48.26666666667675], [-79.10833333333332, 48.26523010941162], [-79.11666666666672, 48.26523295907611]]]}, "properties": {"company_id": "g2-goldfields", "jurisdiction": "Quebec", "claim_id": "", "claim_name": null, "holder": "CENTRAL ASIA GOLDFIELDS CORPORATION", "status": "Active", "recorded_date": null, "anniversary_or_expiry": null, "area_ha": null, "tenure_type": null, "source": "GESTIM active titles (MRNF digital data dump). Not legal title.", "as_of": "2026-09-20", "role": "focus", "color": "#e8b040"}}, {"type": "Feature", "geometry": {"type": "Polygon", "coordinates": [[[-79.11902369598178, 48.266666732389204], [-79.11901655263729, 48.26762839067417], [-79.11899914523714, 48.269969334627085], [-79.11897773900597, 48.272848498361796], [-79.11846544447626, 48.27284835628007], [-79.11841370479895, 48.27284834263395], [-79.11841058578808, 48.27500005360845], [-79.11666666666672, 48.275000000010046], [-79.1166666666667, 48.26666666667676], [-79.11902369598178, 48.266666732389204]]]}, "properties": {"company_id": "g2-goldfields", "jurisdiction": "Quebec", "claim_id": "", "claim_name": null, "holder": "CENTRAL ASIA GOLDFIELDS CORPORATION", "status": "Active", "recorded_date": null, "anniversary_or_expiry": null, "area_ha": null, "tenure_type": null, "source": "GESTIM active titles (MRNF digital data dump). Not legal title.", "as_of": "2026-09-20", "role": "focus", "color": "#e8b040"}}, {"type": "Feature", "geometry": {"type": "Polygon", "coordinates": [[[-79.075, 48.272622420769316], [-79.075, 48.275000000010046], [-79.0666666666667, 48.275000000010046], [-79.0666666666667, 48.27258527996626], [-79.06965338207371, 48.27259861857499], [-79.07317113054944, 48.272614339581466], [-79.075, 48.272622420769316]]]}, "properties": {"company_id": "g2-goldfields", "jurisdiction": "Quebec", "claim_id": "", "claim_name": null, "holder": "CENTRAL ASIA GOLDFIELDS CORPORATION", "status": "Active", "recorded_date": null, "anniversary_or_expiry": null, "area_ha": null, "tenure_type": null, "source": "GESTIM active titles (MRNF digital data dump). Not legal title.", "as_of": "2026-09-20", "role": "focus", "color": "#e8b040"}}, {"type": "Feature", "geometry": {"type": "Polygon", "coordinates": [[[-79.11666666666672, 48.275000000010046], [-79.1166666666667, 48.2809301422158], [-79.11488438616452, 48.281449133535624], [-79.11239476283936, 48.28217403353262], [-79.11135437748757, 48.28190468922096], [-79.10833333333332, 48.28112456976043], [-79.10833333333332, 48.27500000001005], [-79.11666666666672, 48.275000000010046]]]}, "properties": {"company_id": "g2-goldfields", "jurisdiction": "Quebec", "claim_id": "", "claim_name": null, "holder": "CENTRAL ASIA GOLDFIELDS CORPORATION", "status": "Active", "recorded_date": null, "anniversary_or_expiry": null, "area_ha": null, "tenure_type": null, "source": "GESTIM active titles (MRNF digital data dump). Not legal title.", "as_of": "2026-09-20", "role": "focus", "color": "#e8b040"}}, {"type": "Feature", "geometry": {"type": "Polygon", "coordinates": [[[-79.10000000000002, 48.27089075866424], [-79.10000000000001, 48.27500000001005], [-79.09166666666671, 48.27500000001005], [-79.09166666666671, 48.27091770131125], [-79.09352774435851, 48.27091175329608], [-79.09382913150179, 48.27091074997532], [-79.0973481896175, 48.27089938162626], [-79.10000000000002, 48.27089075866424]]]}, "properties": {"company_id": "g2-goldfields", "jurisdiction": "Quebec", "claim_id": "", "claim_name": null, "holder": "CENTRAL ASIA GOLDFIELDS CORPORATION", "status": "Active", "recorded_date": null, "anniversary_or_expiry": null, "area_ha": null, "tenure_type": null, "source": "GESTIM active titles (MRNF digital data dump). Not legal title.", "as_of": "2026-09-20", "role": "focus", "color": "#e8b040"}}, {"type": "Feature", "geometry": {"type": "Polygon", "coordinates": [[[-79.10087937291144, 48.26666669725482], [-79.10833333333332, 48.26666666667675], [-79.10833333333332, 48.27500000001005], [-79.10000000000001, 48.27500000001005], [-79.10000000000002, 48.27089075866424], [-79.10004312758753, 48.270890617882955], [-79.10023607288173, 48.272839323731944], [-79.10086175695206, 48.27283870319617], [-79.10087937291144, 48.26666669725482]]]}, "properties": {"company_id": "g2-goldfields", "jurisdiction": "Quebec", "claim_id": "", "claim_name": null, "holder": "CENTRAL ASIA GOLDFIELDS CORPORATION", "status": "Active", "recorded_date": null, "anniversary_or_expiry": null, "area_ha": null, "tenure_type": null, "source": "GESTIM active titles (MRNF digital data dump). Not legal title.", "as_of": "2026-09-20", "role": "focus", "color": "#e8b040"}}, {"type": "Feature", "geometry": {"type": "Polygon", "coordinates": [[[-79.10833333333332, 48.27500000001005], [-79.10833333333332, 48.28112456976043], [-79.107863454212, 48.2810032223332], [-79.10431215726872, 48.28070264490727], [-79.10174555082993, 48.28047335656761], [-79.10265507189823, 48.28302827367195], [-79.10276370921453, 48.283333405126974], [-79.1, 48.283333333343315], [-79.10000000000001, 48.27500000001005], [-79.10833333333332, 48.27500000001005]]]}, "properties": {"company_id": "g2-goldfields", "jurisdiction": "Quebec", "claim_id": "", "claim_name": null, "holder": "CENTRAL ASIA GOLDFIELDS CORPORATION", "status": "Active", "recorded_date": null, "anniversary_or_expiry": null, "area_ha": null, "tenure_type": null, "source": "GESTIM active titles (MRNF digital data dump). Not legal title.", "as_of": "2026-09-20", "role": "focus", "color": "#e8b040"}}, {"type": "Feature", "geometry": {"type": "Polygon", "coordinates": [[[-79.09166666666671, 48.27500000001005], [-79.09166666666671, 48.283333333343315], [-79.09113519898425, 48.28333335268004], [-79.09082574332204, 48.28267191232321], [-79.08960580935289, 48.28006405570364], [-79.08383714148815, 48.28052792428656], [-79.08383719008819, 48.280554368207596], [-79.0833333333333, 48.280596244712086], [-79.0833333333333, 48.27582175822126], [-79.0833333333333, 48.27500000001005], [-79.09166666666671, 48.27500000001005]]]}, "properties": {"company_id": "g2-goldfields", "jurisdiction": "Quebec", "claim_id": "", "claim_name": null, "holder": "CENTRAL ASIA GOLDFIELDS CORPORATION", "status": "Active", "recorded_date": null, "anniversary_or_expiry": null, "area_ha": null, "tenure_type": null, "source": "GESTIM active titles (MRNF digital data dump). Not legal title.", "as_of": "2026-09-20", "role": "focus", "color": "#e8b040"}}, {"type": "Feature", "geometry": {"type": "Polygon", "coordinates": [[[-79.10411734482217, 48.287135065798424], [-79.10084034846287, 48.287123732828164], [-79.10000000000001, 48.28711974037142], [-79.1, 48.283333333343315], [-79.10276370921453, 48.283333405126974], [-79.10304611190281, 48.284126576087566], [-79.10411734482217, 48.287135065798424]]]}, "properties": {"company_id": "g2-goldfields", "jurisdiction": "Quebec", "claim_id": "", "claim_name": null, "holder": "CENTRAL ASIA GOLDFIELDS CORPORATION", "status": "Active", "recorded_date": null, "anniversary_or_expiry": null, "area_ha": null, "tenure_type": null, "source": "GESTIM active titles (MRNF digital data dump). Not legal title.", "as_of": "2026-09-20", "role": "focus", "color": "#e8b040"}}, {"type": "Feature", "geometry": {"type": "Polygon", "coordinates": [[[-79.0833333333333, 48.27500000001005], [-79.075, 48.275000000010046], [-79.075, 48.272622420769316], [-79.0766890228084, 48.272629856302196], [-79.0775711781761, 48.27263373426477], [-79.07702690652104, 48.271160927136], [-79.08007568567213, 48.27108234280775], [-79.0833333333333, 48.270998357514806], [-79.0833333333333, 48.27500000001005]]]}, "properties": {"company_id": "g2-goldfields", "jurisdiction": "Quebec", "claim_id": "", "claim_name": null, "holder": "CENTRAL ASIA GOLDFIELDS CORPORATION", "status": "Active", "recorded_date": null, "anniversary_or_expiry": null, "area_ha": null, "tenure_type": null, "source": "GESTIM active titles (MRNF digital data dump). Not legal title.", "as_of": "2026-09-20", "role": "focus", "color": "#e8b040"}}, {"type": "Feature", "geometry": {"type": "Polygon", "coordinates": [[[-79.07147750654408, 48.264181290310226], [-79.0677274817066, 48.26551861817728], [-79.0666666673514, 48.265896880966245], [-79.06666666666672, 48.25856610693644], [-79.06932962199994, 48.25841038501014], [-79.07147750654408, 48.264181290310226]]]}, "properties": {"company_id": "g2-goldfields", "jurisdiction": "Quebec", "claim_id": "", "claim_name": null, "holder": "CENTRAL ASIA GOLDFIELDS CORPORATION", "status": "Active", "recorded_date": null, "anniversary_or_expiry": null, "area_ha": null, "tenure_type": null, "source": "GESTIM active titles (MRNF digital data dump). Not legal title.", "as_of": "2026-09-20", "role": "focus", "color": "#e8b040"}}, {"type": "Feature", "geometry": {"type": "Polygon", "coordinates": [[[-79.06450753654676, 48.266666727703104], [-79.06382091061782, 48.26691153518692], [-79.06097592621735, 48.26793197144546], [-79.06086395599992, 48.26760735801014], [-79.06053948403813, 48.266666729735604], [-79.06450753654676, 48.266666727703104]]]}, "properties": {"company_id": "g2-goldfields", "jurisdiction": "Quebec", "claim_id": "", "claim_name": null, "holder": "CENTRAL ASIA GOLDFIELDS CORPORATION", "status": "Active", "recorded_date": null, "anniversary_or_expiry": null, "area_ha": null, "tenure_type": null, "source": "GESTIM active titles (MRNF digital data dump). Not legal title.", "as_of": "2026-09-20", "role": "focus", "color": "#e8b040"}}, {"type": "Feature", "geometry": {"type": "Polygon", "coordinates": [[[-79.0666666673514, 48.265896880966245], [-79.06450753654676, 48.266666727703104], [-79.06053948403813, 48.266666729735604], [-79.06046599699992, 48.266453658010114], [-79.06019054999994, 48.26565511901009], [-79.0583333333333, 48.260270095114414], [-79.0583333333333, 48.25905297932248], [-79.06666666666672, 48.25856610693644], [-79.0666666673514, 48.265896880966245]]]}, "properties": {"company_id": "g2-goldfields", "jurisdiction": "Quebec", "claim_id": "", "claim_name": null, "holder": "CENTRAL ASIA GOLDFIELDS CORPORATION", "status": "Active", "recorded_date": null, "anniversary_or_expiry": null, "area_ha": null, "tenure_type": null, "source": "GESTIM active titles (MRNF digital data dump). Not legal title.", "as_of": "2026-09-20", "role": "focus", "color": "#e8b040"}}, {"type": "Feature", "geometry": {"type": "Polygon", "coordinates": [[[-79.0583333333333, 48.25905297932248], [-79.0583333333333, 48.260270095114414], [-79.05792190299996, 48.25907700001013], [-79.0583333333333, 48.25905297932248]]]}, "properties": {"company_id": "g2-goldfields", "jurisdiction": "Quebec", "claim_id": "", "claim_name": null, "holder": "CENTRAL ASIA GOLDFIELDS CORPORATION", "status": "Active", "recorded_date": null, "anniversary_or_expiry": null, "area_ha": null, "tenure_type": null, "source": "GESTIM active titles (MRNF digital data dump). Not legal title.", "as_of": "2026-09-20", "role": "focus", "color": "#e8b040"}}]}