{"type": "FeatureCollection", "features": [{"type": "Feature", "geometry": {"type": "Polygon", "coordinates": [[[-123.5014, 50.6999], [-123.5014, 50.6874], [-123.4952, 50.6874], [-123.4952, 50.6832], [-123.4889, 50.6832], [-123.4889, 50.6874], [-123.4827, 50.6874], [-123.4827, 50.704], [-123.5014, 50.704], [-123.5014, 50.6999]]]}, "properties": {"company_id": "garibaldi-resources", "jurisdiction": "British Columbia", "claim_id": 510043, "claim_name": null, "holder": "GARIBALDI PUMICE LTD.", "status": "Mineral", "recorded_date": "2005-04-01", "anniversary_or_expiry": "2030-03-01", "area_ha": 266.11, "tenure_type": "Mineral", "source": "BC MTA Mineral, Placer and Coal Tenure Spatial View (BCGW). Open Government Licence - British Columbia. Not legal title.", "as_of": "2026-09-20", "role": "focus", "color": "#e8b040"}}, {"type": "Feature", "geometry": {"type": "Polygon", "coordinates": [[[-123.4827, 50.704], [-123.4827, 50.6915], [-123.4639, 50.6915], [-123.4639, 50.7082], [-123.4827, 50.7082], [-123.4827, 50.704]]]}, "properties": {"company_id": "garibaldi-resources", "jurisdiction": "British Columbia", "claim_id": 510044, "claim_name": null, "holder": "GARIBALDI PUMICE LTD.", "status": "Mineral", "recorded_date": "2005-04-01", "anniversary_or_expiry": "2030-03-01", "area_ha": 245.614, "tenure_type": "Mineral", "source": "BC MTA Mineral, Placer and Coal Tenure Spatial View (BCGW). Open Government Licence - British Columbia. Not legal title.", "as_of": "2026-09-20", "role": "focus", "color": "#e8b040"}}, {"type": "Feature", "geometry": {"type": "Polygon", "coordinates": [[[-123.4514, 50.6915], [-123.4577, 50.6915], [-123.4577, 50.6874], [-123.4452, 50.6874], [-123.4452, 50.6915], [-123.4514, 50.6915]]]}, "properties": {"company_id": "garibaldi-resources", "jurisdiction": "British Columbia", "claim_id": 510183, "claim_name": null, "holder": "GARIBALDI PUMICE LTD.", "status": "Mineral", "recorded_date": "2005-04-04", "anniversary_or_expiry": "2030-03-01", "area_ha": 40.945, "tenure_type": "Mineral", "source": "BC MTA Mineral, Placer and Coal Tenure Spatial View (BCGW). Open Government Licence - British Columbia. Not legal title.", "as_of": "2026-09-20", "role": "focus", "color": "#e8b040"}}, {"type": "Feature", "geometry": {"type": "Polygon", "coordinates": [[[-131.0021, 56.7873], [-131.0021, 56.7915], [-131.0083, 56.7915], [-131.0083, 56.7873], [-131.0021, 56.7873]]]}, "properties": {"company_id": "garibaldi-resources", "jurisdiction": "British Columbia", "claim_id": 531518, "claim_name": null, "holder": "GARIBALDI RESOURCES CORP", "status": "Mineral", "recorded_date": "2006-04-07", "anniversary_or_expiry": "2029-10-02", "area_ha": 17.724, "tenure_type": "Mineral", "source": "BC MTA Mineral, Placer and Coal Tenure Spatial View (BCGW). Open Government Licence - British Columbia. Not legal title.", "as_of": "2026-09-20", "role": "focus", "color": "#e8b040"}}]}