{"type": "FeatureCollection", "features": [{"type": "Feature", "geometry": {"type": "Polygon", "coordinates": [[[-137.1616, 59.7014], [-137.1616, 59.7374], [-137.1794, 59.7374], [-137.1794, 59.7014], [-137.1616, 59.7014]]]}, "properties": {"company_id": "glencore", "jurisdiction": "British Columbia", "claim_id": 202044, "claim_name": "FAIR", "holder": "GLENCORE CANADA CORPORATION", "status": "Mineral", "recorded_date": "4325184000", "anniversary_or_expiry": "7481376000", "area_ha": 400, "tenure_type": "Mineral", "source": "BC MTA Mineral, Placer and Coal Tenure Spatial View (BCGW). Open Government Licence - British Columbia. Not legal title.", "as_of": "2026-09-20", "role": "focus", "color": "#e8b040"}}, {"type": "Feature", "geometry": {"type": "Polygon", "coordinates": [[[-120.867, 52.0919], [-120.8674, 52.0957], [-120.8672, 52.092], [-120.867, 52.0919]]]}, "properties": {"company_id": "glencore", "jurisdiction": "British Columbia", "claim_id": 207865, "claim_name": "ROVER #1 FR.", "holder": "GLENCORE CANADA CORPORATION", "status": "Mineral", "recorded_date": "1146528000", "anniversary_or_expiry": "2025-08-31", "area_ha": 25, "tenure_type": "Mineral", "source": "BC MTA Mineral, Placer and Coal Tenure Spatial View (BCGW). Open Government Licence - British Columbia. Not legal title.", "as_of": "2026-09-20", "role": "focus", "color": "#e8b040"}}, {"type": "Feature", "geometry": {"type": "Polygon", "coordinates": [[[-120.9081, 52.1037], [-120.9125, 52.1061], [-120.9164, 52.1034], [-120.912, 52.101], [-120.9081, 52.1037]]]}, "properties": {"company_id": "glencore", "jurisdiction": "British Columbia", "claim_id": 207535, "claim_name": "P.R. #19", "holder": "GLENCORE CANADA CORPORATION", "status": "Mineral", "recorded_date": "-431740800", "anniversary_or_expiry": "2025-08-31", "area_ha": 25, "tenure_type": "Mineral", "source": "BC MTA Mineral, Placer and Coal Tenure Spatial View (BCGW). Open Government Licence - British Columbia. Not legal title.", "as_of": "2026-09-20", "role": "focus", "color": "#e8b040"}}, {"type": "Feature", "geometry": {"type": "Polygon", "coordinates": [[[-120.912, 52.101], [-120.9164, 52.1034], [-120.9203, 52.1007], [-120.9159, 52.0983], [-120.912, 52.101]]]}, "properties": {"company_id": "glencore", "jurisdiction": "British Columbia", "claim_id": 207536, "claim_name": "P.R. #20", "holder": "GLENCORE CANADA CORPORATION", "status": "Mineral", "recorded_date": "-431740800", "anniversary_or_expiry": "2025-08-31", "area_ha": 25, "tenure_type": "Mineral", "source": "BC MTA Mineral, Placer and Coal Tenure Spatial View (BCGW). Open Government Licence - British Columbia. Not legal title.", "as_of": "2026-09-20", "role": "focus", "color": "#e8b040"}}, {"type": "Feature", "geometry": {"type": "Polygon", "coordinates": [[[-120.9037, 52.1013], [-120.9081, 52.1037], [-120.912, 52.101], [-120.9076, 52.0986], [-120.9037, 52.1013]]]}, "properties": {"company_id": "glencore", "jurisdiction": "British Columbia", "claim_id": 207537, "claim_name": "P.R. #21", "holder": "GLENCORE CANADA CORPORATION", "status": "Mineral", "recorded_date": "-431740800", "anniversary_or_expiry": "2025-08-31", "area_ha": 25, "tenure_type": "Mineral", "source": "BC MTA Mineral, Placer and Coal Tenure Spatial View (BCGW). Open Government Licence - British Columbia. Not legal title.", "as_of": "2026-09-20", "role": "focus", "color": "#e8b040"}}, {"type": "Feature", "geometry": {"type": "Polygon", "coordinates": [[[-120.9102, 52.1], [-120.912, 52.101], [-120.9159, 52.0983], [-120.9153, 52.098], [-120.9124, 52.1004], [-120.908, 52.0983], [-120.9076, 52.0986], [-120.9102, 52.1]]]}, "properties": {"company_id": "glencore", "jurisdiction": "British Columbia", "claim_id": 207538, "claim_name": "P.R. #22", "holder": "GLENCORE CANADA CORPORATION", "status": "Mineral", "recorded_date": "-431740800", "anniversary_or_expiry": "2025-08-31", "area_ha": 25, "tenure_type": "Mineral", "source": "BC MTA Mineral, Placer and Coal Tenure Spatial View (BCGW). Open Government Licence - British Columbia. Not legal title.", "as_of": "2026-09-20", "role": "focus", "color": "#e8b040"}}, {"type": "Feature", "geometry": {"type": "Polygon", "coordinates": [[[-120.8993, 52.0989], [-120.9037, 52.1013], [-120.9076, 52.0986], [-120.9032, 52.0962], [-120.8993, 52.0989]]]}, "properties": {"company_id": "glencore", "jurisdiction": "British Columbia", "claim_id": 207539, "claim_name": "P.R. #23", "holder": "GLENCORE CANADA CORPORATION", "status": "Mineral", "recorded_date": "-431740800", "anniversary_or_expiry": "2025-08-31", "area_ha": 25, "tenure_type": "Mineral", "source": "BC MTA Mineral, Placer and Coal Tenure Spatial View (BCGW). Open Government Licence - British Columbia. Not legal title.", "as_of": "2026-09-20", "role": "focus", "color": "#e8b040"}}, {"type": "Feature", "geometry": {"type": "Polygon", "coordinates": [[[-120.9032, 52.0962], [-120.9076, 52.0986], [-120.908, 52.0983], [-120.9032, 52.0962]]]}, "properties": {"company_id": "glencore", "jurisdiction": "British Columbia", "claim_id": 207540, "claim_name": "P.R. #24", "holder": "GLENCORE CANADA CORPORATION", "status": "Mineral", "recorded_date": "-431740800", "anniversary_or_expiry": "2025-08-31", "area_ha": 25, "tenure_type": "Mineral", "source": "BC MTA Mineral, Placer and Coal Tenure Spatial View (BCGW). Open Government Licence - British Columbia. Not legal title.", "as_of": "2026-09-20", "role": "focus", "color": "#e8b040"}}, {"type": "Feature", "geometry": {"type": "Polygon", "coordinates": [[[-120.8949, 52.0965], [-120.8993, 52.0989], [-120.9032, 52.0962], [-120.8988, 52.0938], [-120.8949, 52.0965]]]}, "properties": {"company_id": "glencore", "jurisdiction": "British Columbia", "claim_id": 207541, "claim_name": "P.R. #25", "holder": "GLENCORE CANADA CORPORATION", "status": "Mineral", "recorded_date": "-431740800", "anniversary_or_expiry": "2025-08-31", "area_ha": 25, "tenure_type": "Mineral", "source": "BC MTA Mineral, Placer and Coal Tenure Spatial View (BCGW). Open Government Licence - British Columbia. Not legal title.", "as_of": "2026-09-20", "role": "focus", "color": "#e8b040"}}, {"type": "Feature", "geometry": {"type": "Polygon", "coordinates": [[[-120.8988, 52.0938], [-120.9035, 52.096], [-120.902, 52.0952], [-120.9038, 52.0938], [-120.9031, 52.0932], [-120.9006, 52.0925], [-120.8988, 52.0938]]]}, "properties": {"company_id": "glencore", "jurisdiction": "British Columbia", "claim_id": 207542, "claim_name": "P.R. #26", "holder": "GLENCORE CANADA CORPORATION", "status": "Mineral", "recorded_date": "-431740800", "anniversary_or_expiry": "2025-08-31", "area_ha": 25, "tenure_type": "Mineral", "source": "BC MTA Mineral, Placer and Coal Tenure Spatial View (BCGW). Open Government Licence - British Columbia. Not legal title.", "as_of": "2026-09-20", "role": "focus", "color": "#e8b040"}}, {"type": "Feature", "geometry": {"type": "Polygon", "coordinates": [[[-120.8905, 52.0941], [-120.8949, 52.0965], [-120.8988, 52.0938], [-120.8944, 52.0914], [-120.8905, 52.0941]]]}, "properties": {"company_id": "glencore", "jurisdiction": "British Columbia", "claim_id": 207543, "claim_name": "P.R. #27", "holder": "GLENCORE CANADA CORPORATION", "status": "Mineral", "recorded_date": "-431740800", "anniversary_or_expiry": "2025-08-31", "area_ha": 25, "tenure_type": "Mineral", "source": "BC MTA Mineral, Placer and Coal Tenure Spatial View (BCGW). Open Government Licence - British Columbia. Not legal title.", "as_of": "2026-09-20", "role": "focus", "color": "#e8b040"}}, {"type": "Feature", "geometry": {"type": "Polygon", "coordinates": [[[-120.8988, 52.0938], [-120.9006, 52.0925], [-120.8985, 52.092], [-120.9002, 52.0897], [-120.8983, 52.0887], [-120.8944, 52.0914], [-120.8988, 52.0938]]]}, "properties": {"company_id": "glencore", "jurisdiction": "British Columbia", "claim_id": 207544, "claim_name": "P.R. #28", "holder": "GLENCORE CANADA CORPORATION", "status": "Mineral", "recorded_date": "-431740800", "anniversary_or_expiry": "2025-08-31", "area_ha": 25, "tenure_type": "Mineral", "source": "BC MTA Mineral, Placer and Coal Tenure Spatial View (BCGW). Open Government Licence - British Columbia. Not legal title.", "as_of": "2026-09-20", "role": "focus", "color": "#e8b040"}}, {"type": "Feature", "geometry": {"type": "Polygon", "coordinates": [[[-120.8861, 52.0917], [-120.8905, 52.0941], [-120.8944, 52.0914], [-120.89, 52.089], [-120.8861, 52.0917]]]}, "properties": {"company_id": "glencore", "jurisdiction": "British Columbia", "claim_id": 207545, "claim_name": "P.R. #29", "holder": "GLENCORE CANADA CORPORATION", "status": "Mineral", "recorded_date": "-431740800", "anniversary_or_expiry": "2025-08-31", "area_ha": 25, "tenure_type": "Mineral", "source": "BC MTA Mineral, Placer and Coal Tenure Spatial View (BCGW). Open Government Licence - British Columbia. Not legal title.", "as_of": "2026-09-20", "role": "focus", "color": "#e8b040"}}, {"type": "Feature", "geometry": {"type": "Polygon", "coordinates": [[[-120.89, 52.089], [-120.8944, 52.0914], [-120.8983, 52.0887], [-120.8939, 52.0863], [-120.89, 52.089]]]}, "properties": {"company_id": "glencore", "jurisdiction": "British Columbia", "claim_id": 207546, "claim_name": "P.R. #30", "holder": "GLENCORE CANADA CORPORATION", "status": "Mineral", "recorded_date": "-431740800", "anniversary_or_expiry": "2025-08-31", "area_ha": 25, "tenure_type": "Mineral", "source": "BC MTA Mineral, Placer and Coal Tenure Spatial View (BCGW). Open Government Licence - British Columbia. Not legal title.", "as_of": "2026-09-20", "role": "focus", "color": "#e8b040"}}, {"type": "Feature", "geometry": {"type": "Polygon", "coordinates": [[[-120.9141, 52.0886], [-120.9149, 52.0893], [-120.9122, 52.0906], [-120.912, 52.0913], [-120.9172, 52.0919], [-120.9193, 52.0905], [-120.9149, 52.0881], [-120.9141, 52.0886]]]}, "properties": {"company_id": "glencore", "jurisdiction": "British Columbia", "claim_id": 207547, "claim_name": "P.R. #2", "holder": "GLENCORE CANADA CORPORATION", "status": "Mineral", "recorded_date": "-431740800", "anniversary_or_expiry": "2025-08-31", "area_ha": 25, "tenure_type": "Mineral", "source": "BC MTA Mineral, Placer and Coal Tenure Spatial View (BCGW). Open Government Licence - British Columbia. Not legal title.", "as_of": "2026-09-20", "role": "focus", "color": "#e8b040"}}, {"type": "Feature", "geometry": {"type": "Polygon", "coordinates": [[[-120.9022, 52.086], [-120.8983, 52.0887], [-120.9002, 52.0897], [-120.9027, 52.0863], [-120.9022, 52.086]]]}, "properties": {"company_id": "glencore", "jurisdiction": "British Columbia", "claim_id": 207548, "claim_name": "P.R. #3", "holder": "GLENCORE CANADA CORPORATION", "status": "Mineral", "recorded_date": "-431740800", "anniversary_or_expiry": "2025-12-01", "area_ha": 25, "tenure_type": "Mineral", "source": "BC MTA Mineral, Placer and Coal Tenure Spatial View (BCGW). Open Government Licence - British Columbia. Not legal title.", "as_of": "2026-09-20", "role": "focus", "color": "#e8b040"}}, {"type": "Feature", "geometry": {"type": "Polygon", "coordinates": [[[-120.8954, 52.1016], [-120.8998, 52.104], [-120.9037, 52.1013], [-120.8993, 52.0989], [-120.8954, 52.1016]]]}, "properties": {"company_id": "glencore", "jurisdiction": "British Columbia", "claim_id": 207557, "claim_name": "R.O. #14", "holder": "GLENCORE CANADA CORPORATION", "status": "Mineral", "recorded_date": "-394848000", "anniversary_or_expiry": "2025-08-31", "area_ha": 25, "tenure_type": "Mineral", "source": "BC MTA Mineral, Placer and Coal Tenure Spatial View (BCGW). Open Government Licence - British Columbia. Not legal title.", "as_of": "2026-09-20", "role": "focus", "color": "#e8b040"}}, {"type": "Feature", "geometry": {"type": "Polygon", "coordinates": [[[-120.8915, 52.1043], [-120.8959, 52.1067], [-120.8998, 52.104], [-120.8954, 52.1016], [-120.8915, 52.1043]]]}, "properties": {"company_id": "glencore", "jurisdiction": "British Columbia", "claim_id": 207558, "claim_name": "R.O. #15", "holder": "GLENCORE CANADA CORPORATION", "status": "Mineral", "recorded_date": "-394848000", "anniversary_or_expiry": "2025-08-31", "area_ha": 25, "tenure_type": "Mineral", "source": "BC MTA Mineral, Placer and Coal Tenure Spatial View (BCGW). Open Government Licence - British Columbia. Not legal title.", "as_of": "2026-09-20", "role": "focus", "color": "#e8b040"}}, {"type": "Feature", "geometry": {"type": "Polygon", "coordinates": [[[-120.891, 52.0992], [-120.8954, 52.1016], [-120.8993, 52.0989], [-120.8949, 52.0965], [-120.891, 52.0992]]]}, "properties": {"company_id": "glencore", "jurisdiction": "British Columbia", "claim_id": 207559, "claim_name": "R.O. #16", "holder": "GLENCORE CANADA CORPORATION", "status": "Mineral", "recorded_date": "-394848000", "anniversary_or_expiry": "2025-08-31", "area_ha": 25, "tenure_type": "Mineral", "source": "BC MTA Mineral, Placer and Coal Tenure Spatial View (BCGW). Open Government Licence - British Columbia. Not legal title.", "as_of": "2026-09-20", "role": "focus", "color": "#e8b040"}}, {"type": "Feature", "geometry": {"type": "Polygon", "coordinates": [[[-120.8871, 52.1019], [-120.8915, 52.1043], [-120.8954, 52.1016], [-120.891, 52.0992], [-120.8871, 52.1019]]]}, "properties": {"company_id": "glencore", "jurisdiction": "British Columbia", "claim_id": 207560, "claim_name": "R.O. #17", "holder": "GLENCORE CANADA CORPORATION", "status": "Mineral", "recorded_date": "-394848000", "anniversary_or_expiry": "2025-08-31", "area_ha": 25, "tenure_type": "Mineral", "source": "BC MTA Mineral, Placer and Coal Tenure Spatial View (BCGW). Open Government Licence - British Columbia. Not legal title.", "as_of": "2026-09-20", "role": "focus", "color": "#e8b040"}}, {"type": "Feature", "geometry": {"type": "Polygon", "coordinates": [[[-120.8866, 52.0968], [-120.891, 52.0992], [-120.8949, 52.0965], [-120.8905, 52.0941], [-120.8866, 52.0968]]]}, "properties": {"company_id": "glencore", "jurisdiction": "British Columbia", "claim_id": 207561, "claim_name": "R.O. #18", "holder": "GLENCORE CANADA CORPORATION", "status": "Mineral", "recorded_date": "-394848000", "anniversary_or_expiry": "2025-08-31", "area_ha": 25, "tenure_type": "Mineral", "source": "BC MTA Mineral, Placer and Coal Tenure Spatial View (BCGW). Open Government Licence - British Columbia. Not legal title.", "as_of": "2026-09-20", "role": "focus", "color": "#e8b040"}}, {"type": "Feature", "geometry": {"type": "Polygon", "coordinates": [[[-120.8827, 52.0995], [-120.8871, 52.1019], [-120.891, 52.0992], [-120.8866, 52.0968], [-120.8827, 52.0995]]]}, "properties": {"company_id": "glencore", "jurisdiction": "British Columbia", "claim_id": 207562, "claim_name": "R.O. #19", "holder": "GLENCORE CANADA CORPORATION", "status": "Mineral", "recorded_date": "-394848000", "anniversary_or_expiry": "2025-08-31", "area_ha": 25, "tenure_type": "Mineral", "source": "BC MTA Mineral, Placer and Coal Tenure Spatial View (BCGW). Open Government Licence - British Columbia. Not legal title.", "as_of": "2026-09-20", "role": "focus", "color": "#e8b040"}}, {"type": "Feature", "geometry": {"type": "Polygon", "coordinates": [[[-120.8822, 52.0944], [-120.8866, 52.0968], [-120.8905, 52.0941], [-120.8861, 52.0917], [-120.8822, 52.0944]]]}, "properties": {"company_id": "glencore", "jurisdiction": "British Columbia", "claim_id": 207563, "claim_name": "R.O. #20", "holder": "GLENCORE CANADA CORPORATION", "status": "Mineral", "recorded_date": "-394848000", "anniversary_or_expiry": "2025-08-31", "area_ha": 25, "tenure_type": "Mineral", "source": "BC MTA Mineral, Placer and Coal Tenure Spatial View (BCGW). Open Government Licence - British Columbia. Not legal title.", "as_of": "2026-09-20", "role": "focus", "color": "#e8b040"}}, {"type": "Feature", "geometry": {"type": "Polygon", "coordinates": [[[-120.8817, 52.099], [-120.8827, 52.0995], [-120.8866, 52.0968], [-120.8822, 52.0944], [-120.8783, 52.0971], [-120.8817, 52.099]]]}, "properties": {"company_id": "glencore", "jurisdiction": "British Columbia", "claim_id": 207564, "claim_name": "R.O. #21", "holder": "GLENCORE CANADA CORPORATION", "status": "Mineral", "recorded_date": "-394848000", "anniversary_or_expiry": "2025-08-31", "area_ha": 25, "tenure_type": "Mineral", "source": "BC MTA Mineral, Placer and Coal Tenure Spatial View (BCGW). Open Government Licence - British Columbia. Not legal title.", "as_of": "2026-09-20", "role": "focus", "color": "#e8b040"}}, {"type": "Feature", "geometry": {"type": "Polygon", "coordinates": [[[-120.9198, 52.0956], [-120.9236, 52.0929], [-120.9193, 52.0905], [-120.9172, 52.0919], [-120.9185, 52.0921], [-120.9177, 52.0945], [-120.9198, 52.0956]]]}, "properties": {"company_id": "glencore", "jurisdiction": "British Columbia", "claim_id": 207566, "claim_name": "R.O. #2", "holder": "GLENCORE CANADA CORPORATION", "status": "Mineral", "recorded_date": "-394934400", "anniversary_or_expiry": "2025-08-31", "area_ha": 25, "tenure_type": "Mineral", "source": "BC MTA Mineral, Placer and Coal Tenure Spatial View (BCGW). Open Government Licence - British Columbia. Not legal title.", "as_of": "2026-09-20", "role": "focus", "color": "#e8b040"}}, {"type": "Feature", "geometry": {"type": "Polygon", "coordinates": [[[-120.9175, 52.0953], [-120.9153, 52.098], [-120.9159, 52.0983], [-120.9198, 52.0956], [-120.9177, 52.0945], [-120.9175, 52.0953]]]}, "properties": {"company_id": "glencore", "jurisdiction": "British Columbia", "claim_id": 207567, "claim_name": "R.O. #3", "holder": "GLENCORE CANADA CORPORATION", "status": "Mineral", "recorded_date": "-394934400", "anniversary_or_expiry": "2025-08-31", "area_ha": 25, "tenure_type": "Mineral", "source": "BC MTA Mineral, Placer and Coal Tenure Spatial View (BCGW). Open Government Licence - British Columbia. Not legal title.", "as_of": "2026-09-20", "role": "focus", "color": "#e8b040"}}, {"type": "Feature", "geometry": {"type": "Polygon", "coordinates": [[[-120.8791, 52.0975], [-120.8791, 52.099], [-120.8817, 52.099], [-120.8791, 52.0975]]]}, "properties": {"company_id": "glencore", "jurisdiction": "British Columbia", "claim_id": 207573, "claim_name": "ROVER NO.1", "holder": "GLENCORE CANADA CORPORATION", "status": "Mineral", "recorded_date": "-261446400", "anniversary_or_expiry": "2025-08-31", "area_ha": 25, "tenure_type": "Mineral", "source": "BC MTA Mineral, Placer and Coal Tenure Spatial View (BCGW). Open Government Licence - British Columbia. Not legal title.", "as_of": "2026-09-20", "role": "focus", "color": "#e8b040"}}, {"type": "Feature", "geometry": {"type": "Polygon", "coordinates": [[[-120.879, 52.0917], [-120.8791, 52.0953], [-120.8808, 52.0953], [-120.8849, 52.0925], [-120.8849, 52.0917], [-120.879, 52.0917]]]}, "properties": {"company_id": "glencore", "jurisdiction": "British Columbia", "claim_id": 207574, "claim_name": "ROVER NO.2", "holder": "GLENCORE CANADA CORPORATION", "status": "Mineral", "recorded_date": "-261446400", "anniversary_or_expiry": "2025-08-31", "area_ha": 25, "tenure_type": "Mineral", "source": "BC MTA Mineral, Placer and Coal Tenure Spatial View (BCGW). Open Government Licence - British Columbia. Not legal title.", "as_of": "2026-09-20", "role": "focus", "color": "#e8b040"}}, {"type": "Feature", "geometry": {"type": "Polygon", "coordinates": [[[-120.8732, 52.0954], [-120.8733, 52.099], [-120.8791, 52.099], [-120.8791, 52.0975], [-120.8783, 52.0971], [-120.8791, 52.0965], [-120.8791, 52.0953], [-120.8732, 52.0954]]]}, "properties": {"company_id": "glencore", "jurisdiction": "British Columbia", "claim_id": 207575, "claim_name": "ROVER NO.3", "holder": "GLENCORE CANADA CORPORATION", "status": "Mineral", "recorded_date": "-261446400", "anniversary_or_expiry": "2025-08-31", "area_ha": 25, "tenure_type": "Mineral", "source": "BC MTA Mineral, Placer and Coal Tenure Spatial View (BCGW). Open Government Licence - British Columbia. Not legal title.", "as_of": "2026-09-20", "role": "focus", "color": "#e8b040"}}, {"type": "Feature", "geometry": {"type": "Polygon", "coordinates": [[[-120.8732, 52.0935], [-120.8732, 52.0954], [-120.8791, 52.0953], [-120.879, 52.0917], [-120.8732, 52.0918], [-120.8732, 52.0935]]]}, "properties": {"company_id": "glencore", "jurisdiction": "British Columbia", "claim_id": 207576, "claim_name": "ROVER NO.4", "holder": "GLENCORE CANADA CORPORATION", "status": "Mineral", "recorded_date": "-261446400", "anniversary_or_expiry": "2025-08-31", "area_ha": 25, "tenure_type": "Mineral", "source": "BC MTA Mineral, Placer and Coal Tenure Spatial View (BCGW). Open Government Licence - British Columbia. Not legal title.", "as_of": "2026-09-20", "role": "focus", "color": "#e8b040"}}, {"type": "Feature", "geometry": {"type": "Polygon", "coordinates": [[[-120.8675, 52.0956], [-120.8677, 52.0992], [-120.8733, 52.099], [-120.8732, 52.0954], [-120.8675, 52.0956]]]}, "properties": {"company_id": "glencore", "jurisdiction": "British Columbia", "claim_id": 207577, "claim_name": "ROVER NO.5", "holder": "GLENCORE CANADA CORPORATION", "status": "Mineral", "recorded_date": "-261446400", "anniversary_or_expiry": "2025-08-31", "area_ha": 25, "tenure_type": "Mineral", "source": "BC MTA Mineral, Placer and Coal Tenure Spatial View (BCGW). Open Government Licence - British Columbia. Not legal title.", "as_of": "2026-09-20", "role": "focus", "color": "#e8b040"}}, {"type": "Feature", "geometry": {"type": "Polygon", "coordinates": [[[-120.8709, 52.0918], [-120.867, 52.092], [-120.8673, 52.0956], [-120.8732, 52.0954], [-120.8729, 52.0918], [-120.8709, 52.0918]]]}, "properties": {"company_id": "glencore", "jurisdiction": "British Columbia", "claim_id": 207578, "claim_name": "ROVER NO.6", "holder": "GLENCORE CANADA CORPORATION", "status": "Mineral", "recorded_date": "-261446400", "anniversary_or_expiry": "2025-08-31", "area_ha": 25, "tenure_type": "Mineral", "source": "BC MTA Mineral, Placer and Coal Tenure Spatial View (BCGW). Open Government Licence - British Columbia. Not legal title.", "as_of": "2026-09-20", "role": "focus", "color": "#e8b040"}}, {"type": "Feature", "geometry": {"type": "Polygon", "coordinates": [[[-120.8672, 52.0956], [-120.8615, 52.0958], [-120.8618, 52.0994], [-120.8677, 52.0992], [-120.8672, 52.0956]]]}, "properties": {"company_id": "glencore", "jurisdiction": "British Columbia", "claim_id": 207579, "claim_name": "ROVER NO.7", "holder": "GLENCORE CANADA CORPORATION", "status": "Mineral", "recorded_date": "-261446400", "anniversary_or_expiry": "2025-08-31", "area_ha": 25, "tenure_type": "Mineral", "source": "BC MTA Mineral, Placer and Coal Tenure Spatial View (BCGW). Open Government Licence - British Columbia. Not legal title.", "as_of": "2026-09-20", "role": "focus", "color": "#e8b040"}}, {"type": "Feature", "geometry": {"type": "Polygon", "coordinates": [[[-120.8669, 52.092], [-120.8612, 52.0922], [-120.8615, 52.0958], [-120.8673, 52.0956], [-120.8669, 52.092]]]}, "properties": {"company_id": "glencore", "jurisdiction": "British Columbia", "claim_id": 207580, "claim_name": "ROVER NO.8", "holder": "GLENCORE CANADA CORPORATION", "status": "Mineral", "recorded_date": "-261446400", "anniversary_or_expiry": "2025-08-31", "area_ha": 25, "tenure_type": "Mineral", "source": "BC MTA Mineral, Placer and Coal Tenure Spatial View (BCGW). Open Government Licence - British Columbia. Not legal title.", "as_of": "2026-09-20", "role": "focus", "color": "#e8b040"}}, {"type": "Feature", "geometry": {"type": "Polygon", "coordinates": [[[-120.8769, 52.09], [-120.8768, 52.0917], [-120.8827, 52.0917], [-120.8828, 52.0901], [-120.8769, 52.09]]]}, "properties": {"company_id": "glencore", "jurisdiction": "British Columbia", "claim_id": 207581, "claim_name": "C.C. #3", "holder": "GLENCORE CANADA CORPORATION", "status": "Mineral", "recorded_date": "-260582400", "anniversary_or_expiry": "2025-08-31", "area_ha": 25, "tenure_type": "Mineral", "source": "BC MTA Mineral, Placer and Coal Tenure Spatial View (BCGW). Open Government Licence - British Columbia. Not legal title.", "as_of": "2026-09-20", "role": "focus", "color": "#e8b040"}}, {"type": "Feature", "geometry": {"type": "Polygon", "coordinates": [[[-120.8771, 52.0864], [-120.8769, 52.09], [-120.8828, 52.0901], [-120.883, 52.0865], [-120.8771, 52.0864]]]}, "properties": {"company_id": "glencore", "jurisdiction": "British Columbia", "claim_id": 207582, "claim_name": "C.C. #4", "holder": "GLENCORE CANADA CORPORATION", "status": "Mineral", "recorded_date": "-260582400", "anniversary_or_expiry": "2025-08-31", "area_ha": 25, "tenure_type": "Mineral", "source": "BC MTA Mineral, Placer and Coal Tenure Spatial View (BCGW). Open Government Licence - British Columbia. Not legal title.", "as_of": "2026-09-20", "role": "focus", "color": "#e8b040"}}, {"type": "Feature", "geometry": {"type": "Polygon", "coordinates": [[[-120.873, 52.0935], [-120.8732, 52.0918], [-120.8768, 52.0917], [-120.8769, 52.09], [-120.8711, 52.0899], [-120.8709, 52.0918], [-120.8729, 52.0918], [-120.873, 52.0935]]]}, "properties": {"company_id": "glencore", "jurisdiction": "British Columbia", "claim_id": 207583, "claim_name": "C.C. #5", "holder": "GLENCORE CANADA CORPORATION", "status": "Mineral", "recorded_date": "-260582400", "anniversary_or_expiry": "2025-08-31", "area_ha": 25, "tenure_type": "Mineral", "source": "BC MTA Mineral, Placer and Coal Tenure Spatial View (BCGW). Open Government Licence - British Columbia. Not legal title.", "as_of": "2026-09-20", "role": "focus", "color": "#e8b040"}}, {"type": "Feature", "geometry": {"type": "Polygon", "coordinates": [[[-120.8713, 52.0863], [-120.8711, 52.0899], [-120.8769, 52.09], [-120.8771, 52.0864], [-120.8713, 52.0863]]]}, "properties": {"company_id": "glencore", "jurisdiction": "British Columbia", "claim_id": 207584, "claim_name": "C.C. #6", "holder": "GLENCORE CANADA CORPORATION", "status": "Mineral", "recorded_date": "-260582400", "anniversary_or_expiry": "2025-08-31", "area_ha": 25, "tenure_type": "Mineral", "source": "BC MTA Mineral, Placer and Coal Tenure Spatial View (BCGW). Open Government Licence - British Columbia. Not legal title.", "as_of": "2026-09-20", "role": "focus", "color": "#e8b040"}}, {"type": "Feature", "geometry": {"type": "Polygon", "coordinates": [[[-120.8652, 52.0897], [-120.8651, 52.092], [-120.8709, 52.0918], [-120.8711, 52.0899], [-120.8652, 52.0897]]]}, "properties": {"company_id": "glencore", "jurisdiction": "British Columbia", "claim_id": 207585, "claim_name": "C.C. #7", "holder": "GLENCORE CANADA CORPORATION", "status": "Mineral", "recorded_date": "-260582400", "anniversary_or_expiry": "2025-08-31", "area_ha": 25, "tenure_type": "Mineral", "source": "BC MTA Mineral, Placer and Coal Tenure Spatial View (BCGW). Open Government Licence - British Columbia. Not legal title.", "as_of": "2026-09-20", "role": "focus", "color": "#e8b040"}}, {"type": "Feature", "geometry": {"type": "Polygon", "coordinates": [[[-120.8654, 52.0861], [-120.8652, 52.0897], [-120.8711, 52.0899], [-120.8713, 52.0863], [-120.8654, 52.0861]]]}, "properties": {"company_id": "glencore", "jurisdiction": "British Columbia", "claim_id": 207586, "claim_name": "C.C. #8", "holder": "GLENCORE CANADA CORPORATION", "status": "Mineral", "recorded_date": "-260582400", "anniversary_or_expiry": "2025-08-31", "area_ha": 25, "tenure_type": "Mineral", "source": "BC MTA Mineral, Placer and Coal Tenure Spatial View (BCGW). Open Government Licence - British Columbia. Not legal title.", "as_of": "2026-09-20", "role": "focus", "color": "#e8b040"}}, {"type": "Feature", "geometry": {"type": "Polygon", "coordinates": [[[-120.8593, 52.0896], [-120.8591, 52.0932], [-120.8613, 52.0933], [-120.8612, 52.0922], [-120.8651, 52.092], [-120.8652, 52.0897], [-120.8593, 52.0896]]]}, "properties": {"company_id": "glencore", "jurisdiction": "British Columbia", "claim_id": 207587, "claim_name": "C.C. #9", "holder": "GLENCORE CANADA CORPORATION", "status": "Mineral", "recorded_date": "-260582400", "anniversary_or_expiry": "2025-08-31", "area_ha": 25, "tenure_type": "Mineral", "source": "BC MTA Mineral, Placer and Coal Tenure Spatial View (BCGW). Open Government Licence - British Columbia. Not legal title.", "as_of": "2026-09-20", "role": "focus", "color": "#e8b040"}}, {"type": "Feature", "geometry": {"type": "Polygon", "coordinates": [[[-120.8595, 52.086], [-120.8593, 52.0896], [-120.8652, 52.0897], [-120.8654, 52.0861], [-120.8595, 52.086]]]}, "properties": {"company_id": "glencore", "jurisdiction": "British Columbia", "claim_id": 207588, "claim_name": "C.C. #10", "holder": "GLENCORE CANADA CORPORATION", "status": "Mineral", "recorded_date": "-260582400", "anniversary_or_expiry": "2025-08-31", "area_ha": 25, "tenure_type": "Mineral", "source": "BC MTA Mineral, Placer and Coal Tenure Spatial View (BCGW). Open Government Licence - British Columbia. Not legal title.", "as_of": "2026-09-20", "role": "focus", "color": "#e8b040"}}, {"type": "Feature", "geometry": {"type": "Polygon", "coordinates": [[[-120.8536, 52.0895], [-120.8532, 52.0931], [-120.8591, 52.0932], [-120.8593, 52.0896], [-120.8536, 52.0895]]]}, "properties": {"company_id": "glencore", "jurisdiction": "British Columbia", "claim_id": 207589, "claim_name": "BOSS NO. 1", "holder": "GLENCORE CANADA CORPORATION", "status": "Mineral", "recorded_date": "-248227200", "anniversary_or_expiry": "2025-08-31", "area_ha": 25, "tenure_type": "Mineral", "source": "BC MTA Mineral, Placer and Coal Tenure Spatial View (BCGW). Open Government Licence - British Columbia. Not legal title.", "as_of": "2026-09-20", "role": "focus", "color": "#e8b040"}}, {"type": "Feature", "geometry": {"type": "Polygon", "coordinates": [[[-120.8537, 52.0859], [-120.8535, 52.0895], [-120.8593, 52.0896], [-120.8595, 52.086], [-120.8537, 52.0859]]]}, "properties": {"company_id": "glencore", "jurisdiction": "British Columbia", "claim_id": 207590, "claim_name": "BOSS NO. 2", "holder": "GLENCORE CANADA CORPORATION", "status": "Mineral", "recorded_date": "-248227200", "anniversary_or_expiry": "2025-08-31", "area_ha": 25, "tenure_type": "Mineral", "source": "BC MTA Mineral, Placer and Coal Tenure Spatial View (BCGW). Open Government Licence - British Columbia. Not legal title.", "as_of": "2026-09-20", "role": "focus", "color": "#e8b040"}}, {"type": "Feature", "geometry": {"type": "Polygon", "coordinates": [[[-120.8537, 52.0859], [-120.8595, 52.086], [-120.8598, 52.0824], [-120.8539, 52.0823], [-120.8537, 52.0859]]]}, "properties": {"company_id": "glencore", "jurisdiction": "British Columbia", "claim_id": 207591, "claim_name": "BOSS NO. 3", "holder": "GLENCORE CANADA CORPORATION", "status": "Mineral", "recorded_date": "-248227200", "anniversary_or_expiry": "2025-08-31", "area_ha": 25, "tenure_type": "Mineral", "source": "BC MTA Mineral, Placer and Coal Tenure Spatial View (BCGW). Open Government Licence - British Columbia. Not legal title.", "as_of": "2026-09-20", "role": "focus", "color": "#e8b040"}}, {"type": "Feature", "geometry": {"type": "Polygon", "coordinates": [[[-120.8598, 52.0824], [-120.8595, 52.086], [-120.8654, 52.0861], [-120.8656, 52.0825], [-120.8598, 52.0824]]]}, "properties": {"company_id": "glencore", "jurisdiction": "British Columbia", "claim_id": 207592, "claim_name": "BOSS NO. 4", "holder": "GLENCORE CANADA CORPORATION", "status": "Mineral", "recorded_date": "-248227200", "anniversary_or_expiry": "2025-08-31", "area_ha": 25, "tenure_type": "Mineral", "source": "BC MTA Mineral, Placer and Coal Tenure Spatial View (BCGW). Open Government Licence - British Columbia. Not legal title.", "as_of": "2026-09-20", "role": "focus", "color": "#e8b040"}}, {"type": "Feature", "geometry": {"type": "Polygon", "coordinates": [[[-120.8656, 52.0825], [-120.8654, 52.0861], [-120.8713, 52.0863], [-120.8715, 52.0827], [-120.8656, 52.0825]]]}, "properties": {"company_id": "glencore", "jurisdiction": "British Columbia", "claim_id": 207593, "claim_name": "BOSS NO. 5", "holder": "GLENCORE CANADA CORPORATION", "status": "Mineral", "recorded_date": "-248227200", "anniversary_or_expiry": "2025-08-31", "area_ha": 25, "tenure_type": "Mineral", "source": "BC MTA Mineral, Placer and Coal Tenure Spatial View (BCGW). Open Government Licence - British Columbia. Not legal title.", "as_of": "2026-09-20", "role": "focus", "color": "#e8b040"}}, {"type": "Feature", "geometry": {"type": "Polygon", "coordinates": [[[-120.8715, 52.0827], [-120.8713, 52.0863], [-120.8771, 52.0864], [-120.8774, 52.0828], [-120.8715, 52.0827]]]}, "properties": {"company_id": "glencore", "jurisdiction": "British Columbia", "claim_id": 207594, "claim_name": "BOSS NO. 6", "holder": "GLENCORE CANADA CORPORATION", "status": "Mineral", "recorded_date": "-248227200", "anniversary_or_expiry": "2025-08-31", "area_ha": 25, "tenure_type": "Mineral", "source": "BC MTA Mineral, Placer and Coal Tenure Spatial View (BCGW). Open Government Licence - British Columbia. Not legal title.", "as_of": "2026-09-20", "role": "focus", "color": "#e8b040"}}, {"type": "Feature", "geometry": {"type": "Polygon", "coordinates": [[[-120.883, 52.0873], [-120.8888, 52.0874], [-120.8891, 52.0838], [-120.8832, 52.0836], [-120.883, 52.0873]]]}, "properties": {"company_id": "glencore", "jurisdiction": "British Columbia", "claim_id": 207596, "claim_name": "BOSS NO. 8", "holder": "GLENCORE CANADA CORPORATION", "status": "Mineral", "recorded_date": "-248227200", "anniversary_or_expiry": "2025-08-31", "area_ha": 25, "tenure_type": "Mineral", "source": "BC MTA Mineral, Placer and Coal Tenure Spatial View (BCGW). Open Government Licence - British Columbia. Not legal title.", "as_of": "2026-09-20", "role": "focus", "color": "#e8b040"}}, {"type": "Feature", "geometry": {"type": "Polygon", "coordinates": [[[-120.8534, 52.0882], [-120.8477, 52.0881], [-120.8475, 52.0917], [-120.8533, 52.0918], [-120.8534, 52.0882]]]}, "properties": {"company_id": "glencore", "jurisdiction": "British Columbia", "claim_id": 207688, "claim_name": "BEN #1", "holder": "GLENCORE CANADA CORPORATION", "status": "Mineral", "recorded_date": "-132537600", "anniversary_or_expiry": "2025-08-31", "area_ha": 25, "tenure_type": "Mineral", "source": "BC MTA Mineral, Placer and Coal Tenure Spatial View (BCGW). Open Government Licence - British Columbia. Not legal title.", "as_of": "2026-09-20", "role": "focus", "color": "#e8b040"}}, {"type": "Feature", "geometry": {"type": "Polygon", "coordinates": [[[-120.8479, 52.0845], [-120.8477, 52.0881], [-120.8535, 52.0882], [-120.8537, 52.0846], [-120.8479, 52.0845]]]}, "properties": {"company_id": "glencore", "jurisdiction": "British Columbia", "claim_id": 207690, "claim_name": "BEN #3", "holder": "GLENCORE CANADA CORPORATION", "status": "Mineral", "recorded_date": "-132537600", "anniversary_or_expiry": "2025-08-31", "area_ha": 25, "tenure_type": "Mineral", "source": "BC MTA Mineral, Placer and Coal Tenure Spatial View (BCGW). Open Government Licence - British Columbia. Not legal title.", "as_of": "2026-09-20", "role": "focus", "color": "#e8b040"}}, {"type": "Feature", "geometry": {"type": "Polygon", "coordinates": [[[-126.2184, 55.0247], [-126.2245, 55.0239], [-126.2232, 55.0209], [-126.2172, 55.0218], [-126.2184, 55.0247]]]}, "properties": {"company_id": "glencore", "jurisdiction": "British Columbia", "claim_id": 244224, "claim_name": "MARK NO. 2", "holder": "GLENCORE CANADA CORPORATION", "status": "Mineral", "recorded_date": "-107308800", "anniversary_or_expiry": "2025-08-08", "area_ha": 25, "tenure_type": "Mineral", "source": "BC MTA Mineral, Placer and Coal Tenure Spatial View (BCGW). Open Government Licence - British Columbia. Not legal title.", "as_of": "2026-09-20", "role": "focus", "color": "#e8b040"}}, {"type": "Feature", "geometry": {"type": "Polygon", "coordinates": [[[-126.2151, 55.0052], [-126.2266, 55.0033], [-126.2272, 55.0046], [-126.2342, 55.0037], [-126.2327, 55.0001], [-126.24, 55.0], [-126.2396, 54.9992], [-126.2515, 54.9971], [-126.2491, 54.987], [-126.2421, 54.9874], [-126.2393, 54.9794], [-126.2336, 54.98], [-126.2304, 54.9721], [-126.213, 54.9744], [-126.2164, 54.9821], [-126.2143, 54.9824], [-126.2157, 54.9864], [-126.2089, 54.9873], [-126.2106, 54.9913], [-126.211, 54.9913], [-126.212, 54.9946], [-126.2101, 54.995], [-126.2151, 55.0052]]]}, "properties": {"company_id": "glencore", "jurisdiction": "British Columbia", "claim_id": 243487, "claim_name": null, "holder": "GLENCORE CANADA CORPORATION", "status": "Mineral", "recorded_date": "1129248000", "anniversary_or_expiry": "2024-07-31", "area_ha": 626.49, "tenure_type": "Mineral", "source": "BC MTA Mineral, Placer and Coal Tenure Spatial View (BCGW). Open Government Licence - British Columbia. Not legal title.", "as_of": "2026-09-20", "role": "focus", "color": "#e8b040"}}, {"type": "Feature", "geometry": {"type": "Polygon", "coordinates": [[[-126.2238, 55.0223], [-126.2532, 55.0175], [-126.2515, 55.0141], [-126.2525, 55.0139], [-126.2517, 55.0118], [-126.2571, 55.0108], [-126.2556, 55.008], [-126.2571, 55.0077], [-126.253, 55.0011], [-126.2515, 54.9971], [-126.2396, 54.9992], [-126.24, 55.0], [-126.2327, 55.0001], [-126.2342, 55.0037], [-126.2272, 55.0046], [-126.2266, 55.0033], [-126.2151, 55.0052], [-126.2096, 54.9942], [-126.2029, 54.9953], [-126.2127, 55.014], [-126.2163, 55.0219], [-126.2232, 55.0209], [-126.2238, 55.0223]]]}, "properties": {"company_id": "glencore", "jurisdiction": "British Columbia", "claim_id": 243488, "claim_name": null, "holder": "GLENCORE CANADA CORPORATION", "status": "Mineral", "recorded_date": "1129248000", "anniversary_or_expiry": "2024-07-31", "area_ha": 617.1800000000001, "tenure_type": "Mineral", "source": "BC MTA Mineral, Placer and Coal Tenure Spatial View (BCGW). Open Government Licence - British Columbia. Not legal title.", "as_of": "2026-09-20", "role": "focus", "color": "#e8b040"}}, {"type": "Feature", "geometry": {"type": "Polygon", "coordinates": [[[-120.0159, 49.8698], [-120.0109, 49.8674], [-120.0109, 49.8688], [-120.0076, 49.8712], [-120.0048, 49.8712], [-120.0052, 49.8714], [-119.9962, 49.8762], [-119.9987, 49.8783], [-119.9965, 49.8804], [-120.0069, 49.8851], [-120.0102, 49.882], [-120.0077, 49.8809], [-120.0098, 49.8816], [-120.0161, 49.8747], [-120.0121, 49.8732], [-120.0159, 49.8698]]]}, "properties": {"company_id": "glencore", "jurisdiction": "British Columbia", "claim_id": 247409, "claim_name": null, "holder": "GLENCORE CANADA CORPORATION", "status": "Mineral", "recorded_date": "-997056000", "anniversary_or_expiry": "2025-11-04", "area_ha": 147.14000000000001, "tenure_type": "Mineral", "source": "BC MTA Mineral, Placer and Coal Tenure Spatial View (BCGW). Open Government Licence - British Columbia. Not legal title.", "as_of": "2026-09-20", "role": "focus", "color": "#e8b040"}}, {"type": "Feature", "geometry": {"type": "Polygon", "coordinates": [[[-120.0239, 49.8724], [-120.0155, 49.8702], [-120.0121, 49.8732], [-120.0161, 49.8747], [-120.0098, 49.8816], [-120.0092, 49.8814], [-120.0102, 49.882], [-120.0069, 49.8851], [-120.0039, 49.8838], [-120.0031, 49.8842], [-120.0076, 49.8872], [-120.015, 49.8894], [-120.0198, 49.8838], [-120.0262, 49.8789], [-120.0214, 49.8762], [-120.0239, 49.8724]]]}, "properties": {"company_id": "glencore", "jurisdiction": "British Columbia", "claim_id": 247410, "claim_name": null, "holder": "GLENCORE CANADA CORPORATION", "status": "Mineral", "recorded_date": "-997056000", "anniversary_or_expiry": "2025-11-04", "area_ha": 147.03, "tenure_type": "Mineral", "source": "BC MTA Mineral, Placer and Coal Tenure Spatial View (BCGW). Open Government Licence - British Columbia. Not legal title.", "as_of": "2026-09-20", "role": "focus", "color": "#e8b040"}}, {"type": "Feature", "geometry": {"type": "Polygon", "coordinates": [[[-119.9999, 49.8675], [-119.9933, 49.8678], [-119.9775, 49.8673], [-119.9777, 49.8738], [-119.9783, 49.8738], [-119.9724, 49.8744], [-119.9738, 49.8822], [-119.9975, 49.8809], [-119.9965, 49.8804], [-119.9987, 49.8783], [-119.9962, 49.8762], [-119.9981, 49.8753], [-119.9962, 49.875], [-119.9979, 49.871], [-120.0041, 49.8721], [-119.9981, 49.8707], [-119.9999, 49.8675]]]}, "properties": {"company_id": "glencore", "jurisdiction": "British Columbia", "claim_id": 247413, "claim_name": null, "holder": "GLENCORE CANADA CORPORATION", "status": "Mineral", "recorded_date": "-298080000", "anniversary_or_expiry": "2026-01-21", "area_ha": 251.98000000000002, "tenure_type": "Mineral", "source": "BC MTA Mineral, Placer and Coal Tenure Spatial View (BCGW). Open Government Licence - British Columbia. Not legal title.", "as_of": "2026-09-20", "role": "focus", "color": "#e8b040"}}, {"type": "Feature", "geometry": {"type": "Polygon", "coordinates": [[[-119.9979, 49.871], [-119.9962, 49.875], [-119.9981, 49.8753], [-120.004, 49.8721], [-119.9979, 49.871]]]}, "properties": {"company_id": "glencore", "jurisdiction": "British Columbia", "claim_id": 247450, "claim_name": "MAC #18", "holder": "GLENCORE CANADA CORPORATION", "status": "Mineral", "recorded_date": "-164678400", "anniversary_or_expiry": "2028-02-22", "area_ha": 25, "tenure_type": "Mineral", "source": "BC MTA Mineral, Placer and Coal Tenure Spatial View (BCGW). Open Government Licence - British Columbia. Not legal title.", "as_of": "2026-09-20", "role": "focus", "color": "#e8b040"}}, {"type": "Feature", "geometry": {"type": "Polygon", "coordinates": [[[-119.9881, 49.8623], [-119.9822, 49.8623], [-119.9822, 49.8674], [-119.9881, 49.8674], [-119.9881, 49.8623]]]}, "properties": {"company_id": "glencore", "jurisdiction": "British Columbia", "claim_id": 247457, "claim_name": "W.P.#13", "holder": "GLENCORE CANADA CORPORATION", "status": "Mineral", "recorded_date": "-151459200", "anniversary_or_expiry": "2028-02-22", "area_ha": 25, "tenure_type": "Mineral", "source": "BC MTA Mineral, Placer and Coal Tenure Spatial View (BCGW). Open Government Licence - British Columbia. Not legal title.", "as_of": "2026-09-20", "role": "focus", "color": "#e8b040"}}, {"type": "Feature", "geometry": {"type": "Polygon", "coordinates": [[[-119.9822, 49.8623], [-119.9775, 49.8623], [-119.9775, 49.8673], [-119.9822, 49.8674], [-119.9822, 49.8623]]]}, "properties": {"company_id": "glencore", "jurisdiction": "British Columbia", "claim_id": 247458, "claim_name": "W.P.#15", "holder": "GLENCORE CANADA CORPORATION", "status": "Mineral", "recorded_date": "-151459200", "anniversary_or_expiry": "2028-02-22", "area_ha": 25, "tenure_type": "Mineral", "source": "BC MTA Mineral, Placer and Coal Tenure Spatial View (BCGW). Open Government Licence - British Columbia. Not legal title.", "as_of": "2026-09-20", "role": "focus", "color": "#e8b040"}}, {"type": "Feature", "geometry": {"type": "Polygon", "coordinates": [[[-119.9524, 49.8719], [-119.9524, 49.8757], [-119.9586, 49.8757], [-119.9586, 49.872], [-119.9524, 49.8719]]]}, "properties": {"company_id": "glencore", "jurisdiction": "British Columbia", "claim_id": 247459, "claim_name": "CATI #22", "holder": "GLENCORE CANADA CORPORATION", "status": "Mineral", "recorded_date": "-151459200", "anniversary_or_expiry": "2028-02-22", "area_ha": 25, "tenure_type": "Mineral", "source": "BC MTA Mineral, Placer and Coal Tenure Spatial View (BCGW). Open Government Licence - British Columbia. Not legal title.", "as_of": "2026-09-20", "role": "focus", "color": "#e8b040"}}, {"type": "Feature", "geometry": {"type": "Polygon", "coordinates": [[[-120.0062, 49.8684], [-120.0041, 49.8721], [-120.0052, 49.8714], [-120.0048, 49.8712], [-120.0067, 49.8712], [-120.0076, 49.8701], [-120.0075, 49.8684], [-120.0062, 49.8684]]]}, "properties": {"company_id": "glencore", "jurisdiction": "British Columbia", "claim_id": 247460, "claim_name": "ROY NO.12", "holder": "GLENCORE CANADA CORPORATION", "status": "Mineral", "recorded_date": "-135475200", "anniversary_or_expiry": "2028-02-22", "area_ha": 25, "tenure_type": "Mineral", "source": "BC MTA Mineral, Placer and Coal Tenure Spatial View (BCGW). Open Government Licence - British Columbia. Not legal title.", "as_of": "2026-09-20", "role": "focus", "color": "#e8b040"}}, {"type": "Feature", "geometry": {"type": "Polygon", "coordinates": [[[-120.0075, 49.8684], [-120.0073, 49.8664], [-120.0062, 49.8684], [-120.0025, 49.8675], [-120.0075, 49.8684]]]}, "properties": {"company_id": "glencore", "jurisdiction": "British Columbia", "claim_id": 247504, "claim_name": "ROY NO. 11 FRACTIONAL", "holder": "GLENCORE CANADA CORPORATION", "status": "Mineral", "recorded_date": "-100569600", "anniversary_or_expiry": "2028-02-22", "area_ha": 25, "tenure_type": "Mineral", "source": "BC MTA Mineral, Placer and Coal Tenure Spatial View (BCGW). Open Government Licence - British Columbia. Not legal title.", "as_of": "2026-09-20", "role": "focus", "color": "#e8b040"}}, {"type": "Feature", "geometry": {"type": "Polygon", "coordinates": [[[-119.9529, 49.8715], [-119.9524, 49.8719], [-119.9643, 49.8716], [-119.9529, 49.8715]]]}, "properties": {"company_id": "glencore", "jurisdiction": "British Columbia", "claim_id": 247601, "claim_name": "CATI #35 FR", "holder": "GLENCORE CANADA CORPORATION", "status": "Mineral", "recorded_date": "-877824000", "anniversary_or_expiry": "2028-02-22", "area_ha": 25, "tenure_type": "Mineral", "source": "BC MTA Mineral, Placer and Coal Tenure Spatial View (BCGW). Open Government Licence - British Columbia. Not legal title.", "as_of": "2026-09-20", "role": "focus", "color": "#e8b040"}}, {"type": "Feature", "geometry": {"type": "Polygon", "coordinates": [[[-131.2041, 52.2781], [-131.1916, 52.2781], [-131.1876, 52.2849], [-131.1918, 52.2857], [-131.1904, 52.2884], [-131.1883, 52.2888], [-131.1895, 52.2897], [-131.188, 52.2912], [-131.1914, 52.2893], [-131.1942, 52.2912], [-131.1983, 52.2898], [-131.1998, 52.2916], [-131.2041, 52.2916], [-131.2041, 52.2781]]]}, "properties": {"company_id": "glencore", "jurisdiction": "British Columbia", "claim_id": 251171, "claim_name": "BERT 1", "holder": "GLENCORE CANADA CORPORATION", "status": "Mineral", "recorded_date": "4597344000", "anniversary_or_expiry": "9961920000", "area_ha": 225, "tenure_type": "Mineral", "source": "BC MTA Mineral, Placer and Coal Tenure Spatial View (BCGW). Open Government Licence - British Columbia. Not legal title.", "as_of": "2026-09-20", "role": "focus", "color": "#e8b040"}}, {"type": "Feature", "geometry": {"type": "MultiPolygon", "coordinates": [[[[-131.1366, 52.3077], [-131.145, 52.3077], [-131.1467, 52.305], [-131.1517, 52.2999], [-131.1513, 52.2984], [-131.1529, 52.2969], [-131.1486, 52.2932], [-131.15, 52.2926], [-131.146, 52.2909], [-131.1523, 52.2847], [-131.1553, 52.2858], [-131.1553, 52.2807], [-131.1522, 52.2835], [-131.146, 52.2848], [-131.1456, 52.2858], [-131.1462, 52.287], [-131.1456, 52.288], [-131.139, 52.2901], [-131.1351, 52.2938], [-131.1347, 52.2961], [-131.1359, 52.2975], [-131.1356, 52.2985], [-131.1365, 52.3019], [-131.136, 52.3027], [-131.1373, 52.3031], [-131.1364, 52.3036], [-131.1376, 52.3046], [-131.1379, 52.3057], [-131.1371, 52.3061], [-131.1366, 52.3077]]], [[[-131.1462, 52.2807], [-131.1334, 52.2807], [-131.1333, 52.2812], [-131.1345, 52.281], [-131.1356, 52.2819], [-131.1349, 52.283], [-131.1363, 52.2855], [-131.1405, 52.2824], [-131.1432, 52.2828], [-131.1462, 52.2807]]], [[[-131.1334, 52.2902], [-131.1334, 52.2929], [-131.135, 52.2918], [-131.1362, 52.2898], [-131.1334, 52.2902]]], [[[-131.1497, 52.283], [-131.1495, 52.2824], [-131.1479, 52.2829], [-131.1483, 52.2838], [-131.1497, 52.283]]], [[[-131.1372, 52.3052], [-131.137, 52.3054], [-131.1371, 52.3056], [-131.1372, 52.3052]]], [[[-131.1373, 52.3048], [-131.1371, 52.305], [-131.1373, 52.3049], [-131.1373, 52.3048]]], [[[-131.1368, 52.3048], [-131.1368, 52.305], [-131.1369, 52.3049], [-131.1368, 52.3048]]]]}, "properties": {"company_id": "glencore", "jurisdiction": "British Columbia", "claim_id": 251172, "claim_name": "BERT 2", "holder": "GLENCORE CANADA CORPORATION", "status": "Mineral", "recorded_date": "4597344000", "anniversary_or_expiry": "9961920000", "area_ha": 450, "tenure_type": "Mineral", "source": "BC MTA Mineral, Placer and Coal Tenure Spatial View (BCGW). Open Government Licence - British Columbia. Not legal title.", "as_of": "2026-09-20", "role": "focus", "color": "#e8b040"}}, {"type": "Feature", "geometry": {"type": "Polygon", "coordinates": [[[-131.1553, 52.2852], [-131.1588, 52.2852], [-131.1627, 52.2815], [-131.1627, 52.2807], [-131.1553, 52.2807], [-131.1553, 52.2852]]]}, "properties": {"company_id": "glencore", "jurisdiction": "British Columbia", "claim_id": 251173, "claim_name": "BERT 3", "holder": "GLENCORE CANADA CORPORATION", "status": "Mineral", "recorded_date": "4597344000", "anniversary_or_expiry": "9961920000", "area_ha": 25, "tenure_type": "Mineral", "source": "BC MTA Mineral, Placer and Coal Tenure Spatial View (BCGW). Open Government Licence - British Columbia. Not legal title.", "as_of": "2026-09-20", "role": "focus", "color": "#e8b040"}}, {"type": "Feature", "geometry": {"type": "MultiPolygon", "coordinates": [[[[-131.1699, 52.2785], [-131.1673, 52.2769], [-131.1712, 52.2745], [-131.1715, 52.2729], [-131.1608, 52.2729], [-131.1608, 52.2717], [-131.1553, 52.2717], [-131.1553, 52.2772], [-131.1577, 52.2786], [-131.1576, 52.2793], [-131.1553, 52.2807], [-131.1661, 52.2807], [-131.1668, 52.2803], [-131.1652, 52.2795], [-131.1661, 52.2784], [-131.1686, 52.2792], [-131.1699, 52.2785]]], [[[-131.1721, 52.2798], [-131.1736, 52.2807], [-131.1773, 52.2807], [-131.1773, 52.2797], [-131.1763, 52.2794], [-131.1773, 52.2796], [-131.1773, 52.2753], [-131.176, 52.275], [-131.1743, 52.2784], [-131.1721, 52.2798]]], [[[-131.1773, 52.2731], [-131.1773, 52.2729], [-131.1749, 52.2729], [-131.1773, 52.2731]]], [[[-131.1553, 52.2781], [-131.1553, 52.2782], [-131.1554, 52.2781], [-131.1553, 52.2781]]]]}, "properties": {"company_id": "glencore", "jurisdiction": "British Columbia", "claim_id": 251174, "claim_name": "BERT 4", "holder": "GLENCORE CANADA CORPORATION", "status": "Mineral", "recorded_date": "4597344000", "anniversary_or_expiry": "9961920000", "area_ha": 150, "tenure_type": "Mineral", "source": "BC MTA Mineral, Placer and Coal Tenure Spatial View (BCGW). Open Government Licence - British Columbia. Not legal title.", "as_of": "2026-09-20", "role": "focus", "color": "#e8b040"}}, {"type": "Feature", "geometry": {"type": "MultiPolygon", "coordinates": [[[[-131.1553, 52.2772], [-131.1553, 52.2717], [-131.148, 52.2717], [-131.148, 52.2779], [-131.1521, 52.2749], [-131.1546, 52.2752], [-131.1549, 52.2773], [-131.1553, 52.2772]]], [[[-131.1553, 52.2781], [-131.1549, 52.2781], [-131.1548, 52.2784], [-131.1553, 52.2781]]], [[[-131.1534, 52.2779], [-131.1532, 52.278], [-131.1534, 52.2783], [-131.1534, 52.2779]]]]}, "properties": {"company_id": "glencore", "jurisdiction": "British Columbia", "claim_id": 251175, "claim_name": "BERT 5", "holder": "GLENCORE CANADA CORPORATION", "status": "Mineral", "recorded_date": "4597344000", "anniversary_or_expiry": "9961920000", "area_ha": 50, "tenure_type": "Mineral", "source": "BC MTA Mineral, Placer and Coal Tenure Spatial View (BCGW). Open Government Licence - British Columbia. Not legal title.", "as_of": "2026-09-20", "role": "focus", "color": "#e8b040"}}, {"type": "Feature", "geometry": {"type": "Polygon", "coordinates": [[[-131.1553, 52.2717], [-131.1608, 52.2717], [-131.1608, 52.2676], [-131.1541, 52.2676], [-131.1541, 52.2717], [-131.1553, 52.2717]]]}, "properties": {"company_id": "glencore", "jurisdiction": "British Columbia", "claim_id": 251176, "claim_name": "COLLI #1", "holder": "GLENCORE CANADA CORPORATION", "status": "Mineral", "recorded_date": "4624128000", "anniversary_or_expiry": "9961920000", "area_ha": 25, "tenure_type": "Mineral", "source": "BC MTA Mineral, Placer and Coal Tenure Spatial View (BCGW). Open Government Licence - British Columbia. Not legal title.", "as_of": "2026-09-20", "role": "focus", "color": "#e8b040"}}, {"type": "Feature", "geometry": {"type": "Polygon", "coordinates": [[[-131.148, 52.2717], [-131.1541, 52.2717], [-131.1541, 52.2676], [-131.1474, 52.2676], [-131.1474, 52.2717], [-131.148, 52.2717]]]}, "properties": {"company_id": "glencore", "jurisdiction": "British Columbia", "claim_id": 251177, "claim_name": "COLLI #2", "holder": "GLENCORE CANADA CORPORATION", "status": "Mineral", "recorded_date": "4624128000", "anniversary_or_expiry": "9961920000", "area_ha": 25, "tenure_type": "Mineral", "source": "BC MTA Mineral, Placer and Coal Tenure Spatial View (BCGW). Open Government Licence - British Columbia. Not legal title.", "as_of": "2026-09-20", "role": "focus", "color": "#e8b040"}}, {"type": "Feature", "geometry": {"type": "Polygon", "coordinates": [[[-131.1543, 52.291], [-131.1486, 52.2932], [-131.1523, 52.2966], [-131.1579, 52.2943], [-131.1543, 52.291]]]}, "properties": {"company_id": "glencore", "jurisdiction": "British Columbia", "claim_id": 254539, "claim_name": null, "holder": "GLENCORE CANADA CORPORATION", "status": "Mineral", "recorded_date": "-212803200", "anniversary_or_expiry": "9864288000", "area_ha": 20.64, "tenure_type": "Mineral", "source": "BC MTA Mineral, Placer and Coal Tenure Spatial View (BCGW). Open Government Licence - British Columbia. Not legal title.", "as_of": "2026-09-20", "role": "focus", "color": "#e8b040"}}, {"type": "Feature", "geometry": {"type": "Polygon", "coordinates": [[[-131.1782, 52.2732], [-131.1715, 52.2726], [-131.171, 52.2752], [-131.1777, 52.2754], [-131.1782, 52.2732]]]}, "properties": {"company_id": "glencore", "jurisdiction": "British Columbia", "claim_id": 254540, "claim_name": null, "holder": "GLENCORE CANADA CORPORATION", "status": "Mineral", "recorded_date": "-212803200", "anniversary_or_expiry": "9864288000", "area_ha": 12.290000000000001, "tenure_type": "Mineral", "source": "BC MTA Mineral, Placer and Coal Tenure Spatial View (BCGW). Open Government Licence - British Columbia. Not legal title.", "as_of": "2026-09-20", "role": "focus", "color": "#e8b040"}}, {"type": "Feature", "geometry": {"type": "Polygon", "coordinates": [[[-131.1686, 52.2792], [-131.1661, 52.2784], [-131.1652, 52.2795], [-131.1668, 52.2803], [-131.1686, 52.2792]]]}, "properties": {"company_id": "glencore", "jurisdiction": "British Columbia", "claim_id": 254541, "claim_name": null, "holder": "GLENCORE CANADA CORPORATION", "status": "Mineral", "recorded_date": "-212803200", "anniversary_or_expiry": "9864288000", "area_ha": 2.57, "tenure_type": "Mineral", "source": "BC MTA Mineral, Placer and Coal Tenure Spatial View (BCGW). Open Government Licence - British Columbia. Not legal title.", "as_of": "2026-09-20", "role": "focus", "color": "#e8b040"}}, {"type": "Feature", "geometry": {"type": "Polygon", "coordinates": [[[-120.0134, 49.8889], [-120.0076, 49.8872], [-120.0032, 49.8842], [-119.9999, 49.8838], [-120.0003, 49.8823], [-119.9975, 49.8809], [-119.9738, 49.8822], [-119.9755, 49.8942], [-119.9984, 49.8928], [-119.9955, 49.8926], [-119.9953, 49.8888], [-120.0, 49.8886], [-120.0078, 49.8884], [-120.008, 49.8924], [-120.0175, 49.8924], [-120.0121, 49.8902], [-120.0134, 49.8889]]]}, "properties": {"company_id": "glencore", "jurisdiction": "British Columbia", "claim_id": 306901, "claim_name": null, "holder": "GLENCORE CANADA CORPORATION", "status": "Mineral", "recorded_date": "-322272000", "anniversary_or_expiry": "2025-12-24", "area_ha": 270.86, "tenure_type": "Mineral", "source": "BC MTA Mineral, Placer and Coal Tenure Spatial View (BCGW). Open Government Licence - British Columbia. Not legal title.", "as_of": "2026-09-20", "role": "focus", "color": "#e8b040"}}, {"type": "Feature", "geometry": {"type": "Polygon", "coordinates": [[[-120.0142, 49.8768], [-120.0141, 49.8769], [-120.0144, 49.877], [-120.0142, 49.8768]]]}, "properties": {"company_id": "glencore", "jurisdiction": "British Columbia", "claim_id": 306902, "claim_name": null, "holder": "GLENCORE CANADA CORPORATION", "status": "Mineral", "recorded_date": "-417312000", "anniversary_or_expiry": "2025-09-05", "area_ha": 0.2, "tenure_type": "Mineral", "source": "BC MTA Mineral, Placer and Coal Tenure Spatial View (BCGW). Open Government Licence - British Columbia. Not legal title.", "as_of": "2026-09-20", "role": "focus", "color": "#e8b040"}}, {"type": "Feature", "geometry": {"type": "Polygon", "coordinates": [[[-120.0039, 49.8838], [-120.0003, 49.8823], [-119.9999, 49.8838], [-120.0032, 49.8842], [-120.0039, 49.8838]]]}, "properties": {"company_id": "glencore", "jurisdiction": "British Columbia", "claim_id": 306903, "claim_name": null, "holder": "GLENCORE CANADA CORPORATION", "status": "Mineral", "recorded_date": "-417312000", "anniversary_or_expiry": "2025-09-05", "area_ha": 3.0500000000000003, "tenure_type": "Mineral", "source": "BC MTA Mineral, Placer and Coal Tenure Spatial View (BCGW). Open Government Licence - British Columbia. Not legal title.", "as_of": "2026-09-20", "role": "focus", "color": "#e8b040"}}, {"type": "Feature", "geometry": {"type": "Polygon", "coordinates": [[[-120.0092, 49.8814], [-120.0077, 49.8809], [-120.0097, 49.8817], [-120.0092, 49.8814]]]}, "properties": {"company_id": "glencore", "jurisdiction": "British Columbia", "claim_id": 306904, "claim_name": null, "holder": "GLENCORE CANADA CORPORATION", "status": "Mineral", "recorded_date": "-417312000", "anniversary_or_expiry": "2025-09-05", "area_ha": 0.07, "tenure_type": "Mineral", "source": "BC MTA Mineral, Placer and Coal Tenure Spatial View (BCGW). Open Government Licence - British Columbia. Not legal title.", "as_of": "2026-09-20", "role": "focus", "color": "#e8b040"}}, {"type": "Feature", "geometry": {"type": "Polygon", "coordinates": [[[-120.8827, 52.0995], [-120.8756, 52.0995], [-120.8756, 52.1085], [-120.8975, 52.1085], [-120.8975, 52.1056], [-120.8959, 52.1067], [-120.8827, 52.0995]]]}, "properties": {"company_id": "glencore", "jurisdiction": "British Columbia", "claim_id": 306696, "claim_name": "JRP #1", "holder": "GLENCORE CANADA CORPORATION", "status": "Mineral", "recorded_date": "4140288000", "anniversary_or_expiry": "2025-08-31", "area_ha": 150, "tenure_type": "Mineral", "source": "BC MTA Mineral, Placer and Coal Tenure Spatial View (BCGW). Open Government Licence - British Columbia. Not legal title.", "as_of": "2026-09-20", "role": "focus", "color": "#e8b040"}}, {"type": "Feature", "geometry": {"type": "Polygon", "coordinates": [[[-120.8844, 52.0917], [-120.8856, 52.092], [-120.8917, 52.0875], [-120.8844, 52.0875], [-120.8844, 52.0917]]]}, "properties": {"company_id": "glencore", "jurisdiction": "British Columbia", "claim_id": 306697, "claim_name": "JRP #2", "holder": "GLENCORE CANADA CORPORATION", "status": "Mineral", "recorded_date": "4140288000", "anniversary_or_expiry": "2025-08-31", "area_ha": 25, "tenure_type": "Mineral", "source": "BC MTA Mineral, Placer and Coal Tenure Spatial View (BCGW). Open Government Licence - British Columbia. Not legal title.", "as_of": "2026-09-20", "role": "focus", "color": "#e8b040"}}, {"type": "Feature", "geometry": {"type": "Polygon", "coordinates": [[[-119.9737, 49.881], [-119.9724, 49.8744], [-119.9783, 49.8738], [-119.9777, 49.8738], [-119.9775, 49.8631], [-119.9529, 49.8631], [-119.9529, 49.8715], [-119.9643, 49.8716], [-119.9586, 49.872], [-119.9586, 49.8757], [-119.9529, 49.8757], [-119.9529, 49.881], [-119.9737, 49.881]]]}, "properties": {"company_id": "glencore", "jurisdiction": "British Columbia", "claim_id": 352993, "claim_name": "POND 1", "holder": "GLENCORE CANADA CORPORATION", "status": "Mineral", "recorded_date": "8498304000", "anniversary_or_expiry": "2028-02-22", "area_ha": 500, "tenure_type": "Mineral", "source": "BC MTA Mineral, Placer and Coal Tenure Spatial View (BCGW). Open Government Licence - British Columbia. Not legal title.", "as_of": "2026-09-20", "role": "focus", "color": "#e8b040"}}, {"type": "Feature", "geometry": {"type": "Polygon", "coordinates": [[[-119.925, 49.881], [-119.9529, 49.881], [-119.9529, 49.8757], [-119.9524, 49.8757], [-119.9529, 49.8631], [-119.9251, 49.8631], [-119.925, 49.881]]]}, "properties": {"company_id": "glencore", "jurisdiction": "British Columbia", "claim_id": 352994, "claim_name": "POND 2", "holder": "GLENCORE CANADA CORPORATION", "status": "Mineral", "recorded_date": "8497440000", "anniversary_or_expiry": "2028-02-22", "area_ha": 400, "tenure_type": "Mineral", "source": "BC MTA Mineral, Placer and Coal Tenure Spatial View (BCGW). Open Government Licence - British Columbia. Not legal title.", "as_of": "2026-09-20", "role": "focus", "color": "#e8b040"}}, {"type": "Feature", "geometry": {"type": "Polygon", "coordinates": [[[-119.9529, 49.8451], [-119.9529, 49.8631], [-119.9775, 49.8631], [-119.9775, 49.8623], [-119.9877, 49.8623], [-119.9876, 49.8451], [-119.9529, 49.8451]]]}, "properties": {"company_id": "glencore", "jurisdiction": "British Columbia", "claim_id": 352995, "claim_name": "POND 3", "holder": "GLENCORE CANADA CORPORATION", "status": "Mineral", "recorded_date": "8495712000", "anniversary_or_expiry": "2028-02-22", "area_ha": 500, "tenure_type": "Mineral", "source": "BC MTA Mineral, Placer and Coal Tenure Spatial View (BCGW). Open Government Licence - British Columbia. Not legal title.", "as_of": "2026-09-20", "role": "focus", "color": "#e8b040"}}, {"type": "Feature", "geometry": {"type": "Polygon", "coordinates": [[[-119.9251, 49.8451], [-119.9251, 49.8631], [-119.9529, 49.8631], [-119.9529, 49.8451], [-119.9251, 49.8451]]]}, "properties": {"company_id": "glencore", "jurisdiction": "British Columbia", "claim_id": 352996, "claim_name": "POND 4", "holder": "GLENCORE CANADA CORPORATION", "status": "Mineral", "recorded_date": "8494848000", "anniversary_or_expiry": "2028-02-22", "area_ha": 400, "tenure_type": "Mineral", "source": "BC MTA Mineral, Placer and Coal Tenure Spatial View (BCGW). Open Government Licence - British Columbia. Not legal title.", "as_of": "2026-09-20", "role": "focus", "color": "#e8b040"}}, {"type": "Feature", "geometry": {"type": "MultiPolygon", "coordinates": [[[[-120.0228, 49.8721], [-120.0228, 49.8614], [-119.9881, 49.8614], [-119.9881, 49.8674], [-119.9999, 49.8675], [-119.9981, 49.8707], [-120.0041, 49.8721], [-120.0062, 49.8684], [-120.0025, 49.8675], [-120.0062, 49.8684], [-120.0073, 49.8664], [-120.0076, 49.8701], [-120.0067, 49.8712], [-120.0076, 49.8712], [-120.0109, 49.8688], [-120.0109, 49.8674], [-120.0159, 49.8698], [-120.0155, 49.8702], [-120.0228, 49.8721]]], [[[-120.0228, 49.877], [-120.0228, 49.874], [-120.0214, 49.8762], [-120.0228, 49.877]]]]}, "properties": {"company_id": "glencore", "jurisdiction": "British Columbia", "claim_id": 352997, "claim_name": "SOUTH 1", "holder": "GLENCORE CANADA CORPORATION", "status": "Mineral", "recorded_date": "8498304000", "anniversary_or_expiry": "2028-02-22", "area_ha": 500, "tenure_type": "Mineral", "source": "BC MTA Mineral, Placer and Coal Tenure Spatial View (BCGW). Open Government Licence - British Columbia. Not legal title.", "as_of": "2026-09-20", "role": "focus", "color": "#e8b040"}}]}