{"type": "FeatureCollection", "features": [{"type": "Feature", "geometry": {"type": "Polygon", "coordinates": [[[-121.5316, 53.1099], [-121.529, 53.1111], [-121.533, 53.1144], [-121.5386, 53.112], [-121.5346, 53.1087], [-121.5316, 53.1099]]]}, "properties": {"company_id": "golden-goliath-resources", "jurisdiction": "British Columbia", "claim_id": 207522, "claim_name": "WONDER #6", "holder": "GOLDEN CARIBOO RESOURCES LTD.", "status": "Mineral", "recorded_date": "-101865600", "anniversary_or_expiry": "2024-12-26", "area_ha": 25, "tenure_type": "Mineral", "source": "BC MTA Mineral, Placer and Coal Tenure Spatial View (BCGW). Open Government Licence - British Columbia. Not legal title.", "as_of": "2026-09-20", "role": "focus", "color": "#e8b040"}}, {"type": "Feature", "geometry": {"type": "Polygon", "coordinates": [[[-121.5386, 53.112], [-121.5345, 53.1138], [-121.5384, 53.1171], [-121.544, 53.1147], [-121.54, 53.1114], [-121.5386, 53.112]]]}, "properties": {"company_id": "golden-goliath-resources", "jurisdiction": "British Columbia", "claim_id": 207523, "claim_name": "RAINBOW NO. 1", "holder": "GOLDEN CARIBOO RESOURCES LTD.", "status": "Mineral", "recorded_date": "-901324800", "anniversary_or_expiry": "2024-12-26", "area_ha": 25, "tenure_type": "Mineral", "source": "BC MTA Mineral, Placer and Coal Tenure Spatial View (BCGW). Open Government Licence - British Columbia. Not legal title.", "as_of": "2026-09-20", "role": "focus", "color": "#e8b040"}}, {"type": "Feature", "geometry": {"type": "Polygon", "coordinates": [[[-121.533, 53.1144], [-121.5289, 53.1162], [-121.5329, 53.1195], [-121.5384, 53.1171], [-121.5345, 53.1138], [-121.533, 53.1144]]]}, "properties": {"company_id": "golden-goliath-resources", "jurisdiction": "British Columbia", "claim_id": 207524, "claim_name": "RAINBOW NO. 2", "holder": "GOLDEN CARIBOO RESOURCES LTD.", "status": "Mineral", "recorded_date": "-901324800", "anniversary_or_expiry": "2024-12-26", "area_ha": 25, "tenure_type": "Mineral", "source": "BC MTA Mineral, Placer and Coal Tenure Spatial View (BCGW). Open Government Licence - British Columbia. Not legal title.", "as_of": "2026-09-20", "role": "focus", "color": "#e8b040"}}, {"type": "Feature", "geometry": {"type": "Polygon", "coordinates": [[[-121.524, 53.1031], [-121.5211, 53.1044], [-121.5251, 53.1077], [-121.5306, 53.1053], [-121.5267, 53.102], [-121.524, 53.1031]]]}, "properties": {"company_id": "golden-goliath-resources", "jurisdiction": "British Columbia", "claim_id": 207525, "claim_name": "WONDER NO.2", "holder": "GOLDEN CARIBOO RESOURCES LTD.", "status": "Mineral", "recorded_date": "-771292800", "anniversary_or_expiry": "2024-12-26", "area_ha": 25, "tenure_type": "Mineral", "source": "BC MTA Mineral, Placer and Coal Tenure Spatial View (BCGW). Open Government Licence - British Columbia. Not legal title.", "as_of": "2026-09-20", "role": "focus", "color": "#e8b040"}}, {"type": "Feature", "geometry": {"type": "Polygon", "coordinates": [[[-121.5266, 53.1071], [-121.5251, 53.1077], [-121.529, 53.1111], [-121.5346, 53.1087], [-121.5306, 53.1053], [-121.5266, 53.1071]]]}, "properties": {"company_id": "golden-goliath-resources", "jurisdiction": "British Columbia", "claim_id": 207526, "claim_name": "WONDER NO.4", "holder": "GOLDEN CARIBOO RESOURCES LTD.", "status": "Mineral", "recorded_date": "-771292800", "anniversary_or_expiry": "2024-12-26", "area_ha": 25, "tenure_type": "Mineral", "source": "BC MTA Mineral, Placer and Coal Tenure Spatial View (BCGW). Open Government Licence - British Columbia. Not legal title.", "as_of": "2026-09-20", "role": "focus", "color": "#e8b040"}}, {"type": "Feature", "geometry": {"type": "Polygon", "coordinates": [[[-130.455, 57.2225], [-130.4716, 57.2225], [-130.4716, 57.2001], [-130.455, 57.2001], [-130.455, 57.2225]]]}, "properties": {"company_id": "golden-goliath-resources", "jurisdiction": "British Columbia", "claim_id": 222389, "claim_name": "HANK 4", "holder": "GOLDEN RIDGE RESOURCES LTD.", "status": "Mineral", "recorded_date": "4663872000", "anniversary_or_expiry": "2030-02-06", "area_ha": 250, "tenure_type": "Mineral", "source": "BC MTA Mineral, Placer and Coal Tenure Spatial View (BCGW). Open Government Licence - British Columbia. Not legal title.", "as_of": "2026-09-20", "role": "focus", "color": "#e8b040"}}, {"type": "Feature", "geometry": {"type": "Polygon", "coordinates": [[[-130.455, 57.2225], [-130.455, 57.236], [-130.5047, 57.236], [-130.5047, 57.2225], [-130.455, 57.2225]]]}, "properties": {"company_id": "golden-goliath-resources", "jurisdiction": "British Columbia", "claim_id": 222248, "claim_name": "HANK 1", "holder": "GOLDEN RIDGE RESOURCES LTD.", "status": "Mineral", "recorded_date": "4161024000", "anniversary_or_expiry": "2030-02-06", "area_ha": 450, "tenure_type": "Mineral", "source": "BC MTA Mineral, Placer and Coal Tenure Spatial View (BCGW). Open Government Licence - British Columbia. Not legal title.", "as_of": "2026-09-20", "role": "focus", "color": "#e8b040"}}, {"type": "Feature", "geometry": {"type": "Polygon", "coordinates": [[[-130.4716, 57.2225], [-130.5047, 57.2225], [-130.5047, 57.2001], [-130.4716, 57.2001], [-130.4716, 57.2225]]]}, "properties": {"company_id": "golden-goliath-resources", "jurisdiction": "British Columbia", "claim_id": 222249, "claim_name": "HANK 2", "holder": "GOLDEN RIDGE RESOURCES LTD.", "status": "Mineral", "recorded_date": "4161024000", "anniversary_or_expiry": "2030-02-06", "area_ha": 500, "tenure_type": "Mineral", "source": "BC MTA Mineral, Placer and Coal Tenure Spatial View (BCGW). Open Government Licence - British Columbia. Not legal title.", "as_of": "2026-09-20", "role": "focus", "color": "#e8b040"}}, {"type": "Feature", "geometry": {"type": "Polygon", "coordinates": [[[-130.5047, 57.2225], [-130.5378, 57.2225], [-130.5378, 57.2001], [-130.5047, 57.2001], [-130.5047, 57.2225]]]}, "properties": {"company_id": "golden-goliath-resources", "jurisdiction": "British Columbia", "claim_id": 222250, "claim_name": "HANK 3", "holder": "GOLDEN RIDGE RESOURCES LTD.", "status": "Mineral", "recorded_date": "4161024000", "anniversary_or_expiry": "2030-02-06", "area_ha": 500, "tenure_type": "Mineral", "source": "BC MTA Mineral, Placer and Coal Tenure Spatial View (BCGW). Open Government Licence - British Columbia. Not legal title.", "as_of": "2026-09-20", "role": "focus", "color": "#e8b040"}}, {"type": "Feature", "geometry": {"type": "Polygon", "coordinates": [[[-121.5585, 53.1478], [-121.5554, 53.1414], [-121.5518, 53.142], [-121.5527, 53.1351], [-121.5467, 53.1348], [-121.5466, 53.1356], [-121.5392, 53.1353], [-121.5382, 53.1426], [-121.5441, 53.1433], [-121.5395, 53.1441], [-121.5398, 53.1448], [-121.5406, 53.1443], [-121.5488, 53.1495], [-121.5585, 53.1478]]]}, "properties": {"company_id": "golden-goliath-resources", "jurisdiction": "British Columbia", "claim_id": 362505, "claim_name": null, "holder": "GOLDEN CREEK MINING LTD.", "status": "Placer", "recorded_date": "8990784000", "anniversary_or_expiry": "2025-06-29", "area_ha": 128, "tenure_type": "Placer", "source": "BC MTA Mineral, Placer and Coal Tenure Spatial View (BCGW). Open Government Licence - British Columbia. Not legal title.", "as_of": "2026-09-20", "role": "focus", "color": "#e8b040"}}]}