{"type": "FeatureCollection", "features": [{"type": "Feature", "geometry": {"type": "Polygon", "coordinates": [[[-119.9869, 49.3816], [-119.9869, 49.3861], [-119.9935, 49.3861], [-119.9891, 49.386], [-119.9891, 49.3827], [-119.9928, 49.3827], [-119.9935, 49.3816], [-119.9869, 49.3816]]]}, "properties": {"company_id": "goldcliff-resource", "jurisdiction": "British Columbia", "claim_id": 380998, "claim_name": "N-19", "holder": "GOLDCLIFF RESOURCE CORPORATION", "status": "Mineral", "recorded_date": "9704448000", "anniversary_or_expiry": "2028-10-31", "area_ha": 25, "tenure_type": "Mineral", "source": "BC MTA Mineral, Placer and Coal Tenure Spatial View (BCGW). Open Government Licence - British Columbia. Not legal title.", "as_of": "2026-09-20", "role": "focus", "color": "#e8b040"}}, {"type": "Feature", "geometry": {"type": "Polygon", "coordinates": [[[-119.9869, 49.3794], [-119.9869, 49.3816], [-119.9935, 49.3816], [-119.9938, 49.381], [-119.9938, 49.3796], [-119.9901, 49.3778], [-119.9909, 49.3771], [-119.9896, 49.3771], [-119.9905, 49.3782], [-119.9869, 49.3794]]]}, "properties": {"company_id": "goldcliff-resource", "jurisdiction": "British Columbia", "claim_id": 380999, "claim_name": "N-20", "holder": "GOLDCLIFF RESOURCE CORPORATION", "status": "Mineral", "recorded_date": "9704448000", "anniversary_or_expiry": "2028-10-31", "area_ha": 25, "tenure_type": "Mineral", "source": "BC MTA Mineral, Placer and Coal Tenure Spatial View (BCGW). Open Government Licence - British Columbia. Not legal title.", "as_of": "2026-09-20", "role": "focus", "color": "#e8b040"}}, {"type": "Feature", "geometry": {"type": "Polygon", "coordinates": [[[-119.9325, 49.3832], [-119.9325, 49.3874], [-119.9387, 49.3874], [-119.9387, 49.3832], [-119.9325, 49.3832]]]}, "properties": {"company_id": "goldcliff-resource", "jurisdiction": "British Columbia", "claim_id": 510871, "claim_name": "G01", "holder": "GOLDCLIFF RESOURCE CORPORATION", "status": "Mineral", "recorded_date": "2005-04-18", "anniversary_or_expiry": "2025-02-28", "area_ha": 21.03, "tenure_type": "Mineral", "source": "BC MTA Mineral, Placer and Coal Tenure Spatial View (BCGW). Open Government Licence - British Columbia. Not legal title.", "as_of": "2026-09-20", "role": "focus", "color": "#e8b040"}}, {"type": "Feature", "geometry": {"type": "Polygon", "coordinates": [[[-119.945, 49.3999], [-119.945, 49.3957], [-119.9387, 49.3957], [-119.9387, 49.4041], [-119.945, 49.4041], [-119.945, 49.3999]]]}, "properties": {"company_id": "goldcliff-resource", "jurisdiction": "British Columbia", "claim_id": 510875, "claim_name": "G05", "holder": "GOLDCLIFF RESOURCE CORPORATION", "status": "Mineral", "recorded_date": "2005-04-18", "anniversary_or_expiry": "2025-02-28", "area_ha": 18.836000000000002, "tenure_type": "Mineral", "source": "BC MTA Mineral, Placer and Coal Tenure Spatial View (BCGW). Open Government Licence - British Columbia. Not legal title.", "as_of": "2026-09-20", "role": "focus", "color": "#e8b040"}}, {"type": "Feature", "geometry": {"type": "Polygon", "coordinates": [[[-120.0262, 49.4124], [-120.0262, 49.3999], [-120.0012, 49.3999], [-120.0012, 49.4166], [-120.0262, 49.4166], [-120.0262, 49.4124]]]}, "properties": {"company_id": "goldcliff-resource", "jurisdiction": "British Columbia", "claim_id": 511336, "claim_name": "CU01", "holder": "GOLDCLIFF RESOURCE CORPORATION", "status": "Mineral", "recorded_date": "2005-04-21", "anniversary_or_expiry": "2025-02-28", "area_ha": 336.325, "tenure_type": "Mineral", "source": "BC MTA Mineral, Placer and Coal Tenure Spatial View (BCGW). Open Government Licence - British Columbia. Not legal title.", "as_of": "2026-09-20", "role": "focus", "color": "#e8b040"}}, {"type": "Feature", "geometry": {"type": "Polygon", "coordinates": [[[-120.0575, 49.4124], [-120.0575, 49.4041], [-120.0512, 49.4041], [-120.0512, 49.3999], [-120.045, 49.3999], [-120.045, 49.3957], [-120.0387, 49.3957], [-120.0387, 49.3999], [-120.0325, 49.3999], [-120.0325, 49.3957], [-120.0262, 49.3957], [-120.0262, 49.4166], [-120.0575, 49.4166], [-120.0575, 49.4124]]]}, "properties": {"company_id": "goldcliff-resource", "jurisdiction": "British Columbia", "claim_id": 511338, "claim_name": "CU02", "holder": "GOLDCLIFF RESOURCE CORPORATION", "status": "Mineral", "recorded_date": "2005-04-21", "anniversary_or_expiry": "2025-02-28", "area_ha": 441.43800000000005, "tenure_type": "Mineral", "source": "BC MTA Mineral, Placer and Coal Tenure Spatial View (BCGW). Open Government Licence - British Columbia. Not legal title.", "as_of": "2026-09-20", "role": "focus", "color": "#e8b040"}}, {"type": "Feature", "geometry": {"type": "Polygon", "coordinates": [[[-119.9575, 49.3999], [-119.9637, 49.3999], [-119.9637, 49.3957], [-119.9512, 49.3957], [-119.9512, 49.3999], [-119.9575, 49.3999]]]}, "properties": {"company_id": "goldcliff-resource", "jurisdiction": "British Columbia", "claim_id": 507952, "claim_name": "NP1", "holder": "GOLDCLIFF RESOURCE CORPORATION", "status": "Mineral", "recorded_date": "2005-02-25", "anniversary_or_expiry": "2025-02-28", "area_ha": 42.049, "tenure_type": "Mineral", "source": "BC MTA Mineral, Placer and Coal Tenure Spatial View (BCGW). Open Government Licence - British Columbia. Not legal title.", "as_of": "2026-09-20", "role": "focus", "color": "#e8b040"}}, {"type": "Feature", "geometry": {"type": "Polygon", "coordinates": [[[-119.9387, 49.3749], [-119.9387, 49.3582], [-119.9325, 49.3582], [-119.9325, 49.3666], [-119.92, 49.3666], [-119.92, 49.3749], [-119.9325, 49.3749], [-119.9325, 49.3791], [-119.9387, 49.3791], [-119.9387, 49.3749]]]}, "properties": {"company_id": "goldcliff-resource", "jurisdiction": "British Columbia", "claim_id": 507953, "claim_name": null, "holder": "GOLDCLIFF RESOURCE CORPORATION", "status": "Mineral", "recorded_date": "2005-02-25", "anniversary_or_expiry": "2025-02-28", "area_ha": 189.328, "tenure_type": "Mineral", "source": "BC MTA Mineral, Placer and Coal Tenure Spatial View (BCGW). Open Government Licence - British Columbia. Not legal title.", "as_of": "2026-09-20", "role": "focus", "color": "#e8b040"}}, {"type": "Feature", "geometry": {"type": "Polygon", "coordinates": [[[-119.9637, 49.4124], [-119.9637, 49.4041], [-119.97, 49.4041], [-119.97, 49.3999], [-119.9575, 49.3999], [-119.9575, 49.4124], [-119.9387, 49.4124], [-119.9387, 49.4166], [-119.9637, 49.4166], [-119.9637, 49.4124]]]}, "properties": {"company_id": "goldcliff-resource", "jurisdiction": "British Columbia", "claim_id": 507954, "claim_name": "NP2", "holder": "GOLDCLIFF RESOURCE CORPORATION", "status": "Mineral", "recorded_date": "2005-02-25", "anniversary_or_expiry": "2025-02-28", "area_ha": 168.156, "tenure_type": "Mineral", "source": "BC MTA Mineral, Placer and Coal Tenure Spatial View (BCGW). Open Government Licence - British Columbia. Not legal title.", "as_of": "2026-09-20", "role": "focus", "color": "#e8b040"}}, {"type": "Feature", "geometry": {"type": "Polygon", "coordinates": [[[-119.9387, 49.3457], [-119.9387, 49.3416], [-119.92, 49.3416], [-119.92, 49.3457], [-119.9075, 49.3457], [-119.9075, 49.3499], [-119.92, 49.3499], [-119.92, 49.3541], [-119.9262, 49.3541], [-119.9262, 49.3582], [-119.9325, 49.3582], [-119.9325, 49.3499], [-119.9387, 49.3499], [-119.9387, 49.3457]]]}, "properties": {"company_id": "goldcliff-resource", "jurisdiction": "British Columbia", "claim_id": 507955, "claim_name": "NP3", "holder": "GOLDCLIFF RESOURCE CORPORATION", "status": "Mineral", "recorded_date": "2005-02-25", "anniversary_or_expiry": "2025-02-28", "area_ha": 231.501, "tenure_type": "Mineral", "source": "BC MTA Mineral, Placer and Coal Tenure Spatial View (BCGW). Open Government Licence - British Columbia. Not legal title.", "as_of": "2026-09-20", "role": "focus", "color": "#e8b040"}}, {"type": "Feature", "geometry": {"type": "Polygon", "coordinates": [[[-119.945, 49.3957], [-119.945, 49.3999], [-119.9512, 49.3999], [-119.9512, 49.3957], [-119.945, 49.3957]]]}, "properties": {"company_id": "goldcliff-resource", "jurisdiction": "British Columbia", "claim_id": 507970, "claim_name": "NP4", "holder": "GOLDCLIFF RESOURCE CORPORATION", "status": "Mineral", "recorded_date": "2005-02-26", "anniversary_or_expiry": "2025-02-28", "area_ha": 16.488, "tenure_type": "Mineral", "source": "BC MTA Mineral, Placer and Coal Tenure Spatial View (BCGW). Open Government Licence - British Columbia. Not legal title.", "as_of": "2026-09-20", "role": "focus", "color": "#e8b040"}}, {"type": "Feature", "geometry": {"type": "Polygon", "coordinates": [[[-119.9387, 49.3791], [-119.9325, 49.3791], [-119.9325, 49.3749], [-119.9262, 49.3749], [-119.9262, 49.3832], [-119.9387, 49.3832], [-119.9387, 49.3791]]]}, "properties": {"company_id": "goldcliff-resource", "jurisdiction": "British Columbia", "claim_id": 507972, "claim_name": "APEX2", "holder": "GOLDCLIFF RESOURCE CORPORATION", "status": "Mineral", "recorded_date": "2005-02-26", "anniversary_or_expiry": "2025-02-28", "area_ha": 63.096000000000004, "tenure_type": "Mineral", "source": "BC MTA Mineral, Placer and Coal Tenure Spatial View (BCGW). Open Government Licence - British Columbia. Not legal title.", "as_of": "2026-09-20", "role": "focus", "color": "#e8b040"}}, {"type": "Feature", "geometry": {"type": "Polygon", "coordinates": [[[-119.9575, 49.4082], [-119.9575, 49.3999], [-119.945, 49.3999], [-119.945, 49.4041], [-119.9387, 49.4041], [-119.9387, 49.4124], [-119.9575, 49.4124], [-119.9575, 49.4082]]]}, "properties": {"company_id": "goldcliff-resource", "jurisdiction": "British Columbia", "claim_id": 507973, "claim_name": "NP6", "holder": "GOLDCLIFF RESOURCE CORPORATION", "status": "Mineral", "recorded_date": "2005-02-26", "anniversary_or_expiry": "2025-02-28", "area_ha": 79.318, "tenure_type": "Mineral", "source": "BC MTA Mineral, Placer and Coal Tenure Spatial View (BCGW). Open Government Licence - British Columbia. Not legal title.", "as_of": "2026-09-20", "role": "focus", "color": "#e8b040"}}, {"type": "Feature", "geometry": {"type": "Polygon", "coordinates": [[[-119.9637, 49.3832], [-119.9637, 49.3791], [-119.945, 49.3791], [-119.945, 49.3874], [-119.9637, 49.3874], [-119.9637, 49.3832]]]}, "properties": {"company_id": "goldcliff-resource", "jurisdiction": "British Columbia", "claim_id": 513991, "claim_name": null, "holder": "GOLDCLIFF RESOURCE CORPORATION", "status": "Mineral", "recorded_date": "2005-06-06", "anniversary_or_expiry": "2028-10-31", "area_ha": 126.18400000000001, "tenure_type": "Mineral", "source": "BC MTA Mineral, Placer and Coal Tenure Spatial View (BCGW). Open Government Licence - British Columbia. Not legal title.", "as_of": "2026-09-20", "role": "focus", "color": "#e8b040"}}, {"type": "Feature", "geometry": {"type": "Polygon", "coordinates": [[[-119.9637, 49.3749], [-119.9637, 49.3707], [-119.945, 49.3707], [-119.945, 49.3791], [-119.9637, 49.3791], [-119.9637, 49.3749]]]}, "properties": {"company_id": "goldcliff-resource", "jurisdiction": "British Columbia", "claim_id": 513992, "claim_name": null, "holder": "GOLDCLIFF RESOURCE CORPORATION", "status": "Mineral", "recorded_date": "2005-06-06", "anniversary_or_expiry": "2028-10-31", "area_ha": 126.20500000000001, "tenure_type": "Mineral", "source": "BC MTA Mineral, Placer and Coal Tenure Spatial View (BCGW). Open Government Licence - British Columbia. Not legal title.", "as_of": "2026-09-20", "role": "focus", "color": "#e8b040"}}, {"type": "Feature", "geometry": {"type": "Polygon", "coordinates": [[[-119.9575, 49.3707], [-119.9637, 49.3707], [-119.9637, 49.3666], [-119.9512, 49.3666], [-119.9512, 49.3707], [-119.9575, 49.3707]]]}, "properties": {"company_id": "goldcliff-resource", "jurisdiction": "British Columbia", "claim_id": 513994, "claim_name": null, "holder": "GOLDCLIFF RESOURCE CORPORATION", "status": "Mineral", "recorded_date": "2005-06-06", "anniversary_or_expiry": "2028-10-31", "area_ha": 42.074000000000005, "tenure_type": "Mineral", "source": "BC MTA Mineral, Placer and Coal Tenure Spatial View (BCGW). Open Government Licence - British Columbia. Not legal title.", "as_of": "2026-09-20", "role": "focus", "color": "#e8b040"}}, {"type": "Feature", "geometry": {"type": "Polygon", "coordinates": [[[-119.9825, 49.3624], [-119.9825, 49.3541], [-119.9512, 49.3541], [-119.9512, 49.3666], [-119.9825, 49.3666], [-119.9825, 49.3624]]]}, "properties": {"company_id": "goldcliff-resource", "jurisdiction": "British Columbia", "claim_id": 514001, "claim_name": null, "holder": "GOLDCLIFF RESOURCE CORPORATION", "status": "Mineral", "recorded_date": "2005-06-06", "anniversary_or_expiry": "2028-10-31", "area_ha": 315.605, "tenure_type": "Mineral", "source": "BC MTA Mineral, Placer and Coal Tenure Spatial View (BCGW). Open Government Licence - British Columbia. Not legal title.", "as_of": "2026-09-20", "role": "focus", "color": "#e8b040"}}, {"type": "Feature", "geometry": {"type": "Polygon", "coordinates": [[[-119.9637, 49.3832], [-119.9637, 49.3874], [-119.97, 49.3874], [-119.97, 49.3832], [-119.9637, 49.3832]]]}, "properties": {"company_id": "goldcliff-resource", "jurisdiction": "British Columbia", "claim_id": 514043, "claim_name": null, "holder": "GOLDCLIFF RESOURCE CORPORATION", "status": "Mineral", "recorded_date": "2005-06-07", "anniversary_or_expiry": "2028-10-31", "area_ha": 21.03, "tenure_type": "Mineral", "source": "BC MTA Mineral, Placer and Coal Tenure Spatial View (BCGW). Open Government Licence - British Columbia. Not legal title.", "as_of": "2026-09-20", "role": "focus", "color": "#e8b040"}}, {"type": "Feature", "geometry": {"type": "Polygon", "coordinates": [[[-119.97, 49.3832], [-119.97, 49.3874], [-119.9762, 49.3874], [-119.9762, 49.3832], [-119.97, 49.3832]]]}, "properties": {"company_id": "goldcliff-resource", "jurisdiction": "British Columbia", "claim_id": 514046, "claim_name": null, "holder": "GOLDCLIFF RESOURCE CORPORATION", "status": "Mineral", "recorded_date": "2005-06-07", "anniversary_or_expiry": "2028-10-31", "area_ha": 21.03, "tenure_type": "Mineral", "source": "BC MTA Mineral, Placer and Coal Tenure Spatial View (BCGW). Open Government Licence - British Columbia. Not legal title.", "as_of": "2026-09-20", "role": "focus", "color": "#e8b040"}}, {"type": "Feature", "geometry": {"type": "Polygon", "coordinates": [[[-119.9887, 49.3624], [-119.9887, 49.3582], [-119.9825, 49.3582], [-119.9825, 49.3666], [-119.9887, 49.3666], [-119.9887, 49.3624]]]}, "properties": {"company_id": "goldcliff-resource", "jurisdiction": "British Columbia", "claim_id": 514051, "claim_name": null, "holder": "GOLDCLIFF RESOURCE CORPORATION", "status": "Mineral", "recorded_date": "2005-06-07", "anniversary_or_expiry": "2028-10-31", "area_ha": 42.079, "tenure_type": "Mineral", "source": "BC MTA Mineral, Placer and Coal Tenure Spatial View (BCGW). Open Government Licence - British Columbia. Not legal title.", "as_of": "2026-09-20", "role": "focus", "color": "#e8b040"}}, {"type": "Feature", "geometry": {"type": "Polygon", "coordinates": [[[-119.995, 49.3624], [-119.995, 49.3582], [-119.9887, 49.3582], [-119.9887, 49.3666], [-119.995, 49.3666], [-119.995, 49.3624]]]}, "properties": {"company_id": "goldcliff-resource", "jurisdiction": "British Columbia", "claim_id": 514053, "claim_name": null, "holder": "GOLDCLIFF RESOURCE CORPORATION", "status": "Mineral", "recorded_date": "2005-06-07", "anniversary_or_expiry": "2028-10-31", "area_ha": 42.079, "tenure_type": "Mineral", "source": "BC MTA Mineral, Placer and Coal Tenure Spatial View (BCGW). Open Government Licence - British Columbia. Not legal title.", "as_of": "2026-09-20", "role": "focus", "color": "#e8b040"}}, {"type": "Feature", "geometry": {"type": "Polygon", "coordinates": [[[-119.9887, 49.3582], [-119.995, 49.3582], [-119.995, 49.3541], [-119.9825, 49.3541], [-119.9825, 49.3582], [-119.9887, 49.3582]]]}, "properties": {"company_id": "goldcliff-resource", "jurisdiction": "British Columbia", "claim_id": 514054, "claim_name": null, "holder": "GOLDCLIFF RESOURCE CORPORATION", "status": "Mineral", "recorded_date": "2005-06-07", "anniversary_or_expiry": "2028-10-31", "area_ha": 42.084, "tenure_type": "Mineral", "source": "BC MTA Mineral, Placer and Coal Tenure Spatial View (BCGW). Open Government Licence - British Columbia. Not legal title.", "as_of": "2026-09-20", "role": "focus", "color": "#e8b040"}}, {"type": "Feature", "geometry": {"type": "Polygon", "coordinates": [[[-119.9825, 49.3666], [-119.9825, 49.3707], [-119.9887, 49.3707], [-119.9887, 49.3666], [-119.9825, 49.3666]]]}, "properties": {"company_id": "goldcliff-resource", "jurisdiction": "British Columbia", "claim_id": 514056, "claim_name": null, "holder": "GOLDCLIFF RESOURCE CORPORATION", "status": "Mineral", "recorded_date": "2005-06-07", "anniversary_or_expiry": "2028-10-31", "area_ha": 21.037000000000003, "tenure_type": "Mineral", "source": "BC MTA Mineral, Placer and Coal Tenure Spatial View (BCGW). Open Government Licence - British Columbia. Not legal title.", "as_of": "2026-09-20", "role": "focus", "color": "#e8b040"}}, {"type": "Feature", "geometry": {"type": "Polygon", "coordinates": [[[-119.9762, 49.3749], [-119.9762, 49.3707], [-119.9637, 49.3707], [-119.9637, 49.3791], [-119.9762, 49.3791], [-119.9762, 49.3749]]]}, "properties": {"company_id": "goldcliff-resource", "jurisdiction": "British Columbia", "claim_id": 514131, "claim_name": null, "holder": "GOLDCLIFF RESOURCE CORPORATION", "status": "Mineral", "recorded_date": "2005-06-08", "anniversary_or_expiry": "2028-10-31", "area_ha": 84.137, "tenure_type": "Mineral", "source": "BC MTA Mineral, Placer and Coal Tenure Spatial View (BCGW). Open Government Licence - British Columbia. Not legal title.", "as_of": "2026-09-20", "role": "focus", "color": "#e8b040"}}, {"type": "Feature", "geometry": {"type": "Polygon", "coordinates": [[[-119.97, 49.3707], [-119.9762, 49.3707], [-119.9762, 49.3666], [-119.9637, 49.3666], [-119.9637, 49.3707], [-119.97, 49.3707]]]}, "properties": {"company_id": "goldcliff-resource", "jurisdiction": "British Columbia", "claim_id": 514132, "claim_name": null, "holder": "GOLDCLIFF RESOURCE CORPORATION", "status": "Mineral", "recorded_date": "2005-06-08", "anniversary_or_expiry": "2028-10-31", "area_ha": 42.074000000000005, "tenure_type": "Mineral", "source": "BC MTA Mineral, Placer and Coal Tenure Spatial View (BCGW). Open Government Licence - British Columbia. Not legal title.", "as_of": "2026-09-20", "role": "focus", "color": "#e8b040"}}, {"type": "Feature", "geometry": {"type": "Polygon", "coordinates": [[[-119.97, 49.3832], [-119.9762, 49.3832], [-119.9762, 49.3791], [-119.9637, 49.3791], [-119.9637, 49.3832], [-119.97, 49.3832]]]}, "properties": {"company_id": "goldcliff-resource", "jurisdiction": "British Columbia", "claim_id": 514133, "claim_name": null, "holder": "GOLDCLIFF RESOURCE CORPORATION", "status": "Mineral", "recorded_date": "2005-06-08", "anniversary_or_expiry": "2028-10-31", "area_ha": 42.063, "tenure_type": "Mineral", "source": "BC MTA Mineral, Placer and Coal Tenure Spatial View (BCGW). Open Government Licence - British Columbia. Not legal title.", "as_of": "2026-09-20", "role": "focus", "color": "#e8b040"}}, {"type": "Feature", "geometry": {"type": "Polygon", "coordinates": [[[-119.9887, 49.3832], [-119.9887, 49.3791], [-119.9762, 49.3791], [-119.9762, 49.3874], [-119.9887, 49.3874], [-119.9887, 49.3832]]]}, "properties": {"company_id": "goldcliff-resource", "jurisdiction": "British Columbia", "claim_id": 514138, "claim_name": null, "holder": "GOLDCLIFF RESOURCE CORPORATION", "status": "Mineral", "recorded_date": "2005-06-08", "anniversary_or_expiry": "2028-10-31", "area_ha": 84.123, "tenure_type": "Mineral", "source": "BC MTA Mineral, Placer and Coal Tenure Spatial View (BCGW). Open Government Licence - British Columbia. Not legal title.", "as_of": "2026-09-20", "role": "focus", "color": "#e8b040"}}, {"type": "Feature", "geometry": {"type": "Polygon", "coordinates": [[[-119.9887, 49.3749], [-119.9887, 49.3707], [-119.9762, 49.3707], [-119.9762, 49.3791], [-119.9887, 49.3791], [-119.9887, 49.3749]]]}, "properties": {"company_id": "goldcliff-resource", "jurisdiction": "British Columbia", "claim_id": 514139, "claim_name": null, "holder": "GOLDCLIFF RESOURCE CORPORATION", "status": "Mineral", "recorded_date": "2005-06-08", "anniversary_or_expiry": "2028-10-31", "area_ha": 84.137, "tenure_type": "Mineral", "source": "BC MTA Mineral, Placer and Coal Tenure Spatial View (BCGW). Open Government Licence - British Columbia. Not legal title.", "as_of": "2026-09-20", "role": "focus", "color": "#e8b040"}}, {"type": "Feature", "geometry": {"type": "Polygon", "coordinates": [[[-119.9762, 49.3666], [-119.9762, 49.3707], [-119.9825, 49.3707], [-119.9825, 49.3666], [-119.9762, 49.3666]]]}, "properties": {"company_id": "goldcliff-resource", "jurisdiction": "British Columbia", "claim_id": 514141, "claim_name": null, "holder": "GOLDCLIFF RESOURCE CORPORATION", "status": "Mineral", "recorded_date": "2005-06-08", "anniversary_or_expiry": "2028-10-31", "area_ha": 21.037000000000003, "tenure_type": "Mineral", "source": "BC MTA Mineral, Placer and Coal Tenure Spatial View (BCGW). Open Government Licence - British Columbia. Not legal title.", "as_of": "2026-09-20", "role": "focus", "color": "#e8b040"}}, {"type": "Feature", "geometry": {"type": "Polygon", "coordinates": [[[-119.9387, 49.3999], [-119.9387, 49.3957], [-119.9325, 49.3957], [-119.9325, 49.4041], [-119.9387, 49.4041], [-119.9387, 49.3999]]]}, "properties": {"company_id": "goldcliff-resource", "jurisdiction": "British Columbia", "claim_id": 510872, "claim_name": "G02", "holder": "GOLDCLIFF RESOURCE CORPORATION", "status": "Mineral", "recorded_date": "2005-04-18", "anniversary_or_expiry": "2025-02-28", "area_ha": 42.047000000000004, "tenure_type": "Mineral", "source": "BC MTA Mineral, Placer and Coal Tenure Spatial View (BCGW). Open Government Licence - British Columbia. Not legal title.", "as_of": "2026-09-20", "role": "focus", "color": "#e8b040"}}]}