{"type": "FeatureCollection", "features": [{"type": "Feature", "geometry": {"type": "Polygon", "coordinates": [[[-130.0645, 56.2909], [-130.0683, 56.2909], [-130.0683, 56.2868], [-130.0609, 56.2868], [-130.0609, 56.2909], [-130.0645, 56.2909]]]}, "properties": {"company_id": "goldstorm-metals", "jurisdiction": "British Columbia", "claim_id": 255205, "claim_name": "ROLLIN NO. 1", "holder": "GOLDSTORM METALS CORP", "status": "Mineral", "recorded_date": "2523-01-22", "anniversary_or_expiry": "2034-12-31", "area_ha": 25, "tenure_type": "Mineral", "source": "BC MTA Mineral, Placer and Coal Tenure Spatial View (BCGW). Open Government Licence - British Columbia. Not legal title.", "as_of": "2026-09-20", "role": "focus", "color": "#e8b040"}}, {"type": "Feature", "geometry": {"type": "Polygon", "coordinates": [[[-130.0683, 56.2909], [-130.0757, 56.2909], [-130.0757, 56.2868], [-130.0683, 56.2868], [-130.0683, 56.2909]]]}, "properties": {"company_id": "goldstorm-metals", "jurisdiction": "British Columbia", "claim_id": 255206, "claim_name": "ROLLIN NO. 2", "holder": "GOLDSTORM METALS CORP", "status": "Mineral", "recorded_date": "2523-01-22", "anniversary_or_expiry": "2034-12-31", "area_ha": 25, "tenure_type": "Mineral", "source": "BC MTA Mineral, Placer and Coal Tenure Spatial View (BCGW). Open Government Licence - British Columbia. Not legal title.", "as_of": "2026-09-20", "role": "focus", "color": "#e8b040"}}, {"type": "Feature", "geometry": {"type": "Polygon", "coordinates": [[[-130.0609, 56.2868], [-130.0683, 56.2868], [-130.0683, 56.2827], [-130.0609, 56.2827], [-130.0609, 56.2868]]]}, "properties": {"company_id": "goldstorm-metals", "jurisdiction": "British Columbia", "claim_id": 255207, "claim_name": "ROLLIN NO.3", "holder": "GOLDSTORM METALS CORP", "status": "Mineral", "recorded_date": "2523-01-22", "anniversary_or_expiry": "2034-12-31", "area_ha": 25, "tenure_type": "Mineral", "source": "BC MTA Mineral, Placer and Coal Tenure Spatial View (BCGW). Open Government Licence - British Columbia. Not legal title.", "as_of": "2026-09-20", "role": "focus", "color": "#e8b040"}}, {"type": "Feature", "geometry": {"type": "Polygon", "coordinates": [[[-130.0683, 56.2868], [-130.0757, 56.2868], [-130.0757, 56.2827], [-130.0683, 56.2827], [-130.0683, 56.2868]]]}, "properties": {"company_id": "goldstorm-metals", "jurisdiction": "British Columbia", "claim_id": 255208, "claim_name": "ROLLIN NO.4", "holder": "GOLDSTORM METALS CORP", "status": "Mineral", "recorded_date": "2523-01-22", "anniversary_or_expiry": "2034-12-31", "area_ha": 25, "tenure_type": "Mineral", "source": "BC MTA Mineral, Placer and Coal Tenure Spatial View (BCGW). Open Government Licence - British Columbia. Not legal title.", "as_of": "2026-09-20", "role": "focus", "color": "#e8b040"}}, {"type": "Feature", "geometry": {"type": "Polygon", "coordinates": [[[-130.0609, 56.2827], [-130.0683, 56.2827], [-130.0683, 56.2786], [-130.0609, 56.2786], [-130.0609, 56.2827]]]}, "properties": {"company_id": "goldstorm-metals", "jurisdiction": "British Columbia", "claim_id": 255209, "claim_name": "ROLLIN NO.5", "holder": "GOLDSTORM METALS CORP", "status": "Mineral", "recorded_date": "2523-01-22", "anniversary_or_expiry": "2034-12-31", "area_ha": 25, "tenure_type": "Mineral", "source": "BC MTA Mineral, Placer and Coal Tenure Spatial View (BCGW). Open Government Licence - British Columbia. Not legal title.", "as_of": "2026-09-20", "role": "focus", "color": "#e8b040"}}, {"type": "Feature", "geometry": {"type": "Polygon", "coordinates": [[[-130.0683, 56.2827], [-130.0757, 56.2827], [-130.0757, 56.2786], [-130.0683, 56.2786], [-130.0683, 56.2827]]]}, "properties": {"company_id": "goldstorm-metals", "jurisdiction": "British Columbia", "claim_id": 255210, "claim_name": "ROLLIN NO.6", "holder": "GOLDSTORM METALS CORP", "status": "Mineral", "recorded_date": "2523-01-22", "anniversary_or_expiry": "2034-12-31", "area_ha": 25, "tenure_type": "Mineral", "source": "BC MTA Mineral, Placer and Coal Tenure Spatial View (BCGW). Open Government Licence - British Columbia. Not legal title.", "as_of": "2026-09-20", "role": "focus", "color": "#e8b040"}}, {"type": "Feature", "geometry": {"type": "Polygon", "coordinates": [[[-130.0513, 56.2857], [-130.0609, 56.2857], [-130.0609, 56.2786], [-130.0655, 56.2786], [-130.0655, 56.2678], [-130.0513, 56.2678], [-130.0513, 56.2857]]]}, "properties": {"company_id": "goldstorm-metals", "jurisdiction": "British Columbia", "claim_id": 374303, "claim_name": "SLIPPERY WILLOW#1", "holder": "GOLDSTORM METALS CORP", "status": "Mineral", "recorded_date": "9493632000", "anniversary_or_expiry": "2034-12-31", "area_ha": 200, "tenure_type": "Mineral", "source": "BC MTA Mineral, Placer and Coal Tenure Spatial View (BCGW). Open Government Licence - British Columbia. Not legal title.", "as_of": "2026-09-20", "role": "focus", "color": "#e8b040"}}, {"type": "Feature", "geometry": {"type": "Polygon", "coordinates": [[[-130.0513, 56.2678], [-130.0655, 56.2678], [-130.0655, 56.2655], [-130.0707, 56.2655], [-130.0706, 56.2545], [-130.0751, 56.2545], [-130.0755, 56.2498], [-130.0513, 56.2498], [-130.0513, 56.2678]]]}, "properties": {"company_id": "goldstorm-metals", "jurisdiction": "British Columbia", "claim_id": 374304, "claim_name": "SLIPPERY WILLOW#2", "holder": "GOLDSTORM METALS CORP", "status": "Mineral", "recorded_date": "9493632000", "anniversary_or_expiry": "2034-12-31", "area_ha": 300, "tenure_type": "Mineral", "source": "BC MTA Mineral, Placer and Coal Tenure Spatial View (BCGW). Open Government Licence - British Columbia. Not legal title.", "as_of": "2026-09-20", "role": "focus", "color": "#e8b040"}}, {"type": "Feature", "geometry": {"type": "Polygon", "coordinates": [[[-130.1298, 56.3837], [-130.1743, 56.3837], [-130.1743, 56.3748], [-130.1258, 56.3748], [-130.1258, 56.3837], [-130.1298, 56.3837]]]}, "properties": {"company_id": "goldstorm-metals", "jurisdiction": "British Columbia", "claim_id": 394819, "claim_name": "DELTA 1", "holder": "GOLDSTORM METALS CORP", "status": "Mineral", "recorded_date": "2002-07-02", "anniversary_or_expiry": "2028-10-19", "area_ha": 300, "tenure_type": "Mineral", "source": "BC MTA Mineral, Placer and Coal Tenure Spatial View (BCGW). Open Government Licence - British Columbia. Not legal title.", "as_of": "2026-09-20", "role": "focus", "color": "#e8b040"}}, {"type": "Feature", "geometry": {"type": "Polygon", "coordinates": [[[-130.1258, 56.3748], [-130.1743, 56.3748], [-130.1743, 56.3613], [-130.1473, 56.3613], [-130.1473, 56.3651], [-130.1258, 56.3651], [-130.1258, 56.3748]]]}, "properties": {"company_id": "goldstorm-metals", "jurisdiction": "British Columbia", "claim_id": 394820, "claim_name": "DELTA 2", "holder": "GOLDSTORM METALS CORP", "status": "Mineral", "recorded_date": "2002-07-02", "anniversary_or_expiry": "2028-10-19", "area_ha": 450, "tenure_type": "Mineral", "source": "BC MTA Mineral, Placer and Coal Tenure Spatial View (BCGW). Open Government Licence - British Columbia. Not legal title.", "as_of": "2026-09-20", "role": "focus", "color": "#e8b040"}}, {"type": "Feature", "geometry": {"type": "Polygon", "coordinates": [[[-130.1258, 56.3651], [-130.1473, 56.3651], [-130.1473, 56.3561], [-130.123, 56.3561], [-130.123, 56.3651], [-130.1258, 56.3651]]]}, "properties": {"company_id": "goldstorm-metals", "jurisdiction": "British Columbia", "claim_id": 394821, "claim_name": "DELTA 4", "holder": "GOLDSTORM METALS CORP", "status": "Mineral", "recorded_date": "2002-07-02", "anniversary_or_expiry": "2028-10-19", "area_ha": 150, "tenure_type": "Mineral", "source": "BC MTA Mineral, Placer and Coal Tenure Spatial View (BCGW). Open Government Licence - British Columbia. Not legal title.", "as_of": "2026-09-20", "role": "focus", "color": "#e8b040"}}, {"type": "Feature", "geometry": {"type": "Polygon", "coordinates": [[[-130.123, 56.3561], [-130.1473, 56.3561], [-130.1473, 56.3381], [-130.123, 56.3381], [-130.123, 56.3561]]]}, "properties": {"company_id": "goldstorm-metals", "jurisdiction": "British Columbia", "claim_id": 394822, "claim_name": "DELTA 5", "holder": "GOLDSTORM METALS CORP", "status": "Mineral", "recorded_date": "2002-07-02", "anniversary_or_expiry": "2028-10-19", "area_ha": 300, "tenure_type": "Mineral", "source": "BC MTA Mineral, Placer and Coal Tenure Spatial View (BCGW). Open Government Licence - British Columbia. Not legal title.", "as_of": "2026-09-20", "role": "focus", "color": "#e8b040"}}, {"type": "Feature", "geometry": {"type": "Polygon", "coordinates": [[[-130.1258, 56.386], [-130.1298, 56.386], [-130.1298, 56.3837], [-130.1258, 56.3837], [-130.1258, 56.3681], [-130.0894, 56.3681], [-130.0894, 56.386], [-130.1258, 56.386]]]}, "properties": {"company_id": "goldstorm-metals", "jurisdiction": "British Columbia", "claim_id": 394823, "claim_name": "DELTA 6", "holder": "GOLDSTORM METALS CORP", "status": "Mineral", "recorded_date": "2002-07-02", "anniversary_or_expiry": "2028-10-19", "area_ha": 500, "tenure_type": "Mineral", "source": "BC MTA Mineral, Placer and Coal Tenure Spatial View (BCGW). Open Government Licence - British Columbia. Not legal title.", "as_of": "2026-09-20", "role": "focus", "color": "#e8b040"}}, {"type": "Feature", "geometry": {"type": "Polygon", "coordinates": [[[-130.0894, 56.3681], [-130.1258, 56.3681], [-130.1258, 56.3651], [-130.123, 56.3651], [-130.123, 56.3501], [-130.0894, 56.3501], [-130.0894, 56.3681]]]}, "properties": {"company_id": "goldstorm-metals", "jurisdiction": "British Columbia", "claim_id": 394824, "claim_name": "DELTA 8", "holder": "GOLDSTORM METALS CORP", "status": "Mineral", "recorded_date": "2002-07-02", "anniversary_or_expiry": "2028-10-19", "area_ha": 500, "tenure_type": "Mineral", "source": "BC MTA Mineral, Placer and Coal Tenure Spatial View (BCGW). Open Government Licence - British Columbia. Not legal title.", "as_of": "2026-09-20", "role": "focus", "color": "#e8b040"}}, {"type": "Feature", "geometry": {"type": "Polygon", "coordinates": [[[-130.057, 56.3681], [-130.057, 56.3905], [-130.0894, 56.3905], [-130.0894, 56.3681], [-130.057, 56.3681]]]}, "properties": {"company_id": "goldstorm-metals", "jurisdiction": "British Columbia", "claim_id": 394825, "claim_name": "DELTA 7", "holder": "GOLDSTORM METALS CORP", "status": "Mineral", "recorded_date": "2002-07-02", "anniversary_or_expiry": "2028-10-19", "area_ha": 500, "tenure_type": "Mineral", "source": "BC MTA Mineral, Placer and Coal Tenure Spatial View (BCGW). Open Government Licence - British Columbia. Not legal title.", "as_of": "2026-09-20", "role": "focus", "color": "#e8b040"}}, {"type": "Feature", "geometry": {"type": "Polygon", "coordinates": [[[-130.057, 56.3681], [-130.0894, 56.3681], [-130.0894, 56.3456], [-130.057, 56.3456], [-130.057, 56.3681]]]}, "properties": {"company_id": "goldstorm-metals", "jurisdiction": "British Columbia", "claim_id": 394826, "claim_name": "DELTA 9", "holder": "GOLDSTORM METALS CORP", "status": "Mineral", "recorded_date": "2002-07-02", "anniversary_or_expiry": "2028-10-19", "area_ha": 500, "tenure_type": "Mineral", "source": "BC MTA Mineral, Placer and Coal Tenure Spatial View (BCGW). Open Government Licence - British Columbia. Not legal title.", "as_of": "2026-09-20", "role": "focus", "color": "#e8b040"}}, {"type": "Feature", "geometry": {"type": "Polygon", "coordinates": [[[-130.1743, 56.3663], [-130.1985, 56.3663], [-130.1984, 56.3484], [-130.1661, 56.3484], [-130.1661, 56.3613], [-130.1743, 56.3613], [-130.1743, 56.3663]]]}, "properties": {"company_id": "goldstorm-metals", "jurisdiction": "British Columbia", "claim_id": 394827, "claim_name": "DELTA 10", "holder": "GOLDSTORM METALS CORP", "status": "Mineral", "recorded_date": "2002-07-02", "anniversary_or_expiry": "2028-10-19", "area_ha": 400, "tenure_type": "Mineral", "source": "BC MTA Mineral, Placer and Coal Tenure Spatial View (BCGW). Open Government Licence - British Columbia. Not legal title.", "as_of": "2026-09-20", "role": "focus", "color": "#e8b040"}}, {"type": "Feature", "geometry": {"type": "Polygon", "coordinates": [[[-130.1473, 56.3613], [-130.1661, 56.3613], [-130.1661, 56.3484], [-130.1473, 56.3484], [-130.1473, 56.3613]]]}, "properties": {"company_id": "goldstorm-metals", "jurisdiction": "British Columbia", "claim_id": 394828, "claim_name": "DELTA 11", "holder": "GOLDSTORM METALS CORP", "status": "Mineral", "recorded_date": "2002-07-02", "anniversary_or_expiry": "2028-10-19", "area_ha": 300, "tenure_type": "Mineral", "source": "BC MTA Mineral, Placer and Coal Tenure Spatial View (BCGW). Open Government Licence - British Columbia. Not legal title.", "as_of": "2026-09-20", "role": "focus", "color": "#e8b040"}}, {"type": "Feature", "geometry": {"type": "Polygon", "coordinates": [[[-130.1661, 56.3484], [-130.1984, 56.3484], [-130.1984, 56.3304], [-130.1661, 56.3304], [-130.1661, 56.3484]]]}, "properties": {"company_id": "goldstorm-metals", "jurisdiction": "British Columbia", "claim_id": 394829, "claim_name": "DELTA 12", "holder": "GOLDSTORM METALS CORP", "status": "Mineral", "recorded_date": "2002-07-02", "anniversary_or_expiry": "2028-10-19", "area_ha": 400, "tenure_type": "Mineral", "source": "BC MTA Mineral, Placer and Coal Tenure Spatial View (BCGW). Open Government Licence - British Columbia. Not legal title.", "as_of": "2026-09-20", "role": "focus", "color": "#e8b040"}}, {"type": "Feature", "geometry": {"type": "Polygon", "coordinates": [[[-130.1473, 56.3484], [-130.1661, 56.3484], [-130.1661, 56.3304], [-130.1418, 56.3304], [-130.1418, 56.3381], [-130.1473, 56.3381], [-130.1473, 56.3484]]]}, "properties": {"company_id": "goldstorm-metals", "jurisdiction": "British Columbia", "claim_id": 394830, "claim_name": "DELTA 13", "holder": "GOLDSTORM METALS CORP", "status": "Mineral", "recorded_date": "2002-07-02", "anniversary_or_expiry": "2028-10-19", "area_ha": 300, "tenure_type": "Mineral", "source": "BC MTA Mineral, Placer and Coal Tenure Spatial View (BCGW). Open Government Licence - British Columbia. Not legal title.", "as_of": "2026-09-20", "role": "focus", "color": "#e8b040"}}, {"type": "Feature", "geometry": {"type": "Polygon", "coordinates": [[[-130.252, 56.329], [-130.252, 56.3248], [-130.2395, 56.3248], [-130.2395, 56.3665], [-130.252, 56.3665], [-130.252, 56.329]]]}, "properties": {"company_id": "goldstorm-metals", "jurisdiction": "British Columbia", "claim_id": 508809, "claim_name": null, "holder": "GOLDSTORM METALS CORP", "status": "Mineral", "recorded_date": "2005-03-11", "anniversary_or_expiry": "2028-10-19", "area_ha": 358.624, "tenure_type": "Mineral", "source": "BC MTA Mineral, Placer and Coal Tenure Spatial View (BCGW). Open Government Licence - British Columbia. Not legal title.", "as_of": "2026-09-20", "role": "focus", "color": "#e8b040"}}, {"type": "Feature", "geometry": {"type": "Polygon", "coordinates": [[[-130.2708, 56.3623], [-130.2708, 56.3581], [-130.2645, 56.3581], [-130.2645, 56.3415], [-130.2583, 56.3415], [-130.2583, 56.3248], [-130.252, 56.3248], [-130.252, 56.3665], [-130.2708, 56.3665], [-130.2708, 56.3623]]]}, "properties": {"company_id": "goldstorm-metals", "jurisdiction": "British Columbia", "claim_id": 508810, "claim_name": null, "holder": "GOLDSTORM METALS CORP", "status": "Mineral", "recorded_date": "2005-03-11", "anniversary_or_expiry": "2028-10-19", "area_ha": 322.725, "tenure_type": "Mineral", "source": "BC MTA Mineral, Placer and Coal Tenure Spatial View (BCGW). Open Government Licence - British Columbia. Not legal title.", "as_of": "2026-09-20", "role": "focus", "color": "#e8b040"}}, {"type": "Feature", "geometry": {"type": "Polygon", "coordinates": [[[-130.2208, 56.3373], [-130.2208, 56.3331], [-130.1958, 56.3331], [-130.1958, 56.3623], [-130.2208, 56.3623], [-130.2208, 56.3373]]]}, "properties": {"company_id": "goldstorm-metals", "jurisdiction": "British Columbia", "claim_id": 508817, "claim_name": null, "holder": "GOLDSTORM METALS CORP", "status": "Mineral", "recorded_date": "2005-03-11", "anniversary_or_expiry": "2028-10-19", "area_ha": 502.052, "tenure_type": "Mineral", "source": "BC MTA Mineral, Placer and Coal Tenure Spatial View (BCGW). Open Government Licence - British Columbia. Not legal title.", "as_of": "2026-09-20", "role": "focus", "color": "#e8b040"}}, {"type": "Feature", "geometry": {"type": "Polygon", "coordinates": [[[-130.2833, 56.4206], [-130.2833, 56.4165], [-130.2645, 56.4165], [-130.2645, 56.4123], [-130.252, 56.4123], [-130.252, 56.4248], [-130.2583, 56.4248], [-130.2583, 56.429], [-130.2708, 56.429], [-130.2708, 56.4248], [-130.2833, 56.4248], [-130.2833, 56.4206]]]}, "properties": {"company_id": "goldstorm-metals", "jurisdiction": "British Columbia", "claim_id": 509574, "claim_name": "High C3", "holder": "GOLDSTORM METALS CORP", "status": "Mineral", "recorded_date": "2005-03-23", "anniversary_or_expiry": "2028-10-19", "area_ha": 250.548, "tenure_type": "Mineral", "source": "BC MTA Mineral, Placer and Coal Tenure Spatial View (BCGW). Open Government Licence - British Columbia. Not legal title.", "as_of": "2026-09-20", "role": "focus", "color": "#e8b040"}}, {"type": "Feature", "geometry": {"type": "Polygon", "coordinates": [[[-130.2958, 56.4165], [-130.2958, 56.4123], [-130.2645, 56.4123], [-130.2645, 56.4165], [-130.2833, 56.4165], [-130.2833, 56.4248], [-130.2708, 56.4248], [-130.2708, 56.4331], [-130.277, 56.4331], [-130.277, 56.4373], [-130.2958, 56.4373], [-130.2958, 56.4165]]]}, "properties": {"company_id": "goldstorm-metals", "jurisdiction": "British Columbia", "claim_id": 508930, "claim_name": "High W", "holder": "GOLDSTORM METALS CORP", "status": "Mineral", "recorded_date": "2005-03-14", "anniversary_or_expiry": "2028-10-19", "area_ha": 357.889, "tenure_type": "Mineral", "source": "BC MTA Mineral, Placer and Coal Tenure Spatial View (BCGW). Open Government Licence - British Columbia. Not legal title.", "as_of": "2026-09-20", "role": "focus", "color": "#e8b040"}}, {"type": "Feature", "geometry": {"type": "Polygon", "coordinates": [[[-130.2895, 56.3415], [-130.2895, 56.3373], [-130.2583, 56.3373], [-130.2583, 56.3415], [-130.2645, 56.3415], [-130.2645, 56.3581], [-130.2708, 56.3581], [-130.2708, 56.3665], [-130.277, 56.3665], [-130.277, 56.3623], [-130.2895, 56.3623], [-130.2895, 56.3415]]]}, "properties": {"company_id": "goldstorm-metals", "jurisdiction": "British Columbia", "claim_id": 535891, "claim_name": "ER3", "holder": "GOLDSTORM METALS CORP", "status": "Mineral", "recorded_date": "2006-06-18", "anniversary_or_expiry": "2028-10-19", "area_ha": 448.23900000000003, "tenure_type": "Mineral", "source": "BC MTA Mineral, Placer and Coal Tenure Spatial View (BCGW). Open Government Licence - British Columbia. Not legal title.", "as_of": "2026-09-20", "role": "focus", "color": "#e8b040"}}, {"type": "Feature", "geometry": {"type": "Polygon", "coordinates": [[[-130.3083, 56.3498], [-130.3083, 56.3456], [-130.2895, 56.3456], [-130.2895, 56.3623], [-130.277, 56.3623], [-130.277, 56.3706], [-130.3083, 56.3706], [-130.3083, 56.3498]]]}, "properties": {"company_id": "goldstorm-metals", "jurisdiction": "British Columbia", "claim_id": 535893, "claim_name": "RIFFY1", "holder": "GOLDSTORM METALS CORP", "status": "Mineral", "recorded_date": "2006-06-18", "anniversary_or_expiry": "2028-10-19", "area_ha": 394.345, "tenure_type": "Mineral", "source": "BC MTA Mineral, Placer and Coal Tenure Spatial View (BCGW). Open Government Licence - British Columbia. Not legal title.", "as_of": "2026-09-20", "role": "focus", "color": "#e8b040"}}, {"type": "Feature", "geometry": {"type": "Polygon", "coordinates": [[[-130.3083, 56.3748], [-130.3083, 56.3706], [-130.2833, 56.3706], [-130.2833, 56.3873], [-130.3083, 56.3873], [-130.3083, 56.3748]]]}, "properties": {"company_id": "goldstorm-metals", "jurisdiction": "British Columbia", "claim_id": 535894, "claim_name": "RIFFY 2", "holder": "GOLDSTORM METALS CORP", "status": "Mineral", "recorded_date": "2006-06-18", "anniversary_or_expiry": "2028-10-19", "area_ha": 286.652, "tenure_type": "Mineral", "source": "BC MTA Mineral, Placer and Coal Tenure Spatial View (BCGW). Open Government Licence - British Columbia. Not legal title.", "as_of": "2026-09-20", "role": "focus", "color": "#e8b040"}}]}