{"type": "FeatureCollection", "features": [{"type": "Feature", "geometry": {"type": "Polygon", "coordinates": [[[-75.050000002683, 49.27500000310101], [-75.04999999892216, 49.283333335619545], [-75.04166666782491, 49.283333339750186], [-75.04166667325042, 49.27500000737447], [-75.050000002683, 49.27500000310101]]]}, "properties": {"company_id": "goliath-resources", "jurisdiction": "Quebec", "claim_id": "", "claim_name": null, "holder": "Goliath Resources Ltd", "status": "Active", "recorded_date": null, "anniversary_or_expiry": null, "area_ha": null, "tenure_type": null, "source": "GESTIM active titles (MRNF digital data dump). Not legal title.", "as_of": "2026-09-20", "role": "focus", "color": "#e8b040"}}, {"type": "Feature", "geometry": {"type": "Polygon", "coordinates": [[[-75.04166667325042, 49.27500000737447], [-75.04166666782491, 49.283333339750186], [-75.03333333685154, 49.28333333658784], [-75.03333333019368, 49.27500000433308], [-75.04166667325042, 49.27500000737447]]]}, "properties": {"company_id": "goliath-resources", "jurisdiction": "Quebec", "claim_id": "", "claim_name": null, "holder": "Goliath Resources Ltd", "status": "Active", "recorded_date": null, "anniversary_or_expiry": null, "area_ha": null, "tenure_type": null, "source": "GESTIM active titles (MRNF digital data dump). Not legal title.", "as_of": "2026-09-20", "role": "focus", "color": "#e8b040"}}, {"type": "Feature", "geometry": {"type": "Polygon", "coordinates": [[[-75.05833333017634, 49.283333333190924], [-75.05833332933176, 49.29166667178752], [-75.04999999623313, 49.29166667404742], [-75.04999999892216, 49.283333335619545], [-75.05833333017634, 49.283333333190924]]]}, "properties": {"company_id": "goliath-resources", "jurisdiction": "Quebec", "claim_id": "", "claim_name": null, "holder": "Goliath Resources Ltd", "status": "Active", "recorded_date": null, "anniversary_or_expiry": null, "area_ha": null, "tenure_type": null, "source": "GESTIM active titles (MRNF digital data dump). Not legal title.", "as_of": "2026-09-20", "role": "focus", "color": "#e8b040"}}, {"type": "Feature", "geometry": {"type": "Polygon", "coordinates": [[[-75.04999999892216, 49.283333335619545], [-75.04999999623313, 49.29166667404742], [-75.04166666328418, 49.291666669039984], [-75.04166666782491, 49.283333339750186], [-75.04999999892216, 49.283333335619545]]]}, "properties": {"company_id": "goliath-resources", "jurisdiction": "Quebec", "claim_id": "", "claim_name": null, "holder": "Goliath Resources Ltd", "status": "Active", "recorded_date": null, "anniversary_or_expiry": null, "area_ha": null, "tenure_type": null, "source": "GESTIM active titles (MRNF digital data dump). Not legal title.", "as_of": "2026-09-20", "role": "focus", "color": "#e8b040"}}, {"type": "Feature", "geometry": {"type": "Polygon", "coordinates": [[[-75.04166666782491, 49.283333339750186], [-75.04166666328418, 49.291666669039984], [-75.03333333046855, 49.29166666576055], [-75.03333333685154, 49.28333333658784], [-75.04166666782491, 49.283333339750186]]]}, "properties": {"company_id": "goliath-resources", "jurisdiction": "Quebec", "claim_id": "", "claim_name": null, "holder": "Goliath Resources Ltd", "status": "Active", "recorded_date": null, "anniversary_or_expiry": null, "area_ha": null, "tenure_type": null, "source": "GESTIM active titles (MRNF digital data dump). Not legal title.", "as_of": "2026-09-20", "role": "focus", "color": "#e8b040"}}, {"type": "Feature", "geometry": {"type": "Polygon", "coordinates": [[[-75.08333332982575, 49.29166666637775], [-75.08333333629236, 49.30000000255085], [-75.07500000053768, 49.2999999993821], [-75.07499999610867, 49.291666672450475], [-75.08333332982575, 49.29166666637775]]]}, "properties": {"company_id": "goliath-resources", "jurisdiction": "Quebec", "claim_id": "", "claim_name": null, "holder": "Goliath Resources Ltd", "status": "Active", "recorded_date": null, "anniversary_or_expiry": null, "area_ha": null, "tenure_type": null, "source": "GESTIM active titles (MRNF digital data dump). Not legal title.", "as_of": "2026-09-20", "role": "focus", "color": "#e8b040"}}, {"type": "Feature", "geometry": {"type": "Polygon", "coordinates": [[[-75.07499999610867, 49.291666672450475], [-75.07500000053768, 49.2999999993821], [-75.06666666503389, 49.300000006961504], [-75.0666666626146, 49.2916666712553], [-75.07499999610867, 49.291666672450475]]]}, "properties": {"company_id": "goliath-resources", "jurisdiction": "Quebec", "claim_id": "", "claim_name": null, "holder": "Goliath Resources Ltd", "status": "Active", "recorded_date": null, "anniversary_or_expiry": null, "area_ha": null, "tenure_type": null, "source": "GESTIM active titles (MRNF digital data dump). Not legal title.", "as_of": "2026-09-20", "role": "focus", "color": "#e8b040"}}, {"type": "Feature", "geometry": {"type": "Polygon", "coordinates": [[[-75.0666666626146, 49.2916666712553], [-75.06666666503389, 49.300000006961504], [-75.05833332972819, 49.300000007299026], [-75.05833332933176, 49.29166667178752], [-75.0666666626146, 49.2916666712553]]]}, "properties": {"company_id": "goliath-resources", "jurisdiction": "Quebec", "claim_id": "", "claim_name": null, "holder": "Goliath Resources Ltd", "status": "Active", "recorded_date": null, "anniversary_or_expiry": null, "area_ha": null, "tenure_type": null, "source": "GESTIM active titles (MRNF digital data dump). Not legal title.", "as_of": "2026-09-20", "role": "focus", "color": "#e8b040"}}, {"type": "Feature", "geometry": {"type": "Polygon", "coordinates": [[[-75.05833332933176, 49.29166667178752], [-75.05833332972819, 49.300000007299026], [-75.04999999459804, 49.30000000039488], [-75.04999999623313, 49.29166667404742], [-75.05833332933176, 49.29166667178752]]]}, "properties": {"company_id": "goliath-resources", "jurisdiction": "Quebec", "claim_id": "", "claim_name": null, "holder": "Goliath Resources Ltd", "status": "Active", "recorded_date": null, "anniversary_or_expiry": null, "area_ha": null, "tenure_type": null, "source": "GESTIM active titles (MRNF digital data dump). Not legal title.", "as_of": "2026-09-20", "role": "focus", "color": "#e8b040"}}, {"type": "Feature", "geometry": {"type": "Polygon", "coordinates": [[[-75.04166666328418, 49.291666669039984], [-75.04166667339086, 49.30000000423461], [-75.03333333855353, 49.300000000838935], [-75.03333333046855, 49.29166666576055], [-75.04166666328418, 49.291666669039984]]]}, "properties": {"company_id": "goliath-resources", "jurisdiction": "Quebec", "claim_id": "", "claim_name": null, "holder": "Goliath Resources Ltd", "status": "Active", "recorded_date": null, "anniversary_or_expiry": null, "area_ha": null, "tenure_type": null, "source": "GESTIM active titles (MRNF digital data dump). Not legal title.", "as_of": "2026-09-20", "role": "focus", "color": "#e8b040"}}, {"type": "Feature", "geometry": {"type": "Polygon", "coordinates": [[[-75.09166667231283, 49.30000000747239], [-75.09166666900047, 49.30833334084491], [-75.08333333077739, 49.30833333564994], [-75.08333333629236, 49.30000000255085], [-75.09166667231283, 49.30000000747239]]]}, "properties": {"company_id": "goliath-resources", "jurisdiction": "Quebec", "claim_id": "", "claim_name": null, "holder": "Goliath Resources Ltd", "status": "Active", "recorded_date": null, "anniversary_or_expiry": null, "area_ha": null, "tenure_type": null, "source": "GESTIM active titles (MRNF digital data dump). Not legal title.", "as_of": "2026-09-20", "role": "focus", "color": "#e8b040"}}, {"type": "Feature", "geometry": {"type": "Polygon", "coordinates": [[[-75.08333333629236, 49.30000000255085], [-75.08333333077739, 49.30833333564994], [-75.0750000065778, 49.308333332224635], [-75.07500000053768, 49.2999999993821], [-75.08333333629236, 49.30000000255085]]]}, "properties": {"company_id": "goliath-resources", "jurisdiction": "Quebec", "claim_id": "", "claim_name": null, "holder": "Goliath Resources Ltd", "status": "Active", "recorded_date": null, "anniversary_or_expiry": null, "area_ha": null, "tenure_type": null, "source": "GESTIM active titles (MRNF digital data dump). Not legal title.", "as_of": "2026-09-20", "role": "focus", "color": "#e8b040"}}, {"type": "Feature", "geometry": {"type": "Polygon", "coordinates": [[[-75.07500000053768, 49.2999999993821], [-75.0750000065778, 49.308333332224635], [-75.0666666688726, 49.308333339583285], [-75.06666666503389, 49.300000006961504], [-75.07500000053768, 49.2999999993821]]]}, "properties": {"company_id": "goliath-resources", "jurisdiction": "Quebec", "claim_id": "", "claim_name": null, "holder": "Goliath Resources Ltd", "status": "Active", "recorded_date": null, "anniversary_or_expiry": null, "area_ha": null, "tenure_type": null, "source": "GESTIM active titles (MRNF digital data dump). Not legal title.", "as_of": "2026-09-20", "role": "focus", "color": "#e8b040"}}, {"type": "Feature", "geometry": {"type": "Polygon", "coordinates": [[[-75.06666666503389, 49.300000006961504], [-75.0666666688726, 49.308333339583285], [-75.05833333136601, 49.30833333972591], [-75.05833332972819, 49.300000007299026], [-75.06666666503389, 49.300000006961504]]]}, "properties": {"company_id": "goliath-resources", "jurisdiction": "Quebec", "claim_id": "", "claim_name": null, "holder": "Goliath Resources Ltd", "status": "Active", "recorded_date": null, "anniversary_or_expiry": null, "area_ha": null, "tenure_type": null, "source": "GESTIM active titles (MRNF digital data dump). Not legal title.", "as_of": "2026-09-20", "role": "focus", "color": "#e8b040"}}, {"type": "Feature", "geometry": {"type": "Polygon", "coordinates": [[[-75.10833333255779, 49.308333338592256], [-75.10833333595612, 49.316666669506645], [-75.099999994758, 49.31666666942395], [-75.09999999374182, 49.30833333883501], [-75.10833333255779, 49.308333338592256]]]}, "properties": {"company_id": "goliath-resources", "jurisdiction": "Quebec", "claim_id": "", "claim_name": null, "holder": "Goliath Resources Ltd", "status": "Active", "recorded_date": null, "anniversary_or_expiry": null, "area_ha": null, "tenure_type": null, "source": "GESTIM active titles (MRNF digital data dump). Not legal title.", "as_of": "2026-09-20", "role": "focus", "color": "#e8b040"}}, {"type": "Feature", "geometry": {"type": "Polygon", "coordinates": [[[-75.09999999374182, 49.30833333883501], [-75.099999994758, 49.31666666942395], [-75.0916666676376, 49.316666671134264], [-75.09166666900047, 49.30833334084491], [-75.09999999374182, 49.30833333883501]]]}, "properties": {"company_id": "goliath-resources", "jurisdiction": "Quebec", "claim_id": "", "claim_name": null, "holder": "Goliath Resources Ltd", "status": "Active", "recorded_date": null, "anniversary_or_expiry": null, "area_ha": null, "tenure_type": null, "source": "GESTIM active titles (MRNF digital data dump). Not legal title.", "as_of": "2026-09-20", "role": "focus", "color": "#e8b040"}}, {"type": "Feature", "geometry": {"type": "Polygon", "coordinates": [[[-75.09166666900047, 49.30833334084491], [-75.0916666676376, 49.316666671134264], [-75.08333332703383, 49.316666665665565], [-75.08333333077739, 49.30833333564994], [-75.09166666900047, 49.30833334084491]]]}, "properties": {"company_id": "goliath-resources", "jurisdiction": "Quebec", "claim_id": "", "claim_name": null, "holder": "Goliath Resources Ltd", "status": "Active", "recorded_date": null, "anniversary_or_expiry": null, "area_ha": null, "tenure_type": null, "source": "GESTIM active titles (MRNF digital data dump). Not legal title.", "as_of": "2026-09-20", "role": "focus", "color": "#e8b040"}}, {"type": "Feature", "geometry": {"type": "Polygon", "coordinates": [[[-75.08333333077739, 49.30833333564994], [-75.08333332703383, 49.316666665665565], [-75.07500000047015, 49.31666667098756], [-75.0750000065778, 49.308333332224635], [-75.08333333077739, 49.30833333564994]]]}, "properties": {"company_id": "goliath-resources", "jurisdiction": "Quebec", "claim_id": "", "claim_name": null, "holder": "Goliath Resources Ltd", "status": "Active", "recorded_date": null, "anniversary_or_expiry": null, "area_ha": null, "tenure_type": null, "source": "GESTIM active titles (MRNF digital data dump). Not legal title.", "as_of": "2026-09-20", "role": "focus", "color": "#e8b040"}}, {"type": "Feature", "geometry": {"type": "Polygon", "coordinates": [[[-75.0750000065778, 49.308333332224635], [-75.07500000047015, 49.31666667098756], [-75.06666666037187, 49.31666666912911], [-75.0666666688726, 49.308333339583285], [-75.0750000065778, 49.308333332224635]]]}, "properties": {"company_id": "goliath-resources", "jurisdiction": "Quebec", "claim_id": "", "claim_name": null, "holder": "Goliath Resources Ltd", "status": "Active", "recorded_date": null, "anniversary_or_expiry": null, "area_ha": null, "tenure_type": null, "source": "GESTIM active titles (MRNF digital data dump). Not legal title.", "as_of": "2026-09-20", "role": "focus", "color": "#e8b040"}}, {"type": "Feature", "geometry": {"type": "Polygon", "coordinates": [[[-75.13333333418919, 49.31666667161124], [-75.13333333381372, 49.32500000059225], [-75.12500000272057, 49.32500000367375], [-75.12500000563394, 49.31666666610212], [-75.13333333418919, 49.31666667161124]]]}, "properties": {"company_id": "goliath-resources", "jurisdiction": "Quebec", "claim_id": "", "claim_name": null, "holder": "Goliath Resources Ltd", "status": "Active", "recorded_date": null, "anniversary_or_expiry": null, "area_ha": null, "tenure_type": null, "source": "GESTIM active titles (MRNF digital data dump). Not legal title.", "as_of": "2026-09-20", "role": "focus", "color": "#e8b040"}}, {"type": "Feature", "geometry": {"type": "Polygon", "coordinates": [[[-75.12500000563394, 49.31666666610212], [-75.12500000272057, 49.32500000367375], [-75.11666667200392, 49.32499999959085], [-75.11666666374039, 49.31666667140679], [-75.12500000563394, 49.31666666610212]]]}, "properties": {"company_id": "goliath-resources", "jurisdiction": "Quebec", "claim_id": "", "claim_name": null, "holder": "Goliath Resources Ltd", "status": "Active", "recorded_date": null, "anniversary_or_expiry": null, "area_ha": null, "tenure_type": null, "source": "GESTIM active titles (MRNF digital data dump). Not legal title.", "as_of": "2026-09-20", "role": "focus", "color": "#e8b040"}}, {"type": "Feature", "geometry": {"type": "Polygon", "coordinates": [[[-75.11666666374039, 49.31666667140679], [-75.11666667200392, 49.32499999959085], [-75.10833332791891, 49.32500000634702], [-75.10833333595612, 49.316666669506645], [-75.11666666374039, 49.31666667140679]]]}, "properties": {"company_id": "goliath-resources", "jurisdiction": "Quebec", "claim_id": "", "claim_name": null, "holder": "Goliath Resources Ltd", "status": "Active", "recorded_date": null, "anniversary_or_expiry": null, "area_ha": null, "tenure_type": null, "source": "GESTIM active titles (MRNF digital data dump). Not legal title.", "as_of": "2026-09-20", "role": "focus", "color": "#e8b040"}}, {"type": "Feature", "geometry": {"type": "Polygon", "coordinates": [[[-75.10833333595612, 49.316666669506645], [-75.10833332791891, 49.32500000634702], [-75.09999999792066, 49.325000005925645], [-75.099999994758, 49.31666666942395], [-75.10833333595612, 49.316666669506645]]]}, "properties": {"company_id": "goliath-resources", "jurisdiction": "Quebec", "claim_id": "", "claim_name": null, "holder": "Goliath Resources Ltd", "status": "Active", "recorded_date": null, "anniversary_or_expiry": null, "area_ha": null, "tenure_type": null, "source": "GESTIM active titles (MRNF digital data dump). Not legal title.", "as_of": "2026-09-20", "role": "focus", "color": "#e8b040"}}, {"type": "Feature", "geometry": {"type": "Polygon", "coordinates": [[[-75.099999994758, 49.31666666942395], [-75.09999999792066, 49.325000005925645], [-75.09166666824154, 49.325000007336044], [-75.0916666676376, 49.316666671134264], [-75.099999994758, 49.31666666942395]]]}, "properties": {"company_id": "goliath-resources", "jurisdiction": "Quebec", "claim_id": "", "claim_name": null, "holder": "Goliath Resources Ltd", "status": "Active", "recorded_date": null, "anniversary_or_expiry": null, "area_ha": null, "tenure_type": null, "source": "GESTIM active titles (MRNF digital data dump). Not legal title.", "as_of": "2026-09-20", "role": "focus", "color": "#e8b040"}}, {"type": "Feature", "geometry": {"type": "Polygon", "coordinates": [[[-75.0916666676376, 49.316666671134264], [-75.09166666824154, 49.325000007336044], [-75.08333333883914, 49.32500000158347], [-75.08333332703383, 49.316666665665565], [-75.0916666676376, 49.316666671134264]]]}, "properties": {"company_id": "goliath-resources", "jurisdiction": "Quebec", "claim_id": "", "claim_name": null, "holder": "Goliath Resources Ltd", "status": "Active", "recorded_date": null, "anniversary_or_expiry": null, "area_ha": null, "tenure_type": null, "source": "GESTIM active titles (MRNF digital data dump). Not legal title.", "as_of": "2026-09-20", "role": "focus", "color": "#e8b040"}}, {"type": "Feature", "geometry": {"type": "Polygon", "coordinates": [[[-75.08333332703383, 49.316666665665565], [-75.08333333883914, 49.32500000158347], [-75.07499999595645, 49.32500000666729], [-75.07500000047015, 49.31666667098756], [-75.08333332703383, 49.316666665665565]]]}, "properties": {"company_id": "goliath-resources", "jurisdiction": "Quebec", "claim_id": "", "claim_name": null, "holder": "Goliath Resources Ltd", "status": "Active", "recorded_date": null, "anniversary_or_expiry": null, "area_ha": null, "tenure_type": null, "source": "GESTIM active titles (MRNF digital data dump). Not legal title.", "as_of": "2026-09-20", "role": "focus", "color": "#e8b040"}}, {"type": "Feature", "geometry": {"type": "Polygon", "coordinates": [[[-75.07500000047015, 49.31666667098756], [-75.07499999595645, 49.32500000666729], [-75.0666666670607, 49.32500000457874], [-75.06666666037187, 49.31666666912911], [-75.07500000047015, 49.31666667098756]]]}, "properties": {"company_id": "goliath-resources", "jurisdiction": "Quebec", "claim_id": "", "claim_name": null, "holder": "Goliath Resources Ltd", "status": "Active", "recorded_date": null, "anniversary_or_expiry": null, "area_ha": null, "tenure_type": null, "source": "GESTIM active titles (MRNF digital data dump). Not legal title.", "as_of": "2026-09-20", "role": "focus", "color": "#e8b040"}}, {"type": "Feature", "geometry": {"type": "Polygon", "coordinates": [[[-75.13333333381372, 49.32500000059225], [-75.1333333362997, 49.3333333354879], [-75.12500000246617, 49.33333333816452], [-75.12500000272057, 49.32500000367375], [-75.13333333381372, 49.32500000059225]]]}, "properties": {"company_id": "goliath-resources", "jurisdiction": "Quebec", "claim_id": "", "claim_name": null, "holder": "Goliath Resources Ltd", "status": "Active", "recorded_date": null, "anniversary_or_expiry": null, "area_ha": null, "tenure_type": null, "source": "GESTIM active titles (MRNF digital data dump). Not legal title.", "as_of": "2026-09-20", "role": "focus", "color": "#e8b040"}}, {"type": "Feature", "geometry": {"type": "Polygon", "coordinates": [[[-75.12500000272057, 49.32500000367375], [-75.12500000246617, 49.33333333816452], [-75.11666666901009, 49.3333333337027], [-75.11666667200392, 49.32499999959085], [-75.12500000272057, 49.32500000367375]]]}, "properties": {"company_id": "goliath-resources", "jurisdiction": "Quebec", "claim_id": "", "claim_name": null, "holder": "Goliath Resources Ltd", "status": "Active", "recorded_date": null, "anniversary_or_expiry": null, "area_ha": null, "tenure_type": null, "source": "GESTIM active titles (MRNF digital data dump). Not legal title.", "as_of": "2026-09-20", "role": "focus", "color": "#e8b040"}}, {"type": "Feature", "geometry": {"type": "Polygon", "coordinates": [[[-75.11666667200392, 49.32499999959085], [-75.11666666901009, 49.3333333337027], [-75.10833333594826, 49.3333333400929], [-75.10833332791891, 49.32500000634702], [-75.11666667200392, 49.32499999959085]]]}, "properties": {"company_id": "goliath-resources", "jurisdiction": "Quebec", "claim_id": "", "claim_name": null, "holder": "Goliath Resources Ltd", "status": "Active", "recorded_date": null, "anniversary_or_expiry": null, "area_ha": null, "tenure_type": null, "source": "GESTIM active titles (MRNF digital data dump). Not legal title.", "as_of": "2026-09-20", "role": "focus", "color": "#e8b040"}}, {"type": "Feature", "geometry": {"type": "Polygon", "coordinates": [[[-75.10833332791891, 49.32500000634702], [-75.10833333594826, 49.3333333400929], [-75.10000000321233, 49.33333333934542], [-75.09999999792066, 49.325000005925645], [-75.10833332791891, 49.32500000634702]]]}, "properties": {"company_id": "goliath-resources", "jurisdiction": "Quebec", "claim_id": "", "claim_name": null, "holder": "Goliath Resources Ltd", "status": "Active", "recorded_date": null, "anniversary_or_expiry": null, "area_ha": null, "tenure_type": null, "source": "GESTIM active titles (MRNF digital data dump). Not legal title.", "as_of": "2026-09-20", "role": "focus", "color": "#e8b040"}}, {"type": "Feature", "geometry": {"type": "Polygon", "coordinates": [[[-75.09999999792066, 49.325000005925645], [-75.10000000321233, 49.33333333934542], [-75.09166667079631, 49.333333340455646], [-75.09166666824154, 49.325000007336044], [-75.09999999792066, 49.325000005925645]]]}, "properties": {"company_id": "goliath-resources", "jurisdiction": "Quebec", "claim_id": "", "claim_name": null, "holder": "Goliath Resources Ltd", "status": "Active", "recorded_date": null, "anniversary_or_expiry": null, "area_ha": null, "tenure_type": null, "source": "GESTIM active titles (MRNF digital data dump). Not legal title.", "as_of": "2026-09-20", "role": "focus", "color": "#e8b040"}}, {"type": "Feature", "geometry": {"type": "Polygon", "coordinates": [[[-75.09166666824154, 49.325000007336044], [-75.09166667079631, 49.333333340455646], [-75.08333333865771, 49.33333333442883], [-75.08333333883914, 49.32500000158347], [-75.09166666824154, 49.325000007336044]]]}, "properties": {"company_id": "goliath-resources", "jurisdiction": "Quebec", "claim_id": "", "claim_name": null, "holder": "Goliath Resources Ltd", "status": "Active", "recorded_date": null, "anniversary_or_expiry": null, "area_ha": null, "tenure_type": null, "source": "GESTIM active titles (MRNF digital data dump). Not legal title.", "as_of": "2026-09-20", "role": "focus", "color": "#e8b040"}}, {"type": "Feature", "geometry": {"type": "Polygon", "coordinates": [[[-75.08333333883914, 49.32500000158347], [-75.08333333865771, 49.33333333442883], [-75.0750000068011, 49.333333339255404], [-75.07499999595645, 49.32500000666729], [-75.08333333883914, 49.32500000158347]]]}, "properties": {"company_id": "goliath-resources", "jurisdiction": "Quebec", "claim_id": "", "claim_name": null, "holder": "Goliath Resources Ltd", "status": "Active", "recorded_date": null, "anniversary_or_expiry": null, "area_ha": null, "tenure_type": null, "source": "GESTIM active titles (MRNF digital data dump). Not legal title.", "as_of": "2026-09-20", "role": "focus", "color": "#e8b040"}}, {"type": "Feature", "geometry": {"type": "Polygon", "coordinates": [[[-75.07499999595645, 49.32500000666729], [-75.0750000068011, 49.333333339255404], [-75.0666666614064, 49.333333336953444], [-75.0666666670607, 49.32500000457874], [-75.07499999595645, 49.32500000666729]]]}, "properties": {"company_id": "goliath-resources", "jurisdiction": "Quebec", "claim_id": "", "claim_name": null, "holder": "Goliath Resources Ltd", "status": "Active", "recorded_date": null, "anniversary_or_expiry": null, "area_ha": null, "tenure_type": null, "source": "GESTIM active titles (MRNF digital data dump). Not legal title.", "as_of": "2026-09-20", "role": "focus", "color": "#e8b040"}}, {"type": "Feature", "geometry": {"type": "Polygon", "coordinates": [[[-75.14166667055922, 49.333333334667486], [-75.1416666650366, 49.34166666693127], [-75.13333332785741, 49.34166666731951], [-75.1333333362997, 49.3333333354879], [-75.14166667055922, 49.333333334667486]]]}, "properties": {"company_id": "goliath-resources", "jurisdiction": "Quebec", "claim_id": "", "claim_name": null, "holder": "Goliath Resources Ltd", "status": "Active", "recorded_date": null, "anniversary_or_expiry": null, "area_ha": null, "tenure_type": null, "source": "GESTIM active titles (MRNF digital data dump). Not legal title.", "as_of": "2026-09-20", "role": "focus", "color": "#e8b040"}}, {"type": "Feature", "geometry": {"type": "Polygon", "coordinates": [[[-75.1333333362997, 49.3333333354879], [-75.13333332785741, 49.34166666731951], [-75.12500000487158, 49.34166666957497], [-75.12500000246617, 49.33333333816452], [-75.1333333362997, 49.3333333354879]]]}, "properties": {"company_id": "goliath-resources", "jurisdiction": "Quebec", "claim_id": "", "claim_name": null, "holder": "Goliath Resources Ltd", "status": "Active", "recorded_date": null, "anniversary_or_expiry": null, "area_ha": null, "tenure_type": null, "source": "GESTIM active titles (MRNF digital data dump). Not legal title.", "as_of": "2026-09-20", "role": "focus", "color": "#e8b040"}}, {"type": "Feature", "geometry": {"type": "Polygon", "coordinates": [[[-75.1500000026702, 49.34166666842471], [-75.15000000328669, 49.35000000706317], [-75.14166666255255, 49.35000000511111], [-75.1416666650366, 49.34166666693127], [-75.1500000026702, 49.34166666842471]]]}, "properties": {"company_id": "goliath-resources", "jurisdiction": "Quebec", "claim_id": "", "claim_name": null, "holder": "Goliath Resources Ltd", "status": "Active", "recorded_date": null, "anniversary_or_expiry": null, "area_ha": null, "tenure_type": null, "source": "GESTIM active titles (MRNF digital data dump). Not legal title.", "as_of": "2026-09-20", "role": "focus", "color": "#e8b040"}}, {"type": "Feature", "geometry": {"type": "Polygon", "coordinates": [[[-75.1416666650366, 49.34166666693127], [-75.14166666255255, 49.35000000511111], [-75.1333333360425, 49.35000000505082], [-75.13333332785741, 49.34166666731951], [-75.1416666650366, 49.34166666693127]]]}, "properties": {"company_id": "goliath-resources", "jurisdiction": "Quebec", "claim_id": "", "claim_name": null, "holder": "Goliath Resources Ltd", "status": "Active", "recorded_date": null, "anniversary_or_expiry": null, "area_ha": null, "tenure_type": null, "source": "GESTIM active titles (MRNF digital data dump). Not legal title.", "as_of": "2026-09-20", "role": "focus", "color": "#e8b040"}}, {"type": "Feature", "geometry": {"type": "Polygon", "coordinates": [[[-75.04999999623313, 49.29166667404742], [-75.04999999459804, 49.30000000039488], [-75.04166667339086, 49.30000000423461], [-75.04166666328418, 49.291666669039984], [-75.04999999623313, 49.29166667404742]]]}, "properties": {"company_id": "goliath-resources", "jurisdiction": "Quebec", "claim_id": "", "claim_name": null, "holder": "Goliath Resources Ltd", "status": "Active", "recorded_date": null, "anniversary_or_expiry": null, "area_ha": null, "tenure_type": null, "source": "GESTIM active titles (MRNF digital data dump). Not legal title.", "as_of": "2026-09-20", "role": "focus", "color": "#e8b040"}}, {"type": "Feature", "geometry": {"type": "Polygon", "coordinates": [[[-75.09999999485316, 49.30000000516319], [-75.09999999374182, 49.30833333883501], [-75.09166666900047, 49.30833334084491], [-75.09166667231283, 49.30000000747239], [-75.09999999485316, 49.30000000516319]]]}, "properties": {"company_id": "goliath-resources", "jurisdiction": "Quebec", "claim_id": "", "claim_name": null, "holder": "Goliath Resources Ltd", "status": "Active", "recorded_date": null, "anniversary_or_expiry": null, "area_ha": null, "tenure_type": null, "source": "GESTIM active titles (MRNF digital data dump). Not legal title.", "as_of": "2026-09-20", "role": "focus", "color": "#e8b040"}}]}