{"type": "FeatureCollection", "features": [{"type": "Feature", "geometry": {"type": "Polygon", "coordinates": [[[-93.7, 50.7458], [-93.6, 50.7458], [-93.6, 50.75], [-93.65, 50.75], [-93.65, 50.7583], [-93.6563, 50.7583], [-93.6563, 50.7625], [-93.6625, 50.7625], [-93.6625, 50.7583], [-93.6688, 50.7583], [-93.6688, 50.7542], [-93.675, 50.7542], [-93.675, 50.75], [-93.7063, 50.75], [-93.7063, 50.7458], [-93.7, 50.7458]]]}, "properties": {"company_id": "goliath-resources", "jurisdiction": "Ontario", "claim_id": "530311", "claim_name": null, "holder": "(100) Golden Goliath Resources Ltd.", "status": "Active", "recorded_date": "2018-08-29", "anniversary_or_expiry": "2028-08-29", "area_ha": null, "tenure_type": "Multi-cell Mining Claim", "source": "Ontario MLAS operational claims (OGSEarth / LIO MapServer). Unofficial viewing data, not legal title.", "as_of": "2026-09-20", "role": "focus", "color": "#e8b040"}}, {"type": "Feature", "geometry": {"type": "Polygon", "coordinates": [[[-93.7, 50.7417], [-93.6875, 50.7417], [-93.6875, 50.7375], [-93.625, 50.7375], [-93.625, 50.7417], [-93.6125, 50.7417], [-93.6125, 50.7458], [-93.7063, 50.7458], [-93.7063, 50.7417], [-93.7, 50.7417]]]}, "properties": {"company_id": "goliath-resources", "jurisdiction": "Ontario", "claim_id": "530312", "claim_name": null, "holder": "(100) Golden Goliath Resources Ltd.", "status": "Active", "recorded_date": "2018-08-29", "anniversary_or_expiry": "2028-08-29", "area_ha": null, "tenure_type": "Multi-cell Mining Claim", "source": "Ontario MLAS operational claims (OGSEarth / LIO MapServer). Unofficial viewing data, not legal title.", "as_of": "2026-09-20", "role": "focus", "color": "#e8b040"}}, {"type": "Feature", "geometry": {"type": "Polygon", "coordinates": [[[-93.6063, 50.775], [-93.6063, 50.7708], [-93.5625, 50.7708], [-93.5625, 50.775], [-93.55, 50.775], [-93.55, 50.7792], [-93.6125, 50.7792], [-93.6125, 50.775], [-93.6063, 50.775]]]}, "properties": {"company_id": "goliath-resources", "jurisdiction": "Ontario", "claim_id": "530903", "claim_name": null, "holder": "(100) Golden Goliath Resources Ltd.", "status": "Active", "recorded_date": "2018-09-07", "anniversary_or_expiry": "2028-09-07", "area_ha": null, "tenure_type": "Multi-cell Mining Claim", "source": "Ontario MLAS operational claims (OGSEarth / LIO MapServer). Unofficial viewing data, not legal title.", "as_of": "2026-09-20", "role": "focus", "color": "#e8b040"}}, {"type": "Feature", "geometry": {"type": "Polygon", "coordinates": [[[-93.6, 50.75], [-93.5938, 50.75], [-93.5938, 50.7542], [-93.5875, 50.7542], [-93.5875, 50.7583], [-93.5813, 50.7583], [-93.5813, 50.7625], [-93.575, 50.7625], [-93.575, 50.7667], [-93.5688, 50.7667], [-93.5688, 50.7708], [-93.6, 50.7708], [-93.6, 50.7542], [-93.6063, 50.7542], [-93.6063, 50.75], [-93.6, 50.75]]]}, "properties": {"company_id": "goliath-resources", "jurisdiction": "Ontario", "claim_id": "530908", "claim_name": null, "holder": "(100) Golden Goliath Resources Ltd.", "status": "Active", "recorded_date": "2018-09-07", "anniversary_or_expiry": "2028-09-07", "area_ha": null, "tenure_type": "Multi-cell Mining Claim", "source": "Ontario MLAS operational claims (OGSEarth / LIO MapServer). Unofficial viewing data, not legal title.", "as_of": "2026-09-20", "role": "focus", "color": "#e8b040"}}, {"type": "Feature", "geometry": {"type": "Polygon", "coordinates": [[[-93.7313, 50.7375], [-93.725, 50.7375], [-93.725, 50.7292], [-93.7063, 50.7292], [-93.7063, 50.7333], [-93.6563, 50.7333], [-93.6563, 50.7375], [-93.6875, 50.7375], [-93.6875, 50.7417], [-93.7063, 50.7417], [-93.7063, 50.7458], [-93.725, 50.7458], [-93.725, 50.7417], [-93.7375, 50.7417], [-93.7375, 50.7375], [-93.7313, 50.7375]]]}, "properties": {"company_id": "goliath-resources", "jurisdiction": "Ontario", "claim_id": "530909", "claim_name": null, "holder": "(100) Golden Goliath Resources Ltd.", "status": "Active", "recorded_date": "2018-09-07", "anniversary_or_expiry": "2028-09-07", "area_ha": null, "tenure_type": "Multi-cell Mining Claim", "source": "Ontario MLAS operational claims (OGSEarth / LIO MapServer). Unofficial viewing data, not legal title.", "as_of": "2026-09-20", "role": "focus", "color": "#e8b040"}}, {"type": "Feature", "geometry": {"type": "Polygon", "coordinates": [[[-93.6938, 50.75], [-93.6938, 50.7542], [-93.7, 50.7542], [-93.7, 50.75], [-93.6938, 50.75]]]}, "properties": {"company_id": "goliath-resources", "jurisdiction": "Ontario", "claim_id": "543033", "claim_name": null, "holder": "(100) Golden Goliath Resources Ltd.", "status": "Active", "recorded_date": "2019-02-21", "anniversary_or_expiry": "2029-02-21", "area_ha": null, "tenure_type": "Single Cell Mining Claim", "source": "Ontario MLAS operational claims (OGSEarth / LIO MapServer). Unofficial viewing data, not legal title.", "as_of": "2026-09-20", "role": "focus", "color": "#e8b040"}}, {"type": "Feature", "geometry": {"type": "Polygon", "coordinates": [[[-93.6875, 50.75], [-93.6875, 50.7542], [-93.6938, 50.7542], [-93.6938, 50.75], [-93.6875, 50.75]]]}, "properties": {"company_id": "goliath-resources", "jurisdiction": "Ontario", "claim_id": "543034", "claim_name": null, "holder": "(100) Golden Goliath Resources Ltd.", "status": "Active", "recorded_date": "2019-02-21", "anniversary_or_expiry": "2029-02-21", "area_ha": null, "tenure_type": "Single Cell Mining Claim", "source": "Ontario MLAS operational claims (OGSEarth / LIO MapServer). Unofficial viewing data, not legal title.", "as_of": "2026-09-20", "role": "focus", "color": "#e8b040"}}, {"type": "Feature", "geometry": {"type": "Polygon", "coordinates": [[[-93.6813, 50.75], [-93.6813, 50.7542], [-93.6875, 50.7542], [-93.6875, 50.75], [-93.6813, 50.75]]]}, "properties": {"company_id": "goliath-resources", "jurisdiction": "Ontario", "claim_id": "543035", "claim_name": null, "holder": "(100) Golden Goliath Resources Ltd.", "status": "Active", "recorded_date": "2019-02-21", "anniversary_or_expiry": "2029-02-21", "area_ha": null, "tenure_type": "Single Cell Mining Claim", "source": "Ontario MLAS operational claims (OGSEarth / LIO MapServer). Unofficial viewing data, not legal title.", "as_of": "2026-09-20", "role": "focus", "color": "#e8b040"}}, {"type": "Feature", "geometry": {"type": "Polygon", "coordinates": [[[-93.675, 50.75], [-93.675, 50.7542], [-93.6813, 50.7542], [-93.6813, 50.75], [-93.675, 50.75]]]}, "properties": {"company_id": "goliath-resources", "jurisdiction": "Ontario", "claim_id": "543036", "claim_name": null, "holder": "(100) Golden Goliath Resources Ltd.", "status": "Active", "recorded_date": "2019-02-21", "anniversary_or_expiry": "2029-02-21", "area_ha": null, "tenure_type": "Single Cell Mining Claim", "source": "Ontario MLAS operational claims (OGSEarth / LIO MapServer). Unofficial viewing data, not legal title.", "as_of": "2026-09-20", "role": "focus", "color": "#e8b040"}}, {"type": "Feature", "geometry": {"type": "Polygon", "coordinates": [[[-93.6875, 50.7542], [-93.6875, 50.7583], [-93.6938, 50.7583], [-93.6938, 50.7542], [-93.6875, 50.7542]]]}, "properties": {"company_id": "goliath-resources", "jurisdiction": "Ontario", "claim_id": "543037", "claim_name": null, "holder": "(100) Golden Goliath Resources Ltd.", "status": "Active", "recorded_date": "2019-02-21", "anniversary_or_expiry": "2029-02-21", "area_ha": null, "tenure_type": "Single Cell Mining Claim", "source": "Ontario MLAS operational claims (OGSEarth / LIO MapServer). Unofficial viewing data, not legal title.", "as_of": "2026-09-20", "role": "focus", "color": "#e8b040"}}, {"type": "Feature", "geometry": {"type": "Polygon", "coordinates": [[[-93.6813, 50.7542], [-93.6813, 50.7583], [-93.6875, 50.7583], [-93.6875, 50.7542], [-93.6813, 50.7542]]]}, "properties": {"company_id": "goliath-resources", "jurisdiction": "Ontario", "claim_id": "543038", "claim_name": null, "holder": "(100) Golden Goliath Resources Ltd.", "status": "Active", "recorded_date": "2019-02-21", "anniversary_or_expiry": "2029-02-21", "area_ha": null, "tenure_type": "Single Cell Mining Claim", "source": "Ontario MLAS operational claims (OGSEarth / LIO MapServer). Unofficial viewing data, not legal title.", "as_of": "2026-09-20", "role": "focus", "color": "#e8b040"}}, {"type": "Feature", "geometry": {"type": "Polygon", "coordinates": [[[-93.675, 50.7542], [-93.675, 50.7583], [-93.6813, 50.7583], [-93.6813, 50.7542], [-93.675, 50.7542]]]}, "properties": {"company_id": "goliath-resources", "jurisdiction": "Ontario", "claim_id": "543039", "claim_name": null, "holder": "(100) Golden Goliath Resources Ltd.", "status": "Active", "recorded_date": "2019-02-21", "anniversary_or_expiry": "2029-02-21", "area_ha": null, "tenure_type": "Single Cell Mining Claim", "source": "Ontario MLAS operational claims (OGSEarth / LIO MapServer). Unofficial viewing data, not legal title.", "as_of": "2026-09-20", "role": "focus", "color": "#e8b040"}}, {"type": "Feature", "geometry": {"type": "Polygon", "coordinates": [[[-93.6688, 50.7542], [-93.6688, 50.7583], [-93.675, 50.7583], [-93.675, 50.7542], [-93.6688, 50.7542]]]}, "properties": {"company_id": "goliath-resources", "jurisdiction": "Ontario", "claim_id": "543040", "claim_name": null, "holder": "(100) Golden Goliath Resources Ltd.", "status": "Active", "recorded_date": "2019-02-21", "anniversary_or_expiry": "2029-02-21", "area_ha": null, "tenure_type": "Single Cell Mining Claim", "source": "Ontario MLAS operational claims (OGSEarth / LIO MapServer). Unofficial viewing data, not legal title.", "as_of": "2026-09-20", "role": "focus", "color": "#e8b040"}}, {"type": "Feature", "geometry": {"type": "Polygon", "coordinates": [[[-93.6875, 50.7583], [-93.6875, 50.7625], [-93.6938, 50.7625], [-93.6938, 50.7583], [-93.6875, 50.7583]]]}, "properties": {"company_id": "goliath-resources", "jurisdiction": "Ontario", "claim_id": "543041", "claim_name": null, "holder": "(100) Golden Goliath Resources Ltd.", "status": "Active", "recorded_date": "2019-02-21", "anniversary_or_expiry": "2029-02-21", "area_ha": null, "tenure_type": "Single Cell Mining Claim", "source": "Ontario MLAS operational claims (OGSEarth / LIO MapServer). Unofficial viewing data, not legal title.", "as_of": "2026-09-20", "role": "focus", "color": "#e8b040"}}, {"type": "Feature", "geometry": {"type": "Polygon", "coordinates": [[[-93.6813, 50.7583], [-93.6813, 50.7625], [-93.6875, 50.7625], [-93.6875, 50.7583], [-93.6813, 50.7583]]]}, "properties": {"company_id": "goliath-resources", "jurisdiction": "Ontario", "claim_id": "543042", "claim_name": null, "holder": "(100) Golden Goliath Resources Ltd.", "status": "Active", "recorded_date": "2019-02-21", "anniversary_or_expiry": "2029-02-21", "area_ha": null, "tenure_type": "Single Cell Mining Claim", "source": "Ontario MLAS operational claims (OGSEarth / LIO MapServer). Unofficial viewing data, not legal title.", "as_of": "2026-09-20", "role": "focus", "color": "#e8b040"}}, {"type": "Feature", "geometry": {"type": "Polygon", "coordinates": [[[-93.675, 50.7583], [-93.675, 50.7625], [-93.6813, 50.7625], [-93.6813, 50.7583], [-93.675, 50.7583]]]}, "properties": {"company_id": "goliath-resources", "jurisdiction": "Ontario", "claim_id": "543043", "claim_name": null, "holder": "(100) Golden Goliath Resources Ltd.", "status": "Active", "recorded_date": "2019-02-21", "anniversary_or_expiry": "2029-02-21", "area_ha": null, "tenure_type": "Single Cell Mining Claim", "source": "Ontario MLAS operational claims (OGSEarth / LIO MapServer). Unofficial viewing data, not legal title.", "as_of": "2026-09-20", "role": "focus", "color": "#e8b040"}}, {"type": "Feature", "geometry": {"type": "Polygon", "coordinates": [[[-93.6688, 50.7583], [-93.6688, 50.7625], [-93.675, 50.7625], [-93.675, 50.7583], [-93.6688, 50.7583]]]}, "properties": {"company_id": "goliath-resources", "jurisdiction": "Ontario", "claim_id": "543044", "claim_name": null, "holder": "(100) Golden Goliath Resources Ltd.", "status": "Active", "recorded_date": "2019-02-21", "anniversary_or_expiry": "2029-02-21", "area_ha": null, "tenure_type": "Single Cell Mining Claim", "source": "Ontario MLAS operational claims (OGSEarth / LIO MapServer). Unofficial viewing data, not legal title.", "as_of": "2026-09-20", "role": "focus", "color": "#e8b040"}}, {"type": "Feature", "geometry": {"type": "Polygon", "coordinates": [[[-93.6625, 50.7583], [-93.6625, 50.7625], [-93.6688, 50.7625], [-93.6688, 50.7583], [-93.6625, 50.7583]]]}, "properties": {"company_id": "goliath-resources", "jurisdiction": "Ontario", "claim_id": "543045", "claim_name": null, "holder": "(100) Golden Goliath Resources Ltd.", "status": "Active", "recorded_date": "2019-02-21", "anniversary_or_expiry": "2029-02-21", "area_ha": null, "tenure_type": "Single Cell Mining Claim", "source": "Ontario MLAS operational claims (OGSEarth / LIO MapServer). Unofficial viewing data, not legal title.", "as_of": "2026-09-20", "role": "focus", "color": "#e8b040"}}, {"type": "Feature", "geometry": {"type": "Polygon", "coordinates": [[[-93.65, 50.7583], [-93.65, 50.7625], [-93.6563, 50.7625], [-93.6563, 50.7583], [-93.65, 50.7583]]]}, "properties": {"company_id": "goliath-resources", "jurisdiction": "Ontario", "claim_id": "543046", "claim_name": null, "holder": "(100) Golden Goliath Resources Ltd.", "status": "Active", "recorded_date": "2019-02-21", "anniversary_or_expiry": "2029-02-21", "area_ha": null, "tenure_type": "Single Cell Mining Claim", "source": "Ontario MLAS operational claims (OGSEarth / LIO MapServer). Unofficial viewing data, not legal title.", "as_of": "2026-09-20", "role": "focus", "color": "#e8b040"}}, {"type": "Feature", "geometry": {"type": "Polygon", "coordinates": [[[-93.6438, 50.7583], [-93.6438, 50.7625], [-93.65, 50.7625], [-93.65, 50.7583], [-93.6438, 50.7583]]]}, "properties": {"company_id": "goliath-resources", "jurisdiction": "Ontario", "claim_id": "543047", "claim_name": null, "holder": "(100) Golden Goliath Resources Ltd.", "status": "Active", "recorded_date": "2019-02-21", "anniversary_or_expiry": "2029-02-21", "area_ha": null, "tenure_type": "Single Cell Mining Claim", "source": "Ontario MLAS operational claims (OGSEarth / LIO MapServer). Unofficial viewing data, not legal title.", "as_of": "2026-09-20", "role": "focus", "color": "#e8b040"}}, {"type": "Feature", "geometry": {"type": "Polygon", "coordinates": [[[-93.6375, 50.7583], [-93.6375, 50.7625], [-93.6438, 50.7625], [-93.6438, 50.7583], [-93.6375, 50.7583]]]}, "properties": {"company_id": "goliath-resources", "jurisdiction": "Ontario", "claim_id": "543048", "claim_name": null, "holder": "(100) Golden Goliath Resources Ltd.", "status": "Active", "recorded_date": "2019-02-21", "anniversary_or_expiry": "2029-02-21", "area_ha": null, "tenure_type": "Single Cell Mining Claim", "source": "Ontario MLAS operational claims (OGSEarth / LIO MapServer). Unofficial viewing data, not legal title.", "as_of": "2026-09-20", "role": "focus", "color": "#e8b040"}}, {"type": "Feature", "geometry": {"type": "Polygon", "coordinates": [[[-93.6313, 50.7583], [-93.6313, 50.7625], [-93.6375, 50.7625], [-93.6375, 50.7583], [-93.6313, 50.7583]]]}, "properties": {"company_id": "goliath-resources", "jurisdiction": "Ontario", "claim_id": "543049", "claim_name": null, "holder": "(100) Golden Goliath Resources Ltd.", "status": "Active", "recorded_date": "2019-02-21", "anniversary_or_expiry": "2029-02-21", "area_ha": null, "tenure_type": "Single Cell Mining Claim", "source": "Ontario MLAS operational claims (OGSEarth / LIO MapServer). Unofficial viewing data, not legal title.", "as_of": "2026-09-20", "role": "focus", "color": "#e8b040"}}, {"type": "Feature", "geometry": {"type": "Polygon", "coordinates": [[[-93.625, 50.7583], [-93.625, 50.7625], [-93.6313, 50.7625], [-93.6313, 50.7583], [-93.625, 50.7583]]]}, "properties": {"company_id": "goliath-resources", "jurisdiction": "Ontario", "claim_id": "543050", "claim_name": null, "holder": "(100) Golden Goliath Resources Ltd.", "status": "Active", "recorded_date": "2019-02-21", "anniversary_or_expiry": "2029-02-21", "area_ha": null, "tenure_type": "Single Cell Mining Claim", "source": "Ontario MLAS operational claims (OGSEarth / LIO MapServer). Unofficial viewing data, not legal title.", "as_of": "2026-09-20", "role": "focus", "color": "#e8b040"}}, {"type": "Feature", "geometry": {"type": "Polygon", "coordinates": [[[-93.6438, 50.7542], [-93.6438, 50.7583], [-93.65, 50.7583], [-93.65, 50.7542], [-93.6438, 50.7542]]]}, "properties": {"company_id": "goliath-resources", "jurisdiction": "Ontario", "claim_id": "543051", "claim_name": null, "holder": "(100) Golden Goliath Resources Ltd.", "status": "Active", "recorded_date": "2019-02-21", "anniversary_or_expiry": "2029-02-21", "area_ha": null, "tenure_type": "Single Cell Mining Claim", "source": "Ontario MLAS operational claims (OGSEarth / LIO MapServer). Unofficial viewing data, not legal title.", "as_of": "2026-09-20", "role": "focus", "color": "#e8b040"}}, {"type": "Feature", "geometry": {"type": "Polygon", "coordinates": [[[-93.6375, 50.7542], [-93.6375, 50.7583], [-93.6438, 50.7583], [-93.6438, 50.7542], [-93.6375, 50.7542]]]}, "properties": {"company_id": "goliath-resources", "jurisdiction": "Ontario", "claim_id": "543052", "claim_name": null, "holder": "(100) Golden Goliath Resources Ltd.", "status": "Active", "recorded_date": "2019-02-21", "anniversary_or_expiry": "2029-02-21", "area_ha": null, "tenure_type": "Single Cell Mining Claim", "source": "Ontario MLAS operational claims (OGSEarth / LIO MapServer). Unofficial viewing data, not legal title.", "as_of": "2026-09-20", "role": "focus", "color": "#e8b040"}}, {"type": "Feature", "geometry": {"type": "Polygon", "coordinates": [[[-93.6313, 50.7542], [-93.6313, 50.7583], [-93.6375, 50.7583], [-93.6375, 50.7542], [-93.6313, 50.7542]]]}, "properties": {"company_id": "goliath-resources", "jurisdiction": "Ontario", "claim_id": "543053", "claim_name": null, "holder": "(100) Golden Goliath Resources Ltd.", "status": "Active", "recorded_date": "2019-02-21", "anniversary_or_expiry": "2029-02-21", "area_ha": null, "tenure_type": "Single Cell Mining Claim", "source": "Ontario MLAS operational claims (OGSEarth / LIO MapServer). Unofficial viewing data, not legal title.", "as_of": "2026-09-20", "role": "focus", "color": "#e8b040"}}, {"type": "Feature", "geometry": {"type": "Polygon", "coordinates": [[[-93.625, 50.7542], [-93.625, 50.7583], [-93.6313, 50.7583], [-93.6313, 50.7542], [-93.625, 50.7542]]]}, "properties": {"company_id": "goliath-resources", "jurisdiction": "Ontario", "claim_id": "543054", "claim_name": null, "holder": "(100) Golden Goliath Resources Ltd.", "status": "Active", "recorded_date": "2019-02-21", "anniversary_or_expiry": "2029-02-21", "area_ha": null, "tenure_type": "Single Cell Mining Claim", "source": "Ontario MLAS operational claims (OGSEarth / LIO MapServer). Unofficial viewing data, not legal title.", "as_of": "2026-09-20", "role": "focus", "color": "#e8b040"}}, {"type": "Feature", "geometry": {"type": "Polygon", "coordinates": [[[-93.6438, 50.75], [-93.6438, 50.7542], [-93.65, 50.7542], [-93.65, 50.75], [-93.6438, 50.75]]]}, "properties": {"company_id": "goliath-resources", "jurisdiction": "Ontario", "claim_id": "543055", "claim_name": null, "holder": "(100) Golden Goliath Resources Ltd.", "status": "Active", "recorded_date": "2019-02-21", "anniversary_or_expiry": "2029-02-21", "area_ha": null, "tenure_type": "Single Cell Mining Claim", "source": "Ontario MLAS operational claims (OGSEarth / LIO MapServer). Unofficial viewing data, not legal title.", "as_of": "2026-09-20", "role": "focus", "color": "#e8b040"}}, {"type": "Feature", "geometry": {"type": "Polygon", "coordinates": [[[-93.6375, 50.75], [-93.6375, 50.7542], [-93.6438, 50.7542], [-93.6438, 50.75], [-93.6375, 50.75]]]}, "properties": {"company_id": "goliath-resources", "jurisdiction": "Ontario", "claim_id": "543056", "claim_name": null, "holder": "(100) Golden Goliath Resources Ltd.", "status": "Active", "recorded_date": "2019-02-21", "anniversary_or_expiry": "2029-02-21", "area_ha": null, "tenure_type": "Single Cell Mining Claim", "source": "Ontario MLAS operational claims (OGSEarth / LIO MapServer). Unofficial viewing data, not legal title.", "as_of": "2026-09-20", "role": "focus", "color": "#e8b040"}}, {"type": "Feature", "geometry": {"type": "Polygon", "coordinates": [[[-93.6313, 50.75], [-93.6313, 50.7542], [-93.6375, 50.7542], [-93.6375, 50.75], [-93.6313, 50.75]]]}, "properties": {"company_id": "goliath-resources", "jurisdiction": "Ontario", "claim_id": "543057", "claim_name": null, "holder": "(100) Golden Goliath Resources Ltd.", "status": "Active", "recorded_date": "2019-02-21", "anniversary_or_expiry": "2029-02-21", "area_ha": null, "tenure_type": "Single Cell Mining Claim", "source": "Ontario MLAS operational claims (OGSEarth / LIO MapServer). Unofficial viewing data, not legal title.", "as_of": "2026-09-20", "role": "focus", "color": "#e8b040"}}, {"type": "Feature", "geometry": {"type": "Polygon", "coordinates": [[[-93.625, 50.75], [-93.625, 50.7542], [-93.6313, 50.7542], [-93.6313, 50.75], [-93.625, 50.75]]]}, "properties": {"company_id": "goliath-resources", "jurisdiction": "Ontario", "claim_id": "543058", "claim_name": null, "holder": "(100) Golden Goliath Resources Ltd.", "status": "Active", "recorded_date": "2019-02-21", "anniversary_or_expiry": "2029-02-21", "area_ha": null, "tenure_type": "Single Cell Mining Claim", "source": "Ontario MLAS operational claims (OGSEarth / LIO MapServer). Unofficial viewing data, not legal title.", "as_of": "2026-09-20", "role": "focus", "color": "#e8b040"}}, {"type": "Feature", "geometry": {"type": "Polygon", "coordinates": [[[-93.6625, 50.7625], [-93.6625, 50.7667], [-93.6688, 50.7667], [-93.6688, 50.7625], [-93.6625, 50.7625]]]}, "properties": {"company_id": "goliath-resources", "jurisdiction": "Ontario", "claim_id": "543059", "claim_name": null, "holder": "(100) Golden Goliath Resources Ltd.", "status": "Active", "recorded_date": "2019-02-21", "anniversary_or_expiry": "2029-02-21", "area_ha": null, "tenure_type": "Single Cell Mining Claim", "source": "Ontario MLAS operational claims (OGSEarth / LIO MapServer). Unofficial viewing data, not legal title.", "as_of": "2026-09-20", "role": "focus", "color": "#e8b040"}}, {"type": "Feature", "geometry": {"type": "Polygon", "coordinates": [[[-93.6563, 50.7625], [-93.6563, 50.7667], [-93.6625, 50.7667], [-93.6625, 50.7625], [-93.6563, 50.7625]]]}, "properties": {"company_id": "goliath-resources", "jurisdiction": "Ontario", "claim_id": "543060", "claim_name": null, "holder": "(100) Golden Goliath Resources Ltd.", "status": "Active", "recorded_date": "2019-02-21", "anniversary_or_expiry": "2029-02-21", "area_ha": null, "tenure_type": "Single Cell Mining Claim", "source": "Ontario MLAS operational claims (OGSEarth / LIO MapServer). Unofficial viewing data, not legal title.", "as_of": "2026-09-20", "role": "focus", "color": "#e8b040"}}, {"type": "Feature", "geometry": {"type": "Polygon", "coordinates": [[[-93.65, 50.7625], [-93.65, 50.7667], [-93.6563, 50.7667], [-93.6563, 50.7625], [-93.65, 50.7625]]]}, "properties": {"company_id": "goliath-resources", "jurisdiction": "Ontario", "claim_id": "543061", "claim_name": null, "holder": "(100) Golden Goliath Resources Ltd.", "status": "Active", "recorded_date": "2019-02-21", "anniversary_or_expiry": "2029-02-21", "area_ha": null, "tenure_type": "Single Cell Mining Claim", "source": "Ontario MLAS operational claims (OGSEarth / LIO MapServer). Unofficial viewing data, not legal title.", "as_of": "2026-09-20", "role": "focus", "color": "#e8b040"}}, {"type": "Feature", "geometry": {"type": "Polygon", "coordinates": [[[-93.6438, 50.7625], [-93.6438, 50.7667], [-93.65, 50.7667], [-93.65, 50.7625], [-93.6438, 50.7625]]]}, "properties": {"company_id": "goliath-resources", "jurisdiction": "Ontario", "claim_id": "543062", "claim_name": null, "holder": "(100) Golden Goliath Resources Ltd.", "status": "Active", "recorded_date": "2019-02-21", "anniversary_or_expiry": "2029-02-21", "area_ha": null, "tenure_type": "Single Cell Mining Claim", "source": "Ontario MLAS operational claims (OGSEarth / LIO MapServer). Unofficial viewing data, not legal title.", "as_of": "2026-09-20", "role": "focus", "color": "#e8b040"}}, {"type": "Feature", "geometry": {"type": "Polygon", "coordinates": [[[-84.5125, 46.9958], [-84.5125, 46.9917], [-84.4938, 46.9917], [-84.4938, 47.0], [-84.5125, 47.0], [-84.5125, 46.9958]]]}, "properties": {"company_id": "goliath-resources", "jurisdiction": "Ontario", "claim_id": "546371", "claim_name": null, "holder": "(100) Golden Goliath Resources Ltd.", "status": "Active", "recorded_date": "2019-03-26", "anniversary_or_expiry": "2029-04-10", "area_ha": null, "tenure_type": "Multi-cell Mining Claim", "source": "Ontario MLAS operational claims (OGSEarth / LIO MapServer). Unofficial viewing data, not legal title.", "as_of": "2026-09-20", "role": "focus", "color": "#e8b040"}}, {"type": "Feature", "geometry": {"type": "Polygon", "coordinates": [[[-84.5063, 47.0042], [-84.5063, 47.0], [-84.4938, 47.0], [-84.4938, 47.0167], [-84.5, 47.0167], [-84.5, 47.0083], [-84.5063, 47.0083], [-84.5063, 47.0042]]]}, "properties": {"company_id": "goliath-resources", "jurisdiction": "Ontario", "claim_id": "546372", "claim_name": null, "holder": "(100) Golden Goliath Resources Ltd.", "status": "Active", "recorded_date": "2019-03-26", "anniversary_or_expiry": "2029-01-10", "area_ha": null, "tenure_type": "Multi-cell Mining Claim", "source": "Ontario MLAS operational claims (OGSEarth / LIO MapServer). Unofficial viewing data, not legal title.", "as_of": "2026-09-20", "role": "focus", "color": "#e8b040"}}, {"type": "Feature", "geometry": {"type": "Polygon", "coordinates": [[[-84.4938, 47.0083], [-84.4938, 47.0042], [-84.4813, 47.0042], [-84.4813, 47.0167], [-84.4938, 47.0167], [-84.4938, 47.0083]]]}, "properties": {"company_id": "goliath-resources", "jurisdiction": "Ontario", "claim_id": "546373", "claim_name": null, "holder": "(100) Golden Goliath Resources Ltd.", "status": "Active", "recorded_date": "2019-03-26", "anniversary_or_expiry": "2029-01-10", "area_ha": null, "tenure_type": "Multi-cell Mining Claim", "source": "Ontario MLAS operational claims (OGSEarth / LIO MapServer). Unofficial viewing data, not legal title.", "as_of": "2026-09-20", "role": "focus", "color": "#e8b040"}}, {"type": "Feature", "geometry": {"type": "Polygon", "coordinates": [[[-84.4813, 47.0042], [-84.4813, 47.0], [-84.4625, 47.0], [-84.4625, 47.0083], [-84.4813, 47.0083], [-84.4813, 47.0042]]]}, "properties": {"company_id": "goliath-resources", "jurisdiction": "Ontario", "claim_id": "546374", "claim_name": null, "holder": "(100) Golden Goliath Resources Ltd.", "status": "Active", "recorded_date": "2019-03-26", "anniversary_or_expiry": "2029-01-10", "area_ha": null, "tenure_type": "Multi-cell Mining Claim", "source": "Ontario MLAS operational claims (OGSEarth / LIO MapServer). Unofficial viewing data, not legal title.", "as_of": "2026-09-20", "role": "focus", "color": "#e8b040"}}, {"type": "Feature", "geometry": {"type": "Polygon", "coordinates": [[[-84.475, 47.0167], [-84.4563, 47.0167], [-84.4563, 47.0292], [-84.4625, 47.0292], [-84.4625, 47.0208], [-84.4813, 47.0208], [-84.4813, 47.0167], [-84.475, 47.0167]]]}, "properties": {"company_id": "goliath-resources", "jurisdiction": "Ontario", "claim_id": "546375", "claim_name": null, "holder": "(100) Golden Goliath Resources Ltd.", "status": "Active", "recorded_date": "2019-03-26", "anniversary_or_expiry": "2029-01-10", "area_ha": null, "tenure_type": "Multi-cell Mining Claim", "source": "Ontario MLAS operational claims (OGSEarth / LIO MapServer). Unofficial viewing data, not legal title.", "as_of": "2026-09-20", "role": "focus", "color": "#e8b040"}}, {"type": "Feature", "geometry": {"type": "Polygon", "coordinates": [[[-84.4813, 47.0125], [-84.4813, 47.0083], [-84.4625, 47.0083], [-84.4625, 47.0167], [-84.4813, 47.0167], [-84.4813, 47.0125]]]}, "properties": {"company_id": "goliath-resources", "jurisdiction": "Ontario", "claim_id": "546376", "claim_name": null, "holder": "(100) Golden Goliath Resources Ltd.", "status": "Active", "recorded_date": "2019-03-26", "anniversary_or_expiry": "2029-01-10", "area_ha": null, "tenure_type": "Multi-cell Mining Claim", "source": "Ontario MLAS operational claims (OGSEarth / LIO MapServer). Unofficial viewing data, not legal title.", "as_of": "2026-09-20", "role": "focus", "color": "#e8b040"}}, {"type": "Feature", "geometry": {"type": "Polygon", "coordinates": [[[-84.4625, 47.0083], [-84.4625, 47.0042], [-84.4563, 47.0042], [-84.4563, 47.0083], [-84.45, 47.0083], [-84.45, 47.0208], [-84.4563, 47.0208], [-84.4563, 47.0167], [-84.4625, 47.0167], [-84.4625, 47.0083]]]}, "properties": {"company_id": "goliath-resources", "jurisdiction": "Ontario", "claim_id": "546377", "claim_name": null, "holder": "(100) Golden Goliath Resources Ltd.", "status": "Active", "recorded_date": "2019-03-26", "anniversary_or_expiry": "2029-01-10", "area_ha": null, "tenure_type": "Multi-cell Mining Claim", "source": "Ontario MLAS operational claims (OGSEarth / LIO MapServer). Unofficial viewing data, not legal title.", "as_of": "2026-09-20", "role": "focus", "color": "#e8b040"}}, {"type": "Feature", "geometry": {"type": "Polygon", "coordinates": [[[-84.4563, 47.025], [-84.4563, 47.0208], [-84.4375, 47.0208], [-84.4375, 47.0292], [-84.4563, 47.0292], [-84.4563, 47.025]]]}, "properties": {"company_id": "goliath-resources", "jurisdiction": "Ontario", "claim_id": "546378", "claim_name": null, "holder": "(100) Golden Goliath Resources Ltd.", "status": "Active", "recorded_date": "2019-03-26", "anniversary_or_expiry": "2029-01-10", "area_ha": null, "tenure_type": "Multi-cell Mining Claim", "source": "Ontario MLAS operational claims (OGSEarth / LIO MapServer). Unofficial viewing data, not legal title.", "as_of": "2026-09-20", "role": "focus", "color": "#e8b040"}}, {"type": "Feature", "geometry": {"type": "Polygon", "coordinates": [[[-84.45, 47.0125], [-84.45, 47.0083], [-84.4375, 47.0083], [-84.4375, 47.0208], [-84.45, 47.0208], [-84.45, 47.0125]]]}, "properties": {"company_id": "goliath-resources", "jurisdiction": "Ontario", "claim_id": "546379", "claim_name": null, "holder": "(100) Golden Goliath Resources Ltd.", "status": "Active", "recorded_date": "2019-03-26", "anniversary_or_expiry": "2029-01-10", "area_ha": null, "tenure_type": "Multi-cell Mining Claim", "source": "Ontario MLAS operational claims (OGSEarth / LIO MapServer). Unofficial viewing data, not legal title.", "as_of": "2026-09-20", "role": "focus", "color": "#e8b040"}}, {"type": "Feature", "geometry": {"type": "Polygon", "coordinates": [[[-84.4375, 47.0208], [-84.4375, 47.0167], [-84.425, 47.0167], [-84.425, 47.0292], [-84.4375, 47.0292], [-84.4375, 47.0208]]]}, "properties": {"company_id": "goliath-resources", "jurisdiction": "Ontario", "claim_id": "546380", "claim_name": null, "holder": "(100) Golden Goliath Resources Ltd.", "status": "Active", "recorded_date": "2019-03-26", "anniversary_or_expiry": "2029-04-10", "area_ha": null, "tenure_type": "Multi-cell Mining Claim", "source": "Ontario MLAS operational claims (OGSEarth / LIO MapServer). Unofficial viewing data, not legal title.", "as_of": "2026-09-20", "role": "focus", "color": "#e8b040"}}, {"type": "Feature", "geometry": {"type": "Polygon", "coordinates": [[[-84.425, 47.0208], [-84.425, 47.0167], [-84.4125, 47.0167], [-84.4125, 47.0292], [-84.425, 47.0292], [-84.425, 47.0208]]]}, "properties": {"company_id": "goliath-resources", "jurisdiction": "Ontario", "claim_id": "546381", "claim_name": null, "holder": "(100) Golden Goliath Resources Ltd.", "status": "Active", "recorded_date": "2019-03-26", "anniversary_or_expiry": "2029-04-10", "area_ha": null, "tenure_type": "Multi-cell Mining Claim", "source": "Ontario MLAS operational claims (OGSEarth / LIO MapServer). Unofficial viewing data, not legal title.", "as_of": "2026-09-20", "role": "focus", "color": "#e8b040"}}, {"type": "Feature", "geometry": {"type": "Polygon", "coordinates": [[[-84.4125, 47.0208], [-84.4125, 47.0167], [-84.4, 47.0167], [-84.4, 47.0292], [-84.4125, 47.0292], [-84.4125, 47.0208]]]}, "properties": {"company_id": "goliath-resources", "jurisdiction": "Ontario", "claim_id": "546382", "claim_name": null, "holder": "(100) Golden Goliath Resources Ltd.", "status": "Active", "recorded_date": "2019-03-26", "anniversary_or_expiry": "2029-04-10", "area_ha": null, "tenure_type": "Multi-cell Mining Claim", "source": "Ontario MLAS operational claims (OGSEarth / LIO MapServer). Unofficial viewing data, not legal title.", "as_of": "2026-09-20", "role": "focus", "color": "#e8b040"}}, {"type": "Feature", "geometry": {"type": "Polygon", "coordinates": [[[-84.4938, 46.9958], [-84.4938, 46.9917], [-84.4813, 46.9917], [-84.4813, 47.0042], [-84.4938, 47.0042], [-84.4938, 46.9958]]]}, "properties": {"company_id": "goliath-resources", "jurisdiction": "Ontario", "claim_id": "546465", "claim_name": null, "holder": "(100) Golden Goliath Resources Ltd.", "status": "Active", "recorded_date": "2019-03-29", "anniversary_or_expiry": "2029-01-10", "area_ha": null, "tenure_type": "Multi-cell Mining Claim", "source": "Ontario MLAS operational claims (OGSEarth / LIO MapServer). Unofficial viewing data, not legal title.", "as_of": "2026-09-20", "role": "focus", "color": "#e8b040"}}, {"type": "Feature", "geometry": {"type": "Polygon", "coordinates": [[[-93.6188, 50.7375], [-93.6188, 50.7417], [-93.625, 50.7417], [-93.625, 50.7375], [-93.6188, 50.7375]]]}, "properties": {"company_id": "goliath-resources", "jurisdiction": "Ontario", "claim_id": "550494", "claim_name": null, "holder": "(100) Golden Goliath Resources Ltd.", "status": "Active", "recorded_date": "2019-05-29", "anniversary_or_expiry": "2028-05-29", "area_ha": null, "tenure_type": "Single Cell Mining Claim", "source": "Ontario MLAS operational claims (OGSEarth / LIO MapServer). Unofficial viewing data, not legal title.", "as_of": "2026-09-20", "role": "focus", "color": "#e8b040"}}, {"type": "Feature", "geometry": {"type": "Polygon", "coordinates": [[[-93.6125, 50.7375], [-93.6125, 50.7417], [-93.6188, 50.7417], [-93.6188, 50.7375], [-93.6125, 50.7375]]]}, "properties": {"company_id": "goliath-resources", "jurisdiction": "Ontario", "claim_id": "550495", "claim_name": null, "holder": "(100) Golden Goliath Resources Ltd.", "status": "Active", "recorded_date": "2019-05-29", "anniversary_or_expiry": "2028-05-29", "area_ha": null, "tenure_type": "Single Cell Mining Claim", "source": "Ontario MLAS operational claims (OGSEarth / LIO MapServer). Unofficial viewing data, not legal title.", "as_of": "2026-09-20", "role": "focus", "color": "#e8b040"}}, {"type": "Feature", "geometry": {"type": "Polygon", "coordinates": [[[-93.6188, 50.7333], [-93.6188, 50.7375], [-93.625, 50.7375], [-93.625, 50.7333], [-93.6188, 50.7333]]]}, "properties": {"company_id": "goliath-resources", "jurisdiction": "Ontario", "claim_id": "550496", "claim_name": null, "holder": "(100) Golden Goliath Resources Ltd.", "status": "Active", "recorded_date": "2019-05-29", "anniversary_or_expiry": "2028-05-29", "area_ha": null, "tenure_type": "Single Cell Mining Claim", "source": "Ontario MLAS operational claims (OGSEarth / LIO MapServer). Unofficial viewing data, not legal title.", "as_of": "2026-09-20", "role": "focus", "color": "#e8b040"}}, {"type": "Feature", "geometry": {"type": "Polygon", "coordinates": [[[-93.6063, 50.7417], [-93.6063, 50.7458], [-93.6125, 50.7458], [-93.6125, 50.7417], [-93.6063, 50.7417]]]}, "properties": {"company_id": "goliath-resources", "jurisdiction": "Ontario", "claim_id": "550497", "claim_name": null, "holder": "(100) Golden Goliath Resources Ltd.", "status": "Active", "recorded_date": "2019-05-29", "anniversary_or_expiry": "2028-05-29", "area_ha": null, "tenure_type": "Single Cell Mining Claim", "source": "Ontario MLAS operational claims (OGSEarth / LIO MapServer). Unofficial viewing data, not legal title.", "as_of": "2026-09-20", "role": "focus", "color": "#e8b040"}}, {"type": "Feature", "geometry": {"type": "Polygon", "coordinates": [[[-84.4, 47.0208], [-84.4, 47.0167], [-84.3938, 47.0167], [-84.3938, 47.0208], [-84.3625, 47.0208], [-84.3625, 47.0375], [-84.3813, 47.0375], [-84.3813, 47.0333], [-84.4063, 47.0333], [-84.4063, 47.0292], [-84.4, 47.0292], [-84.4, 47.0208]]]}, "properties": {"company_id": "goliath-resources", "jurisdiction": "Ontario", "claim_id": "559558", "claim_name": null, "holder": "(100) Golden Goliath Resources Ltd.", "status": "Active", "recorded_date": "2019-09-23", "anniversary_or_expiry": "2029-09-23", "area_ha": null, "tenure_type": "Multi-cell Mining Claim", "source": "Ontario MLAS operational claims (OGSEarth / LIO MapServer). Unofficial viewing data, not legal title.", "as_of": "2026-09-20", "role": "focus", "color": "#e8b040"}}, {"type": "Feature", "geometry": {"type": "Polygon", "coordinates": [[[-84.4313, 47.0125], [-84.425, 47.0125], [-84.425, 47.0167], [-84.4375, 47.0167], [-84.4375, 47.0125], [-84.4313, 47.0125]]]}, "properties": {"company_id": "goliath-resources", "jurisdiction": "Ontario", "claim_id": "559559", "claim_name": null, "holder": "(100) Golden Goliath Resources Ltd.", "status": "Active", "recorded_date": "2019-09-23", "anniversary_or_expiry": "2029-09-23", "area_ha": null, "tenure_type": "Multi-cell Mining Claim", "source": "Ontario MLAS operational claims (OGSEarth / LIO MapServer). Unofficial viewing data, not legal title.", "as_of": "2026-09-20", "role": "focus", "color": "#e8b040"}}]}