{"type": "FeatureCollection", "features": [{"type": "Feature", "geometry": {"type": "Polygon", "coordinates": [[[-123.5004, 50.6792], [-123.4999, 50.6833], [-123.5168, 50.6841], [-123.5174, 50.6797], [-123.5004, 50.6792]]]}, "properties": {"company_id": "great-pacific-gold", "jurisdiction": "British Columbia", "claim_id": 333936, "claim_name": null, "holder": "GREAT PACIFIC PUMICE INC.", "status": "Mineral", "recorded_date": "8012736000", "anniversary_or_expiry": "2026-05-24", "area_ha": 60, "tenure_type": "Mineral", "source": "BC MTA Mineral, Placer and Coal Tenure Spatial View (BCGW). Open Government Licence - British Columbia. Not legal title.", "as_of": "2026-09-20", "role": "focus", "color": "#e8b040"}}, {"type": "Feature", "geometry": {"type": "Polygon", "coordinates": [[[-123.4023, 50.6232], [-123.4007, 50.6241], [-123.4045, 50.6267], [-123.4061, 50.6258], [-123.4023, 50.6232]]]}, "properties": {"company_id": "great-pacific-gold", "jurisdiction": "British Columbia", "claim_id": 333937, "claim_name": null, "holder": "GREAT PACIFIC PUMICE INC.", "status": "Mineral", "recorded_date": "8017056000", "anniversary_or_expiry": "2026-05-29", "area_ha": 6, "tenure_type": "Mineral", "source": "BC MTA Mineral, Placer and Coal Tenure Spatial View (BCGW). Open Government Licence - British Columbia. Not legal title.", "as_of": "2026-09-20", "role": "focus", "color": "#e8b040"}}, {"type": "Feature", "geometry": {"type": "Polygon", "coordinates": [[[-123.1346, 49.7243], [-123.1316, 49.7243], [-123.1316, 49.7269], [-123.1346, 49.7269], [-123.1346, 49.7243]]]}, "properties": {"company_id": "great-pacific-gold", "jurisdiction": "British Columbia", "claim_id": 356249, "claim_name": null, "holder": "GREAT PACIFIC PUMICE INC.", "status": "Mineral", "recorded_date": "8901792000", "anniversary_or_expiry": "2026-03-18", "area_ha": 6.73, "tenure_type": "Mineral", "source": "BC MTA Mineral, Placer and Coal Tenure Spatial View (BCGW). Open Government Licence - British Columbia. Not legal title.", "as_of": "2026-09-20", "role": "focus", "color": "#e8b040"}}]}