{"type": "FeatureCollection", "features": [{"type": "Feature", "geometry": {"type": "Polygon", "coordinates": [[[-129.2481, 58.4478], [-129.2559, 58.4478], [-129.2559, 58.4437], [-129.2481, 58.4437], [-129.2481, 58.4478]]]}, "properties": {"company_id": "green-shift", "jurisdiction": "British Columbia", "claim_id": 222732, "claim_name": "MARMOT 1", "holder": "GREENROCK EXPLORATIONS LTD.", "status": "Mineral", "recorded_date": "5519232000", "anniversary_or_expiry": "2025-04-01", "area_ha": 25, "tenure_type": "Mineral", "source": "BC MTA Mineral, Placer and Coal Tenure Spatial View (BCGW). Open Government Licence - British Columbia. Not legal title.", "as_of": "2026-09-20", "role": "focus", "color": "#e8b040"}}, {"type": "Feature", "geometry": {"type": "Polygon", "coordinates": [[[-129.2638, 58.4437], [-129.2716, 58.4437], [-129.2716, 58.4396], [-129.2638, 58.4396], [-129.2638, 58.4437]]]}, "properties": {"company_id": "green-shift", "jurisdiction": "British Columbia", "claim_id": 223089, "claim_name": "MARMOT 8", "holder": "GREENROCK EXPLORATIONS LTD.", "status": "Mineral", "recorded_date": "5834592000", "anniversary_or_expiry": "2024-04-01", "area_ha": 25, "tenure_type": "Mineral", "source": "BC MTA Mineral, Placer and Coal Tenure Spatial View (BCGW). Open Government Licence - British Columbia. Not legal title.", "as_of": "2026-09-20", "role": "focus", "color": "#e8b040"}}, {"type": "Feature", "geometry": {"type": "Polygon", "coordinates": [[[-120.5622, 49.3444], [-120.5626, 49.3425], [-120.5649, 49.3427], [-120.5672, 49.3368], [-120.5657, 49.3402], [-120.5607, 49.3392], [-120.5592, 49.3411], [-120.5597, 49.3414], [-120.5588, 49.3421], [-120.5622, 49.3444]]]}, "properties": {"company_id": "green-shift", "jurisdiction": "British Columbia", "claim_id": 250154, "claim_name": null, "holder": "ENVIROGREEN TECHNOLOGIES LTD", "status": "Mineral", "recorded_date": "3983040000", "anniversary_or_expiry": "2022-04-07", "area_ha": 16.42, "tenure_type": "Mineral", "source": "BC MTA Mineral, Placer and Coal Tenure Spatial View (BCGW). Open Government Licence - British Columbia. Not legal title.", "as_of": "2026-09-20", "role": "focus", "color": "#e8b040"}}, {"type": "Feature", "geometry": {"type": "Polygon", "coordinates": [[[-120.5622, 49.3444], [-120.5633, 49.3451], [-120.5622, 49.3465], [-120.5685, 49.3471], [-120.5694, 49.343], [-120.5626, 49.3425], [-120.5622, 49.3444]]]}, "properties": {"company_id": "green-shift", "jurisdiction": "British Columbia", "claim_id": 250160, "claim_name": "MAY #2", "holder": "ENVIROGREEN TECHNOLOGIES LTD", "status": "Mineral", "recorded_date": "-277171200", "anniversary_or_expiry": "2025-04-26", "area_ha": 25, "tenure_type": "Mineral", "source": "BC MTA Mineral, Placer and Coal Tenure Spatial View (BCGW). Open Government Licence - British Columbia. Not legal title.", "as_of": "2026-09-20", "role": "focus", "color": "#e8b040"}}, {"type": "Feature", "geometry": {"type": "Polygon", "coordinates": [[[-120.5614, 49.3526], [-120.5563, 49.3536], [-120.5584, 49.3575], [-120.564, 49.3564], [-120.5623, 49.3524], [-120.5614, 49.3526]]]}, "properties": {"company_id": "green-shift", "jurisdiction": "British Columbia", "claim_id": 250162, "claim_name": "RAY NO. 1", "holder": "ENVIROGREEN TECHNOLOGIES LTD", "status": "Mineral", "recorded_date": "-258249600", "anniversary_or_expiry": "2025-04-26", "area_ha": 25, "tenure_type": "Mineral", "source": "BC MTA Mineral, Placer and Coal Tenure Spatial View (BCGW). Open Government Licence - British Columbia. Not legal title.", "as_of": "2026-09-20", "role": "focus", "color": "#e8b040"}}, {"type": "Feature", "geometry": {"type": "Polygon", "coordinates": [[[-120.5652, 49.3519], [-120.5623, 49.3524], [-120.564, 49.3564], [-120.5702, 49.3552], [-120.5683, 49.3512], [-120.5652, 49.3519]]]}, "properties": {"company_id": "green-shift", "jurisdiction": "British Columbia", "claim_id": 250163, "claim_name": "RAY NO. 2", "holder": "ENVIROGREEN TECHNOLOGIES LTD", "status": "Mineral", "recorded_date": "-258249600", "anniversary_or_expiry": "2025-04-26", "area_ha": 25, "tenure_type": "Mineral", "source": "BC MTA Mineral, Placer and Coal Tenure Spatial View (BCGW). Open Government Licence - British Columbia. Not legal title.", "as_of": "2026-09-20", "role": "focus", "color": "#e8b040"}}, {"type": "Feature", "geometry": {"type": "Polygon", "coordinates": [[[-120.5674, 49.3364], [-120.5659, 49.3402], [-120.5698, 49.3408], [-120.5695, 49.3365], [-120.5674, 49.3364]]]}, "properties": {"company_id": "green-shift", "jurisdiction": "British Columbia", "claim_id": 250183, "claim_name": "\"E.M.\" NO.3", "holder": "ENVIROGREEN TECHNOLOGIES LTD", "status": "Mineral", "recorded_date": "-159321600", "anniversary_or_expiry": "2025-04-26", "area_ha": 25, "tenure_type": "Mineral", "source": "BC MTA Mineral, Placer and Coal Tenure Spatial View (BCGW). Open Government Licence - British Columbia. Not legal title.", "as_of": "2026-09-20", "role": "focus", "color": "#e8b040"}}, {"type": "Feature", "geometry": {"type": "Polygon", "coordinates": [[[-120.5659, 49.3402], [-120.565, 49.3426], [-120.5694, 49.343], [-120.569, 49.3449], [-120.5695, 49.345], [-120.5698, 49.3408], [-120.5659, 49.3402]]]}, "properties": {"company_id": "green-shift", "jurisdiction": "British Columbia", "claim_id": 250184, "claim_name": "\"E.M.\" NO.4", "holder": "ENVIROGREEN TECHNOLOGIES LTD", "status": "Mineral", "recorded_date": "-159321600", "anniversary_or_expiry": "2025-04-26", "area_ha": 25, "tenure_type": "Mineral", "source": "BC MTA Mineral, Placer and Coal Tenure Spatial View (BCGW). Open Government Licence - British Columbia. Not legal title.", "as_of": "2026-09-20", "role": "focus", "color": "#e8b040"}}, {"type": "Feature", "geometry": {"type": "Polygon", "coordinates": [[[-129.2893, 58.4498], [-129.283, 58.4498], [-129.283, 58.4539], [-129.2955, 58.4539], [-129.2955, 58.4498], [-129.2893, 58.4498]]]}, "properties": {"company_id": "green-shift", "jurisdiction": "British Columbia", "claim_id": 1017243, "claim_name": "838882rema", "holder": "GREENROCK EXPLORATIONS LTD.", "status": "Mineral", "recorded_date": "2010-11-24", "anniversary_or_expiry": "2022-04-01", "area_ha": 33.8735, "tenure_type": "Mineral", "source": "BC MTA Mineral, Placer and Coal Tenure Spatial View (BCGW). Open Government Licence - British Columbia. Not legal title.", "as_of": "2026-09-20", "role": "focus", "color": "#e8b040"}}, {"type": "Feature", "geometry": {"type": "Polygon", "coordinates": [[[-129.2518, 58.4081], [-129.2518, 58.4039], [-129.2455, 58.4039], [-129.2455, 58.4206], [-129.233, 58.4206], [-129.233, 58.4373], [-129.2393, 58.4373], [-129.2393, 58.4248], [-129.2518, 58.4248], [-129.2518, 58.4081]]]}, "properties": {"company_id": "green-shift", "jurisdiction": "British Columbia", "claim_id": 1017245, "claim_name": "838882rema2", "holder": "GREENROCK EXPLORATIONS LTD.", "status": "Mineral", "recorded_date": "2010-11-24", "anniversary_or_expiry": "2020-04-01", "area_ha": 169.5156, "tenure_type": "Mineral", "source": "BC MTA Mineral, Placer and Coal Tenure Spatial View (BCGW). Open Government Licence - British Columbia. Not legal title.", "as_of": "2026-09-20", "role": "focus", "color": "#e8b040"}}, {"type": "Feature", "geometry": {"type": "Polygon", "coordinates": [[[-129.2455, 58.4414], [-129.2455, 58.4456], [-129.2518, 58.4456], [-129.2518, 58.4414], [-129.2455, 58.4414]]]}, "properties": {"company_id": "green-shift", "jurisdiction": "British Columbia", "claim_id": 1017246, "claim_name": "SD510710", "holder": "GREENROCK EXPLORATIONS LTD.", "status": "Mineral", "recorded_date": "2005-04-04", "anniversary_or_expiry": "2024-04-01", "area_ha": 16.941000000000003, "tenure_type": "Mineral", "source": "BC MTA Mineral, Placer and Coal Tenure Spatial View (BCGW). Open Government Licence - British Columbia. Not legal title.", "as_of": "2026-09-20", "role": "focus", "color": "#e8b040"}}, {"type": "Feature", "geometry": {"type": "Polygon", "coordinates": [[[-129.2768, 58.4498], [-129.2518, 58.4498], [-129.2518, 58.4456], [-129.2455, 58.4456], [-129.2455, 58.4414], [-129.2393, 58.4414], [-129.2393, 58.4373], [-129.233, 58.4373], [-129.233, 58.4539], [-129.283, 58.4539], [-129.283, 58.4498], [-129.2768, 58.4498]]]}, "properties": {"company_id": "green-shift", "jurisdiction": "British Columbia", "claim_id": 1017248, "claim_name": "GRFP", "holder": "GREENROCK EXPLORATIONS LTD.", "status": "Mineral", "recorded_date": "2013-02-26", "anniversary_or_expiry": "2022-04-01", "area_ha": 237.13680000000002, "tenure_type": "Mineral", "source": "BC MTA Mineral, Placer and Coal Tenure Spatial View (BCGW). Open Government Licence - British Columbia. Not legal title.", "as_of": "2026-09-20", "role": "focus", "color": "#e8b040"}}, {"type": "Feature", "geometry": {"type": "Polygon", "coordinates": [[[-129.2488, 58.4307], [-129.2566, 58.4307], [-129.2566, 58.4266], [-129.2488, 58.4266], [-129.2488, 58.4307]]]}, "properties": {"company_id": "green-shift", "jurisdiction": "British Columbia", "claim_id": 303766, "claim_name": "SUSI 2", "holder": "GREENROCK EXPLORATIONS LTD.", "status": "Mineral", "recorded_date": "5285952000", "anniversary_or_expiry": "2022-04-01", "area_ha": 25, "tenure_type": "Mineral", "source": "BC MTA Mineral, Placer and Coal Tenure Spatial View (BCGW). Open Government Licence - British Columbia. Not legal title.", "as_of": "2026-09-20", "role": "focus", "color": "#e8b040"}}, {"type": "Feature", "geometry": {"type": "Polygon", "coordinates": [[[-120.5264, 49.4293], [-120.5234, 49.4327], [-120.5293, 49.4349], [-120.5363, 49.4272], [-120.5355, 49.4269], [-120.5337, 49.4279], [-120.5301, 49.4252], [-120.5264, 49.4293]]]}, "properties": {"company_id": "green-shift", "jurisdiction": "British Columbia", "claim_id": 344125, "claim_name": "RAND", "holder": "GREEN, WESLEY LEE", "status": "Placer", "recorded_date": "8268480000", "anniversary_or_expiry": "2026-03-12", "area_ha": 50, "tenure_type": "Placer", "source": "BC MTA Mineral, Placer and Coal Tenure Spatial View (BCGW). Open Government Licence - British Columbia. Not legal title.", "as_of": "2026-09-20", "role": "focus", "color": "#e8b040"}}, {"type": "Feature", "geometry": {"type": "Polygon", "coordinates": [[[-120.5329, 49.431], [-120.5293, 49.4349], [-120.5352, 49.4372], [-120.5422, 49.4295], [-120.5363, 49.4272], [-120.5329, 49.431]]]}, "properties": {"company_id": "green-shift", "jurisdiction": "British Columbia", "claim_id": 361807, "claim_name": "HEATHER", "holder": "GREEN, WESLEY LEE", "status": "Placer", "recorded_date": "8903520000", "anniversary_or_expiry": "2026-03-12", "area_ha": 50, "tenure_type": "Placer", "source": "BC MTA Mineral, Placer and Coal Tenure Spatial View (BCGW). Open Government Licence - British Columbia. Not legal title.", "as_of": "2026-09-20", "role": "focus", "color": "#e8b040"}}, {"type": "Feature", "geometry": {"type": "Polygon", "coordinates": [[[-122.1636, 53.0509], [-122.1658, 53.0517], [-122.1653, 53.0513], [-122.1704, 53.0481], [-122.1576, 53.0435], [-122.1537, 53.0473], [-122.1573, 53.0486], [-122.1583, 53.0481], [-122.1592, 53.0493], [-122.1636, 53.0509]]]}, "properties": {"company_id": "green-shift", "jurisdiction": "British Columbia", "claim_id": 370979, "claim_name": null, "holder": "PINEGREEN GOLD MINING (CANADA) LTD.", "status": "Placer", "recorded_date": "9393408000", "anniversary_or_expiry": "2024-10-08", "area_ha": 55.5, "tenure_type": "Placer", "source": "BC MTA Mineral, Placer and Coal Tenure Spatial View (BCGW). Open Government Licence - British Columbia. Not legal title.", "as_of": "2026-09-20", "role": "focus", "color": "#e8b040"}}, {"type": "Feature", "geometry": {"type": "Polygon", "coordinates": [[[-121.4952, 52.8458], [-121.4952, 52.8333], [-121.4827, 52.8333], [-121.4827, 52.85], [-121.4952, 52.85], [-121.4952, 52.8458]]]}, "properties": {"company_id": "green-shift", "jurisdiction": "British Columbia", "claim_id": 510747, "claim_name": null, "holder": "GREEN, KEN CLARK", "status": "Placer", "recorded_date": "2005-04-14", "anniversary_or_expiry": "2033-09-21", "area_ha": 156.247, "tenure_type": "Placer", "source": "BC MTA Mineral, Placer and Coal Tenure Spatial View (BCGW). Open Government Licence - British Columbia. Not legal title.", "as_of": "2026-09-20", "role": "focus", "color": "#e8b040"}}, {"type": "Feature", "geometry": {"type": "Polygon", "coordinates": [[[-125.8892, 55.8666], [-125.8892, 55.8582], [-125.8705, 55.8582], [-125.8705, 55.8541], [-125.858, 55.8541], [-125.858, 55.8416], [-125.8455, 55.8416], [-125.8455, 55.8332], [-125.833, 55.8332], [-125.833, 55.8374], [-125.8205, 55.8374], [-125.8205, 55.8416], [-125.8267, 55.8416], [-125.8267, 55.8541], [-125.8455, 55.8541], [-125.8455, 55.8666], [-125.858, 55.8666], [-125.858, 55.8707], [-125.883, 55.8707], [-125.8892, 55.8707], [-125.8892, 55.8666]]]}, "properties": {"company_id": "green-shift", "jurisdiction": "British Columbia", "claim_id": 509980, "claim_name": null, "holder": "GREEN MOUNTAIN JADE INC.", "status": "Mineral", "recorded_date": "2005-04-01", "anniversary_or_expiry": "2026-05-25", "area_ha": 798.8470000000001, "tenure_type": "Mineral", "source": "BC MTA Mineral, Placer and Coal Tenure Spatial View (BCGW). Open Government Licence - British Columbia. Not legal title.", "as_of": "2026-09-20", "role": "focus", "color": "#e8b040"}}, {"type": "Feature", "geometry": {"type": "Polygon", "coordinates": [[[-125.858, 55.8457], [-125.858, 55.8499], [-125.8642, 55.8499], [-125.8642, 55.8457], [-125.858, 55.8457]]]}, "properties": {"company_id": "green-shift", "jurisdiction": "British Columbia", "claim_id": 509981, "claim_name": null, "holder": "GREEN MOUNTAIN JADE INC.", "status": "Mineral", "recorded_date": "2005-04-01", "anniversary_or_expiry": "2024-07-27", "area_ha": 18.158, "tenure_type": "Mineral", "source": "BC MTA Mineral, Placer and Coal Tenure Spatial View (BCGW). Open Government Licence - British Columbia. Not legal title.", "as_of": "2026-09-20", "role": "focus", "color": "#e8b040"}}, {"type": "Feature", "geometry": {"type": "Polygon", "coordinates": [[[-125.858, 55.8499], [-125.858, 55.8541], [-125.8642, 55.8541], [-125.8642, 55.8499], [-125.858, 55.8499]]]}, "properties": {"company_id": "green-shift", "jurisdiction": "British Columbia", "claim_id": 509982, "claim_name": "Eileen 1", "holder": "GREEN MOUNTAIN JADE INC.", "status": "Mineral", "recorded_date": "2005-04-01", "anniversary_or_expiry": "2024-07-28", "area_ha": 18.157, "tenure_type": "Mineral", "source": "BC MTA Mineral, Placer and Coal Tenure Spatial View (BCGW). Open Government Licence - British Columbia. Not legal title.", "as_of": "2026-09-20", "role": "focus", "color": "#e8b040"}}, {"type": "Feature", "geometry": {"type": "Polygon", "coordinates": [[[-125.8517, 55.8666], [-125.8517, 55.8707], [-125.858, 55.8707], [-125.858, 55.8666], [-125.8517, 55.8666]]]}, "properties": {"company_id": "green-shift", "jurisdiction": "British Columbia", "claim_id": 509983, "claim_name": "Eileen 2", "holder": "GREEN MOUNTAIN JADE INC.", "status": "Mineral", "recorded_date": "2005-04-01", "anniversary_or_expiry": "2024-07-28", "area_ha": 18.149, "tenure_type": "Mineral", "source": "BC MTA Mineral, Placer and Coal Tenure Spatial View (BCGW). Open Government Licence - British Columbia. Not legal title.", "as_of": "2026-09-20", "role": "focus", "color": "#e8b040"}}, {"type": "Feature", "geometry": {"type": "Polygon", "coordinates": [[[-129.283, 58.4456], [-129.283, 58.4414], [-129.2705, 58.4414], [-129.2705, 58.4498], [-129.283, 58.4498], [-129.283, 58.4456]]]}, "properties": {"company_id": "green-shift", "jurisdiction": "British Columbia", "claim_id": 510165, "claim_name": null, "holder": "GREENROCK EXPLORATIONS LTD.", "status": "Mineral", "recorded_date": "2005-04-04", "anniversary_or_expiry": "2025-04-01", "area_ha": 67.759, "tenure_type": "Mineral", "source": "BC MTA Mineral, Placer and Coal Tenure Spatial View (BCGW). Open Government Licence - British Columbia. Not legal title.", "as_of": "2026-09-20", "role": "focus", "color": "#e8b040"}}, {"type": "Feature", "geometry": {"type": "Polygon", "coordinates": [[[-129.2768, 58.4373], [-129.2705, 58.4373], [-129.2705, 58.4414], [-129.283, 58.4414], [-129.283, 58.4373], [-129.2768, 58.4373]]]}, "properties": {"company_id": "green-shift", "jurisdiction": "British Columbia", "claim_id": 510166, "claim_name": null, "holder": "GREENROCK EXPLORATIONS LTD.", "status": "Mineral", "recorded_date": "2005-04-04", "anniversary_or_expiry": "2025-04-01", "area_ha": 33.885000000000005, "tenure_type": "Mineral", "source": "BC MTA Mineral, Placer and Coal Tenure Spatial View (BCGW). Open Government Licence - British Columbia. Not legal title.", "as_of": "2026-09-20", "role": "focus", "color": "#e8b040"}}, {"type": "Feature", "geometry": {"type": "Polygon", "coordinates": [[[-129.2643, 58.4414], [-129.2643, 58.4373], [-129.2518, 58.4373], [-129.2518, 58.4456], [-129.2643, 58.4456], [-129.2643, 58.4414]]]}, "properties": {"company_id": "green-shift", "jurisdiction": "British Columbia", "claim_id": 510168, "claim_name": null, "holder": "GREENROCK EXPLORATIONS LTD.", "status": "Mineral", "recorded_date": "2005-04-04", "anniversary_or_expiry": "2021-04-01", "area_ha": 67.76700000000001, "tenure_type": "Mineral", "source": "BC MTA Mineral, Placer and Coal Tenure Spatial View (BCGW). Open Government Licence - British Columbia. Not legal title.", "as_of": "2026-09-20", "role": "focus", "color": "#e8b040"}}, {"type": "Feature", "geometry": {"type": "Polygon", "coordinates": [[[-129.258, 58.4456], [-129.2518, 58.4456], [-129.2518, 58.4498], [-129.2643, 58.4498], [-129.2643, 58.4456], [-129.258, 58.4456]]]}, "properties": {"company_id": "green-shift", "jurisdiction": "British Columbia", "claim_id": 510171, "claim_name": null, "holder": "GREENROCK EXPLORATIONS LTD.", "status": "Mineral", "recorded_date": "2005-04-04", "anniversary_or_expiry": "2025-04-01", "area_ha": 33.877, "tenure_type": "Mineral", "source": "BC MTA Mineral, Placer and Coal Tenure Spatial View (BCGW). Open Government Licence - British Columbia. Not legal title.", "as_of": "2026-09-20", "role": "focus", "color": "#e8b040"}}, {"type": "Feature", "geometry": {"type": "Polygon", "coordinates": [[[-129.2705, 58.4289], [-129.2705, 58.4248], [-129.2518, 58.4248], [-129.2518, 58.4331], [-129.2705, 58.4331], [-129.2705, 58.4289]]]}, "properties": {"company_id": "green-shift", "jurisdiction": "British Columbia", "claim_id": 510174, "claim_name": null, "holder": "GREENROCK EXPLORATIONS LTD.", "status": "Mineral", "recorded_date": "2005-04-04", "anniversary_or_expiry": "2021-04-01", "area_ha": 101.685, "tenure_type": "Mineral", "source": "BC MTA Mineral, Placer and Coal Tenure Spatial View (BCGW). Open Government Licence - British Columbia. Not legal title.", "as_of": "2026-09-20", "role": "focus", "color": "#e8b040"}}, {"type": "Feature", "geometry": {"type": "Polygon", "coordinates": [[[-129.2705, 58.4331], [-129.2643, 58.4331], [-129.2643, 58.4414], [-129.2705, 58.4414], [-129.2705, 58.4373], [-129.2768, 58.4373], [-129.2768, 58.4331], [-129.2705, 58.4331]]]}, "properties": {"company_id": "green-shift", "jurisdiction": "British Columbia", "claim_id": 510180, "claim_name": null, "holder": "GREENROCK EXPLORATIONS LTD.", "status": "Mineral", "recorded_date": "2005-04-04", "anniversary_or_expiry": "2021-04-01", "area_ha": 50.832, "tenure_type": "Mineral", "source": "BC MTA Mineral, Placer and Coal Tenure Spatial View (BCGW). Open Government Licence - British Columbia. Not legal title.", "as_of": "2026-09-20", "role": "focus", "color": "#e8b040"}}, {"type": "Feature", "geometry": {"type": "Polygon", "coordinates": [[[-129.2518, 58.4331], [-129.2518, 58.4373], [-129.258, 58.4373], [-129.258, 58.4331], [-129.2518, 58.4331]]]}, "properties": {"company_id": "green-shift", "jurisdiction": "British Columbia", "claim_id": 510182, "claim_name": "polar", "holder": "GREENROCK EXPLORATIONS LTD.", "status": "Mineral", "recorded_date": "2005-04-04", "anniversary_or_expiry": "2021-04-01", "area_ha": 16.945, "tenure_type": "Mineral", "source": "BC MTA Mineral, Placer and Coal Tenure Spatial View (BCGW). Open Government Licence - British Columbia. Not legal title.", "as_of": "2026-09-20", "role": "focus", "color": "#e8b040"}}, {"type": "Feature", "geometry": {"type": "Polygon", "coordinates": [[[-129.258, 58.4331], [-129.258, 58.4373], [-129.2643, 58.4373], [-129.2643, 58.4331], [-129.258, 58.4331]]]}, "properties": {"company_id": "green-shift", "jurisdiction": "British Columbia", "claim_id": 510193, "claim_name": null, "holder": "GREENROCK EXPLORATIONS LTD.", "status": "Mineral", "recorded_date": "2005-04-05", "anniversary_or_expiry": "2021-04-01", "area_ha": 16.945, "tenure_type": "Mineral", "source": "BC MTA Mineral, Placer and Coal Tenure Spatial View (BCGW). Open Government Licence - British Columbia. Not legal title.", "as_of": "2026-09-20", "role": "focus", "color": "#e8b040"}}, {"type": "Feature", "geometry": {"type": "Polygon", "coordinates": [[[-129.2643, 58.4206], [-129.2518, 58.4206], [-129.2518, 58.4248], [-129.2705, 58.4248], [-129.2705, 58.4206], [-129.2643, 58.4206]]]}, "properties": {"company_id": "green-shift", "jurisdiction": "British Columbia", "claim_id": 510194, "claim_name": null, "holder": "GREENROCK EXPLORATIONS LTD.", "status": "Mineral", "recorded_date": "2005-04-05", "anniversary_or_expiry": "2020-04-01", "area_ha": 50.852000000000004, "tenure_type": "Mineral", "source": "BC MTA Mineral, Placer and Coal Tenure Spatial View (BCGW). Open Government Licence - British Columbia. Not legal title.", "as_of": "2026-09-20", "role": "focus", "color": "#e8b040"}}, {"type": "Feature", "geometry": {"type": "Polygon", "coordinates": [[[-129.2893, 58.4373], [-129.2893, 58.4331], [-129.283, 58.4331], [-129.283, 58.4289], [-129.2768, 58.4289], [-129.2768, 58.4248], [-129.2705, 58.4248], [-129.2705, 58.4331], [-129.2768, 58.4331], [-129.2768, 58.4373], [-129.283, 58.4373], [-129.283, 58.4456], [-129.2893, 58.4456], [-129.2893, 58.4373]]]}, "properties": {"company_id": "green-shift", "jurisdiction": "British Columbia", "claim_id": 510196, "claim_name": "POLAR 2", "holder": "GREENROCK EXPLORATIONS LTD.", "status": "Mineral", "recorded_date": "2005-04-05", "anniversary_or_expiry": "2021-04-01", "area_ha": 118.614, "tenure_type": "Mineral", "source": "BC MTA Mineral, Placer and Coal Tenure Spatial View (BCGW). Open Government Licence - British Columbia. Not legal title.", "as_of": "2026-09-20", "role": "focus", "color": "#e8b040"}}, {"type": "Feature", "geometry": {"type": "Polygon", "coordinates": [[[-129.2705, 58.4456], [-129.2705, 58.4414], [-129.2643, 58.4414], [-129.2643, 58.4498], [-129.2705, 58.4498], [-129.2705, 58.4456]]]}, "properties": {"company_id": "green-shift", "jurisdiction": "British Columbia", "claim_id": 510173, "claim_name": null, "holder": "GREENROCK EXPLORATIONS LTD.", "status": "Mineral", "recorded_date": "2005-04-04", "anniversary_or_expiry": "2025-04-01", "area_ha": 33.879000000000005, "tenure_type": "Mineral", "source": "BC MTA Mineral, Placer and Coal Tenure Spatial View (BCGW). Open Government Licence - British Columbia. Not legal title.", "as_of": "2026-09-20", "role": "focus", "color": "#e8b040"}}, {"type": "Feature", "geometry": {"type": "Polygon", "coordinates": [[[-129.2455, 58.4248], [-129.2393, 58.4248], [-129.2393, 58.4289], [-129.2518, 58.4289], [-129.2518, 58.4248], [-129.2455, 58.4248]]]}, "properties": {"company_id": "green-shift", "jurisdiction": "British Columbia", "claim_id": 510179, "claim_name": null, "holder": "GREENROCK EXPLORATIONS LTD.", "status": "Mineral", "recorded_date": "2005-04-04", "anniversary_or_expiry": "2021-04-01", "area_ha": 33.898, "tenure_type": "Mineral", "source": "BC MTA Mineral, Placer and Coal Tenure Spatial View (BCGW). Open Government Licence - British Columbia. Not legal title.", "as_of": "2026-09-20", "role": "focus", "color": "#e8b040"}}, {"type": "Feature", "geometry": {"type": "Polygon", "coordinates": [[[-129.2955, 58.4456], [-129.2955, 58.4414], [-129.2893, 58.4414], [-129.2893, 58.4456], [-129.283, 58.4456], [-129.283, 58.4498], [-129.2955, 58.4498], [-129.2955, 58.4456]]]}, "properties": {"company_id": "green-shift", "jurisdiction": "British Columbia", "claim_id": 539260, "claim_name": "POLAR 2", "holder": "GREENROCK EXPLORATIONS LTD.", "status": "Mineral", "recorded_date": "2006-08-14", "anniversary_or_expiry": "2022-04-01", "area_ha": 50.818000000000005, "tenure_type": "Mineral", "source": "BC MTA Mineral, Placer and Coal Tenure Spatial View (BCGW). Open Government Licence - British Columbia. Not legal title.", "as_of": "2026-09-20", "role": "focus", "color": "#e8b040"}}, {"type": "Feature", "geometry": {"type": "Polygon", "coordinates": [[[-116.4135, 50.4167], [-116.4197, 50.4167], [-116.4197, 50.4125], [-116.401, 50.4125], [-116.401, 50.4167], [-116.4135, 50.4167]]]}, "properties": {"company_id": "green-shift", "jurisdiction": "British Columbia", "claim_id": 536427, "claim_name": "HP", "holder": "GREEN RIVER GOLD CORP", "status": "Mineral", "recorded_date": "2006-06-30", "anniversary_or_expiry": "2025-10-05", "area_ha": 61.776, "tenure_type": "Mineral", "source": "BC MTA Mineral, Placer and Coal Tenure Spatial View (BCGW). Open Government Licence - British Columbia. Not legal title.", "as_of": "2026-09-20", "role": "focus", "color": "#e8b040"}}]}