{"type": "FeatureCollection", "features": [{"type": "Feature", "geometry": {"type": "Polygon", "coordinates": [[[-78.4813, 44.8583], [-78.4813, 44.8625], [-78.4875, 44.8625], [-78.4875, 44.8583], [-78.4813, 44.8583]]]}, "properties": {"company_id": "highland-copper", "jurisdiction": "Ontario", "claim_id": "105748", "claim_name": null, "holder": "(100) MUNICIPALITY OF HIGHLANDS EAST", "status": "Active", "recorded_date": "2018-04-10", "anniversary_or_expiry": "2028-06-03", "area_ha": null, "tenure_type": "Single Cell Mining Claim", "source": "Ontario MLAS operational claims (OGSEarth / LIO MapServer). Unofficial viewing data, not legal title.", "as_of": "2026-09-20", "role": "focus", "color": "#e8b040"}}, {"type": "Feature", "geometry": {"type": "Polygon", "coordinates": [[[-78.175, 45.0625], [-78.175, 45.0667], [-78.1813, 45.0667], [-78.1813, 45.0625], [-78.175, 45.0625]]]}, "properties": {"company_id": "highland-copper", "jurisdiction": "Ontario", "claim_id": "104803", "claim_name": null, "holder": "(100) MUNICIPALITY OF HIGHLANDS EAST", "status": "Active", "recorded_date": "2018-04-10", "anniversary_or_expiry": "2027-06-17", "area_ha": null, "tenure_type": "Single Cell Mining Claim", "source": "Ontario MLAS operational claims (OGSEarth / LIO MapServer). Unofficial viewing data, not legal title.", "as_of": "2026-09-20", "role": "focus", "color": "#e8b040"}}, {"type": "Feature", "geometry": {"type": "Polygon", "coordinates": [[[-78.2438, 45.0458], [-78.2438, 45.05], [-78.25, 45.05], [-78.25, 45.0458], [-78.2438, 45.0458]]]}, "properties": {"company_id": "highland-copper", "jurisdiction": "Ontario", "claim_id": "118830", "claim_name": null, "holder": "(100) MUNICIPALITY OF HIGHLANDS EAST", "status": "Active", "recorded_date": "2018-04-10", "anniversary_or_expiry": "2027-06-17", "area_ha": null, "tenure_type": "Single Cell Mining Claim", "source": "Ontario MLAS operational claims (OGSEarth / LIO MapServer). Unofficial viewing data, not legal title.", "as_of": "2026-09-20", "role": "focus", "color": "#e8b040"}}, {"type": "Feature", "geometry": {"type": "Polygon", "coordinates": [[[-78.2625, 44.9958], [-78.2625, 45.0], [-78.2688, 45.0], [-78.2688, 44.9958], [-78.2625, 44.9958]]]}, "properties": {"company_id": "highland-copper", "jurisdiction": "Ontario", "claim_id": "126604", "claim_name": null, "holder": "(100) MUNICIPALITY OF HIGHLANDS EAST", "status": "Active", "recorded_date": "2018-04-10", "anniversary_or_expiry": "2029-06-03", "area_ha": null, "tenure_type": "Single Cell Mining Claim", "source": "Ontario MLAS operational claims (OGSEarth / LIO MapServer). Unofficial viewing data, not legal title.", "as_of": "2026-09-20", "role": "focus", "color": "#e8b040"}}, {"type": "Feature", "geometry": {"type": "Polygon", "coordinates": [[[-78.175, 45.0667], [-78.175, 45.0708], [-78.1813, 45.0708], [-78.1813, 45.0667], [-78.175, 45.0667]]]}, "properties": {"company_id": "highland-copper", "jurisdiction": "Ontario", "claim_id": "127938", "claim_name": null, "holder": "(100) MUNICIPALITY OF HIGHLANDS EAST", "status": "Active", "recorded_date": "2018-04-10", "anniversary_or_expiry": "2027-06-17", "area_ha": null, "tenure_type": "Single Cell Mining Claim", "source": "Ontario MLAS operational claims (OGSEarth / LIO MapServer). Unofficial viewing data, not legal title.", "as_of": "2026-09-20", "role": "focus", "color": "#e8b040"}}, {"type": "Feature", "geometry": {"type": "Polygon", "coordinates": [[[-78.2625, 44.9917], [-78.2625, 44.9958], [-78.2688, 44.9958], [-78.2688, 44.9917], [-78.2625, 44.9917]]]}, "properties": {"company_id": "highland-copper", "jurisdiction": "Ontario", "claim_id": "138072", "claim_name": null, "holder": "(100) MUNICIPALITY OF HIGHLANDS EAST", "status": "Active", "recorded_date": "2018-04-10", "anniversary_or_expiry": "2029-06-03", "area_ha": null, "tenure_type": "Single Cell Mining Claim", "source": "Ontario MLAS operational claims (OGSEarth / LIO MapServer). Unofficial viewing data, not legal title.", "as_of": "2026-09-20", "role": "focus", "color": "#e8b040"}}, {"type": "Feature", "geometry": {"type": "Polygon", "coordinates": [[[-78.1688, 45.0625], [-78.1688, 45.0667], [-78.175, 45.0667], [-78.175, 45.0625], [-78.1688, 45.0625]]]}, "properties": {"company_id": "highland-copper", "jurisdiction": "Ontario", "claim_id": "139407", "claim_name": null, "holder": "(100) MUNICIPALITY OF HIGHLANDS EAST", "status": "Active", "recorded_date": "2018-04-10", "anniversary_or_expiry": "2027-06-17", "area_ha": null, "tenure_type": "Single Cell Mining Claim", "source": "Ontario MLAS operational claims (OGSEarth / LIO MapServer). Unofficial viewing data, not legal title.", "as_of": "2026-09-20", "role": "focus", "color": "#e8b040"}}, {"type": "Feature", "geometry": {"type": "Polygon", "coordinates": [[[-78.1688, 45.0708], [-78.1688, 45.075], [-78.175, 45.075], [-78.175, 45.0708], [-78.1688, 45.0708]]]}, "properties": {"company_id": "highland-copper", "jurisdiction": "Ontario", "claim_id": "154451", "claim_name": null, "holder": "(100) MUNICIPALITY OF HIGHLANDS EAST", "status": "Active", "recorded_date": "2018-04-10", "anniversary_or_expiry": "2027-06-17", "area_ha": null, "tenure_type": "Single Cell Mining Claim", "source": "Ontario MLAS operational claims (OGSEarth / LIO MapServer). Unofficial viewing data, not legal title.", "as_of": "2026-09-20", "role": "focus", "color": "#e8b040"}}, {"type": "Feature", "geometry": {"type": "Polygon", "coordinates": [[[-78.2313, 45.0375], [-78.2313, 45.0417], [-78.2375, 45.0417], [-78.2375, 45.0375], [-78.2313, 45.0375]]]}, "properties": {"company_id": "highland-copper", "jurisdiction": "Ontario", "claim_id": "161070", "claim_name": null, "holder": "(100) MUNICIPALITY OF HIGHLANDS EAST", "status": "Active", "recorded_date": "2018-04-10", "anniversary_or_expiry": "2027-06-17", "area_ha": null, "tenure_type": "Single Cell Mining Claim", "source": "Ontario MLAS operational claims (OGSEarth / LIO MapServer). Unofficial viewing data, not legal title.", "as_of": "2026-09-20", "role": "focus", "color": "#e8b040"}}, {"type": "Feature", "geometry": {"type": "Polygon", "coordinates": [[[-78.2438, 45.05], [-78.2438, 45.0542], [-78.25, 45.0542], [-78.25, 45.05], [-78.2438, 45.05]]]}, "properties": {"company_id": "highland-copper", "jurisdiction": "Ontario", "claim_id": "167120", "claim_name": null, "holder": "(100) MUNICIPALITY OF HIGHLANDS EAST", "status": "Active", "recorded_date": "2018-04-10", "anniversary_or_expiry": "2027-06-17", "area_ha": null, "tenure_type": "Single Cell Mining Claim", "source": "Ontario MLAS operational claims (OGSEarth / LIO MapServer). Unofficial viewing data, not legal title.", "as_of": "2026-09-20", "role": "focus", "color": "#e8b040"}}, {"type": "Feature", "geometry": {"type": "Polygon", "coordinates": [[[-78.1563, 45.0625], [-78.1563, 45.0667], [-78.1625, 45.0667], [-78.1625, 45.0625], [-78.1563, 45.0625]]]}, "properties": {"company_id": "highland-copper", "jurisdiction": "Ontario", "claim_id": "172434", "claim_name": null, "holder": "(100) MUNICIPALITY OF HIGHLANDS EAST", "status": "Active", "recorded_date": "2018-04-10", "anniversary_or_expiry": "2027-06-17", "area_ha": null, "tenure_type": "Single Cell Mining Claim", "source": "Ontario MLAS operational claims (OGSEarth / LIO MapServer). Unofficial viewing data, not legal title.", "as_of": "2026-09-20", "role": "focus", "color": "#e8b040"}}, {"type": "Feature", "geometry": {"type": "Polygon", "coordinates": [[[-78.2563, 44.9958], [-78.2563, 45.0], [-78.2625, 45.0], [-78.2625, 44.9958], [-78.2563, 44.9958]]]}, "properties": {"company_id": "highland-copper", "jurisdiction": "Ontario", "claim_id": "173281", "claim_name": null, "holder": "(100) MUNICIPALITY OF HIGHLANDS EAST", "status": "Active", "recorded_date": "2018-04-10", "anniversary_or_expiry": "2029-06-03", "area_ha": null, "tenure_type": "Single Cell Mining Claim", "source": "Ontario MLAS operational claims (OGSEarth / LIO MapServer). Unofficial viewing data, not legal title.", "as_of": "2026-09-20", "role": "focus", "color": "#e8b040"}}, {"type": "Feature", "geometry": {"type": "Polygon", "coordinates": [[[-78.4875, 44.8667], [-78.4875, 44.8708], [-78.4938, 44.8708], [-78.4938, 44.8667], [-78.4875, 44.8667]]]}, "properties": {"company_id": "highland-copper", "jurisdiction": "Ontario", "claim_id": "173347", "claim_name": null, "holder": "(100) MUNICIPALITY OF HIGHLANDS EAST", "status": "Active", "recorded_date": "2018-04-10", "anniversary_or_expiry": "2028-06-03", "area_ha": null, "tenure_type": "Single Cell Mining Claim", "source": "Ontario MLAS operational claims (OGSEarth / LIO MapServer). Unofficial viewing data, not legal title.", "as_of": "2026-09-20", "role": "focus", "color": "#e8b040"}}, {"type": "Feature", "geometry": {"type": "Polygon", "coordinates": [[[-78.475, 44.8583], [-78.475, 44.8625], [-78.4813, 44.8625], [-78.4813, 44.8583], [-78.475, 44.8583]]]}, "properties": {"company_id": "highland-copper", "jurisdiction": "Ontario", "claim_id": "173348", "claim_name": null, "holder": "(100) MUNICIPALITY OF HIGHLANDS EAST", "status": "Active", "recorded_date": "2018-04-10", "anniversary_or_expiry": "2028-06-03", "area_ha": null, "tenure_type": "Single Cell Mining Claim", "source": "Ontario MLAS operational claims (OGSEarth / LIO MapServer). Unofficial viewing data, not legal title.", "as_of": "2026-09-20", "role": "focus", "color": "#e8b040"}}, {"type": "Feature", "geometry": {"type": "Polygon", "coordinates": [[[-78.1688, 45.0667], [-78.1688, 45.0708], [-78.175, 45.0708], [-78.175, 45.0667], [-78.1688, 45.0667]]]}, "properties": {"company_id": "highland-copper", "jurisdiction": "Ontario", "claim_id": "174595", "claim_name": null, "holder": "(100) MUNICIPALITY OF HIGHLANDS EAST", "status": "Active", "recorded_date": "2018-04-10", "anniversary_or_expiry": "2027-06-17", "area_ha": null, "tenure_type": "Single Cell Mining Claim", "source": "Ontario MLAS operational claims (OGSEarth / LIO MapServer). Unofficial viewing data, not legal title.", "as_of": "2026-09-20", "role": "focus", "color": "#e8b040"}}, {"type": "Feature", "geometry": {"type": "Polygon", "coordinates": [[[-78.2375, 45.0458], [-78.2375, 45.05], [-78.2438, 45.05], [-78.2438, 45.0458], [-78.2375, 45.0458]]]}, "properties": {"company_id": "highland-copper", "jurisdiction": "Ontario", "claim_id": "180531", "claim_name": null, "holder": "(100) MUNICIPALITY OF HIGHLANDS EAST", "status": "Active", "recorded_date": "2018-04-10", "anniversary_or_expiry": "2027-06-17", "area_ha": null, "tenure_type": "Single Cell Mining Claim", "source": "Ontario MLAS operational claims (OGSEarth / LIO MapServer). Unofficial viewing data, not legal title.", "as_of": "2026-09-20", "role": "focus", "color": "#e8b040"}}, {"type": "Feature", "geometry": {"type": "Polygon", "coordinates": [[[-78.2375, 45.0417], [-78.2375, 45.0458], [-78.2438, 45.0458], [-78.2438, 45.0417], [-78.2375, 45.0417]]]}, "properties": {"company_id": "highland-copper", "jurisdiction": "Ontario", "claim_id": "215872", "claim_name": null, "holder": "(100) MUNICIPALITY OF HIGHLANDS EAST", "status": "Active", "recorded_date": "2018-04-10", "anniversary_or_expiry": "2027-06-17", "area_ha": null, "tenure_type": "Single Cell Mining Claim", "source": "Ontario MLAS operational claims (OGSEarth / LIO MapServer). Unofficial viewing data, not legal title.", "as_of": "2026-09-20", "role": "focus", "color": "#e8b040"}}, {"type": "Feature", "geometry": {"type": "Polygon", "coordinates": [[[-78.2625, 45.0], [-78.2625, 45.0042], [-78.2688, 45.0042], [-78.2688, 45.0], [-78.2625, 45.0]]]}, "properties": {"company_id": "highland-copper", "jurisdiction": "Ontario", "claim_id": "219926", "claim_name": null, "holder": "(100) MUNICIPALITY OF HIGHLANDS EAST", "status": "Active", "recorded_date": "2018-04-10", "anniversary_or_expiry": "2029-06-03", "area_ha": null, "tenure_type": "Single Cell Mining Claim", "source": "Ontario MLAS operational claims (OGSEarth / LIO MapServer). Unofficial viewing data, not legal title.", "as_of": "2026-09-20", "role": "focus", "color": "#e8b040"}}, {"type": "Feature", "geometry": {"type": "Polygon", "coordinates": [[[-78.1625, 45.0708], [-78.1625, 45.075], [-78.1688, 45.075], [-78.1688, 45.0708], [-78.1625, 45.0708]]]}, "properties": {"company_id": "highland-copper", "jurisdiction": "Ontario", "claim_id": "221210", "claim_name": null, "holder": "(100) MUNICIPALITY OF HIGHLANDS EAST", "status": "Active", "recorded_date": "2018-04-10", "anniversary_or_expiry": "2027-06-17", "area_ha": null, "tenure_type": "Single Cell Mining Claim", "source": "Ontario MLAS operational claims (OGSEarth / LIO MapServer). Unofficial viewing data, not legal title.", "as_of": "2026-09-20", "role": "focus", "color": "#e8b040"}}, {"type": "Feature", "geometry": {"type": "Polygon", "coordinates": [[[-78.1563, 45.0667], [-78.1563, 45.0708], [-78.1625, 45.0708], [-78.1625, 45.0667], [-78.1563, 45.0667]]]}, "properties": {"company_id": "highland-copper", "jurisdiction": "Ontario", "claim_id": "228669", "claim_name": null, "holder": "(100) MUNICIPALITY OF HIGHLANDS EAST", "status": "Active", "recorded_date": "2018-04-10", "anniversary_or_expiry": "2027-06-17", "area_ha": null, "tenure_type": "Single Cell Mining Claim", "source": "Ontario MLAS operational claims (OGSEarth / LIO MapServer). Unofficial viewing data, not legal title.", "as_of": "2026-09-20", "role": "focus", "color": "#e8b040"}}, {"type": "Feature", "geometry": {"type": "Polygon", "coordinates": [[[-78.4813, 44.8625], [-78.4813, 44.8667], [-78.4875, 44.8667], [-78.4875, 44.8625], [-78.4813, 44.8625]]]}, "properties": {"company_id": "highland-copper", "jurisdiction": "Ontario", "claim_id": "247373", "claim_name": null, "holder": "(100) MUNICIPALITY OF HIGHLANDS EAST", "status": "Active", "recorded_date": "2018-04-10", "anniversary_or_expiry": "2028-06-03", "area_ha": null, "tenure_type": "Single Cell Mining Claim", "source": "Ontario MLAS operational claims (OGSEarth / LIO MapServer). Unofficial viewing data, not legal title.", "as_of": "2026-09-20", "role": "focus", "color": "#e8b040"}}, {"type": "Feature", "geometry": {"type": "Polygon", "coordinates": [[[-78.1625, 45.075], [-78.1625, 45.0792], [-78.1688, 45.0792], [-78.1688, 45.075], [-78.1625, 45.075]]]}, "properties": {"company_id": "highland-copper", "jurisdiction": "Ontario", "claim_id": "248131", "claim_name": null, "holder": "(100) MUNICIPALITY OF HIGHLANDS EAST", "status": "Active", "recorded_date": "2018-04-10", "anniversary_or_expiry": "2027-06-17", "area_ha": null, "tenure_type": "Single Cell Mining Claim", "source": "Ontario MLAS operational claims (OGSEarth / LIO MapServer). Unofficial viewing data, not legal title.", "as_of": "2026-09-20", "role": "focus", "color": "#e8b040"}}, {"type": "Feature", "geometry": {"type": "Polygon", "coordinates": [[[-78.1563, 45.0583], [-78.1563, 45.0625], [-78.1625, 45.0625], [-78.1625, 45.0583], [-78.1563, 45.0583]]]}, "properties": {"company_id": "highland-copper", "jurisdiction": "Ontario", "claim_id": "248132", "claim_name": null, "holder": "(100) MUNICIPALITY OF HIGHLANDS EAST", "status": "Active", "recorded_date": "2018-04-10", "anniversary_or_expiry": "2027-06-17", "area_ha": null, "tenure_type": "Single Cell Mining Claim", "source": "Ontario MLAS operational claims (OGSEarth / LIO MapServer). Unofficial viewing data, not legal title.", "as_of": "2026-09-20", "role": "focus", "color": "#e8b040"}}, {"type": "Feature", "geometry": {"type": "Polygon", "coordinates": [[[-78.2563, 44.9917], [-78.2563, 44.9958], [-78.2625, 44.9958], [-78.2625, 44.9917], [-78.2563, 44.9917]]]}, "properties": {"company_id": "highland-copper", "jurisdiction": "Ontario", "claim_id": "256738", "claim_name": null, "holder": "(100) MUNICIPALITY OF HIGHLANDS EAST", "status": "Active", "recorded_date": "2018-04-10", "anniversary_or_expiry": "2029-06-03", "area_ha": null, "tenure_type": "Single Cell Mining Claim", "source": "Ontario MLAS operational claims (OGSEarth / LIO MapServer). Unofficial viewing data, not legal title.", "as_of": "2026-09-20", "role": "focus", "color": "#e8b040"}}, {"type": "Feature", "geometry": {"type": "Polygon", "coordinates": [[[-78.2375, 45.05], [-78.2375, 45.0542], [-78.2438, 45.0542], [-78.2438, 45.05], [-78.2375, 45.05]]]}, "properties": {"company_id": "highland-copper", "jurisdiction": "Ontario", "claim_id": "281885", "claim_name": null, "holder": "(100) MUNICIPALITY OF HIGHLANDS EAST", "status": "Active", "recorded_date": "2018-04-10", "anniversary_or_expiry": "2027-06-17", "area_ha": null, "tenure_type": "Single Cell Mining Claim", "source": "Ontario MLAS operational claims (OGSEarth / LIO MapServer). Unofficial viewing data, not legal title.", "as_of": "2026-09-20", "role": "focus", "color": "#e8b040"}}, {"type": "Feature", "geometry": {"type": "Polygon", "coordinates": [[[-78.2375, 45.0375], [-78.2375, 45.0417], [-78.2438, 45.0417], [-78.2438, 45.0375], [-78.2375, 45.0375]]]}, "properties": {"company_id": "highland-copper", "jurisdiction": "Ontario", "claim_id": "281886", "claim_name": null, "holder": "(100) MUNICIPALITY OF HIGHLANDS EAST", "status": "Active", "recorded_date": "2018-04-10", "anniversary_or_expiry": "2027-06-17", "area_ha": null, "tenure_type": "Single Cell Mining Claim", "source": "Ontario MLAS operational claims (OGSEarth / LIO MapServer). Unofficial viewing data, not legal title.", "as_of": "2026-09-20", "role": "focus", "color": "#e8b040"}}, {"type": "Feature", "geometry": {"type": "Polygon", "coordinates": [[[-78.1625, 45.0667], [-78.1625, 45.0708], [-78.1688, 45.0708], [-78.1688, 45.0667], [-78.1625, 45.0667]]]}, "properties": {"company_id": "highland-copper", "jurisdiction": "Ontario", "claim_id": "287243", "claim_name": null, "holder": "(100) MUNICIPALITY OF HIGHLANDS EAST", "status": "Active", "recorded_date": "2018-04-10", "anniversary_or_expiry": "2027-06-17", "area_ha": null, "tenure_type": "Single Cell Mining Claim", "source": "Ontario MLAS operational claims (OGSEarth / LIO MapServer). Unofficial viewing data, not legal title.", "as_of": "2026-09-20", "role": "focus", "color": "#e8b040"}}, {"type": "Feature", "geometry": {"type": "Polygon", "coordinates": [[[-78.1625, 45.0625], [-78.1625, 45.0667], [-78.1688, 45.0667], [-78.1688, 45.0625], [-78.1625, 45.0625]]]}, "properties": {"company_id": "highland-copper", "jurisdiction": "Ontario", "claim_id": "307978", "claim_name": null, "holder": "(100) MUNICIPALITY OF HIGHLANDS EAST", "status": "Active", "recorded_date": "2018-04-10", "anniversary_or_expiry": "2027-06-17", "area_ha": null, "tenure_type": "Single Cell Mining Claim", "source": "Ontario MLAS operational claims (OGSEarth / LIO MapServer). Unofficial viewing data, not legal title.", "as_of": "2026-09-20", "role": "focus", "color": "#e8b040"}}, {"type": "Feature", "geometry": {"type": "Polygon", "coordinates": [[[-78.4813, 44.8667], [-78.4813, 44.8708], [-78.4875, 44.8708], [-78.4875, 44.8667], [-78.4813, 44.8667]]]}, "properties": {"company_id": "highland-copper", "jurisdiction": "Ontario", "claim_id": "334853", "claim_name": null, "holder": "(100) MUNICIPALITY OF HIGHLANDS EAST", "status": "Active", "recorded_date": "2018-04-10", "anniversary_or_expiry": "2028-06-03", "area_ha": null, "tenure_type": "Single Cell Mining Claim", "source": "Ontario MLAS operational claims (OGSEarth / LIO MapServer). Unofficial viewing data, not legal title.", "as_of": "2026-09-20", "role": "focus", "color": "#e8b040"}}, {"type": "Feature", "geometry": {"type": "Polygon", "coordinates": [[[-78.4875, 44.8625], [-78.4875, 44.8667], [-78.4938, 44.8667], [-78.4938, 44.8625], [-78.4875, 44.8625]]]}, "properties": {"company_id": "highland-copper", "jurisdiction": "Ontario", "claim_id": "334854", "claim_name": null, "holder": "(100) MUNICIPALITY OF HIGHLANDS EAST", "status": "Active", "recorded_date": "2018-04-10", "anniversary_or_expiry": "2028-06-03", "area_ha": null, "tenure_type": "Single Cell Mining Claim", "source": "Ontario MLAS operational claims (OGSEarth / LIO MapServer). Unofficial viewing data, not legal title.", "as_of": "2026-09-20", "role": "focus", "color": "#e8b040"}}, {"type": "Feature", "geometry": {"type": "Polygon", "coordinates": [[[-78.2313, 45.0417], [-78.2313, 45.0458], [-78.2375, 45.0458], [-78.2375, 45.0417], [-78.2313, 45.0417]]]}, "properties": {"company_id": "highland-copper", "jurisdiction": "Ontario", "claim_id": "341527", "claim_name": null, "holder": "(100) MUNICIPALITY OF HIGHLANDS EAST", "status": "Active", "recorded_date": "2018-04-10", "anniversary_or_expiry": "2027-06-17", "area_ha": null, "tenure_type": "Single Cell Mining Claim", "source": "Ontario MLAS operational claims (OGSEarth / LIO MapServer). Unofficial viewing data, not legal title.", "as_of": "2026-09-20", "role": "focus", "color": "#e8b040"}}]}