{"type": "FeatureCollection", "features": [{"type": "Feature", "geometry": {"type": "Polygon", "coordinates": [[[-130.5908, 54.0324], [-130.5938, 54.0337], [-130.6003, 54.0341], [-130.6006, 54.0327], [-130.6017, 54.0334], [-130.6022, 54.033], [-130.602, 54.0314], [-130.6032, 54.0308], [-130.6036, 54.0291], [-130.6028, 54.0286], [-130.6009, 54.0302], [-130.5953, 54.0278], [-130.5943, 54.0286], [-130.595, 54.0289], [-130.5908, 54.0324]]]}, "properties": {"company_id": "imperial-oil", "jurisdiction": "British Columbia", "claim_id": 250392, "claim_name": "EDYE PASS", "holder": "IMPERIAL METALS CORPORATION", "status": "Mineral", "recorded_date": "1960416000", "anniversary_or_expiry": "2025-08-31", "area_ha": 100, "tenure_type": "Mineral", "source": "BC MTA Mineral, Placer and Coal Tenure Spatial View (BCGW). Open Government Licence - British Columbia. Not legal title.", "as_of": "2026-09-20", "role": "focus", "color": "#e8b040"}}, {"type": "Feature", "geometry": {"type": "Polygon", "coordinates": [[[-130.6042, 54.0172], [-130.599, 54.0199], [-130.602, 54.022], [-130.6043, 54.0202], [-130.6076, 54.0215], [-130.6082, 54.0208], [-130.6093, 54.0212], [-130.6102, 54.0205], [-130.6086, 54.0203], [-130.6042, 54.0172]]]}, "properties": {"company_id": "imperial-oil", "jurisdiction": "British Columbia", "claim_id": 251904, "claim_name": "PRO FRACTION", "holder": "IMPERIAL METALS CORPORATION", "status": "Mineral", "recorded_date": "5526144000", "anniversary_or_expiry": "2025-08-31", "area_ha": 25, "tenure_type": "Mineral", "source": "BC MTA Mineral, Placer and Coal Tenure Spatial View (BCGW). Open Government Licence - British Columbia. Not legal title.", "as_of": "2026-09-20", "role": "focus", "color": "#e8b040"}}, {"type": "Feature", "geometry": {"type": "Polygon", "coordinates": [[[-130.6124, 54.0177], [-130.614, 54.0177], [-130.614, 54.0042], [-130.5987, 54.0042], [-130.5987, 54.0146], [-130.5997, 54.0141], [-130.6047, 54.0176], [-130.6053, 54.0157], [-130.6121, 54.0165], [-130.6119, 54.0169], [-130.6128, 54.016], [-130.6135, 54.0161], [-130.6124, 54.0177]]]}, "properties": {"company_id": "imperial-oil", "jurisdiction": "British Columbia", "claim_id": 251905, "claim_name": "JOLT", "holder": "IMPERIAL METALS CORPORATION", "status": "Mineral", "recorded_date": "5526144000", "anniversary_or_expiry": "2025-08-31", "area_ha": 150, "tenure_type": "Mineral", "source": "BC MTA Mineral, Placer and Coal Tenure Spatial View (BCGW). Open Government Licence - British Columbia. Not legal title.", "as_of": "2026-09-20", "role": "focus", "color": "#e8b040"}}, {"type": "Feature", "geometry": {"type": "Polygon", "coordinates": [[[-130.5553, 54.03], [-130.5706, 54.03], [-130.5706, 54.0228], [-130.5682, 54.0228], [-130.5682, 54.0048], [-130.5706, 54.0048], [-130.5706, 53.9985], [-130.5553, 53.9985], [-130.5553, 54.03]]]}, "properties": {"company_id": "imperial-oil", "jurisdiction": "British Columbia", "claim_id": 252112, "claim_name": "DC", "holder": "IMPERIAL METALS CORPORATION", "status": "Mineral", "recorded_date": "5799168000", "anniversary_or_expiry": "2025-08-31", "area_ha": 350, "tenure_type": "Mineral", "source": "BC MTA Mineral, Placer and Coal Tenure Spatial View (BCGW). Open Government Licence - British Columbia. Not legal title.", "as_of": "2026-09-20", "role": "focus", "color": "#e8b040"}}, {"type": "Feature", "geometry": {"type": "MultiPolygon", "coordinates": [[[[-130.6293, 54.0048], [-130.6293, 54.0042], [-130.614, 54.0042], [-130.614, 54.0177], [-130.6148, 54.0177], [-130.6166, 54.0151], [-130.6156, 54.0144], [-130.6157, 54.0139], [-130.6143, 54.0136], [-130.6141, 54.0123], [-130.6204, 54.0173], [-130.6213, 54.0142], [-130.6194, 54.0118], [-130.62, 54.0116], [-130.619, 54.0093], [-130.6203, 54.0087], [-130.6209, 54.0114], [-130.6226, 54.0107], [-130.6231, 54.0097], [-130.6227, 54.0089], [-130.6253, 54.0104], [-130.6234, 54.0079], [-130.6237, 54.006], [-130.6267, 54.0075], [-130.6271, 54.0095], [-130.628, 54.0093], [-130.6283, 54.008], [-130.6279, 54.0078], [-130.6285, 54.0076], [-130.6272, 54.0068], [-130.6284, 54.007], [-130.6293, 54.0048]]], [[[-130.6256, 54.0152], [-130.6258, 54.0147], [-130.6245, 54.0135], [-130.624, 54.0154], [-130.6226, 54.0154], [-130.624, 54.0164], [-130.6256, 54.016], [-130.6256, 54.0152]]], [[[-130.6231, 54.0137], [-130.6226, 54.0118], [-130.6215, 54.0117], [-130.6221, 54.0138], [-130.6231, 54.0137]]], [[[-130.6231, 54.0165], [-130.6222, 54.0163], [-130.6225, 54.0173], [-130.6231, 54.0165]]], [[[-130.6258, 54.0122], [-130.6251, 54.0118], [-130.6256, 54.0128], [-130.6258, 54.0122]]], [[[-130.6165, 54.0177], [-130.6175, 54.0177], [-130.6163, 54.0169], [-130.6165, 54.0177]]], [[[-130.6216, 54.0162], [-130.6213, 54.0158], [-130.6214, 54.0167], [-130.6216, 54.0162]]], [[[-130.6236, 54.012], [-130.6229, 54.0118], [-130.6234, 54.0123], [-130.6236, 54.012]]], [[[-130.6227, 54.0151], [-130.6225, 54.0147], [-130.6223, 54.0153], [-130.6227, 54.0151]]], [[[-130.6233, 54.0138], [-130.6227, 54.0141], [-130.6232, 54.0143], [-130.6233, 54.0138]]], [[[-130.6229, 54.0177], [-130.6234, 54.0177], [-130.6234, 54.0174], [-130.6229, 54.0177]]], [[[-130.6233, 54.0111], [-130.6231, 54.0109], [-130.623, 54.0109], [-130.6233, 54.0111]]], [[[-130.6264, 54.0177], [-130.6264, 54.0176], [-130.6261, 54.0177], [-130.6264, 54.0177]]]]}, "properties": {"company_id": "imperial-oil", "jurisdiction": "British Columbia", "claim_id": 252113, "claim_name": "COLA", "holder": "IMPERIAL METALS CORPORATION", "status": "Mineral", "recorded_date": "5799168000", "anniversary_or_expiry": "2025-08-31", "area_ha": 150, "tenure_type": "Mineral", "source": "BC MTA Mineral, Placer and Coal Tenure Spatial View (BCGW). Open Government Licence - British Columbia. Not legal title.", "as_of": "2026-09-20", "role": "focus", "color": "#e8b040"}}, {"type": "Feature", "geometry": {"type": "MultiPolygon", "coordinates": [[[[-130.6293, 54.0042], [-130.6293, 54.0048], [-130.6315, 53.9962], [-130.5706, 53.9962], [-130.5706, 54.0048], [-130.6293, 54.0042]]], [[[-130.6314, 54.0024], [-130.6311, 54.0033], [-130.6313, 54.0039], [-130.6314, 54.0024]]]]}, "properties": {"company_id": "imperial-oil", "jurisdiction": "British Columbia", "claim_id": 252114, "claim_name": "CC", "holder": "IMPERIAL METALS CORPORATION", "status": "Mineral", "recorded_date": "5799168000", "anniversary_or_expiry": "2025-08-31", "area_ha": 400, "tenure_type": "Mineral", "source": "BC MTA Mineral, Placer and Coal Tenure Spatial View (BCGW). Open Government Licence - British Columbia. Not legal title.", "as_of": "2026-09-20", "role": "focus", "color": "#e8b040"}}, {"type": "Feature", "geometry": {"type": "Polygon", "coordinates": [[[-130.5777, 54.0224], [-130.584, 54.0228], [-130.5841, 54.022], [-130.5864, 54.0222], [-130.5911, 54.0184], [-130.5911, 54.0048], [-130.5682, 54.0048], [-130.5682, 54.0228], [-130.5715, 54.0228], [-130.5716, 54.0221], [-130.5777, 54.0224]]]}, "properties": {"company_id": "imperial-oil", "jurisdiction": "British Columbia", "claim_id": 250593, "claim_name": "BR 1", "holder": "IMPERIAL METALS CORPORATION", "status": "Mineral", "recorded_date": "2798496000", "anniversary_or_expiry": "2025-08-31", "area_ha": 300, "tenure_type": "Mineral", "source": "BC MTA Mineral, Placer and Coal Tenure Spatial View (BCGW). Open Government Licence - British Columbia. Not legal title.", "as_of": "2026-09-20", "role": "focus", "color": "#e8b040"}}, {"type": "Feature", "geometry": {"type": "Polygon", "coordinates": [[[-130.5911, 54.0184], [-130.5987, 54.0146], [-130.5987, 54.0048], [-130.5911, 54.0048], [-130.5911, 54.0184]]]}, "properties": {"company_id": "imperial-oil", "jurisdiction": "British Columbia", "claim_id": 250594, "claim_name": "BR 2", "holder": "IMPERIAL METALS CORPORATION", "status": "Mineral", "recorded_date": "2798496000", "anniversary_or_expiry": "2025-08-31", "area_ha": 75, "tenure_type": "Mineral", "source": "BC MTA Mineral, Placer and Coal Tenure Spatial View (BCGW). Open Government Licence - British Columbia. Not legal title.", "as_of": "2026-09-20", "role": "focus", "color": "#e8b040"}}, {"type": "Feature", "geometry": {"type": "MultiPolygon", "coordinates": [[[[-130.6046, 54.0253], [-130.606, 54.0244], [-130.6044, 54.0238], [-130.6076, 54.0215], [-130.6043, 54.0202], [-130.6003, 54.0235], [-130.6046, 54.0253]]], [[[-130.6051, 54.0256], [-130.6051, 54.0255], [-130.6049, 54.0255], [-130.6051, 54.0256]]]]}, "properties": {"company_id": "imperial-oil", "jurisdiction": "British Columbia", "claim_id": 253715, "claim_name": "REFER TO LOT TABLE", "holder": "IMPERIAL METALS CORPORATION", "status": "Mineral", "recorded_date": "6380640000", "anniversary_or_expiry": "2025-08-31", "area_ha": 25, "tenure_type": "Mineral", "source": "BC MTA Mineral, Placer and Coal Tenure Spatial View (BCGW). Open Government Licence - British Columbia. Not legal title.", "as_of": "2026-09-20", "role": "focus", "color": "#e8b040"}}, {"type": "Feature", "geometry": {"type": "Polygon", "coordinates": [[[-130.5706, 54.0292], [-130.5765, 54.0296], [-130.5755, 54.0286], [-130.5766, 54.0289], [-130.5771, 54.026], [-130.571, 54.0256], [-130.5706, 54.0292]]]}, "properties": {"company_id": "imperial-oil", "jurisdiction": "British Columbia", "claim_id": 255350, "claim_name": "TIPPY", "holder": "IMPERIAL METALS CORPORATION", "status": "Mineral", "recorded_date": "1365984000", "anniversary_or_expiry": "2025-08-31", "area_ha": 25, "tenure_type": "Mineral", "source": "BC MTA Mineral, Placer and Coal Tenure Spatial View (BCGW). Open Government Licence - British Columbia. Not legal title.", "as_of": "2026-09-20", "role": "focus", "color": "#e8b040"}}, {"type": "Feature", "geometry": {"type": "MultiPolygon", "coordinates": [[[[-130.5766, 54.0289], [-130.5787, 54.0297], [-130.5832, 54.0263], [-130.5771, 54.026], [-130.5766, 54.0289]]], [[[-130.5765, 54.0296], [-130.5767, 54.0296], [-130.5766, 54.0293], [-130.5765, 54.0296]]]]}, "properties": {"company_id": "imperial-oil", "jurisdiction": "British Columbia", "claim_id": 255351, "claim_name": "TOBY 1", "holder": "IMPERIAL METALS CORPORATION", "status": "Mineral", "recorded_date": "1365984000", "anniversary_or_expiry": "2025-08-31", "area_ha": 25, "tenure_type": "Mineral", "source": "BC MTA Mineral, Placer and Coal Tenure Spatial View (BCGW). Open Government Licence - British Columbia. Not legal title.", "as_of": "2026-09-20", "role": "focus", "color": "#e8b040"}}, {"type": "Feature", "geometry": {"type": "Polygon", "coordinates": [[[-130.5832, 54.0263], [-130.5838, 54.0227], [-130.5777, 54.0224], [-130.5771, 54.026], [-130.5832, 54.0263]]]}, "properties": {"company_id": "imperial-oil", "jurisdiction": "British Columbia", "claim_id": 255352, "claim_name": "TOBY 2", "holder": "IMPERIAL METALS CORPORATION", "status": "Mineral", "recorded_date": "1365984000", "anniversary_or_expiry": "2025-08-31", "area_ha": 25, "tenure_type": "Mineral", "source": "BC MTA Mineral, Placer and Coal Tenure Spatial View (BCGW). Open Government Licence - British Columbia. Not legal title.", "as_of": "2026-09-20", "role": "focus", "color": "#e8b040"}}, {"type": "Feature", "geometry": {"type": "Polygon", "coordinates": [[[-130.571, 54.0256], [-130.5771, 54.026], [-130.5777, 54.0224], [-130.5716, 54.0221], [-130.571, 54.0256]]]}, "properties": {"company_id": "imperial-oil", "jurisdiction": "British Columbia", "claim_id": 255353, "claim_name": "KERRY", "holder": "IMPERIAL METALS CORPORATION", "status": "Mineral", "recorded_date": "1365984000", "anniversary_or_expiry": "2025-08-31", "area_ha": 25, "tenure_type": "Mineral", "source": "BC MTA Mineral, Placer and Coal Tenure Spatial View (BCGW). Open Government Licence - British Columbia. Not legal title.", "as_of": "2026-09-20", "role": "focus", "color": "#e8b040"}}, {"type": "Feature", "geometry": {"type": "Polygon", "coordinates": [[[-124.5315, 49.7376], [-124.5293, 49.7376], [-124.5268, 49.7413], [-124.5302, 49.7412], [-124.5309, 49.7389], [-124.5325, 49.7391], [-124.5315, 49.7376]]]}, "properties": {"company_id": "imperial-oil", "jurisdiction": "British Columbia", "claim_id": 314112, "claim_name": null, "holder": "IMPERIAL LIMESTONE COMPANY LIMITED", "status": "Mineral", "recorded_date": "7342272000", "anniversary_or_expiry": "2023-04-08", "area_ha": 8.903, "tenure_type": "Mineral", "source": "BC MTA Mineral, Placer and Coal Tenure Spatial View (BCGW). Open Government Licence - British Columbia. Not legal title.", "as_of": "2026-09-20", "role": "focus", "color": "#e8b040"}}, {"type": "Feature", "geometry": {"type": "Polygon", "coordinates": [[[-126.8956, 56.1332], [-126.8956, 56.1291], [-126.8331, 56.1291], [-126.8331, 56.1374], [-126.8956, 56.1374], [-126.8956, 56.1332]]]}, "properties": {"company_id": "imperial-oil", "jurisdiction": "British Columbia", "claim_id": 502664, "claim_name": "Black 7", "holder": "IMPERIAL METALS CORPORATION", "status": "Mineral", "recorded_date": "2005-01-13", "anniversary_or_expiry": "2026-06-30", "area_ha": 360.595, "tenure_type": "Mineral", "source": "BC MTA Mineral, Placer and Coal Tenure Spatial View (BCGW). Open Government Licence - British Columbia. Not legal title.", "as_of": "2026-09-20", "role": "focus", "color": "#e8b040"}}, {"type": "Feature", "geometry": {"type": "Polygon", "coordinates": [[[-124.5202, 49.7373], [-124.5202, 49.7415], [-124.5264, 49.7415], [-124.5264, 49.7373], [-124.5202, 49.7373]]]}, "properties": {"company_id": "imperial-oil", "jurisdiction": "British Columbia", "claim_id": 509845, "claim_name": "Imperial 1", "holder": "IMPERIAL LIMESTONE COMPANY LIMITED", "status": "Mineral", "recorded_date": "2005-03-30", "anniversary_or_expiry": "2025-03-30", "area_ha": 20.88, "tenure_type": "Mineral", "source": "BC MTA Mineral, Placer and Coal Tenure Spatial View (BCGW). Open Government Licence - British Columbia. Not legal title.", "as_of": "2026-09-20", "role": "focus", "color": "#e8b040"}}, {"type": "Feature", "geometry": {"type": "Polygon", "coordinates": [[[-126.9206, 56.0999], [-126.9206, 56.0957], [-126.8894, 56.0957], [-126.8894, 56.0916], [-126.8581, 56.0916], [-126.8581, 56.1124], [-126.9206, 56.1124], [-126.9206, 56.0999]]]}, "properties": {"company_id": "imperial-oil", "jurisdiction": "British Columbia", "claim_id": 512306, "claim_name": null, "holder": "IMPERIAL METALS CORPORATION", "status": "Mineral", "recorded_date": "2005-05-09", "anniversary_or_expiry": "2026-06-30", "area_ha": 811.9730000000001, "tenure_type": "Mineral", "source": "BC MTA Mineral, Placer and Coal Tenure Spatial View (BCGW). Open Government Licence - British Columbia. Not legal title.", "as_of": "2026-09-20", "role": "focus", "color": "#e8b040"}}, {"type": "Feature", "geometry": {"type": "Polygon", "coordinates": [[[-126.8894, 56.0791], [-126.8894, 56.0749], [-126.8269, 56.0749], [-126.8269, 56.1124], [-126.8331, 56.1124], [-126.8331, 56.1082], [-126.8581, 56.1082], [-126.8581, 56.0916], [-126.8894, 56.0916], [-126.8894, 56.0791]]]}, "properties": {"company_id": "imperial-oil", "jurisdiction": "British Columbia", "claim_id": 512324, "claim_name": null, "holder": "IMPERIAL METALS CORPORATION", "status": "Mineral", "recorded_date": "2005-05-10", "anniversary_or_expiry": "2026-06-30", "area_ha": 1101.063, "tenure_type": "Mineral", "source": "BC MTA Mineral, Placer and Coal Tenure Spatial View (BCGW). Open Government Licence - British Columbia. Not legal title.", "as_of": "2026-09-20", "role": "focus", "color": "#e8b040"}}, {"type": "Feature", "geometry": {"type": "Polygon", "coordinates": [[[-126.9269, 56.0999], [-126.9269, 56.0957], [-126.9206, 56.0957], [-126.9206, 56.1124], [-126.9081, 56.1124], [-126.9081, 56.1166], [-126.9019, 56.1166], [-126.9019, 56.1207], [-126.9269, 56.1207], [-126.9269, 56.0999]]]}, "properties": {"company_id": "imperial-oil", "jurisdiction": "British Columbia", "claim_id": 512326, "claim_name": "BEAR1", "holder": "IMPERIAL METALS CORPORATION", "status": "Mineral", "recorded_date": "2005-05-10", "anniversary_or_expiry": "2026-06-30", "area_ha": 198.434, "tenure_type": "Mineral", "source": "BC MTA Mineral, Placer and Coal Tenure Spatial View (BCGW). Open Government Licence - British Columbia. Not legal title.", "as_of": "2026-09-20", "role": "focus", "color": "#e8b040"}}, {"type": "Feature", "geometry": {"type": "Polygon", "coordinates": [[[-126.9269, 56.0832], [-126.9269, 56.0791], [-126.8894, 56.0791], [-126.8894, 56.0957], [-126.9269, 56.0957], [-126.9269, 56.0832]]]}, "properties": {"company_id": "imperial-oil", "jurisdiction": "British Columbia", "claim_id": 512329, "claim_name": "BEAR2", "holder": "IMPERIAL METALS CORPORATION", "status": "Mineral", "recorded_date": "2005-05-10", "anniversary_or_expiry": "2026-06-30", "area_ha": 433.223, "tenure_type": "Mineral", "source": "BC MTA Mineral, Placer and Coal Tenure Spatial View (BCGW). Open Government Licence - British Columbia. Not legal title.", "as_of": "2026-09-20", "role": "focus", "color": "#e8b040"}}, {"type": "Feature", "geometry": {"type": "Polygon", "coordinates": [[[-126.9206, 56.0707], [-126.9206, 56.0666], [-126.8581, 56.0666], [-126.8581, 56.0749], [-126.8894, 56.0749], [-126.8894, 56.0791], [-126.9206, 56.0791], [-126.9206, 56.0707]]]}, "properties": {"company_id": "imperial-oil", "jurisdiction": "British Columbia", "claim_id": 512330, "claim_name": "BEAR3", "holder": "IMPERIAL METALS CORPORATION", "status": "Mineral", "recorded_date": "2005-05-10", "anniversary_or_expiry": "2026-06-30", "area_ha": 451.451, "tenure_type": "Mineral", "source": "BC MTA Mineral, Placer and Coal Tenure Spatial View (BCGW). Open Government Licence - British Columbia. Not legal title.", "as_of": "2026-09-20", "role": "focus", "color": "#e8b040"}}, {"type": "Feature", "geometry": {"type": "Polygon", "coordinates": [[[-126.8581, 56.0707], [-126.8581, 56.0666], [-126.7956, 56.0666], [-126.7956, 56.0749], [-126.8019, 56.0749], [-126.8019, 56.0791], [-126.8269, 56.0791], [-126.8269, 56.0749], [-126.8581, 56.0749], [-126.8581, 56.0707]]]}, "properties": {"company_id": "imperial-oil", "jurisdiction": "British Columbia", "claim_id": 512332, "claim_name": "BEAR4", "holder": "IMPERIAL METALS CORPORATION", "status": "Mineral", "recorded_date": "2005-05-10", "anniversary_or_expiry": "2026-06-30", "area_ha": 433.39500000000004, "tenure_type": "Mineral", "source": "BC MTA Mineral, Placer and Coal Tenure Spatial View (BCGW). Open Government Licence - British Columbia. Not legal title.", "as_of": "2026-09-20", "role": "focus", "color": "#e8b040"}}, {"type": "Feature", "geometry": {"type": "Polygon", "coordinates": [[[-126.8269, 56.0832], [-126.8269, 56.0791], [-126.8081, 56.0791], [-126.8081, 56.0874], [-126.8144, 56.0874], [-126.8144, 56.0916], [-126.8269, 56.0916], [-126.8269, 56.0832]]]}, "properties": {"company_id": "imperial-oil", "jurisdiction": "British Columbia", "claim_id": 512334, "claim_name": "BEAR5", "holder": "IMPERIAL METALS CORPORATION", "status": "Mineral", "recorded_date": "2005-05-10", "anniversary_or_expiry": "2026-06-30", "area_ha": 144.417, "tenure_type": "Mineral", "source": "BC MTA Mineral, Placer and Coal Tenure Spatial View (BCGW). Open Government Licence - British Columbia. Not legal title.", "as_of": "2026-09-20", "role": "focus", "color": "#e8b040"}}, {"type": "Feature", "geometry": {"type": "Polygon", "coordinates": [[[-126.9019, 56.1124], [-126.8581, 56.1124], [-126.8581, 56.1082], [-126.8331, 56.1082], [-126.8331, 56.1291], [-126.8956, 56.1291], [-126.8956, 56.1332], [-126.9019, 56.1332], [-126.9019, 56.1166], [-126.9081, 56.1166], [-126.9081, 56.1124], [-126.9019, 56.1124]]]}, "properties": {"company_id": "imperial-oil", "jurisdiction": "British Columbia", "claim_id": 512322, "claim_name": null, "holder": "IMPERIAL METALS CORPORATION", "status": "Mineral", "recorded_date": "2005-05-10", "anniversary_or_expiry": "2026-06-30", "area_ha": 901.796, "tenure_type": "Mineral", "source": "BC MTA Mineral, Placer and Coal Tenure Spatial View (BCGW). Open Government Licence - British Columbia. Not legal title.", "as_of": "2026-09-20", "role": "focus", "color": "#e8b040"}}, {"type": "Feature", "geometry": {"type": "Polygon", "coordinates": [[[-126.7956, 56.0291], [-126.7956, 56.0249], [-126.7769, 56.0249], [-126.7769, 56.0332], [-126.7831, 56.0332], [-126.7831, 56.0707], [-126.7956, 56.0707], [-126.7956, 56.0291]]]}, "properties": {"company_id": "imperial-oil", "jurisdiction": "British Columbia", "claim_id": 531466, "claim_name": "BL1", "holder": "IMPERIAL METALS CORPORATION", "status": "Mineral", "recorded_date": "2006-04-07", "anniversary_or_expiry": "2026-06-30", "area_ha": 433.682, "tenure_type": "Mineral", "source": "BC MTA Mineral, Placer and Coal Tenure Spatial View (BCGW). Open Government Licence - British Columbia. Not legal title.", "as_of": "2026-09-20", "role": "focus", "color": "#e8b040"}}, {"type": "Feature", "geometry": {"type": "Polygon", "coordinates": [[[-126.7956, 56.0124], [-126.7956, 56.0082], [-126.7519, 56.0082], [-126.7519, 56.0124], [-126.7581, 56.0124], [-126.7581, 56.0166], [-126.7644, 56.0166], [-126.7644, 56.0207], [-126.7706, 56.0207], [-126.7706, 56.0249], [-126.7956, 56.0249], [-126.7956, 56.0124]]]}, "properties": {"company_id": "imperial-oil", "jurisdiction": "British Columbia", "claim_id": 531467, "claim_name": "BL2", "holder": "IMPERIAL METALS CORPORATION", "status": "Mineral", "recorded_date": "2006-04-07", "anniversary_or_expiry": "2026-06-30", "area_ha": 397.856, "tenure_type": "Mineral", "source": "BC MTA Mineral, Placer and Coal Tenure Spatial View (BCGW). Open Government Licence - British Columbia. Not legal title.", "as_of": "2026-09-20", "role": "focus", "color": "#e8b040"}}, {"type": "Feature", "geometry": {"type": "Polygon", "coordinates": [[[-126.7956, 55.9999], [-126.7956, 55.9957], [-126.7331, 55.9957], [-126.7331, 55.9999], [-126.7456, 55.9999], [-126.7456, 56.0041], [-126.7519, 56.0041], [-126.7519, 56.0082], [-126.7956, 56.0082], [-126.7956, 55.9999]]]}, "properties": {"company_id": "imperial-oil", "jurisdiction": "British Columbia", "claim_id": 531468, "claim_name": "BL3", "holder": "IMPERIAL METALS CORPORATION", "status": "Mineral", "recorded_date": "2006-04-07", "anniversary_or_expiry": "2026-06-30", "area_ha": 452.271, "tenure_type": "Mineral", "source": "BC MTA Mineral, Placer and Coal Tenure Spatial View (BCGW). Open Government Licence - British Columbia. Not legal title.", "as_of": "2026-09-20", "role": "focus", "color": "#e8b040"}}, {"type": "Feature", "geometry": {"type": "Polygon", "coordinates": [[[-126.7706, 55.9832], [-126.7706, 55.9791], [-126.7331, 55.9791], [-126.7331, 55.9957], [-126.7769, 55.9957], [-126.7769, 55.9916], [-126.7706, 55.9916], [-126.7706, 55.9832]]]}, "properties": {"company_id": "imperial-oil", "jurisdiction": "British Columbia", "claim_id": 531469, "claim_name": "BL4", "holder": "IMPERIAL METALS CORPORATION", "status": "Mineral", "recorded_date": "2006-04-07", "anniversary_or_expiry": "2026-06-30", "area_ha": 452.42600000000004, "tenure_type": "Mineral", "source": "BC MTA Mineral, Placer and Coal Tenure Spatial View (BCGW). Open Government Licence - British Columbia. Not legal title.", "as_of": "2026-09-20", "role": "focus", "color": "#e8b040"}}, {"type": "Feature", "geometry": {"type": "Polygon", "coordinates": [[[-124.5202, 49.7457], [-124.5264, 49.7457], [-124.5264, 49.7415], [-124.5202, 49.7415], [-124.5202, 49.7332], [-124.5139, 49.7332], [-124.5139, 49.7457], [-124.5202, 49.7457]]]}, "properties": {"company_id": "imperial-oil", "jurisdiction": "British Columbia", "claim_id": 517019, "claim_name": "IMPERIAL 2", "holder": "IMPERIAL LIMESTONE COMPANY LIMITED", "status": "Mineral", "recorded_date": "2005-07-12", "anniversary_or_expiry": "2025-07-12", "area_ha": 83.518, "tenure_type": "Mineral", "source": "BC MTA Mineral, Placer and Coal Tenure Spatial View (BCGW). Open Government Licence - British Columbia. Not legal title.", "as_of": "2026-09-20", "role": "focus", "color": "#e8b040"}}]}