{"type": "FeatureCollection", "features": [{"type": "Feature", "geometry": {"type": "Polygon", "coordinates": [[[-124.9789, 53.0476], [-125.0087, 53.0476], [-125.0087, 53.0369], [-125.0038, 53.0369], [-125.0038, 53.0251], [-124.9789, 53.0251], [-124.9789, 53.0476]]]}, "properties": {"company_id": "independence-gold", "jurisdiction": "British Columbia", "claim_id": 323457, "claim_name": "TAKEN 1", "holder": "INDEPENDENCE GOLD CORP.", "status": "Mineral", "recorded_date": "7599744000", "anniversary_or_expiry": "2028-01-01", "area_ha": 500, "tenure_type": "Mineral", "source": "BC MTA Mineral, Placer and Coal Tenure Spatial View (BCGW). Open Government Licence - British Columbia. Not legal title.", "as_of": "2026-09-20", "role": "focus", "color": "#e8b040"}}, {"type": "Feature", "geometry": {"type": "Polygon", "coordinates": [[[-125.0391, 53.0374], [-125.0453, 53.0374], [-125.0453, 53.0332], [-125.0203, 53.0332], [-125.0203, 53.0166], [-125.0016, 53.0166], [-125.0016, 53.0374], [-125.0391, 53.0374]]]}, "properties": {"company_id": "independence-gold", "jurisdiction": "British Columbia", "claim_id": 510136, "claim_name": null, "holder": "INDEPENDENCE GOLD CORP.", "status": "Mineral", "recorded_date": "2005-04-04", "anniversary_or_expiry": "2028-01-01", "area_ha": 369.44300000000004, "tenure_type": "Mineral", "source": "BC MTA Mineral, Placer and Coal Tenure Spatial View (BCGW). Open Government Licence - British Columbia. Not legal title.", "as_of": "2026-09-20", "role": "focus", "color": "#e8b040"}}, {"type": "Feature", "geometry": {"type": "Polygon", "coordinates": [[[-125.0203, 53.0541], [-125.0203, 53.0499], [-125.0141, 53.0499], [-125.0141, 53.0457], [-125.0016, 53.0457], [-125.0016, 53.0582], [-125.0203, 53.0582], [-125.0203, 53.0541]]]}, "properties": {"company_id": "independence-gold", "jurisdiction": "British Columbia", "claim_id": 510137, "claim_name": null, "holder": "INDEPENDENCE GOLD CORP.", "status": "Mineral", "recorded_date": "2005-04-04", "anniversary_or_expiry": "2028-01-01", "area_ha": 155.47, "tenure_type": "Mineral", "source": "BC MTA Mineral, Placer and Coal Tenure Spatial View (BCGW). Open Government Licence - British Columbia. Not legal title.", "as_of": "2026-09-20", "role": "focus", "color": "#e8b040"}}, {"type": "Feature", "geometry": {"type": "Polygon", "coordinates": [[[-125.0641, 53.0499], [-125.0641, 53.0166], [-125.0453, 53.0166], [-125.0453, 53.0541], [-125.0641, 53.0541], [-125.0641, 53.0499]]]}, "properties": {"company_id": "independence-gold", "jurisdiction": "British Columbia", "claim_id": 516422, "claim_name": null, "holder": "INDEPENDENCE GOLD CORP.", "status": "Mineral", "recorded_date": "2005-07-08", "anniversary_or_expiry": "2028-01-01", "area_ha": 524.918, "tenure_type": "Mineral", "source": "BC MTA Mineral, Placer and Coal Tenure Spatial View (BCGW). Open Government Licence - British Columbia. Not legal title.", "as_of": "2026-09-20", "role": "focus", "color": "#e8b040"}}, {"type": "Feature", "geometry": {"type": "Polygon", "coordinates": [[[-125.0453, 53.0291], [-125.0453, 53.0166], [-125.0203, 53.0166], [-125.0203, 53.0332], [-125.0453, 53.0332], [-125.0453, 53.0291]]]}, "properties": {"company_id": "independence-gold", "jurisdiction": "British Columbia", "claim_id": 516797, "claim_name": null, "holder": "INDEPENDENCE GOLD CORP.", "status": "Mineral", "recorded_date": "2005-07-11", "anniversary_or_expiry": "2028-01-01", "area_ha": 311.137, "tenure_type": "Mineral", "source": "BC MTA Mineral, Placer and Coal Tenure Spatial View (BCGW). Open Government Licence - British Columbia. Not legal title.", "as_of": "2026-09-20", "role": "focus", "color": "#e8b040"}}, {"type": "Feature", "geometry": {"type": "Polygon", "coordinates": [[[-125.0453, 53.0499], [-125.0453, 53.0374], [-125.0078, 53.0374], [-125.0078, 53.0457], [-125.0141, 53.0457], [-125.0141, 53.0499], [-125.0203, 53.0499], [-125.0203, 53.0541], [-125.0453, 53.0541], [-125.0453, 53.0499]]]}, "properties": {"company_id": "independence-gold", "jurisdiction": "British Columbia", "claim_id": 516807, "claim_name": null, "holder": "INDEPENDENCE GOLD CORP.", "status": "Mineral", "recorded_date": "2005-07-11", "anniversary_or_expiry": "2028-01-01", "area_ha": 408.17900000000003, "tenure_type": "Mineral", "source": "BC MTA Mineral, Placer and Coal Tenure Spatial View (BCGW). Open Government Licence - British Columbia. Not legal title.", "as_of": "2026-09-20", "role": "focus", "color": "#e8b040"}}, {"type": "Feature", "geometry": {"type": "Polygon", "coordinates": [[[-125.0016, 53.0249], [-125.0016, 53.0166], [-124.9578, 53.0166], [-124.9578, 53.0291], [-125.0016, 53.0291], [-125.0016, 53.0249]]]}, "properties": {"company_id": "independence-gold", "jurisdiction": "British Columbia", "claim_id": 516843, "claim_name": null, "holder": "INDEPENDENCE GOLD CORP.", "status": "Mineral", "recorded_date": "2005-07-11", "anniversary_or_expiry": "2028-01-01", "area_ha": 408.38800000000003, "tenure_type": "Mineral", "source": "BC MTA Mineral, Placer and Coal Tenure Spatial View (BCGW). Open Government Licence - British Columbia. Not legal title.", "as_of": "2026-09-20", "role": "focus", "color": "#e8b040"}}, {"type": "Feature", "geometry": {"type": "Polygon", "coordinates": [[[-125.0516, 53.0124], [-125.0516, 53.0082], [-124.9828, 53.0082], [-124.9828, 53.0166], [-125.0516, 53.0166], [-125.0516, 53.0124]]]}, "properties": {"company_id": "independence-gold", "jurisdiction": "British Columbia", "claim_id": 517484, "claim_name": null, "holder": "INDEPENDENCE GOLD CORP.", "status": "Mineral", "recorded_date": "2005-07-12", "anniversary_or_expiry": "2028-01-01", "area_ha": 427.937, "tenure_type": "Mineral", "source": "BC MTA Mineral, Placer and Coal Tenure Spatial View (BCGW). Open Government Licence - British Columbia. Not legal title.", "as_of": "2026-09-20", "role": "focus", "color": "#e8b040"}}]}