{"type": "FeatureCollection", "features": [{"type": "Feature", "geometry": {"type": "Polygon", "coordinates": [[[-70.24999983605379, 58.316666680349634], [-70.24999985050171, 58.32500001463308], [-70.24166651618052, 58.325000013075325], [-70.24166651646564, 58.31666668147626], [-70.24999983605379, 58.316666680349634]]]}, "properties": {"company_id": "international-tower-hill", "jurisdiction": "Quebec", "claim_id": "", "claim_name": null, "holder": "Antimony Mines International inc.", "status": "Active", "recorded_date": null, "anniversary_or_expiry": null, "area_ha": null, "tenure_type": null, "source": "GESTIM active titles (MRNF digital data dump). Not legal title.", "as_of": "2026-09-20", "role": "focus", "color": "#e8b040"}}, {"type": "Feature", "geometry": {"type": "Polygon", "coordinates": [[[-70.24999985050171, 58.32500001463308], [-70.24999984044986, 58.33333334772436], [-70.24166650859829, 58.33333335228927], [-70.24166651618052, 58.325000013075325], [-70.24999985050171, 58.32500001463308]]]}, "properties": {"company_id": "international-tower-hill", "jurisdiction": "Quebec", "claim_id": "", "claim_name": null, "holder": "Antimony Mines International inc.", "status": "Active", "recorded_date": null, "anniversary_or_expiry": null, "area_ha": null, "tenure_type": null, "source": "GESTIM active titles (MRNF digital data dump). Not legal title.", "as_of": "2026-09-20", "role": "focus", "color": "#e8b040"}}, {"type": "Feature", "geometry": {"type": "Polygon", "coordinates": [[[-70.24999984044986, 58.33333334772436], [-70.24999984002838, 58.34166667929137], [-70.24166651015452, 58.34166668099502], [-70.24166650859829, 58.33333335228927], [-70.24999984044986, 58.33333334772436]]]}, "properties": {"company_id": "international-tower-hill", "jurisdiction": "Quebec", "claim_id": "", "claim_name": null, "holder": "Antimony Mines International inc.", "status": "Active", "recorded_date": null, "anniversary_or_expiry": null, "area_ha": null, "tenure_type": null, "source": "GESTIM active titles (MRNF digital data dump). Not legal title.", "as_of": "2026-09-20", "role": "focus", "color": "#e8b040"}}, {"type": "Feature", "geometry": {"type": "Polygon", "coordinates": [[[-65.25833333238575, 51.07500000847633], [-65.25833333772302, 51.083333336146346], [-65.24999999939759, 51.08333333544354], [-65.25000000759812, 51.07499999955857], [-65.25833333238575, 51.07500000847633]]]}, "properties": {"company_id": "international-tower-hill", "jurisdiction": "Quebec", "claim_id": "", "claim_name": null, "holder": "Antimony Mines International inc.", "status": "Active", "recorded_date": null, "anniversary_or_expiry": null, "area_ha": null, "tenure_type": null, "source": "GESTIM active titles (MRNF digital data dump). Not legal title.", "as_of": "2026-09-20", "role": "focus", "color": "#e8b040"}}, {"type": "Feature", "geometry": {"type": "Polygon", "coordinates": [[[-65.2333333390073, 51.04166666809587], [-65.23333334093684, 51.050000006411736], [-65.22500000146289, 51.05000000602996], [-65.22499999849475, 51.04166666860775], [-65.2333333390073, 51.04166666809587]]]}, "properties": {"company_id": "international-tower-hill", "jurisdiction": "Quebec", "claim_id": "", "claim_name": null, "holder": "Antimony Mines International inc.", "status": "Active", "recorded_date": null, "anniversary_or_expiry": null, "area_ha": null, "tenure_type": null, "source": "GESTIM active titles (MRNF digital data dump). Not legal title.", "as_of": "2026-09-20", "role": "focus", "color": "#e8b040"}}, {"type": "Feature", "geometry": {"type": "Polygon", "coordinates": [[[-65.22499999849475, 51.04166666860775], [-65.22500000146289, 51.05000000602996], [-65.21666667177682, 51.05000000421144], [-65.21666666775461, 51.041666667645885], [-65.22499999849475, 51.04166666860775]]]}, "properties": {"company_id": "international-tower-hill", "jurisdiction": "Quebec", "claim_id": "", "claim_name": null, "holder": "Antimony Mines International inc.", "status": "Active", "recorded_date": null, "anniversary_or_expiry": null, "area_ha": null, "tenure_type": null, "source": "GESTIM active titles (MRNF digital data dump). Not legal title.", "as_of": "2026-09-20", "role": "focus", "color": "#e8b040"}}, {"type": "Feature", "geometry": {"type": "Polygon", "coordinates": [[[-65.21666666775461, 51.041666667645885], [-65.21666667177682, 51.05000000421144], [-65.2083333375866, 51.05000000123314], [-65.20833333292482, 51.041666674472836], [-65.21666666775461, 51.041666667645885]]]}, "properties": {"company_id": "international-tower-hill", "jurisdiction": "Quebec", "claim_id": "", "claim_name": null, "holder": "Antimony Mines International inc.", "status": "Active", "recorded_date": null, "anniversary_or_expiry": null, "area_ha": null, "tenure_type": null, "source": "GESTIM active titles (MRNF digital data dump). Not legal title.", "as_of": "2026-09-20", "role": "focus", "color": "#e8b040"}}, {"type": "Feature", "geometry": {"type": "Polygon", "coordinates": [[[-65.21666667177682, 51.05000000421144], [-65.21666666595192, 51.05833333978772], [-65.20833333265145, 51.058333335979135], [-65.2083333375866, 51.05000000123314], [-65.21666667177682, 51.05000000421144]]]}, "properties": {"company_id": "international-tower-hill", "jurisdiction": "Quebec", "claim_id": "", "claim_name": null, "holder": "Antimony Mines International inc.", "status": "Active", "recorded_date": null, "anniversary_or_expiry": null, "area_ha": null, "tenure_type": null, "source": "GESTIM active titles (MRNF digital data dump). Not legal title.", "as_of": "2026-09-20", "role": "focus", "color": "#e8b040"}}, {"type": "Feature", "geometry": {"type": "Polygon", "coordinates": [[[-65.25000000759812, 51.07499999955857], [-65.24999999939759, 51.08333333544354], [-65.24166667103154, 51.08333333343409], [-65.2416666650997, 51.075000007817266], [-65.25000000759812, 51.07499999955857]]]}, "properties": {"company_id": "international-tower-hill", "jurisdiction": "Quebec", "claim_id": "", "claim_name": null, "holder": "Antimony Mines International inc.", "status": "Active", "recorded_date": null, "anniversary_or_expiry": null, "area_ha": null, "tenure_type": null, "source": "GESTIM active titles (MRNF digital data dump). Not legal title.", "as_of": "2026-09-20", "role": "focus", "color": "#e8b040"}}, {"type": "Feature", "geometry": {"type": "Polygon", "coordinates": [[[-60.39999999573314, 50.22500000767107], [-60.40000000027659, 50.233333338845654], [-60.391666666759605, 50.23333333683665], [-60.39166665860502, 50.225000004575946], [-60.39999999573314, 50.22500000767107]]]}, "properties": {"company_id": "international-tower-hill", "jurisdiction": "Quebec", "claim_id": "", "claim_name": null, "holder": "Antimony Mines International inc.", "status": "Active", "recorded_date": null, "anniversary_or_expiry": null, "area_ha": null, "tenure_type": null, "source": "GESTIM active titles (MRNF digital data dump). Not legal title.", "as_of": "2026-09-20", "role": "focus", "color": "#e8b040"}}, {"type": "Feature", "geometry": {"type": "Polygon", "coordinates": [[[-61.19166666207993, 50.341666666851566], [-61.19166666013403, 50.35000000606966], [-61.18333333880272, 50.35000000468368], [-61.18333333834874, 50.34166666733103], [-61.19166666207993, 50.341666666851566]]]}, "properties": {"company_id": "international-tower-hill", "jurisdiction": "Quebec", "claim_id": "", "claim_name": null, "holder": "Antimony Mines International inc.", "status": "Active", "recorded_date": null, "anniversary_or_expiry": null, "area_ha": null, "tenure_type": null, "source": "GESTIM active titles (MRNF digital data dump). Not legal title.", "as_of": "2026-09-20", "role": "focus", "color": "#e8b040"}}, {"type": "Feature", "geometry": {"type": "Polygon", "coordinates": [[[-60.83333333203346, 50.29166667460208], [-60.83333333301479, 50.30000000550723], [-60.824999999691556, 50.30000000301978], [-60.824999995758596, 50.29166667262859], [-60.83333333203346, 50.29166667460208]]]}, "properties": {"company_id": "international-tower-hill", "jurisdiction": "Quebec", "claim_id": "", "claim_name": null, "holder": "Antimony Mines International inc.", "status": "Active", "recorded_date": null, "anniversary_or_expiry": null, "area_ha": null, "tenure_type": null, "source": "GESTIM active titles (MRNF digital data dump). Not legal title.", "as_of": "2026-09-20", "role": "focus", "color": "#e8b040"}}, {"type": "Feature", "geometry": {"type": "Polygon", "coordinates": [[[-72.05833333344975, 52.14166667277207], [-72.05833333391571, 52.150000007251876], [-72.04999999857353, 52.15000000017853], [-72.04999999239715, 52.141666668127606], [-72.05833333344975, 52.14166667277207]]]}, "properties": {"company_id": "international-tower-hill", "jurisdiction": "Quebec", "claim_id": "", "claim_name": null, "holder": "International Prospect Ventures ltd.", "status": "Active", "recorded_date": null, "anniversary_or_expiry": null, "area_ha": null, "tenure_type": null, "source": "GESTIM active titles (MRNF digital data dump). Not legal title.", "as_of": "2026-09-20", "role": "focus", "color": "#e8b040"}}, {"type": "Feature", "geometry": {"type": "Polygon", "coordinates": [[[-72.04999999857353, 52.15000000017853], [-72.04999999974999, 52.15833334137026], [-72.04166665425873, 52.158333335202634], [-72.04166666156895, 52.1500000057276], [-72.04999999857353, 52.15000000017853]]]}, "properties": {"company_id": "international-tower-hill", "jurisdiction": "Quebec", "claim_id": "", "claim_name": null, "holder": "International Prospect Ventures ltd.", "status": "Active", "recorded_date": null, "anniversary_or_expiry": null, "area_ha": null, "tenure_type": null, "source": "GESTIM active titles (MRNF digital data dump). Not legal title.", "as_of": "2026-09-20", "role": "focus", "color": "#e8b040"}}, {"type": "Feature", "geometry": {"type": "Polygon", "coordinates": [[[-72.04166666156895, 52.1500000057276], [-72.04166665425873, 52.158333335202634], [-72.03333332163915, 52.15833334206027], [-72.0333333240458, 52.150000005934594], [-72.04166666156895, 52.1500000057276]]]}, "properties": {"company_id": "international-tower-hill", "jurisdiction": "Quebec", "claim_id": "", "claim_name": null, "holder": "International Prospect Ventures ltd.", "status": "Active", "recorded_date": null, "anniversary_or_expiry": null, "area_ha": null, "tenure_type": null, "source": "GESTIM active titles (MRNF digital data dump). Not legal title.", "as_of": "2026-09-20", "role": "focus", "color": "#e8b040"}}, {"type": "Feature", "geometry": {"type": "Polygon", "coordinates": [[[-72.04999999974999, 52.15833334137026], [-72.04999999712372, 52.16666667374609], [-72.0416666563763, 52.16666667419858], [-72.04166665425873, 52.158333335202634], [-72.04999999974999, 52.15833334137026]]]}, "properties": {"company_id": "international-tower-hill", "jurisdiction": "Quebec", "claim_id": "", "claim_name": null, "holder": "International Prospect Ventures ltd.", "status": "Active", "recorded_date": null, "anniversary_or_expiry": null, "area_ha": null, "tenure_type": null, "source": "GESTIM active titles (MRNF digital data dump). Not legal title.", "as_of": "2026-09-20", "role": "focus", "color": "#e8b040"}}, {"type": "Feature", "geometry": {"type": "Polygon", "coordinates": [[[-72.04166665425873, 52.158333335202634], [-72.0416666563763, 52.16666667419858], [-72.03333332967796, 52.16666666976349], [-72.03333332163915, 52.15833334206027], [-72.04166665425873, 52.158333335202634]]]}, "properties": {"company_id": "international-tower-hill", "jurisdiction": "Quebec", "claim_id": "", "claim_name": null, "holder": "International Prospect Ventures ltd.", "status": "Active", "recorded_date": null, "anniversary_or_expiry": null, "area_ha": null, "tenure_type": null, "source": "GESTIM active titles (MRNF digital data dump). Not legal title.", "as_of": "2026-09-20", "role": "focus", "color": "#e8b040"}}, {"type": "Feature", "geometry": {"type": "Polygon", "coordinates": [[[-72.03333332163915, 52.15833334206027], [-72.03333332967796, 52.16666666976349], [-72.02500000178706, 52.16666666904716], [-72.02499998903912, 52.15833333463481], [-72.03333332163915, 52.15833334206027]]]}, "properties": {"company_id": "international-tower-hill", "jurisdiction": "Quebec", "claim_id": "", "claim_name": null, "holder": "International Prospect Ventures ltd.", "status": "Active", "recorded_date": null, "anniversary_or_expiry": null, "area_ha": null, "tenure_type": null, "source": "GESTIM active titles (MRNF digital data dump). Not legal title.", "as_of": "2026-09-20", "role": "focus", "color": "#e8b040"}}, {"type": "Feature", "geometry": {"type": "Polygon", "coordinates": [[[-71.46666666824592, 52.033333335971406], [-71.4666666733548, 52.041666673601746], [-71.45833333091986, 52.04166667310792], [-71.45833333197119, 52.03333333902727], [-71.46666666824592, 52.033333335971406]]]}, "properties": {"company_id": "international-tower-hill", "jurisdiction": "Quebec", "claim_id": "", "claim_name": null, "holder": "International Prospect Ventures ltd.", "status": "Active", "recorded_date": null, "anniversary_or_expiry": null, "area_ha": null, "tenure_type": null, "source": "GESTIM active titles (MRNF digital data dump). Not legal title.", "as_of": "2026-09-20", "role": "focus", "color": "#e8b040"}}, {"type": "Feature", "geometry": {"type": "Polygon", "coordinates": [[[-71.45833333197119, 52.03333333902727], [-71.45833333091986, 52.04166667310792], [-71.45000000082324, 52.04166666676907], [-71.45000000801656, 52.03333333619611], [-71.45833333197119, 52.03333333902727]]]}, "properties": {"company_id": "international-tower-hill", "jurisdiction": "Quebec", "claim_id": "", "claim_name": null, "holder": "International Prospect Ventures ltd.", "status": "Active", "recorded_date": null, "anniversary_or_expiry": null, "area_ha": null, "tenure_type": null, "source": "GESTIM active titles (MRNF digital data dump). Not legal title.", "as_of": "2026-09-20", "role": "focus", "color": "#e8b040"}}, {"type": "Feature", "geometry": {"type": "Polygon", "coordinates": [[[-71.4666666733548, 52.041666673601746], [-71.46666667221703, 52.05000000169333], [-71.45833333850614, 52.05000000631679], [-71.45833333091986, 52.04166667310792], [-71.4666666733548, 52.041666673601746]]]}, "properties": {"company_id": "international-tower-hill", "jurisdiction": "Quebec", "claim_id": "", "claim_name": null, "holder": "International Prospect Ventures ltd.", "status": "Active", "recorded_date": null, "anniversary_or_expiry": null, "area_ha": null, "tenure_type": null, "source": "GESTIM active titles (MRNF digital data dump). Not legal title.", "as_of": "2026-09-20", "role": "focus", "color": "#e8b040"}}, {"type": "Feature", "geometry": {"type": "Polygon", "coordinates": [[[-71.45833333091986, 52.04166667310792], [-71.45833333850614, 52.05000000631679], [-71.45000000257927, 52.050000005442534], [-71.45000000082324, 52.04166666676907], [-71.45833333091986, 52.04166667310792]]]}, "properties": {"company_id": "international-tower-hill", "jurisdiction": "Quebec", "claim_id": "", "claim_name": null, "holder": "International Prospect Ventures ltd.", "status": "Active", "recorded_date": null, "anniversary_or_expiry": null, "area_ha": null, "tenure_type": null, "source": "GESTIM active titles (MRNF digital data dump). Not legal title.", "as_of": "2026-09-20", "role": "focus", "color": "#e8b040"}}, {"type": "Feature", "geometry": {"type": "Polygon", "coordinates": [[[-71.22500000487823, 52.058333333243546], [-71.22499999873591, 52.06666666863097], [-71.21666666722507, 52.066666671240306], [-71.21666666506547, 52.05833333847585], [-71.22500000487823, 52.058333333243546]]]}, "properties": {"company_id": "international-tower-hill", "jurisdiction": "Quebec", "claim_id": "", "claim_name": null, "holder": "International Prospect Ventures ltd.", "status": "Active", "recorded_date": null, "anniversary_or_expiry": null, "area_ha": null, "tenure_type": null, "source": "GESTIM active titles (MRNF digital data dump). Not legal title.", "as_of": "2026-09-20", "role": "focus", "color": "#e8b040"}}, {"type": "Feature", "geometry": {"type": "Polygon", "coordinates": [[[-71.7166666759401, 51.975000007601416], [-71.71666666369546, 51.98333333370502], [-71.7083333416712, 51.98333333928504], [-71.70833332913827, 51.97500000062916], [-71.7166666759401, 51.975000007601416]]]}, "properties": {"company_id": "international-tower-hill", "jurisdiction": "Quebec", "claim_id": "", "claim_name": null, "holder": "International Prospect Ventures ltd.", "status": "Active", "recorded_date": null, "anniversary_or_expiry": null, "area_ha": null, "tenure_type": null, "source": "GESTIM active titles (MRNF digital data dump). Not legal title.", "as_of": "2026-09-20", "role": "focus", "color": "#e8b040"}}, {"type": "Feature", "geometry": {"type": "Polygon", "coordinates": [[[-71.71666666369546, 51.98333333370502], [-71.71666666618624, 51.99166666824643], [-71.70833333859024, 51.9916666690751], [-71.7083333416712, 51.98333333928504], [-71.71666666369546, 51.98333333370502]]]}, "properties": {"company_id": "international-tower-hill", "jurisdiction": "Quebec", "claim_id": "", "claim_name": null, "holder": "International Prospect Ventures ltd.", "status": "Active", "recorded_date": null, "anniversary_or_expiry": null, "area_ha": null, "tenure_type": null, "source": "GESTIM active titles (MRNF digital data dump). Not legal title.", "as_of": "2026-09-20", "role": "focus", "color": "#e8b040"}}, {"type": "Feature", "geometry": {"type": "Polygon", "coordinates": [[[-71.7083333416712, 51.98333333928504], [-71.70833333859024, 51.9916666690751], [-71.6999999959206, 51.991666673249014], [-71.70000000401772, 51.983333339187475], [-71.7083333416712, 51.98333333928504]]]}, "properties": {"company_id": "international-tower-hill", "jurisdiction": "Quebec", "claim_id": "", "claim_name": null, "holder": "International Prospect Ventures ltd.", "status": "Active", "recorded_date": null, "anniversary_or_expiry": null, "area_ha": null, "tenure_type": null, "source": "GESTIM active titles (MRNF digital data dump). Not legal title.", "as_of": "2026-09-20", "role": "focus", "color": "#e8b040"}}, {"type": "Feature", "geometry": {"type": "Polygon", "coordinates": [[[-71.72500000784791, 51.99166667008645], [-71.7250000006541, 52.00000000058281], [-71.7166666683161, 52.00000000258139], [-71.71666666618624, 51.99166666824643], [-71.72500000784791, 51.99166667008645]]]}, "properties": {"company_id": "international-tower-hill", "jurisdiction": "Quebec", "claim_id": "", "claim_name": null, "holder": "International Prospect Ventures ltd.", "status": "Active", "recorded_date": null, "anniversary_or_expiry": null, "area_ha": null, "tenure_type": null, "source": "GESTIM active titles (MRNF digital data dump). Not legal title.", "as_of": "2026-09-20", "role": "focus", "color": "#e8b040"}}, {"type": "Feature", "geometry": {"type": "Polygon", "coordinates": [[[-79.50833333137844, 49.4750000051992], [-79.5083333269328, 49.48333334035282], [-79.50000000155705, 49.48333333264737], [-79.49999999876633, 49.47500000149451], [-79.50833333137844, 49.4750000051992]]]}, "properties": {"company_id": "international-tower-hill", "jurisdiction": "Quebec", "claim_id": "", "claim_name": null, "holder": "International Explorers & Prospectors inc.", "status": "Active", "recorded_date": null, "anniversary_or_expiry": null, "area_ha": null, "tenure_type": null, "source": "GESTIM active titles (MRNF digital data dump). Not legal title.", "as_of": "2026-09-20", "role": "focus", "color": "#e8b040"}}, {"type": "Feature", "geometry": {"type": "Polygon", "coordinates": [[[-79.5083333269328, 49.48333334035282], [-79.50833333215822, 49.49166667337168], [-79.49999999976546, 49.49166667048579], [-79.50000000155705, 49.48333333264737], [-79.5083333269328, 49.48333334035282]]]}, "properties": {"company_id": "international-tower-hill", "jurisdiction": "Quebec", "claim_id": "", "claim_name": null, "holder": "International Explorers & Prospectors inc.", "status": "Active", "recorded_date": null, "anniversary_or_expiry": null, "area_ha": null, "tenure_type": null, "source": "GESTIM active titles (MRNF digital data dump). Not legal title.", "as_of": "2026-09-20", "role": "focus", "color": "#e8b040"}}, {"type": "Feature", "geometry": {"type": "Polygon", "coordinates": [[[-79.50833333215822, 49.49166667337168], [-79.50833333325888, 49.500000004078295], [-79.49999999366933, 49.50000000601847], [-79.49999999976546, 49.49166667048579], [-79.50833333215822, 49.49166667337168]]]}, "properties": {"company_id": "international-tower-hill", "jurisdiction": "Quebec", "claim_id": "", "claim_name": null, "holder": "International Explorers & Prospectors inc.", "status": "Active", "recorded_date": null, "anniversary_or_expiry": null, "area_ha": null, "tenure_type": null, "source": "GESTIM active titles (MRNF digital data dump). Not legal title.", "as_of": "2026-09-20", "role": "focus", "color": "#e8b040"}}, {"type": "Feature", "geometry": {"type": "Polygon", "coordinates": [[[-79.51666666170463, 49.48333333221722], [-79.5166666598625, 49.491666669257704], [-79.50833333215822, 49.49166667337168], [-79.5083333269328, 49.48333334035282], [-79.51666666170463, 49.48333333221722]]]}, "properties": {"company_id": "international-tower-hill", "jurisdiction": "Quebec", "claim_id": "", "claim_name": null, "holder": "International Explorers & Prospectors inc.", "status": "Active", "recorded_date": null, "anniversary_or_expiry": null, "area_ha": null, "tenure_type": null, "source": "GESTIM active titles (MRNF digital data dump). Not legal title.", "as_of": "2026-09-20", "role": "focus", "color": "#e8b040"}}, {"type": "Feature", "geometry": {"type": "Polygon", "coordinates": [[[-79.51666667312114, 49.47500000202629], [-79.51666666170463, 49.48333333221722], [-79.5083333269328, 49.48333334035282], [-79.50833333137844, 49.4750000051992], [-79.51666667312114, 49.47500000202629]]]}, "properties": {"company_id": "international-tower-hill", "jurisdiction": "Quebec", "claim_id": "", "claim_name": null, "holder": "International Explorers & Prospectors inc.", "status": "Active", "recorded_date": null, "anniversary_or_expiry": null, "area_ha": null, "tenure_type": null, "source": "GESTIM active titles (MRNF digital data dump). Not legal title.", "as_of": "2026-09-20", "role": "focus", "color": "#e8b040"}}, {"type": "Feature", "geometry": {"type": "Polygon", "coordinates": [[[-79.14166666311287, 49.50833333325531], [-79.14166666667558, 49.516666669036496], [-79.13333333062626, 49.516666672260484], [-79.13333333476679, 49.50833333944302], [-79.14166666311287, 49.50833333325531]]]}, "properties": {"company_id": "international-tower-hill", "jurisdiction": "Quebec", "claim_id": "", "claim_name": null, "holder": "International Explorers & Prospectors inc.", "status": "Active", "recorded_date": null, "anniversary_or_expiry": null, "area_ha": null, "tenure_type": null, "source": "GESTIM active titles (MRNF digital data dump). Not legal title.", "as_of": "2026-09-20", "role": "focus", "color": "#e8b040"}}, {"type": "Feature", "geometry": {"type": "Polygon", "coordinates": [[[-79.13333333476679, 49.50833333944302], [-79.13333333062626, 49.516666672260484], [-79.12500000248089, 49.51666666857766], [-79.12500000052799, 49.50833333847359], [-79.13333333476679, 49.50833333944302]]]}, "properties": {"company_id": "international-tower-hill", "jurisdiction": "Quebec", "claim_id": "", "claim_name": null, "holder": "International Explorers & Prospectors inc.", "status": "Active", "recorded_date": null, "anniversary_or_expiry": null, "area_ha": null, "tenure_type": null, "source": "GESTIM active titles (MRNF digital data dump). Not legal title.", "as_of": "2026-09-20", "role": "focus", "color": "#e8b040"}}, {"type": "Feature", "geometry": {"type": "Polygon", "coordinates": [[[-79.12500000052799, 49.50833333847359], [-79.12500000248089, 49.51666666857766], [-79.1166666680621, 49.51666666675005], [-79.11666666002739, 49.50833333933097], [-79.12500000052799, 49.50833333847359]]]}, "properties": {"company_id": "international-tower-hill", "jurisdiction": "Quebec", "claim_id": "", "claim_name": null, "holder": "International Explorers & Prospectors inc.", "status": "Active", "recorded_date": null, "anniversary_or_expiry": null, "area_ha": null, "tenure_type": null, "source": "GESTIM active titles (MRNF digital data dump). Not legal title.", "as_of": "2026-09-20", "role": "focus", "color": "#e8b040"}}, {"type": "Feature", "geometry": {"type": "Polygon", "coordinates": [[[-79.11666666002739, 49.50833333933097], [-79.1166666680621, 49.51666666675005], [-79.1083333273414, 49.51666666677141], [-79.1083333273888, 49.50833333324474], [-79.11666666002739, 49.50833333933097]]]}, "properties": {"company_id": "international-tower-hill", "jurisdiction": "Quebec", "claim_id": "", "claim_name": null, "holder": "International Explorers & Prospectors inc.", "status": "Active", "recorded_date": null, "anniversary_or_expiry": null, "area_ha": null, "tenure_type": null, "source": "GESTIM active titles (MRNF digital data dump). Not legal title.", "as_of": "2026-09-20", "role": "focus", "color": "#e8b040"}}, {"type": "Feature", "geometry": {"type": "Polygon", "coordinates": [[[-79.1083333273888, 49.50833333324474], [-79.1083333273414, 49.51666666677141], [-79.0999999940981, 49.51666666886233], [-79.10000000189167, 49.50833333819162], [-79.1083333273888, 49.50833333324474]]]}, "properties": {"company_id": "international-tower-hill", "jurisdiction": "Quebec", "claim_id": "", "claim_name": null, "holder": "International Explorers & Prospectors inc.", "status": "Active", "recorded_date": null, "anniversary_or_expiry": null, "area_ha": null, "tenure_type": null, "source": "GESTIM active titles (MRNF digital data dump). Not legal title.", "as_of": "2026-09-20", "role": "focus", "color": "#e8b040"}}, {"type": "Feature", "geometry": {"type": "Polygon", "coordinates": [[[-79.10000000189167, 49.50833333819162], [-79.0999999940981, 49.51666666886233], [-79.09166666830353, 49.5166666730195], [-79.09166667039699, 49.50833333596059], [-79.10000000189167, 49.50833333819162]]]}, "properties": {"company_id": "international-tower-hill", "jurisdiction": "Quebec", "claim_id": "", "claim_name": null, "holder": "International Explorers & Prospectors inc.", "status": "Active", "recorded_date": null, "anniversary_or_expiry": null, "area_ha": null, "tenure_type": null, "source": "GESTIM active titles (MRNF digital data dump). Not legal title.", "as_of": "2026-09-20", "role": "focus", "color": "#e8b040"}}, {"type": "Feature", "geometry": {"type": "Polygon", "coordinates": [[[-79.09166667039699, 49.50833333596059], [-79.09166666830353, 49.5166666730195], [-79.08333333647273, 49.516666670021], [-79.08333333252959, 49.5083333355354], [-79.09166667039699, 49.50833333596059]]]}, "properties": {"company_id": "international-tower-hill", "jurisdiction": "Quebec", "claim_id": "", "claim_name": null, "holder": "International Explorers & Prospectors inc.", "status": "Active", "recorded_date": null, "anniversary_or_expiry": null, "area_ha": null, "tenure_type": null, "source": "GESTIM active titles (MRNF digital data dump). Not legal title.", "as_of": "2026-09-20", "role": "focus", "color": "#e8b040"}}, {"type": "Feature", "geometry": {"type": "Polygon", "coordinates": [[[-79.49999999366933, 49.50000000601847], [-79.49999999708018, 49.508333339425], [-79.49166667299514, 49.50833333960681], [-79.4916666631619, 49.50000000116026], [-79.49999999366933, 49.50000000601847]]]}, "properties": {"company_id": "international-tower-hill", "jurisdiction": "Quebec", "claim_id": "", "claim_name": null, "holder": "International Explorers & Prospectors inc.", "status": "Active", "recorded_date": null, "anniversary_or_expiry": null, "area_ha": null, "tenure_type": null, "source": "GESTIM active titles (MRNF digital data dump). Not legal title.", "as_of": "2026-09-20", "role": "focus", "color": "#e8b040"}}, {"type": "Feature", "geometry": {"type": "Polygon", "coordinates": [[[-79.49999999708018, 49.508333339425], [-79.49999999619746, 49.51666667052693], [-79.49166666482559, 49.51666666658353], [-79.49166667299514, 49.50833333960681], [-79.49999999708018, 49.508333339425]]]}, "properties": {"company_id": "international-tower-hill", "jurisdiction": "Quebec", "claim_id": "", "claim_name": null, "holder": "International Explorers & Prospectors inc.", "status": "Active", "recorded_date": null, "anniversary_or_expiry": null, "area_ha": null, "tenure_type": null, "source": "GESTIM active titles (MRNF digital data dump). Not legal title.", "as_of": "2026-09-20", "role": "focus", "color": "#e8b040"}}, {"type": "Feature", "geometry": {"type": "Polygon", "coordinates": [[[-79.15833333395301, 49.51666666841101], [-79.15833332786282, 49.524999998974344], [-79.1499999960253, 49.5250000044423], [-79.14999999650561, 49.51666666767802], [-79.15833333395301, 49.51666666841101]]]}, "properties": {"company_id": "international-tower-hill", "jurisdiction": "Quebec", "claim_id": "", "claim_name": null, "holder": "International Explorers & Prospectors inc.", "status": "Active", "recorded_date": null, "anniversary_or_expiry": null, "area_ha": null, "tenure_type": null, "source": "GESTIM active titles (MRNF digital data dump). Not legal title.", "as_of": "2026-09-20", "role": "focus", "color": "#e8b040"}}, {"type": "Feature", "geometry": {"type": "Polygon", "coordinates": [[[-79.14999999650561, 49.51666666767802], [-79.1499999960253, 49.5250000044423], [-79.14166667213398, 49.52500000304008], [-79.14166666667558, 49.516666669036496], [-79.14999999650561, 49.51666666767802]]]}, "properties": {"company_id": "international-tower-hill", "jurisdiction": "Quebec", "claim_id": "", "claim_name": null, "holder": "International Explorers & Prospectors inc.", "status": "Active", "recorded_date": null, "anniversary_or_expiry": null, "area_ha": null, "tenure_type": null, "source": "GESTIM active titles (MRNF digital data dump). Not legal title.", "as_of": "2026-09-20", "role": "focus", "color": "#e8b040"}}, {"type": "Feature", "geometry": {"type": "Polygon", "coordinates": [[[-79.14166666667558, 49.516666669036496], [-79.14166667213398, 49.52500000304008], [-79.13333332820139, 49.52500000330897], [-79.13333333062626, 49.516666672260484], [-79.14166666667558, 49.516666669036496]]]}, "properties": {"company_id": "international-tower-hill", "jurisdiction": "Quebec", "claim_id": "", "claim_name": null, "holder": "International Explorers & Prospectors inc.", "status": "Active", "recorded_date": null, "anniversary_or_expiry": null, "area_ha": null, "tenure_type": null, "source": "GESTIM active titles (MRNF digital data dump). Not legal title.", "as_of": "2026-09-20", "role": "focus", "color": "#e8b040"}}, {"type": "Feature", "geometry": {"type": "Polygon", "coordinates": [[[-79.13333333062626, 49.516666672260484], [-79.13333332820139, 49.52500000330897], [-79.12500000563026, 49.5250000059114], [-79.12500000248089, 49.51666666857766], [-79.13333333062626, 49.516666672260484]]]}, "properties": {"company_id": "international-tower-hill", "jurisdiction": "Quebec", "claim_id": "", "claim_name": null, "holder": "International Explorers & Prospectors inc.", "status": "Active", "recorded_date": null, "anniversary_or_expiry": null, "area_ha": null, "tenure_type": null, "source": "GESTIM active titles (MRNF digital data dump). Not legal title.", "as_of": "2026-09-20", "role": "focus", "color": "#e8b040"}}, {"type": "Feature", "geometry": {"type": "Polygon", "coordinates": [[[-79.12500000248089, 49.51666666857766], [-79.12500000563026, 49.5250000059114], [-79.1166666633062, 49.5250000011826], [-79.1166666680621, 49.51666666675005], [-79.12500000248089, 49.51666666857766]]]}, "properties": {"company_id": "international-tower-hill", "jurisdiction": "Quebec", "claim_id": "", "claim_name": null, "holder": "International Explorers & Prospectors inc.", "status": "Active", "recorded_date": null, "anniversary_or_expiry": null, "area_ha": null, "tenure_type": null, "source": "GESTIM active titles (MRNF digital data dump). Not legal title.", "as_of": "2026-09-20", "role": "focus", "color": "#e8b040"}}, {"type": "Feature", "geometry": {"type": "Polygon", "coordinates": [[[-79.1166666680621, 49.51666666675005], [-79.1166666633062, 49.5250000011826], [-79.10833332813192, 49.52500000754499], [-79.1083333273414, 49.51666666677141], [-79.1166666680621, 49.51666666675005]]]}, "properties": {"company_id": "international-tower-hill", "jurisdiction": "Quebec", "claim_id": "", "claim_name": null, "holder": "International Explorers & Prospectors inc.", "status": "Active", "recorded_date": null, "anniversary_or_expiry": null, "area_ha": null, "tenure_type": null, "source": "GESTIM active titles (MRNF digital data dump). Not legal title.", "as_of": "2026-09-20", "role": "focus", "color": "#e8b040"}}, {"type": "Feature", "geometry": {"type": "Polygon", "coordinates": [[[-79.1083333273414, 49.51666666677141], [-79.10833332813192, 49.52500000754499], [-79.1000000007711, 49.52500000701551], [-79.0999999940981, 49.51666666886233], [-79.1083333273414, 49.51666666677141]]]}, "properties": {"company_id": "international-tower-hill", "jurisdiction": "Quebec", "claim_id": "", "claim_name": null, "holder": "International Explorers & Prospectors inc.", "status": "Active", "recorded_date": null, "anniversary_or_expiry": null, "area_ha": null, "tenure_type": null, "source": "GESTIM active titles (MRNF digital data dump). Not legal title.", "as_of": "2026-09-20", "role": "focus", "color": "#e8b040"}}, {"type": "Feature", "geometry": {"type": "Polygon", "coordinates": [[[-79.0999999940981, 49.51666666886233], [-79.1000000007711, 49.52500000701551], [-79.09166666738943, 49.524999999363125], [-79.09166666830353, 49.5166666730195], [-79.0999999940981, 49.51666666886233]]]}, "properties": {"company_id": "international-tower-hill", "jurisdiction": "Quebec", "claim_id": "", "claim_name": null, "holder": "International Explorers & Prospectors inc.", "status": "Active", "recorded_date": null, "anniversary_or_expiry": null, "area_ha": null, "tenure_type": null, "source": "GESTIM active titles (MRNF digital data dump). Not legal title.", "as_of": "2026-09-20", "role": "focus", "color": "#e8b040"}}, {"type": "Feature", "geometry": {"type": "Polygon", "coordinates": [[[-79.09166666830353, 49.5166666730195], [-79.09166666738943, 49.524999999363125], [-79.08333332725988, 49.52500000256113], [-79.08333333647273, 49.516666670021], [-79.09166666830353, 49.5166666730195]]]}, "properties": {"company_id": "international-tower-hill", "jurisdiction": "Quebec", "claim_id": "", "claim_name": null, "holder": "International Explorers & Prospectors inc.", "status": "Active", "recorded_date": null, "anniversary_or_expiry": null, "area_ha": null, "tenure_type": null, "source": "GESTIM active titles (MRNF digital data dump). Not legal title.", "as_of": "2026-09-20", "role": "focus", "color": "#e8b040"}}, {"type": "Feature", "geometry": {"type": "Polygon", "coordinates": [[[-79.08333333647273, 49.516666670021], [-79.08333332725988, 49.52500000256113], [-79.07499999486544, 49.52499999885351], [-79.07499999822885, 49.51666666885039], [-79.08333333647273, 49.516666670021]]]}, "properties": {"company_id": "international-tower-hill", "jurisdiction": "Quebec", "claim_id": "", "claim_name": null, "holder": "International Explorers & Prospectors inc.", "status": "Active", "recorded_date": null, "anniversary_or_expiry": null, "area_ha": null, "tenure_type": null, "source": "GESTIM active titles (MRNF digital data dump). Not legal title.", "as_of": "2026-09-20", "role": "focus", "color": "#e8b040"}}, {"type": "Feature", "geometry": {"type": "Polygon", "coordinates": [[[-79.07499999822885, 49.51666666885039], [-79.07499999486544, 49.52499999885351], [-79.06666666947265, 49.52500000621637], [-79.06666666735093, 49.51666666973209], [-79.07499999822885, 49.51666666885039]]]}, "properties": {"company_id": "international-tower-hill", "jurisdiction": "Quebec", "claim_id": "", "claim_name": null, "holder": "International Explorers & Prospectors inc.", "status": "Active", "recorded_date": null, "anniversary_or_expiry": null, "area_ha": null, "tenure_type": null, "source": "GESTIM active titles (MRNF digital data dump). Not legal title.", "as_of": "2026-09-20", "role": "focus", "color": "#e8b040"}}, {"type": "Feature", "geometry": {"type": "Polygon", "coordinates": [[[-79.06666666735093, 49.51666666973209], [-79.06666666947265, 49.52500000621637], [-79.05833333795069, 49.52500000643509], [-79.0583333300028, 49.51666667243086], [-79.06666666735093, 49.51666666973209]]]}, "properties": {"company_id": "international-tower-hill", "jurisdiction": "Quebec", "claim_id": "", "claim_name": null, "holder": "International Explorers & Prospectors inc.", "status": "Active", "recorded_date": null, "anniversary_or_expiry": null, "area_ha": null, "tenure_type": null, "source": "GESTIM active titles (MRNF digital data dump). Not legal title.", "as_of": "2026-09-20", "role": "focus", "color": "#e8b040"}}, {"type": "Feature", "geometry": {"type": "Polygon", "coordinates": [[[-79.12500000563026, 49.5250000059114], [-79.12499999685856, 49.53333333227151], [-79.11666665991785, 49.53333333386404], [-79.1166666633062, 49.5250000011826], [-79.12500000563026, 49.5250000059114]]]}, "properties": {"company_id": "international-tower-hill", "jurisdiction": "Quebec", "claim_id": "", "claim_name": null, "holder": "International Explorers & Prospectors inc.", "status": "Active", "recorded_date": null, "anniversary_or_expiry": null, "area_ha": null, "tenure_type": null, "source": "GESTIM active titles (MRNF digital data dump). Not legal title.", "as_of": "2026-09-20", "role": "focus", "color": "#e8b040"}}, {"type": "Feature", "geometry": {"type": "Polygon", "coordinates": [[[-79.1166666633062, 49.5250000011826], [-79.11666665991785, 49.53333333386404], [-79.1083333304615, 49.53333333758634], [-79.10833332813192, 49.52500000754499], [-79.1166666633062, 49.5250000011826]]]}, "properties": {"company_id": "international-tower-hill", "jurisdiction": "Quebec", "claim_id": "", "claim_name": null, "holder": "International Explorers & Prospectors inc.", "status": "Active", "recorded_date": null, "anniversary_or_expiry": null, "area_ha": null, "tenure_type": null, "source": "GESTIM active titles (MRNF digital data dump). Not legal title.", "as_of": "2026-09-20", "role": "focus", "color": "#e8b040"}}, {"type": "Feature", "geometry": {"type": "Polygon", "coordinates": [[[-79.10833332813192, 49.52500000754499], [-79.1083333304615, 49.53333333758634], [-79.0999999949968, 49.53333333421836], [-79.1000000007711, 49.52500000701551], [-79.10833332813192, 49.52500000754499]]]}, "properties": {"company_id": "international-tower-hill", "jurisdiction": "Quebec", "claim_id": "", "claim_name": null, "holder": "International Explorers & Prospectors inc.", "status": "Active", "recorded_date": null, "anniversary_or_expiry": null, "area_ha": null, "tenure_type": null, "source": "GESTIM active titles (MRNF digital data dump). Not legal title.", "as_of": "2026-09-20", "role": "focus", "color": "#e8b040"}}, {"type": "Feature", "geometry": {"type": "Polygon", "coordinates": [[[-79.1000000007711, 49.52500000701551], [-79.0999999949968, 49.53333333421836], [-79.09166666696197, 49.533333332971665], [-79.09166666738943, 49.524999999363125], [-79.1000000007711, 49.52500000701551]]]}, "properties": {"company_id": "international-tower-hill", "jurisdiction": "Quebec", "claim_id": "", "claim_name": null, "holder": "International Explorers & Prospectors inc.", "status": "Active", "recorded_date": null, "anniversary_or_expiry": null, "area_ha": null, "tenure_type": null, "source": "GESTIM active titles (MRNF digital data dump). Not legal title.", "as_of": "2026-09-20", "role": "focus", "color": "#e8b040"}}, {"type": "Feature", "geometry": {"type": "Polygon", "coordinates": [[[-79.09166666738943, 49.524999999363125], [-79.09166666696197, 49.533333332971665], [-79.08333333251592, 49.53333333361402], [-79.08333332725988, 49.52500000256113], [-79.09166666738943, 49.524999999363125]]]}, "properties": {"company_id": "international-tower-hill", "jurisdiction": "Quebec", "claim_id": "", "claim_name": null, "holder": "International Explorers & Prospectors inc.", "status": "Active", "recorded_date": null, "anniversary_or_expiry": null, "area_ha": null, "tenure_type": null, "source": "GESTIM active titles (MRNF digital data dump). Not legal title.", "as_of": "2026-09-20", "role": "focus", "color": "#e8b040"}}, {"type": "Feature", "geometry": {"type": "Polygon", "coordinates": [[[-79.08333332725988, 49.52500000256113], [-79.08333333251592, 49.53333333361402], [-79.07500000544222, 49.53333333636896], [-79.07499999486544, 49.52499999885351], [-79.08333332725988, 49.52500000256113]]]}, "properties": {"company_id": "international-tower-hill", "jurisdiction": "Quebec", "claim_id": "", "claim_name": null, "holder": "International Explorers & Prospectors inc.", "status": "Active", "recorded_date": null, "anniversary_or_expiry": null, "area_ha": null, "tenure_type": null, "source": "GESTIM active titles (MRNF digital data dump). Not legal title.", "as_of": "2026-09-20", "role": "focus", "color": "#e8b040"}}, {"type": "Feature", "geometry": {"type": "Polygon", "coordinates": [[[-79.07499999486544, 49.52499999885351], [-79.07500000544222, 49.53333333636896], [-79.06666667189991, 49.53333334100225], [-79.06666666947265, 49.52500000621637], [-79.07499999486544, 49.52499999885351]]]}, "properties": {"company_id": "international-tower-hill", "jurisdiction": "Quebec", "claim_id": "", "claim_name": null, "holder": "International Explorers & Prospectors inc.", "status": "Active", "recorded_date": null, "anniversary_or_expiry": null, "area_ha": null, "tenure_type": null, "source": "GESTIM active titles (MRNF digital data dump). Not legal title.", "as_of": "2026-09-20", "role": "focus", "color": "#e8b040"}}, {"type": "Feature", "geometry": {"type": "Polygon", "coordinates": [[[-79.09166666696197, 49.533333332971665], [-79.09166666702808, 49.5416666738457], [-79.0833333380885, 49.54166667194116], [-79.08333333251592, 49.53333333361402], [-79.09166666696197, 49.533333332971665]]]}, "properties": {"company_id": "international-tower-hill", "jurisdiction": "Quebec", "claim_id": "", "claim_name": null, "holder": "International Explorers & Prospectors inc.", "status": "Active", "recorded_date": null, "anniversary_or_expiry": null, "area_ha": null, "tenure_type": null, "source": "GESTIM active titles (MRNF digital data dump). Not legal title.", "as_of": "2026-09-20", "role": "focus", "color": "#e8b040"}}, {"type": "Feature", "geometry": {"type": "Polygon", "coordinates": [[[-79.08333333251592, 49.53333333361402], [-79.0833333380885, 49.54166667194116], [-79.07500000269707, 49.54166667194786], [-79.07500000544222, 49.53333333636896], [-79.08333333251592, 49.53333333361402]]]}, "properties": {"company_id": "international-tower-hill", "jurisdiction": "Quebec", "claim_id": "", "claim_name": null, "holder": "International Explorers & Prospectors inc.", "status": "Active", "recorded_date": null, "anniversary_or_expiry": null, "area_ha": null, "tenure_type": null, "source": "GESTIM active titles (MRNF digital data dump). Not legal title.", "as_of": "2026-09-20", "role": "focus", "color": "#e8b040"}}, {"type": "Feature", "geometry": {"type": "Polygon", "coordinates": [[[-79.50833333325888, 49.500000004078295], [-79.50833333023802, 49.50833333247326], [-79.49999999708018, 49.508333339425], [-79.49999999366933, 49.50000000601847], [-79.50833333325888, 49.500000004078295]]]}, "properties": {"company_id": "international-tower-hill", "jurisdiction": "Quebec", "claim_id": "", "claim_name": null, "holder": "International Explorers & Prospectors inc.", "status": "Active", "recorded_date": null, "anniversary_or_expiry": null, "area_ha": null, "tenure_type": null, "source": "GESTIM active titles (MRNF digital data dump). Not legal title.", "as_of": "2026-09-20", "role": "focus", "color": "#e8b040"}}, {"type": "Feature", "geometry": {"type": "Polygon", "coordinates": [[[-79.50833333023802, 49.50833333247326], [-79.50833333663596, 49.5166666677269], [-79.49999999619746, 49.51666667052693], [-79.49999999708018, 49.508333339425], [-79.50833333023802, 49.50833333247326]]]}, "properties": {"company_id": "international-tower-hill", "jurisdiction": "Quebec", "claim_id": "", "claim_name": null, "holder": "International Explorers & Prospectors inc.", "status": "Active", "recorded_date": null, "anniversary_or_expiry": null, "area_ha": null, "tenure_type": null, "source": "GESTIM active titles (MRNF digital data dump). Not legal title.", "as_of": "2026-09-20", "role": "focus", "color": "#e8b040"}}, {"type": "Feature", "geometry": {"type": "Polygon", "coordinates": [[[-79.51666666787659, 49.50000000415644], [-79.51666667194887, 49.50833333673704], [-79.50833333023802, 49.50833333247326], [-79.50833333325888, 49.500000004078295], [-79.51666666787659, 49.50000000415644]]]}, "properties": {"company_id": "international-tower-hill", "jurisdiction": "Quebec", "claim_id": "", "claim_name": null, "holder": "International Explorers & Prospectors inc.", "status": "Active", "recorded_date": null, "anniversary_or_expiry": null, "area_ha": null, "tenure_type": null, "source": "GESTIM active titles (MRNF digital data dump). Not legal title.", "as_of": "2026-09-20", "role": "focus", "color": "#e8b040"}}, {"type": "Feature", "geometry": {"type": "Polygon", "coordinates": [[[-79.51666667194887, 49.50833333673704], [-79.51666667208251, 49.516666667000024], [-79.50833333663596, 49.5166666677269], [-79.50833333023802, 49.50833333247326], [-79.51666667194887, 49.50833333673704]]]}, "properties": {"company_id": "international-tower-hill", "jurisdiction": "Quebec", "claim_id": "", "claim_name": null, "holder": "International Explorers & Prospectors inc.", "status": "Active", "recorded_date": null, "anniversary_or_expiry": null, "area_ha": null, "tenure_type": null, "source": "GESTIM active titles (MRNF digital data dump). Not legal title.", "as_of": "2026-09-20", "role": "focus", "color": "#e8b040"}}, {"type": "Feature", "geometry": {"type": "Polygon", "coordinates": [[[-78.79166667124949, 49.76666666730966], [-78.79166666396195, 49.77500000279364], [-78.78333333557133, 49.77500000339322], [-78.78333332887591, 49.766666668896036], [-78.79166667124949, 49.76666666730966]]]}, "properties": {"company_id": "international-tower-hill", "jurisdiction": "Quebec", "claim_id": "", "claim_name": null, "holder": "International Explorers & Prospectors inc.", "status": "Active", "recorded_date": null, "anniversary_or_expiry": null, "area_ha": null, "tenure_type": null, "source": "GESTIM active titles (MRNF digital data dump). Not legal title.", "as_of": "2026-09-20", "role": "focus", "color": "#e8b040"}}, {"type": "Feature", "geometry": {"type": "Polygon", "coordinates": [[[-78.78333332887591, 49.766666668896036], [-78.78333333557133, 49.77500000339322], [-78.77499999930264, 49.77500000649111], [-78.77499999251467, 49.766666673216115], [-78.78333332887591, 49.766666668896036]]]}, "properties": {"company_id": "international-tower-hill", "jurisdiction": "Quebec", "claim_id": "", "claim_name": null, "holder": "International Explorers & Prospectors inc.", "status": "Active", "recorded_date": null, "anniversary_or_expiry": null, "area_ha": null, "tenure_type": null, "source": "GESTIM active titles (MRNF digital data dump). Not legal title.", "as_of": "2026-09-20", "role": "focus", "color": "#e8b040"}}, {"type": "Feature", "geometry": {"type": "Polygon", "coordinates": [[[-78.77499999251467, 49.766666673216115], [-78.77499999930264, 49.77500000649111], [-78.76666666941678, 49.775000003359956], [-78.76666666254826, 49.76666667127796], [-78.77499999251467, 49.766666673216115]]]}, "properties": {"company_id": "international-tower-hill", "jurisdiction": "Quebec", "claim_id": "", "claim_name": null, "holder": "International Explorers & Prospectors inc.", "status": "Active", "recorded_date": null, "anniversary_or_expiry": null, "area_ha": null, "tenure_type": null, "source": "GESTIM active titles (MRNF digital data dump). Not legal title.", "as_of": "2026-09-20", "role": "focus", "color": "#e8b040"}}, {"type": "Feature", "geometry": {"type": "Polygon", "coordinates": [[[-78.76666666254826, 49.76666667127796], [-78.76666666941678, 49.775000003359956], [-78.75833333159484, 49.77500000271446], [-78.75833333853602, 49.7666666720648], [-78.76666666254826, 49.76666667127796]]]}, "properties": {"company_id": "international-tower-hill", "jurisdiction": "Quebec", "claim_id": "", "claim_name": null, "holder": "International Explorers & Prospectors inc.", "status": "Active", "recorded_date": null, "anniversary_or_expiry": null, "area_ha": null, "tenure_type": null, "source": "GESTIM active titles (MRNF digital data dump). Not legal title.", "as_of": "2026-09-20", "role": "focus", "color": "#e8b040"}}, {"type": "Feature", "geometry": {"type": "Polygon", "coordinates": [[[-78.75833333853602, 49.7666666720648], [-78.75833333159484, 49.77500000271446], [-78.74999999968439, 49.7750000048167], [-78.74999999311238, 49.76666666604557], [-78.75833333853602, 49.7666666720648]]]}, "properties": {"company_id": "international-tower-hill", "jurisdiction": "Quebec", "claim_id": "", "claim_name": null, "holder": "International Explorers & Prospectors inc.", "status": "Active", "recorded_date": null, "anniversary_or_expiry": null, "area_ha": null, "tenure_type": null, "source": "GESTIM active titles (MRNF digital data dump). Not legal title.", "as_of": "2026-09-20", "role": "focus", "color": "#e8b040"}}, {"type": "Feature", "geometry": {"type": "Polygon", "coordinates": [[[-78.34166667594734, 46.74166666972184], [-78.34166667541896, 46.75000000287458], [-78.3333333445426, 46.750000006302656], [-78.33333333590633, 46.74166666952586], [-78.34166667594734, 46.74166666972184]]]}, "properties": {"company_id": "international-tower-hill", "jurisdiction": "Quebec", "claim_id": "", "claim_name": null, "holder": "Antimony Mines International inc.", "status": "Active", "recorded_date": null, "anniversary_or_expiry": null, "area_ha": null, "tenure_type": null, "source": "GESTIM active titles (MRNF digital data dump). Not legal title.", "as_of": "2026-09-20", "role": "focus", "color": "#e8b040"}}, {"type": "Feature", "geometry": {"type": "Polygon", "coordinates": [[[-79.34166667110375, 49.366666668505175], [-79.34166666026218, 49.37499999878531], [-79.33333333383099, 49.37500000578676], [-79.3333333356282, 49.366666670058564], [-79.34166667110375, 49.366666668505175]]]}, "properties": {"company_id": "international-tower-hill", "jurisdiction": "Quebec", "claim_id": "", "claim_name": null, "holder": "International Explorers & Prospectors inc.", "status": "Active", "recorded_date": null, "anniversary_or_expiry": null, "area_ha": null, "tenure_type": null, "source": "GESTIM active titles (MRNF digital data dump). Not legal title.", "as_of": "2026-09-20", "role": "focus", "color": "#e8b040"}}, {"type": "Feature", "geometry": {"type": "Polygon", "coordinates": [[[-79.3333333356282, 49.366666670058564], [-79.33333333383099, 49.37500000578676], [-79.3250000023144, 49.375000005316664], [-79.3249999947746, 49.36666667310368], [-79.3333333356282, 49.366666670058564]]]}, "properties": {"company_id": "international-tower-hill", "jurisdiction": "Quebec", "claim_id": "", "claim_name": null, "holder": "International Explorers & Prospectors inc.", "status": "Active", "recorded_date": null, "anniversary_or_expiry": null, "area_ha": null, "tenure_type": null, "source": "GESTIM active titles (MRNF digital data dump). Not legal title.", "as_of": "2026-09-20", "role": "focus", "color": "#e8b040"}}, {"type": "Feature", "geometry": {"type": "Polygon", "coordinates": [[[-79.3249999947746, 49.36666667310368], [-79.3250000023144, 49.375000005316664], [-79.31666666538241, 49.375000006360786], [-79.31666666259004, 49.366666668844296], [-79.3249999947746, 49.36666667310368]]]}, "properties": {"company_id": "international-tower-hill", "jurisdiction": "Quebec", "claim_id": "", "claim_name": null, "holder": "International Explorers & Prospectors inc.", "status": "Active", "recorded_date": null, "anniversary_or_expiry": null, "area_ha": null, "tenure_type": null, "source": "GESTIM active titles (MRNF digital data dump). Not legal title.", "as_of": "2026-09-20", "role": "focus", "color": "#e8b040"}}, {"type": "Feature", "geometry": {"type": "Polygon", "coordinates": [[[-79.49166666498928, 49.38333333512185], [-79.49166667003362, 49.3916666689323], [-79.4833333294103, 49.391666674033836], [-79.48333332925971, 49.3833333354328], [-79.49166666498928, 49.38333333512185]]]}, "properties": {"company_id": "international-tower-hill", "jurisdiction": "Quebec", "claim_id": "", "claim_name": null, "holder": "International Explorers & Prospectors inc.", "status": "Active", "recorded_date": null, "anniversary_or_expiry": null, "area_ha": null, "tenure_type": null, "source": "GESTIM active titles (MRNF digital data dump). Not legal title.", "as_of": "2026-09-20", "role": "focus", "color": "#e8b040"}}, {"type": "Feature", "geometry": {"type": "Polygon", "coordinates": [[[-79.49166667003362, 49.3916666689323], [-79.49166667054367, 49.40000000043697], [-79.48333333890234, 49.40000000152464], [-79.4833333294103, 49.391666674033836], [-79.49166667003362, 49.3916666689323]]]}, "properties": {"company_id": "international-tower-hill", "jurisdiction": "Quebec", "claim_id": "", "claim_name": null, "holder": "International Explorers & Prospectors inc.", "status": "Active", "recorded_date": null, "anniversary_or_expiry": null, "area_ha": null, "tenure_type": null, "source": "GESTIM active titles (MRNF digital data dump). Not legal title.", "as_of": "2026-09-20", "role": "focus", "color": "#e8b040"}}, {"type": "Feature", "geometry": {"type": "Polygon", "coordinates": [[[-79.4749999979153, 49.39166667197766], [-79.47500000232677, 49.40000000429276], [-79.46666666106927, 49.399999999744495], [-79.46666666147016, 49.391666671570846], [-79.4749999979153, 49.39166667197766]]]}, "properties": {"company_id": "international-tower-hill", "jurisdiction": "Quebec", "claim_id": "", "claim_name": null, "holder": "International Explorers & Prospectors inc.", "status": "Active", "recorded_date": null, "anniversary_or_expiry": null, "area_ha": null, "tenure_type": null, "source": "GESTIM active titles (MRNF digital data dump). Not legal title.", "as_of": "2026-09-20", "role": "focus", "color": "#e8b040"}}, {"type": "Feature", "geometry": {"type": "Polygon", "coordinates": [[[-79.30000000117478, 49.40000000114292], [-79.30000000160173, 49.40833333236745], [-79.2916666696034, 49.40833333316541], [-79.29166666058225, 49.40000000531529], [-79.30000000117478, 49.40000000114292]]]}, "properties": {"company_id": "international-tower-hill", "jurisdiction": "Quebec", "claim_id": "", "claim_name": null, "holder": "International Explorers & Prospectors inc.", "status": "Active", "recorded_date": null, "anniversary_or_expiry": null, "area_ha": null, "tenure_type": null, "source": "GESTIM active titles (MRNF digital data dump). Not legal title.", "as_of": "2026-09-20", "role": "focus", "color": "#e8b040"}}, {"type": "Feature", "geometry": {"type": "Polygon", "coordinates": [[[-79.31666666278088, 49.408333335800954], [-79.31666666529712, 49.416666672098756], [-79.30833333901256, 49.416666666053466], [-79.30833332805864, 49.40833333317722], [-79.31666666278088, 49.408333335800954]]]}, "properties": {"company_id": "international-tower-hill", "jurisdiction": "Quebec", "claim_id": "", "claim_name": null, "holder": "International Explorers & Prospectors inc.", "status": "Active", "recorded_date": null, "anniversary_or_expiry": null, "area_ha": null, "tenure_type": null, "source": "GESTIM active titles (MRNF digital data dump). Not legal title.", "as_of": "2026-09-20", "role": "focus", "color": "#e8b040"}}, {"type": "Feature", "geometry": {"type": "Polygon", "coordinates": [[[-79.30000000160173, 49.40833333236745], [-79.29999999311244, 49.416666670436], [-79.2916666695324, 49.416666667866686], [-79.2916666696034, 49.40833333316541], [-79.30000000160173, 49.40833333236745]]]}, "properties": {"company_id": "international-tower-hill", "jurisdiction": "Quebec", "claim_id": "", "claim_name": null, "holder": "International Explorers & Prospectors inc.", "status": "Active", "recorded_date": null, "anniversary_or_expiry": null, "area_ha": null, "tenure_type": null, "source": "GESTIM active titles (MRNF digital data dump). Not legal title.", "as_of": "2026-09-20", "role": "focus", "color": "#e8b040"}}, {"type": "Feature", "geometry": {"type": "Polygon", "coordinates": [[[-79.31666666529712, 49.416666672098756], [-79.31666665956762, 49.42500000623586], [-79.30833332745347, 49.42500000556551], [-79.30833333901256, 49.416666666053466], [-79.31666666529712, 49.416666672098756]]]}, "properties": {"company_id": "international-tower-hill", "jurisdiction": "Quebec", "claim_id": "", "claim_name": null, "holder": "International Explorers & Prospectors inc.", "status": "Active", "recorded_date": null, "anniversary_or_expiry": null, "area_ha": null, "tenure_type": null, "source": "GESTIM active titles (MRNF digital data dump). Not legal title.", "as_of": "2026-09-20", "role": "focus", "color": "#e8b040"}}, {"type": "Feature", "geometry": {"type": "Polygon", "coordinates": [[[-79.30833333901256, 49.416666666053466], [-79.30833332745347, 49.42500000556551], [-79.30000000358609, 49.42500000676339], [-79.29999999311244, 49.416666670436], [-79.30833333901256, 49.416666666053466]]]}, "properties": {"company_id": "international-tower-hill", "jurisdiction": "Quebec", "claim_id": "", "claim_name": null, "holder": "International Explorers & Prospectors inc.", "status": "Active", "recorded_date": null, "anniversary_or_expiry": null, "area_ha": null, "tenure_type": null, "source": "GESTIM active titles (MRNF digital data dump). Not legal title.", "as_of": "2026-09-20", "role": "focus", "color": "#e8b040"}}, {"type": "Feature", "geometry": {"type": "Polygon", "coordinates": [[[-79.31666665956762, 49.42500000623586], [-79.31666667316617, 49.43333333861425], [-79.30833333535224, 49.43333333433684], [-79.30833332745347, 49.42500000556551], [-79.31666665956762, 49.42500000623586]]]}, "properties": {"company_id": "international-tower-hill", "jurisdiction": "Quebec", "claim_id": "", "claim_name": null, "holder": "International Explorers & Prospectors inc.", "status": "Active", "recorded_date": null, "anniversary_or_expiry": null, "area_ha": null, "tenure_type": null, "source": "GESTIM active titles (MRNF digital data dump). Not legal title.", "as_of": "2026-09-20", "role": "focus", "color": "#e8b040"}}, {"type": "Feature", "geometry": {"type": "Polygon", "coordinates": [[[-79.30833332745347, 49.42500000556551], [-79.30833333535224, 49.43333333433684], [-79.3000000054666, 49.433333340944934], [-79.30000000358609, 49.42500000676339], [-79.30833332745347, 49.42500000556551]]]}, "properties": {"company_id": "international-tower-hill", "jurisdiction": "Quebec", "claim_id": "", "claim_name": null, "holder": "International Explorers & Prospectors inc.", "status": "Active", "recorded_date": null, "anniversary_or_expiry": null, "area_ha": null, "tenure_type": null, "source": "GESTIM active titles (MRNF digital data dump). Not legal title.", "as_of": "2026-09-20", "role": "focus", "color": "#e8b040"}}, {"type": "Feature", "geometry": {"type": "Polygon", "coordinates": [[[-79.30000000358609, 49.42500000676339], [-79.3000000054666, 49.433333340944934], [-79.29166667031541, 49.43333334025018], [-79.29166666068275, 49.425000000428675], [-79.30000000358609, 49.42500000676339]]]}, "properties": {"company_id": "international-tower-hill", "jurisdiction": "Quebec", "claim_id": "", "claim_name": null, "holder": "International Explorers & Prospectors inc.", "status": "Active", "recorded_date": null, "anniversary_or_expiry": null, "area_ha": null, "tenure_type": null, "source": "GESTIM active titles (MRNF digital data dump). Not legal title.", "as_of": "2026-09-20", "role": "focus", "color": "#e8b040"}}, {"type": "Feature", "geometry": {"type": "Polygon", "coordinates": [[[-79.32500000576744, 49.433333335597936], [-79.32500000321386, 49.44166666924318], [-79.31666666474354, 49.441666668632315], [-79.31666667316617, 49.43333333861425], [-79.32500000576744, 49.433333335597936]]]}, "properties": {"company_id": "international-tower-hill", "jurisdiction": "Quebec", "claim_id": "", "claim_name": null, "holder": "International Explorers & Prospectors inc.", "status": "Active", "recorded_date": null, "anniversary_or_expiry": null, "area_ha": null, "tenure_type": null, "source": "GESTIM active titles (MRNF digital data dump). Not legal title.", "as_of": "2026-09-20", "role": "focus", "color": "#e8b040"}}, {"type": "Feature", "geometry": {"type": "Polygon", "coordinates": [[[-79.31666667316617, 49.43333333861425], [-79.31666666474354, 49.441666668632315], [-79.30833333452955, 49.441666669946756], [-79.30833333535224, 49.43333333433684], [-79.31666667316617, 49.43333333861425]]]}, "properties": {"company_id": "international-tower-hill", "jurisdiction": "Quebec", "claim_id": "", "claim_name": null, "holder": "International Explorers & Prospectors inc.", "status": "Active", "recorded_date": null, "anniversary_or_expiry": null, "area_ha": null, "tenure_type": null, "source": "GESTIM active titles (MRNF digital data dump). Not legal title.", "as_of": "2026-09-20", "role": "focus", "color": "#e8b040"}}, {"type": "Feature", "geometry": {"type": "Polygon", "coordinates": [[[-79.30833333535224, 49.43333333433684], [-79.30833333452955, 49.441666669946756], [-79.29999999875557, 49.44166667298111], [-79.3000000054666, 49.433333340944934], [-79.30833333535224, 49.43333333433684]]]}, "properties": {"company_id": "international-tower-hill", "jurisdiction": "Quebec", "claim_id": "", "claim_name": null, "holder": "International Explorers & Prospectors inc.", "status": "Active", "recorded_date": null, "anniversary_or_expiry": null, "area_ha": null, "tenure_type": null, "source": "GESTIM active titles (MRNF digital data dump). Not legal title.", "as_of": "2026-09-20", "role": "focus", "color": "#e8b040"}}, {"type": "Feature", "geometry": {"type": "Polygon", "coordinates": [[[-79.3000000054666, 49.433333340944934], [-79.29999999875557, 49.44166667298111], [-79.29166667149423, 49.44166666894263], [-79.29166667031541, 49.43333334025018], [-79.3000000054666, 49.433333340944934]]]}, "properties": {"company_id": "international-tower-hill", "jurisdiction": "Quebec", "claim_id": "", "claim_name": null, "holder": "International Explorers & Prospectors inc.", "status": "Active", "recorded_date": null, "anniversary_or_expiry": null, "area_ha": null, "tenure_type": null, "source": "GESTIM active titles (MRNF digital data dump). Not legal title.", "as_of": "2026-09-20", "role": "focus", "color": "#e8b040"}}, {"type": "Feature", "geometry": {"type": "Polygon", "coordinates": [[[-79.29166667031541, 49.43333334025018], [-79.29166667149423, 49.44166666894263], [-79.2833333386199, 49.44166666661491], [-79.28333332987538, 49.43333333224711], [-79.29166667031541, 49.43333334025018]]]}, "properties": {"company_id": "international-tower-hill", "jurisdiction": "Quebec", "claim_id": "", "claim_name": null, "holder": "International Explorers & Prospectors inc.", "status": "Active", "recorded_date": null, "anniversary_or_expiry": null, "area_ha": null, "tenure_type": null, "source": "GESTIM active titles (MRNF digital data dump). Not legal title.", "as_of": "2026-09-20", "role": "focus", "color": "#e8b040"}}, {"type": "Feature", "geometry": {"type": "Polygon", "coordinates": [[[-79.32500000321386, 49.44166666924318], [-79.32500000639463, 49.450000000922095], [-79.31666666156788, 49.450000005683144], [-79.31666666474354, 49.441666668632315], [-79.32500000321386, 49.44166666924318]]]}, "properties": {"company_id": "international-tower-hill", "jurisdiction": "Quebec", "claim_id": "", "claim_name": null, "holder": "International Explorers & Prospectors inc.", "status": "Active", "recorded_date": null, "anniversary_or_expiry": null, "area_ha": null, "tenure_type": null, "source": "GESTIM active titles (MRNF digital data dump). Not legal title.", "as_of": "2026-09-20", "role": "focus", "color": "#e8b040"}}, {"type": "Feature", "geometry": {"type": "Polygon", "coordinates": [[[-79.30833333452955, 49.441666669946756], [-79.30833333908693, 49.45000000360646], [-79.29999999724525, 49.45000000307523], [-79.29999999875557, 49.44166667298111], [-79.30833333452955, 49.441666669946756]]]}, "properties": {"company_id": "international-tower-hill", "jurisdiction": "Quebec", "claim_id": "", "claim_name": null, "holder": "International Explorers & Prospectors inc.", "status": "Active", "recorded_date": null, "anniversary_or_expiry": null, "area_ha": null, "tenure_type": null, "source": "GESTIM active titles (MRNF digital data dump). Not legal title.", "as_of": "2026-09-20", "role": "focus", "color": "#e8b040"}}, {"type": "Feature", "geometry": {"type": "Polygon", "coordinates": [[[-79.29999999875557, 49.44166667298111], [-79.29999999724525, 49.45000000307523], [-79.29166666359603, 49.450000004488324], [-79.29166667149423, 49.44166666894263], [-79.29999999875557, 49.44166667298111]]]}, "properties": {"company_id": "international-tower-hill", "jurisdiction": "Quebec", "claim_id": "", "claim_name": null, "holder": "International Explorers & Prospectors inc.", "status": "Active", "recorded_date": null, "anniversary_or_expiry": null, "area_ha": null, "tenure_type": null, "source": "GESTIM active titles (MRNF digital data dump). Not legal title.", "as_of": "2026-09-20", "role": "focus", "color": "#e8b040"}}, {"type": "Feature", "geometry": {"type": "Polygon", "coordinates": [[[-79.29166667149423, 49.44166666894263], [-79.29166666359603, 49.450000004488324], [-79.28333333811106, 49.45000000784313], [-79.2833333386199, 49.44166666661491], [-79.29166667149423, 49.44166666894263]]]}, "properties": {"company_id": "international-tower-hill", "jurisdiction": "Quebec", "claim_id": "", "claim_name": null, "holder": "International Explorers & Prospectors inc.", "status": "Active", "recorded_date": null, "anniversary_or_expiry": null, "area_ha": null, "tenure_type": null, "source": "GESTIM active titles (MRNF digital data dump). Not legal title.", "as_of": "2026-09-20", "role": "focus", "color": "#e8b040"}}, {"type": "Feature", "geometry": {"type": "Polygon", "coordinates": [[[-79.31666666156788, 49.450000005683144], [-79.3166666639558, 49.4583333407762], [-79.30833333524016, 49.45833333511478], [-79.30833333908693, 49.45000000360646], [-79.31666666156788, 49.450000005683144]]]}, "properties": {"company_id": "international-tower-hill", "jurisdiction": "Quebec", "claim_id": "", "claim_name": null, "holder": "International Explorers & Prospectors inc.", "status": "Active", "recorded_date": null, "anniversary_or_expiry": null, "area_ha": null, "tenure_type": null, "source": "GESTIM active titles (MRNF digital data dump). Not legal title.", "as_of": "2026-09-20", "role": "focus", "color": "#e8b040"}}, {"type": "Feature", "geometry": {"type": "Polygon", "coordinates": [[[-79.30833333908693, 49.45000000360646], [-79.30833333524016, 49.45833333511478], [-79.30000000063322, 49.458333340218786], [-79.29999999724525, 49.45000000307523], [-79.30833333908693, 49.45000000360646]]]}, "properties": {"company_id": "international-tower-hill", "jurisdiction": "Quebec", "claim_id": "", "claim_name": null, "holder": "International Explorers & Prospectors inc.", "status": "Active", "recorded_date": null, "anniversary_or_expiry": null, "area_ha": null, "tenure_type": null, "source": "GESTIM active titles (MRNF digital data dump). Not legal title.", "as_of": "2026-09-20", "role": "focus", "color": "#e8b040"}}, {"type": "Feature", "geometry": {"type": "Polygon", "coordinates": [[[-79.29999999724525, 49.45000000307523], [-79.30000000063322, 49.458333340218786], [-79.29166666072759, 49.45833333810067], [-79.29166666359603, 49.450000004488324], [-79.29999999724525, 49.45000000307523]]]}, "properties": {"company_id": "international-tower-hill", "jurisdiction": "Quebec", "claim_id": "", "claim_name": null, "holder": "International Explorers & Prospectors inc.", "status": "Active", "recorded_date": null, "anniversary_or_expiry": null, "area_ha": null, "tenure_type": null, "source": "GESTIM active titles (MRNF digital data dump). Not legal title.", "as_of": "2026-09-20", "role": "focus", "color": "#e8b040"}}, {"type": "Feature", "geometry": {"type": "Polygon", "coordinates": [[[-79.29166666359603, 49.450000004488324], [-79.29166666072759, 49.45833333810067], [-79.28333332897839, 49.45833333795051], [-79.28333333811106, 49.45000000784313], [-79.29166666359603, 49.450000004488324]]]}, "properties": {"company_id": "international-tower-hill", "jurisdiction": "Quebec", "claim_id": "", "claim_name": null, "holder": "International Explorers & Prospectors inc.", "status": "Active", "recorded_date": null, "anniversary_or_expiry": null, "area_ha": null, "tenure_type": null, "source": "GESTIM active titles (MRNF digital data dump). Not legal title.", "as_of": "2026-09-20", "role": "focus", "color": "#e8b040"}}, {"type": "Feature", "geometry": {"type": "Polygon", "coordinates": [[[-79.28333333811106, 49.45000000784313], [-79.28333332897839, 49.45833333795051], [-79.27500000535737, 49.458333339765716], [-79.27499999349695, 49.45000000373461], [-79.28333333811106, 49.45000000784313]]]}, "properties": {"company_id": "international-tower-hill", "jurisdiction": "Quebec", "claim_id": "", "claim_name": null, "holder": "International Explorers & Prospectors inc.", "status": "Active", "recorded_date": null, "anniversary_or_expiry": null, "area_ha": null, "tenure_type": null, "source": "GESTIM active titles (MRNF digital data dump). Not legal title.", "as_of": "2026-09-20", "role": "focus", "color": "#e8b040"}}, {"type": "Feature", "geometry": {"type": "Polygon", "coordinates": [[[-79.50000000155705, 49.48333333264737], [-79.49999999976546, 49.49166667048579], [-79.49166666238405, 49.4916666695869], [-79.491666670928, 49.48333333589434], [-79.50000000155705, 49.48333333264737]]]}, "properties": {"company_id": "international-tower-hill", "jurisdiction": "Quebec", "claim_id": "", "claim_name": null, "holder": "International Explorers & Prospectors inc.", "status": "Active", "recorded_date": null, "anniversary_or_expiry": null, "area_ha": null, "tenure_type": null, "source": "GESTIM active titles (MRNF digital data dump). Not legal title.", "as_of": "2026-09-20", "role": "focus", "color": "#e8b040"}}, {"type": "Feature", "geometry": {"type": "Polygon", "coordinates": [[[-79.49999999976546, 49.49166667048579], [-79.49999999366933, 49.50000000601847], [-79.4916666631619, 49.50000000116025], [-79.49166666238405, 49.4916666695869], [-79.49999999976546, 49.49166667048579]]]}, "properties": {"company_id": "international-tower-hill", "jurisdiction": "Quebec", "claim_id": "", "claim_name": null, "holder": "International Explorers & Prospectors inc.", "status": "Active", "recorded_date": null, "anniversary_or_expiry": null, "area_ha": null, "tenure_type": null, "source": "GESTIM active titles (MRNF digital data dump). Not legal title.", "as_of": "2026-09-20", "role": "focus", "color": "#e8b040"}}, {"type": "Feature", "geometry": {"type": "Polygon", "coordinates": [[[-79.47500000238938, 49.383333337551726], [-79.4749999979153, 49.39166667197766], [-79.46666666147016, 49.391666671570846], [-79.4666666708575, 49.38333333230216], [-79.47500000238938, 49.383333337551726]]]}, "properties": {"company_id": "international-tower-hill", "jurisdiction": "Quebec", "claim_id": "", "claim_name": null, "holder": "International Explorers & Prospectors inc.", "status": "Active", "recorded_date": null, "anniversary_or_expiry": null, "area_ha": null, "tenure_type": null, "source": "GESTIM active titles (MRNF digital data dump). Not legal title.", "as_of": "2026-09-20", "role": "focus", "color": "#e8b040"}}, {"type": "Feature", "geometry": {"type": "Polygon", "coordinates": [[[-79.30833332805864, 49.40833333317722], [-79.30833333901256, 49.416666666053466], [-79.29999999311244, 49.416666670436], [-79.30000000160173, 49.40833333236745], [-79.30833332805864, 49.40833333317722]]]}, "properties": {"company_id": "international-tower-hill", "jurisdiction": "Quebec", "claim_id": "", "claim_name": null, "holder": "International Explorers & Prospectors inc.", "status": "Active", "recorded_date": null, "anniversary_or_expiry": null, "area_ha": null, "tenure_type": null, "source": "GESTIM active titles (MRNF digital data dump). Not legal title.", "as_of": "2026-09-20", "role": "focus", "color": "#e8b040"}}, {"type": "Feature", "geometry": {"type": "Polygon", "coordinates": [[[-79.29999999311244, 49.416666670436], [-79.30000000358609, 49.42500000676339], [-79.29166666068275, 49.425000000428675], [-79.2916666695324, 49.416666667866686], [-79.29999999311244, 49.416666670436]]]}, "properties": {"company_id": "international-tower-hill", "jurisdiction": "Quebec", "claim_id": "", "claim_name": null, "holder": "International Explorers & Prospectors inc.", "status": "Active", "recorded_date": null, "anniversary_or_expiry": null, "area_ha": null, "tenure_type": null, "source": "GESTIM active titles (MRNF digital data dump). Not legal title.", "as_of": "2026-09-20", "role": "focus", "color": "#e8b040"}}, {"type": "Feature", "geometry": {"type": "Polygon", "coordinates": [[[-79.32500000639463, 49.450000000922095], [-79.32500000121892, 49.45833333942645], [-79.3166666639558, 49.4583333407762], [-79.31666666156788, 49.450000005683144], [-79.32500000639463, 49.450000000922095]]]}, "properties": {"company_id": "international-tower-hill", "jurisdiction": "Quebec", "claim_id": "", "claim_name": null, "holder": "International Explorers & Prospectors inc.", "status": "Active", "recorded_date": null, "anniversary_or_expiry": null, "area_ha": null, "tenure_type": null, "source": "GESTIM active titles (MRNF digital data dump). Not legal title.", "as_of": "2026-09-20", "role": "focus", "color": "#e8b040"}}, {"type": "Feature", "geometry": {"type": "Polygon", "coordinates": [[[-79.517862406752, 49.483333370101676], [-79.51666666170463, 49.48333333221722], [-79.51666667312114, 49.47500000202629], [-79.51786269846625, 49.47500003520465], [-79.517862406752, 49.483333370101676]]]}, "properties": {"company_id": "international-tower-hill", "jurisdiction": "Quebec", "claim_id": "", "claim_name": null, "holder": "International Explorers & Prospectors inc.", "status": "Active", "recorded_date": null, "anniversary_or_expiry": null, "area_ha": null, "tenure_type": null, "source": "GESTIM active titles (MRNF digital data dump). Not legal title.", "as_of": "2026-09-20", "role": "focus", "color": "#e8b040"}}, {"type": "Feature", "geometry": {"type": "Polygon", "coordinates": [[[-79.51786208340293, 49.49166670232378], [-79.5166666598625, 49.491666669257704], [-79.51666666170463, 49.48333333221722], [-79.517862406752, 49.483333370101676], [-79.51786208340293, 49.49166670232378]]]}, "properties": {"company_id": "international-tower-hill", "jurisdiction": "Quebec", "claim_id": "", "claim_name": null, "holder": "International Explorers & Prospectors inc.", "status": "Active", "recorded_date": null, "anniversary_or_expiry": null, "area_ha": null, "tenure_type": null, "source": "GESTIM active titles (MRNF digital data dump). Not legal title.", "as_of": "2026-09-20", "role": "focus", "color": "#e8b040"}}, {"type": "Feature", "geometry": {"type": "Polygon", "coordinates": [[[-79.5178599736356, 49.508333377195605], [-79.51666667194887, 49.50833333673704], [-79.5166666687309, 49.5000018032279], [-79.51786174284071, 49.50000184011189], [-79.5178599736356, 49.508333377195605]]]}, "properties": {"company_id": "international-tower-hill", "jurisdiction": "Quebec", "claim_id": "", "claim_name": null, "holder": "International Explorers & Prospectors inc.", "status": "Active", "recorded_date": null, "anniversary_or_expiry": null, "area_ha": null, "tenure_type": null, "source": "GESTIM active titles (MRNF digital data dump). Not legal title.", "as_of": "2026-09-20", "role": "focus", "color": "#e8b040"}}, {"type": "Feature", "geometry": {"type": "Polygon", "coordinates": [[[-79.51785815965243, 49.516666701504214], [-79.51666667208251, 49.516666667000024], [-79.51666667194887, 49.50833333673704], [-79.5178599736356, 49.508333377195605], [-79.51785815965243, 49.516666701504214]]]}, "properties": {"company_id": "international-tower-hill", "jurisdiction": "Quebec", "claim_id": "", "claim_name": null, "holder": "International Explorers & Prospectors inc.", "status": "Active", "recorded_date": null, "anniversary_or_expiry": null, "area_ha": null, "tenure_type": null, "source": "GESTIM active titles (MRNF digital data dump). Not legal title.", "as_of": "2026-09-20", "role": "focus", "color": "#e8b040"}}, {"type": "Feature", "geometry": {"type": "Polygon", "coordinates": [[[-65.52500000007487, 48.943233196839394], [-65.52499999894349, 48.94323320097078], [-65.52094373875744, 48.94465653303308], [-65.52037352775933, 48.944814463125205], [-65.52010198315978, 48.944888803140714], [-65.51981678590839, 48.944963278999104], [-65.51666666091528, 48.94579243895685], [-65.51666666546703, 48.94166666334545], [-65.52499999936556, 48.94166666174979], [-65.52500000007487, 48.943233196839394]]]}, "properties": {"company_id": "international-tower-hill", "jurisdiction": "Quebec", "claim_id": "", "claim_name": null, "holder": "WMC INTERNATIONAL LTD", "status": "Active", "recorded_date": null, "anniversary_or_expiry": null, "area_ha": null, "tenure_type": null, "source": "GESTIM active titles (MRNF digital data dump). Not legal title.", "as_of": "2026-09-20", "role": "focus", "color": "#e8b040"}}, {"type": "Feature", "geometry": {"type": "Polygon", "coordinates": [[[-78.79166667124949, 49.76666666730966], [-78.7833333288759, 49.766666668896036], [-78.78333333010825, 49.7604693713036], [-78.7845556150174, 49.760449803933774], [-78.7851540968095, 49.76043460673923], [-78.78972685046276, 49.7603997934846], [-78.79053627375491, 49.760386768124874], [-78.79166666192889, 49.76037414794664], [-78.79166667124949, 49.76666666730966]]]}, "properties": {"company_id": "international-tower-hill", "jurisdiction": "Quebec", "claim_id": "", "claim_name": null, "holder": "International Explorers & Prospectors inc.", "status": "Active", "recorded_date": null, "anniversary_or_expiry": null, "area_ha": null, "tenure_type": null, "source": "GESTIM active titles (MRNF digital data dump). Not legal title.", "as_of": "2026-09-20", "role": "focus", "color": "#e8b040"}}, {"type": "Feature", "geometry": {"type": "Polygon", "coordinates": [[[-78.7833333288759, 49.766666668896036], [-78.77499999251467, 49.766666673216115], [-78.77499999353331, 49.7605473172209], [-78.77906622113493, 49.760519182492395], [-78.77973375566799, 49.76052692686417], [-78.78333333010825, 49.7604693713036], [-78.7833333288759, 49.766666668896036]]]}, "properties": {"company_id": "international-tower-hill", "jurisdiction": "Quebec", "claim_id": "", "claim_name": null, "holder": "International Explorers & Prospectors inc.", "status": "Active", "recorded_date": null, "anniversary_or_expiry": null, "area_ha": null, "tenure_type": null, "source": "GESTIM active titles (MRNF digital data dump). Not legal title.", "as_of": "2026-09-20", "role": "focus", "color": "#e8b040"}}, {"type": "Feature", "geometry": {"type": "Polygon", "coordinates": [[[-78.77499999251467, 49.766666673216115], [-78.76666666254826, 49.76666667127796], [-78.76666666286859, 49.76430314513387], [-78.76787440503361, 49.76429211199658], [-78.76896633236984, 49.76423696041271], [-78.76896793645206, 49.760622247563305], [-78.7732950913327, 49.76058382850679], [-78.77435189009738, 49.7605517893119], [-78.77499999353331, 49.7605473172209], [-78.77499999251467, 49.766666673216115]]]}, "properties": {"company_id": "international-tower-hill", "jurisdiction": "Quebec", "claim_id": "", "claim_name": null, "holder": "International Explorers & Prospectors inc.", "status": "Active", "recorded_date": null, "anniversary_or_expiry": null, "area_ha": null, "tenure_type": null, "source": "GESTIM active titles (MRNF digital data dump). Not legal title.", "as_of": "2026-09-20", "role": "focus", "color": "#e8b040"}}, {"type": "Feature", "geometry": {"type": "Polygon", "coordinates": [[[-78.76666666254826, 49.76666667127796], [-78.75833333853602, 49.7666666720648], [-78.75833916903554, 49.76437803712364], [-78.76245602356349, 49.76431619643881], [-78.7636871158647, 49.76433031442498], [-78.76666666286859, 49.76430314513387], [-78.76666666254826, 49.76666667127796]]]}, "properties": {"company_id": "international-tower-hill", "jurisdiction": "Quebec", "claim_id": "", "claim_name": null, "holder": "International Explorers & Prospectors inc.", "status": "Active", "recorded_date": null, "anniversary_or_expiry": null, "area_ha": null, "tenure_type": null, "source": "GESTIM active titles (MRNF digital data dump). Not legal title.", "as_of": "2026-09-20", "role": "focus", "color": "#e8b040"}}, {"type": "Feature", "geometry": {"type": "Polygon", "coordinates": [[[-79.31666666474354, 49.441666668632315], [-79.31666666414141, 49.44324696680796], [-79.31644442143525, 49.44324663524439], [-79.31092696473995, 49.44323817296663], [-79.31092688763762, 49.44166672943669], [-79.31666666474354, 49.441666668632315]]]}, "properties": {"company_id": "international-tower-hill", "jurisdiction": "Quebec", "claim_id": "", "claim_name": null, "holder": "International Explorers & Prospectors inc.", "status": "Active", "recorded_date": null, "anniversary_or_expiry": null, "area_ha": null, "tenure_type": null, "source": "GESTIM active titles (MRNF digital data dump). Not legal title.", "as_of": "2026-09-20", "role": "focus", "color": "#e8b040"}}, {"type": "Feature", "geometry": {"type": "Polygon", "coordinates": [[[-79.2916666696034, 49.40833333316541], [-79.29166666958268, 49.41076684576982], [-79.28852423731891, 49.41075256796828], [-79.28850937550592, 49.40833339987676], [-79.2916666696034, 49.40833333316541]]]}, "properties": {"company_id": "international-tower-hill", "jurisdiction": "Quebec", "claim_id": "", "claim_name": null, "holder": "International Explorers & Prospectors inc.", "status": "Active", "recorded_date": null, "anniversary_or_expiry": null, "area_ha": null, "tenure_type": null, "source": "GESTIM active titles (MRNF digital data dump). Not legal title.", "as_of": "2026-09-20", "role": "focus", "color": "#e8b040"}}, {"type": "Feature", "geometry": {"type": "Polygon", "coordinates": [[[-79.29166666068275, 49.425000000428675], [-79.2884249747692, 49.42500006870118], [-79.28843933222653, 49.42165718906137], [-79.28841719417022, 49.41796439479248], [-79.28844932258392, 49.41666673368953], [-79.2916666695324, 49.416666667866686], [-79.29166666068275, 49.425000000428675]]]}, "properties": {"company_id": "international-tower-hill", "jurisdiction": "Quebec", "claim_id": "", "claim_name": null, "holder": "International Explorers & Prospectors inc.", "status": "Active", "recorded_date": null, "anniversary_or_expiry": null, "area_ha": null, "tenure_type": null, "source": "GESTIM active titles (MRNF digital data dump). Not legal title.", "as_of": "2026-09-20", "role": "focus", "color": "#e8b040"}}, {"type": "Feature", "geometry": {"type": "Polygon", "coordinates": [[[-79.29166666068275, 49.425000000428675], [-79.29166667031541, 49.43333334025018], [-79.28333332987538, 49.43333333224711], [-79.28333333473057, 49.42910488812381], [-79.2883314213334, 49.42906727975604], [-79.28833069398505, 49.42864670859382], [-79.2884230462909, 49.42544904716276], [-79.2884249747692, 49.42500006870118], [-79.29166666068275, 49.425000000428675]]]}, "properties": {"company_id": "international-tower-hill", "jurisdiction": "Quebec", "claim_id": "", "claim_name": null, "holder": "International Explorers & Prospectors inc.", "status": "Active", "recorded_date": null, "anniversary_or_expiry": null, "area_ha": null, "tenure_type": null, "source": "GESTIM active titles (MRNF digital data dump). Not legal title.", "as_of": "2026-09-20", "role": "focus", "color": "#e8b040"}}, {"type": "Feature", "geometry": {"type": "Polygon", "coordinates": [[[-79.2916666695324, 49.416666667866686], [-79.28844932258392, 49.41666673368953], [-79.28850922691983, 49.414247030618775], [-79.29166666955292, 49.41425768778361], [-79.2916666695324, 49.416666667866686]]]}, "properties": {"company_id": "international-tower-hill", "jurisdiction": "Quebec", "claim_id": "", "claim_name": null, "holder": "International Explorers & Prospectors inc.", "status": "Active", "recorded_date": null, "anniversary_or_expiry": null, "area_ha": null, "tenure_type": null, "source": "GESTIM active titles (MRNF digital data dump). Not legal title.", "as_of": "2026-09-20", "role": "focus", "color": "#e8b040"}}, {"type": "Feature", "geometry": {"type": "Polygon", "coordinates": [[[-79.28333332987538, 49.43333333224711], [-79.28276486118949, 49.43333335020707], [-79.28278273644045, 49.43265060564928], [-79.28278492752747, 49.43215494694643], [-79.28304557983833, 49.429107047227276], [-79.28333333473057, 49.42910488812381], [-79.28333332987538, 49.43333333224711]]]}, "properties": {"company_id": "international-tower-hill", "jurisdiction": "Quebec", "claim_id": "", "claim_name": null, "holder": "International Explorers & Prospectors inc.", "status": "Active", "recorded_date": null, "anniversary_or_expiry": null, "area_ha": null, "tenure_type": null, "source": "GESTIM active titles (MRNF digital data dump). Not legal title.", "as_of": "2026-09-20", "role": "focus", "color": "#e8b040"}}, {"type": "Feature", "geometry": {"type": "Polygon", "coordinates": [[[-79.2833333386199, 49.44166666661491], [-79.28223557426438, 49.44166669849325], [-79.28231744187258, 49.43965456701818], [-79.28219411771437, 49.436150496918884], [-79.28269124512013, 49.43614491957368], [-79.28276486118949, 49.43333335020707], [-79.28333332987538, 49.43333333224711], [-79.2833333386199, 49.44166666661491]]]}, "properties": {"company_id": "international-tower-hill", "jurisdiction": "Quebec", "claim_id": "", "claim_name": null, "holder": "International Explorers & Prospectors inc.", "status": "Active", "recorded_date": null, "anniversary_or_expiry": null, "area_ha": null, "tenure_type": null, "source": "GESTIM active titles (MRNF digital data dump). Not legal title.", "as_of": "2026-09-20", "role": "focus", "color": "#e8b040"}}, {"type": "Feature", "geometry": {"type": "Polygon", "coordinates": [[[-79.2833333386199, 49.44166666661491], [-79.28333333811106, 49.45000000784313], [-79.27499999349695, 49.45000000373461], [-79.27499999567243, 49.447256671184725], [-79.27756278966832, 49.44721776661908], [-79.28302865317086, 49.44717509566599], [-79.28302091203007, 49.443304820583116], [-79.2821688272478, 49.44330707984275], [-79.28223557426438, 49.44166669849325], [-79.2833333386199, 49.44166666661491]]]}, "properties": {"company_id": "international-tower-hill", "jurisdiction": "Quebec", "claim_id": "", "claim_name": null, "holder": "International Explorers & Prospectors inc.", "status": "Active", "recorded_date": null, "anniversary_or_expiry": null, "area_ha": null, "tenure_type": null, "source": "GESTIM active titles (MRNF digital data dump). Not legal title.", "as_of": "2026-09-20", "role": "focus", "color": "#e8b040"}}, {"type": "Feature", "geometry": {"type": "Polygon", "coordinates": [[[-78.74999999311238, 49.76666666604557], [-78.7499999932221, 49.765270539424606], [-78.75250988026734, 49.765214582412256], [-78.75270947247435, 49.76442188978079], [-78.7572496613564, 49.76436476014618], [-78.75722280910405, 49.76666670332203], [-78.74999999311238, 49.76666666604557]]]}, "properties": {"company_id": "international-tower-hill", "jurisdiction": "Quebec", "claim_id": "", "claim_name": null, "holder": "International Explorers & Prospectors inc.", "status": "Active", "recorded_date": null, "anniversary_or_expiry": null, "area_ha": null, "tenure_type": null, "source": "GESTIM active titles (MRNF digital data dump). Not legal title.", "as_of": "2026-09-20", "role": "focus", "color": "#e8b040"}}, {"type": "Feature", "geometry": {"type": "Polygon", "coordinates": [[[-78.74999999311238, 49.76666666604557], [-78.74659222287953, 49.76666673556697], [-78.74663162801367, 49.76534555655712], [-78.7499999932221, 49.765270539424606], [-78.74999999311238, 49.76666666604557]]]}, "properties": {"company_id": "international-tower-hill", "jurisdiction": "Quebec", "claim_id": "", "claim_name": null, "holder": "International Explorers & Prospectors inc.", "status": "Active", "recorded_date": null, "anniversary_or_expiry": null, "area_ha": null, "tenure_type": null, "source": "GESTIM active titles (MRNF digital data dump). Not legal title.", "as_of": "2026-09-20", "role": "focus", "color": "#e8b040"}}, {"type": "Feature", "geometry": {"type": "Polygon", "coordinates": [[[-78.74999999311238, 49.76666666604557], [-78.74999999781397, 49.772628591405095], [-78.74651852826716, 49.77264169773651], [-78.74653335217545, 49.7686404285856], [-78.74659222287953, 49.76666673556697], [-78.74999999311238, 49.76666666604557]]]}, "properties": {"company_id": "international-tower-hill", "jurisdiction": "Quebec", "claim_id": "", "claim_name": null, "holder": "International Explorers & Prospectors inc.", "status": "Active", "recorded_date": null, "anniversary_or_expiry": null, "area_ha": null, "tenure_type": null, "source": "GESTIM active titles (MRNF digital data dump). Not legal title.", "as_of": "2026-09-20", "role": "focus", "color": "#e8b040"}}, {"type": "Feature", "geometry": {"type": "Polygon", "coordinates": [[[-79.2916666696034, 49.40833333316541], [-79.28850937550592, 49.40833339987676], [-79.2885018561441, 49.40710932944518], [-79.28847929176474, 49.4035156608159], [-79.28845611677829, 49.40007069634881], [-79.28845975819695, 49.40000007035203], [-79.29166666058225, 49.40000000531529], [-79.2916666696034, 49.40833333316541]]]}, "properties": {"company_id": "international-tower-hill", "jurisdiction": "Quebec", "claim_id": "", "claim_name": null, "holder": "International Explorers & Prospectors inc.", "status": "Active", "recorded_date": null, "anniversary_or_expiry": null, "area_ha": null, "tenure_type": null, "source": "GESTIM active titles (MRNF digital data dump). Not legal title.", "as_of": "2026-09-20", "role": "focus", "color": "#e8b040"}}, {"type": "Feature", "geometry": {"type": "Polygon", "coordinates": [[[-79.50833333325888, 49.500000004078295], [-79.50833333215822, 49.49166667337168], [-79.5166666598625, 49.491666669257704], [-79.5166666687309, 49.5000018032279], [-79.50833333325888, 49.500000004078295]]]}, "properties": {"company_id": "international-tower-hill", "jurisdiction": "Quebec", "claim_id": "", "claim_name": null, "holder": "International Explorers & Prospectors inc.", "status": "Active", "recorded_date": null, "anniversary_or_expiry": null, "area_ha": null, "tenure_type": null, "source": "GESTIM active titles (MRNF digital data dump). Not legal title.", "as_of": "2026-09-20", "role": "focus", "color": "#e8b040"}}, {"type": "Feature", "geometry": {"type": "Polygon", "coordinates": [[[-79.51786172813648, 49.500000040863135], [-79.51666666787659, 49.50000000415644], [-79.5166666598625, 49.491666669257704], [-79.51786208340293, 49.49166670232378], [-79.51786172813648, 49.500000040863135]]]}, "properties": {"company_id": "international-tower-hill", "jurisdiction": "Quebec", "claim_id": "", "claim_name": null, "holder": "International Explorers & Prospectors inc.", "status": "Active", "recorded_date": null, "anniversary_or_expiry": null, "area_ha": null, "tenure_type": null, "source": "GESTIM active titles (MRNF digital data dump). Not legal title.", "as_of": "2026-09-20", "role": "focus", "color": "#e8b040"}}, {"type": "Feature", "geometry": {"type": "Polygon", "coordinates": [[[-79.30833333452955, 49.441666669946756], [-79.31092688763802, 49.44166673736221], [-79.31092696473995, 49.44323817296663], [-79.31644442143525, 49.44324663524439], [-79.31666666414141, 49.44324696680796], [-79.31666666156788, 49.450000005683144], [-79.30833333908693, 49.45000000360646], [-79.30833333452955, 49.441666669946756]]]}, "properties": {"company_id": "international-tower-hill", "jurisdiction": "Quebec", "claim_id": "", "claim_name": null, "holder": "International Explorers & Prospectors inc.", "status": "Active", "recorded_date": null, "anniversary_or_expiry": null, "area_ha": null, "tenure_type": null, "source": "GESTIM active titles (MRNF digital data dump). Not legal title.", "as_of": "2026-09-20", "role": "focus", "color": "#e8b040"}}, {"type": "Feature", "geometry": {"type": "Polygon", "coordinates": [[[-77.45833333760504, 49.1000000018193], [-77.44999999987438, 49.099999998862096], [-77.45, 49.09166666667442], [-77.4583333333333, 49.09166666667442], [-77.45833333760504, 49.1000000018193]]]}, "properties": {"company_id": "international-tower-hill", "jurisdiction": "Quebec", "claim_id": "", "claim_name": null, "holder": "Antimony Mines International inc.", "status": "Active", "recorded_date": null, "anniversary_or_expiry": null, "area_ha": null, "tenure_type": null, "source": "GESTIM active titles (MRNF digital data dump). Not legal title.", "as_of": "2026-09-20", "role": "focus", "color": "#e8b040"}}, {"type": "Feature", "geometry": {"type": "Polygon", "coordinates": [[[-77.44999999987438, 49.099999998862096], [-77.44166666997131, 49.100000005006265], [-77.44166666666672, 49.09166666667442], [-77.45, 49.09166666667442], [-77.44999999987438, 49.099999998862096]]]}, "properties": {"company_id": "international-tower-hill", "jurisdiction": "Quebec", "claim_id": "", "claim_name": null, "holder": "Antimony Mines International inc.", "status": "Active", "recorded_date": null, "anniversary_or_expiry": null, "area_ha": null, "tenure_type": null, "source": "GESTIM active titles (MRNF digital data dump). Not legal title.", "as_of": "2026-09-20", "role": "focus", "color": "#e8b040"}}, {"type": "Feature", "geometry": {"type": "Polygon", "coordinates": [[[-65.51666666546703, 48.94166666334545], [-65.51666666091528, 48.94579243895685], [-65.51536237005476, 48.94613571608243], [-65.5151181030157, 48.946209808930156], [-65.51402003385074, 48.946597181376205], [-65.50896991421723, 48.94803541428438], [-65.50833333580447, 48.94827917002139], [-65.50833333883884, 48.941666664531056], [-65.51666666546703, 48.94166666334545]]]}, "properties": {"company_id": "international-tower-hill", "jurisdiction": "Quebec", "claim_id": "", "claim_name": null, "holder": "WMC INTERNATIONAL LTD", "status": "Active", "recorded_date": null, "anniversary_or_expiry": null, "area_ha": null, "tenure_type": null, "source": "GESTIM active titles (MRNF digital data dump). Not legal title.", "as_of": "2026-09-20", "role": "focus", "color": "#e8b040"}}]}