{"type": "FeatureCollection", "features": [{"type": "Feature", "geometry": {"type": "Polygon", "coordinates": [[[-120.684, 50.5853], [-120.684, 50.5886], [-120.6849, 50.5886], [-120.6849, 50.5896], [-120.687, 50.5896], [-120.687, 50.5885], [-120.6913, 50.5885], [-120.6913, 50.5907], [-120.7102, 50.5907], [-120.7102, 50.5817], [-120.684, 50.5817], [-120.684, 50.5853]]]}, "properties": {"company_id": "international-tower-hill", "jurisdiction": "British Columbia", "claim_id": 218836, "claim_name": "RABBIT #3", "holder": "TOWER RESOURCES LTD.", "status": "Mineral", "recorded_date": "6238944000", "anniversary_or_expiry": "2028-05-23", "area_ha": 200, "tenure_type": "Mineral", "source": "BC MTA Mineral, Placer and Coal Tenure Spatial View (BCGW). Open Government Licence - British Columbia. Not legal title.", "as_of": "2026-09-20", "role": "focus", "color": "#e8b040"}}, {"type": "Feature", "geometry": {"type": "Polygon", "coordinates": [[[-120.6913, 50.5907], [-120.6913, 50.6033], [-120.7054, 50.6033], [-120.7054, 50.5907], [-120.6913, 50.5907]]]}, "properties": {"company_id": "international-tower-hill", "jurisdiction": "British Columbia", "claim_id": 218841, "claim_name": "RABBIT #4", "holder": "TOWER RESOURCES LTD.", "status": "Mineral", "recorded_date": "6241536000", "anniversary_or_expiry": "2029-05-23", "area_ha": 150, "tenure_type": "Mineral", "source": "BC MTA Mineral, Placer and Coal Tenure Spatial View (BCGW). Open Government Licence - British Columbia. Not legal title.", "as_of": "2026-09-20", "role": "focus", "color": "#e8b040"}}, {"type": "Feature", "geometry": {"type": "Polygon", "coordinates": [[[-120.6913, 50.6033], [-120.6913, 50.6258], [-120.7125, 50.6258], [-120.7125, 50.6033], [-120.6913, 50.6033]]]}, "properties": {"company_id": "international-tower-hill", "jurisdiction": "British Columbia", "claim_id": 346382, "claim_name": "RABBIT 36", "holder": "TOWER RESOURCES LTD.", "status": "Mineral", "recorded_date": "8331552000", "anniversary_or_expiry": "2028-05-23", "area_ha": 375, "tenure_type": "Mineral", "source": "BC MTA Mineral, Placer and Coal Tenure Spatial View (BCGW). Open Government Licence - British Columbia. Not legal title.", "as_of": "2026-09-20", "role": "focus", "color": "#e8b040"}}, {"type": "Feature", "geometry": {"type": "Polygon", "coordinates": [[[-120.6631, 50.6249], [-120.6631, 50.6258], [-120.6913, 50.6258], [-120.6913, 50.6033], [-120.6631, 50.6033], [-120.6631, 50.6179], [-120.6659, 50.619], [-120.6652, 50.6197], [-120.6631, 50.6195], [-120.6631, 50.6249]]]}, "properties": {"company_id": "international-tower-hill", "jurisdiction": "British Columbia", "claim_id": 346383, "claim_name": "RABBIT 37", "holder": "TOWER RESOURCES LTD.", "status": "Mineral", "recorded_date": "8335008000", "anniversary_or_expiry": "2028-05-23", "area_ha": 500, "tenure_type": "Mineral", "source": "BC MTA Mineral, Placer and Coal Tenure Spatial View (BCGW). Open Government Licence - British Columbia. Not legal title.", "as_of": "2026-09-20", "role": "focus", "color": "#e8b040"}}, {"type": "Feature", "geometry": {"type": "Polygon", "coordinates": [[[-120.6631, 50.5946], [-120.6631, 50.6033], [-120.6913, 50.6033], [-120.6913, 50.5885], [-120.687, 50.5885], [-120.687, 50.5896], [-120.6849, 50.5896], [-120.6849, 50.5886], [-120.684, 50.5886], [-120.684, 50.5853], [-120.6631, 50.5853], [-120.6631, 50.5946]]]}, "properties": {"company_id": "international-tower-hill", "jurisdiction": "British Columbia", "claim_id": 346384, "claim_name": "RABBIT 38", "holder": "TOWER RESOURCES LTD.", "status": "Mineral", "recorded_date": "8333280000", "anniversary_or_expiry": "2029-05-23", "area_ha": 400, "tenure_type": "Mineral", "source": "BC MTA Mineral, Placer and Coal Tenure Spatial View (BCGW). Open Government Licence - British Columbia. Not legal title.", "as_of": "2026-09-20", "role": "focus", "color": "#e8b040"}}, {"type": "Feature", "geometry": {"type": "Polygon", "coordinates": [[[-120.6913, 50.6258], [-120.6489, 50.6258], [-120.6489, 50.6348], [-120.6633, 50.6348], [-120.6633, 50.6319], [-120.6704, 50.6319], [-120.6704, 50.6348], [-120.6913, 50.6348], [-120.6913, 50.6258]]]}, "properties": {"company_id": "international-tower-hill", "jurisdiction": "British Columbia", "claim_id": 346385, "claim_name": "RABBIT 39", "holder": "TOWER RESOURCES LTD.", "status": "Mineral", "recorded_date": "8336736000", "anniversary_or_expiry": "2028-05-23", "area_ha": 300, "tenure_type": "Mineral", "source": "BC MTA Mineral, Placer and Coal Tenure Spatial View (BCGW). Open Government Licence - British Columbia. Not legal title.", "as_of": "2026-09-20", "role": "focus", "color": "#e8b040"}}, {"type": "Feature", "geometry": {"type": "MultiPolygon", "coordinates": [[[[-120.6517, 50.6249], [-120.6631, 50.6249], [-120.6631, 50.6195], [-120.6576, 50.619], [-120.6576, 50.6179], [-120.6517, 50.6159], [-120.6517, 50.6249]]], [[[-120.6578, 50.6159], [-120.6631, 50.6179], [-120.6631, 50.6159], [-120.6578, 50.6159]]]]}, "properties": {"company_id": "international-tower-hill", "jurisdiction": "British Columbia", "claim_id": 346386, "claim_name": "RABBIT 40", "holder": "TOWER RESOURCES LTD.", "status": "Mineral", "recorded_date": "8336736000", "anniversary_or_expiry": "2028-05-23", "area_ha": 100, "tenure_type": "Mineral", "source": "BC MTA Mineral, Placer and Coal Tenure Spatial View (BCGW). Open Government Licence - British Columbia. Not legal title.", "as_of": "2026-09-20", "role": "focus", "color": "#e8b040"}}, {"type": "Feature", "geometry": {"type": "Polygon", "coordinates": [[[-120.7054, 50.6], [-120.7125, 50.6], [-120.7125, 50.5955], [-120.7054, 50.5955], [-120.7054, 50.6]]]}, "properties": {"company_id": "international-tower-hill", "jurisdiction": "British Columbia", "claim_id": 353214, "claim_name": "RABBIT #9", "holder": "TOWER RESOURCES LTD.", "status": "Mineral", "recorded_date": "8522496000", "anniversary_or_expiry": "2028-05-23", "area_ha": 25, "tenure_type": "Mineral", "source": "BC MTA Mineral, Placer and Coal Tenure Spatial View (BCGW). Open Government Licence - British Columbia. Not legal title.", "as_of": "2026-09-20", "role": "focus", "color": "#e8b040"}}, {"type": "Feature", "geometry": {"type": "Polygon", "coordinates": [[[-120.7125, 50.6], [-120.7196, 50.6], [-120.7196, 50.5955], [-120.7125, 50.5955], [-120.7125, 50.6]]]}, "properties": {"company_id": "international-tower-hill", "jurisdiction": "British Columbia", "claim_id": 353215, "claim_name": "RABBIT #10", "holder": "TOWER RESOURCES LTD.", "status": "Mineral", "recorded_date": "8522496000", "anniversary_or_expiry": "2028-05-23", "area_ha": 25, "tenure_type": "Mineral", "source": "BC MTA Mineral, Placer and Coal Tenure Spatial View (BCGW). Open Government Licence - British Columbia. Not legal title.", "as_of": "2026-09-20", "role": "focus", "color": "#e8b040"}}, {"type": "Feature", "geometry": {"type": "Polygon", "coordinates": [[[-120.712, 50.591], [-120.7054, 50.591], [-120.7054, 50.5955], [-120.7125, 50.5955], [-120.712, 50.591]]]}, "properties": {"company_id": "international-tower-hill", "jurisdiction": "British Columbia", "claim_id": 353216, "claim_name": "RABBIT #11", "holder": "TOWER RESOURCES LTD.", "status": "Mineral", "recorded_date": "8522496000", "anniversary_or_expiry": "2028-05-23", "area_ha": 25, "tenure_type": "Mineral", "source": "BC MTA Mineral, Placer and Coal Tenure Spatial View (BCGW). Open Government Licence - British Columbia. Not legal title.", "as_of": "2026-09-20", "role": "focus", "color": "#e8b040"}}, {"type": "Feature", "geometry": {"type": "Polygon", "coordinates": [[[-120.7125, 50.5932], [-120.7125, 50.5955], [-120.7196, 50.5955], [-120.7196, 50.5932], [-120.7125, 50.5932]]]}, "properties": {"company_id": "international-tower-hill", "jurisdiction": "British Columbia", "claim_id": 353217, "claim_name": "RABBIT #12", "holder": "TOWER RESOURCES LTD.", "status": "Mineral", "recorded_date": "8522496000", "anniversary_or_expiry": "2028-05-23", "area_ha": 25, "tenure_type": "Mineral", "source": "BC MTA Mineral, Placer and Coal Tenure Spatial View (BCGW). Open Government Licence - British Columbia. Not legal title.", "as_of": "2026-09-20", "role": "focus", "color": "#e8b040"}}, {"type": "Feature", "geometry": {"type": "Polygon", "coordinates": [[[-120.7121, 50.6], [-120.7054, 50.6], [-120.7054, 50.6033], [-120.7124, 50.6033], [-120.7121, 50.6]]]}, "properties": {"company_id": "international-tower-hill", "jurisdiction": "British Columbia", "claim_id": 353218, "claim_name": "RABBIT 23", "holder": "TOWER RESOURCES LTD.", "status": "Mineral", "recorded_date": "8522496000", "anniversary_or_expiry": "2028-05-23", "area_ha": 25, "tenure_type": "Mineral", "source": "BC MTA Mineral, Placer and Coal Tenure Spatial View (BCGW). Open Government Licence - British Columbia. Not legal title.", "as_of": "2026-09-20", "role": "focus", "color": "#e8b040"}}, {"type": "Feature", "geometry": {"type": "Polygon", "coordinates": [[[-120.5982, 49.4274], [-120.5978, 49.4184], [-120.5935, 49.4185], [-120.594, 49.4275], [-120.5982, 49.4274]]]}, "properties": {"company_id": "international-tower-hill", "jurisdiction": "British Columbia", "claim_id": 380929, "claim_name": null, "holder": "INTERNATIONAL ZEOLITE CORP.", "status": "Mineral", "recorded_date": "9768384000", "anniversary_or_expiry": "2025-12-15", "area_ha": 30.8, "tenure_type": "Mineral", "source": "BC MTA Mineral, Placer and Coal Tenure Spatial View (BCGW). Open Government Licence - British Columbia. Not legal title.", "as_of": "2026-09-20", "role": "focus", "color": "#e8b040"}}, {"type": "Feature", "geometry": {"type": "Polygon", "coordinates": [[[-120.7102, 50.5898], [-120.712, 50.5898], [-120.712, 50.5932], [-120.7235, 50.5932], [-120.7235, 50.5842], [-120.7102, 50.5842], [-120.7102, 50.5898]]]}, "properties": {"company_id": "international-tower-hill", "jurisdiction": "British Columbia", "claim_id": 386986, "claim_name": "RABBIT 45", "holder": "TOWER RESOURCES LTD.", "status": "Mineral", "recorded_date": "9918720000", "anniversary_or_expiry": "2028-05-23", "area_ha": 100, "tenure_type": "Mineral", "source": "BC MTA Mineral, Placer and Coal Tenure Spatial View (BCGW). Open Government Licence - British Columbia. Not legal title.", "as_of": "2026-09-20", "role": "focus", "color": "#e8b040"}}, {"type": "Feature", "geometry": {"type": "Polygon", "coordinates": [[[-118.131, 51.2845], [-118.1365, 51.2874], [-118.1411, 51.284], [-118.1357, 51.2811], [-118.1336, 51.2826], [-118.1337, 51.2832], [-118.131, 51.2845]]]}, "properties": {"company_id": "international-tower-hill", "jurisdiction": "British Columbia", "claim_id": 398402, "claim_name": "J1", "holder": "HUAKAN INTERNATIONAL MINING INC.", "status": "Mineral", "recorded_date": "2002-11-18", "anniversary_or_expiry": "2031-01-20", "area_ha": 25, "tenure_type": "Mineral", "source": "BC MTA Mineral, Placer and Coal Tenure Spatial View (BCGW). Open Government Licence - British Columbia. Not legal title.", "as_of": "2026-09-20", "role": "focus", "color": "#e8b040"}}, {"type": "Feature", "geometry": {"type": "Polygon", "coordinates": [[[-118.1281, 51.2888], [-118.1319, 51.2908], [-118.1365, 51.2874], [-118.131, 51.2845], [-118.1264, 51.2879], [-118.1281, 51.2888]]]}, "properties": {"company_id": "international-tower-hill", "jurisdiction": "British Columbia", "claim_id": 398403, "claim_name": "J2", "holder": "HUAKAN INTERNATIONAL MINING INC.", "status": "Mineral", "recorded_date": "2002-11-18", "anniversary_or_expiry": "2031-01-20", "area_ha": 25, "tenure_type": "Mineral", "source": "BC MTA Mineral, Placer and Coal Tenure Spatial View (BCGW). Open Government Licence - British Columbia. Not legal title.", "as_of": "2026-09-20", "role": "focus", "color": "#e8b040"}}, {"type": "Feature", "geometry": {"type": "Polygon", "coordinates": [[[-118.1365, 51.2874], [-118.142, 51.2903], [-118.1466, 51.2869], [-118.1411, 51.284], [-118.1365, 51.2874]]]}, "properties": {"company_id": "international-tower-hill", "jurisdiction": "British Columbia", "claim_id": 398404, "claim_name": "J3", "holder": "HUAKAN INTERNATIONAL MINING INC.", "status": "Mineral", "recorded_date": "2002-11-18", "anniversary_or_expiry": "2031-01-20", "area_ha": 25, "tenure_type": "Mineral", "source": "BC MTA Mineral, Placer and Coal Tenure Spatial View (BCGW). Open Government Licence - British Columbia. Not legal title.", "as_of": "2026-09-20", "role": "focus", "color": "#e8b040"}}, {"type": "Feature", "geometry": {"type": "Polygon", "coordinates": [[[-118.1319, 51.2908], [-118.1373, 51.2937], [-118.142, 51.2903], [-118.1365, 51.2874], [-118.1319, 51.2908]]]}, "properties": {"company_id": "international-tower-hill", "jurisdiction": "British Columbia", "claim_id": 398405, "claim_name": "J4", "holder": "HUAKAN INTERNATIONAL MINING INC.", "status": "Mineral", "recorded_date": "2002-11-18", "anniversary_or_expiry": "2031-01-20", "area_ha": 25, "tenure_type": "Mineral", "source": "BC MTA Mineral, Placer and Coal Tenure Spatial View (BCGW). Open Government Licence - British Columbia. Not legal title.", "as_of": "2026-09-20", "role": "focus", "color": "#e8b040"}}, {"type": "Feature", "geometry": {"type": "Polygon", "coordinates": [[[-118.142, 51.2903], [-118.1474, 51.2932], [-118.1521, 51.2898], [-118.1466, 51.2869], [-118.142, 51.2903]]]}, "properties": {"company_id": "international-tower-hill", "jurisdiction": "British Columbia", "claim_id": 398406, "claim_name": "J5", "holder": "HUAKAN INTERNATIONAL MINING INC.", "status": "Mineral", "recorded_date": "2002-11-18", "anniversary_or_expiry": "2031-01-20", "area_ha": 25, "tenure_type": "Mineral", "source": "BC MTA Mineral, Placer and Coal Tenure Spatial View (BCGW). Open Government Licence - British Columbia. Not legal title.", "as_of": "2026-09-20", "role": "focus", "color": "#e8b040"}}, {"type": "Feature", "geometry": {"type": "Polygon", "coordinates": [[[-118.1373, 51.2937], [-118.1428, 51.2966], [-118.1474, 51.2932], [-118.142, 51.2903], [-118.1373, 51.2937]]]}, "properties": {"company_id": "international-tower-hill", "jurisdiction": "British Columbia", "claim_id": 398407, "claim_name": "J6", "holder": "HUAKAN INTERNATIONAL MINING INC.", "status": "Mineral", "recorded_date": "2002-11-18", "anniversary_or_expiry": "2031-01-20", "area_ha": 25, "tenure_type": "Mineral", "source": "BC MTA Mineral, Placer and Coal Tenure Spatial View (BCGW). Open Government Licence - British Columbia. Not legal title.", "as_of": "2026-09-20", "role": "focus", "color": "#e8b040"}}, {"type": "Feature", "geometry": {"type": "Polygon", "coordinates": [[[-118.1474, 51.2932], [-118.1529, 51.2961], [-118.1576, 51.2927], [-118.1521, 51.2898], [-118.1474, 51.2932]]]}, "properties": {"company_id": "international-tower-hill", "jurisdiction": "British Columbia", "claim_id": 398408, "claim_name": "J7", "holder": "HUAKAN INTERNATIONAL MINING INC.", "status": "Mineral", "recorded_date": "2002-11-18", "anniversary_or_expiry": "2031-01-20", "area_ha": 25, "tenure_type": "Mineral", "source": "BC MTA Mineral, Placer and Coal Tenure Spatial View (BCGW). Open Government Licence - British Columbia. Not legal title.", "as_of": "2026-09-20", "role": "focus", "color": "#e8b040"}}, {"type": "Feature", "geometry": {"type": "Polygon", "coordinates": [[[-118.148, 51.2994], [-118.1529, 51.2961], [-118.1474, 51.2932], [-118.1428, 51.2966], [-118.148, 51.2994]]]}, "properties": {"company_id": "international-tower-hill", "jurisdiction": "British Columbia", "claim_id": 398409, "claim_name": "J8", "holder": "HUAKAN INTERNATIONAL MINING INC.", "status": "Mineral", "recorded_date": "2002-11-18", "anniversary_or_expiry": "2031-01-20", "area_ha": 25, "tenure_type": "Mineral", "source": "BC MTA Mineral, Placer and Coal Tenure Spatial View (BCGW). Open Government Licence - British Columbia. Not legal title.", "as_of": "2026-09-20", "role": "focus", "color": "#e8b040"}}, {"type": "Feature", "geometry": {"type": "MultiPolygon", "coordinates": [[[[-118.1095, 51.2845], [-118.1275, 51.2845], [-118.1219, 51.2843], [-118.1216, 51.2807], [-118.1203, 51.2788], [-118.1164, 51.2761], [-118.112, 51.2714], [-118.1131, 51.271], [-118.1095, 51.271], [-118.1095, 51.2845]]], [[[-118.131, 51.2774], [-118.131, 51.271], [-118.1241, 51.271], [-118.1293, 51.2752], [-118.131, 51.2774]]], [[[-118.1306, 51.2792], [-118.131, 51.2792], [-118.131, 51.2791], [-118.1306, 51.2792]]]]}, "properties": {"company_id": "international-tower-hill", "jurisdiction": "British Columbia", "claim_id": 398410, "claim_name": "J9", "holder": "HUAKAN INTERNATIONAL MINING INC.", "status": "Mineral", "recorded_date": "2002-11-18", "anniversary_or_expiry": "2031-01-20", "area_ha": 225, "tenure_type": "Mineral", "source": "BC MTA Mineral, Placer and Coal Tenure Spatial View (BCGW). Open Government Licence - British Columbia. Not legal title.", "as_of": "2026-09-20", "role": "focus", "color": "#e8b040"}}, {"type": "Feature", "geometry": {"type": "Polygon", "coordinates": [[[-118.1703, 51.3196], [-118.1703, 51.3241], [-118.1793, 51.3241], [-118.1785, 51.3232], [-118.1844, 51.3213], [-118.1867, 51.3241], [-118.1919, 51.3241], [-118.1919, 51.3061], [-118.1703, 51.3061], [-118.1703, 51.3196]], [[-118.1803, 51.3173], [-118.1839, 51.3208], [-118.1784, 51.323], [-118.1748, 51.3195], [-118.1803, 51.3173]]]}, "properties": {"company_id": "international-tower-hill", "jurisdiction": "British Columbia", "claim_id": 398411, "claim_name": "J10", "holder": "HUAKAN INTERNATIONAL MINING INC.", "status": "Mineral", "recorded_date": "2002-11-19", "anniversary_or_expiry": "2031-01-20", "area_ha": 300, "tenure_type": "Mineral", "source": "BC MTA Mineral, Placer and Coal Tenure Spatial View (BCGW). Open Government Licence - British Columbia. Not legal title.", "as_of": "2026-09-20", "role": "focus", "color": "#e8b040"}}, {"type": "Feature", "geometry": {"type": "Polygon", "coordinates": [[[-118.0919, 51.2661], [-118.0903, 51.2661], [-118.0903, 51.2706], [-118.0974, 51.2706], [-118.0974, 51.2661], [-118.0919, 51.2661]]]}, "properties": {"company_id": "international-tower-hill", "jurisdiction": "British Columbia", "claim_id": 398412, "claim_name": "J11", "holder": "HUAKAN INTERNATIONAL MINING INC.", "status": "Mineral", "recorded_date": "2002-11-19", "anniversary_or_expiry": "2031-01-20", "area_ha": 25, "tenure_type": "Mineral", "source": "BC MTA Mineral, Placer and Coal Tenure Spatial View (BCGW). Open Government Licence - British Columbia. Not legal title.", "as_of": "2026-09-20", "role": "focus", "color": "#e8b040"}}, {"type": "Feature", "geometry": {"type": "Polygon", "coordinates": [[[-118.0903, 51.2661], [-118.0831, 51.2661], [-118.0831, 51.2706], [-118.0903, 51.2706], [-118.0903, 51.2661]]]}, "properties": {"company_id": "international-tower-hill", "jurisdiction": "British Columbia", "claim_id": 398413, "claim_name": "J12", "holder": "HUAKAN INTERNATIONAL MINING INC.", "status": "Mineral", "recorded_date": "2002-11-19", "anniversary_or_expiry": "2031-01-20", "area_ha": 25, "tenure_type": "Mineral", "source": "BC MTA Mineral, Placer and Coal Tenure Spatial View (BCGW). Open Government Licence - British Columbia. Not legal title.", "as_of": "2026-09-20", "role": "focus", "color": "#e8b040"}}, {"type": "Feature", "geometry": {"type": "Polygon", "coordinates": [[[-118.1445, 51.3196], [-118.1445, 51.3374], [-118.166, 51.3374], [-118.166, 51.315], [-118.1445, 51.315], [-118.1445, 51.3196]]]}, "properties": {"company_id": "international-tower-hill", "jurisdiction": "British Columbia", "claim_id": 399179, "claim_name": "SAGE", "holder": "HUAKAN INTERNATIONAL MINING INC.", "status": "Mineral", "recorded_date": "2003-01-12", "anniversary_or_expiry": "2031-01-20", "area_ha": 375, "tenure_type": "Mineral", "source": "BC MTA Mineral, Placer and Coal Tenure Spatial View (BCGW). Open Government Licence - British Columbia. Not legal title.", "as_of": "2026-09-20", "role": "focus", "color": "#e8b040"}}, {"type": "Feature", "geometry": {"type": "Polygon", "coordinates": [[[-118.148, 51.3061], [-118.148, 51.3101], [-118.1703, 51.3101], [-118.1703, 51.3061], [-118.1767, 51.3061], [-118.1767, 51.2876], [-118.148, 51.2876], [-118.1576, 51.2927], [-118.148, 51.2994], [-118.148, 51.3061]]]}, "properties": {"company_id": "international-tower-hill", "jurisdiction": "British Columbia", "claim_id": 399180, "claim_name": "J13", "holder": "HUAKAN INTERNATIONAL MINING INC.", "status": "Mineral", "recorded_date": "2003-01-12", "anniversary_or_expiry": "2031-01-20", "area_ha": 500, "tenure_type": "Mineral", "source": "BC MTA Mineral, Placer and Coal Tenure Spatial View (BCGW). Open Government Licence - British Columbia. Not legal title.", "as_of": "2026-09-20", "role": "focus", "color": "#e8b040"}}, {"type": "Feature", "geometry": {"type": "MultiPolygon", "coordinates": [[[[-118.1411, 51.284], [-118.148, 51.2876], [-118.1512, 51.2876], [-118.1512, 51.2664], [-118.1225, 51.2663], [-118.1225, 51.2693], [-118.1241, 51.271], [-118.131, 51.271], [-118.131, 51.2774], [-118.1321, 51.2788], [-118.131, 51.2792], [-118.1331, 51.2791], [-118.1336, 51.2826], [-118.1357, 51.2811], [-118.1411, 51.284]]], [[[-118.1225, 51.2845], [-118.1225, 51.2888], [-118.1281, 51.2888], [-118.1264, 51.2879], [-118.1285, 51.2864], [-118.1275, 51.2845], [-118.1225, 51.2845]]]]}, "properties": {"company_id": "international-tower-hill", "jurisdiction": "British Columbia", "claim_id": 399181, "claim_name": "J14", "holder": "HUAKAN INTERNATIONAL MINING INC.", "status": "Mineral", "recorded_date": "2003-01-13", "anniversary_or_expiry": "2031-01-20", "area_ha": 500, "tenure_type": "Mineral", "source": "BC MTA Mineral, Placer and Coal Tenure Spatial View (BCGW). Open Government Licence - British Columbia. Not legal title.", "as_of": "2026-09-20", "role": "focus", "color": "#e8b040"}}, {"type": "Feature", "geometry": {"type": "Polygon", "coordinates": [[[-118.0974, 51.2706], [-118.0919, 51.2706], [-118.0919, 51.2748], [-118.1095, 51.2748], [-118.1095, 51.271], [-118.1131, 51.271], [-118.1213, 51.2679], [-118.1225, 51.2693], [-118.1225, 51.2663], [-118.1277, 51.2664], [-118.1277, 51.2613], [-118.0919, 51.2613], [-118.0919, 51.2661], [-118.0974, 51.2661], [-118.0974, 51.2706]]]}, "properties": {"company_id": "international-tower-hill", "jurisdiction": "British Columbia", "claim_id": 399182, "claim_name": "J15", "holder": "HUAKAN INTERNATIONAL MINING INC.", "status": "Mineral", "recorded_date": "2003-01-13", "anniversary_or_expiry": "2031-01-20", "area_ha": 375, "tenure_type": "Mineral", "source": "BC MTA Mineral, Placer and Coal Tenure Spatial View (BCGW). Open Government Licence - British Columbia. Not legal title.", "as_of": "2026-09-20", "role": "focus", "color": "#e8b040"}}, {"type": "Feature", "geometry": {"type": "Polygon", "coordinates": [[[-128.6337, 58.3099], [-128.6254, 58.3112], [-128.6261, 58.3117], [-128.6239, 58.3126], [-128.6257, 58.3158], [-128.6421, 58.3134], [-128.6397, 58.309], [-128.6337, 58.3099]]]}, "properties": {"company_id": "international-tower-hill", "jurisdiction": "British Columbia", "claim_id": 399394, "claim_name": "ANGEL #13", "holder": "CANADA TSINGHUA INTERNATIONAL JADE INVESTMENT GROUP CORP.", "status": "Placer", "recorded_date": "2003-01-10", "anniversary_or_expiry": "2029-12-30", "area_ha": 50, "tenure_type": "Placer", "source": "BC MTA Mineral, Placer and Coal Tenure Spatial View (BCGW). Open Government Licence - British Columbia. Not legal title.", "as_of": "2026-09-20", "role": "focus", "color": "#e8b040"}}, {"type": "Feature", "geometry": {"type": "Polygon", "coordinates": [[[-118.148, 51.3061], [-118.1417, 51.3061], [-118.1417, 51.3196], [-118.1445, 51.3196], [-118.1445, 51.315], [-118.166, 51.315], [-118.166, 51.3196], [-118.1703, 51.3196], [-118.1703, 51.3101], [-118.148, 51.3101], [-118.148, 51.3061]]]}, "properties": {"company_id": "international-tower-hill", "jurisdiction": "British Columbia", "claim_id": 401774, "claim_name": "BRUSH", "holder": "HUAKAN INTERNATIONAL MINING INC.", "status": "Mineral", "recorded_date": "2003-04-18", "anniversary_or_expiry": "2031-01-20", "area_ha": 300, "tenure_type": "Mineral", "source": "BC MTA Mineral, Placer and Coal Tenure Spatial View (BCGW). Open Government Licence - British Columbia. Not legal title.", "as_of": "2026-09-20", "role": "focus", "color": "#e8b040"}}, {"type": "Feature", "geometry": {"type": "Polygon", "coordinates": [[[-120.7196, 50.5932], [-120.7196, 50.6044], [-120.7185, 50.6044], [-120.7185, 50.6055], [-120.7327, 50.6055], [-120.7327, 50.583], [-120.7185, 50.583], [-120.7185, 50.5842], [-120.7235, 50.5842], [-120.7235, 50.5932], [-120.7196, 50.5932]]]}, "properties": {"company_id": "international-tower-hill", "jurisdiction": "British Columbia", "claim_id": 403932, "claim_name": "RABBIT 64", "holder": "TOWER RESOURCES LTD.", "status": "Mineral", "recorded_date": "2003-07-24", "anniversary_or_expiry": "2028-05-23", "area_ha": 250, "tenure_type": "Mineral", "source": "BC MTA Mineral, Placer and Coal Tenure Spatial View (BCGW). Open Government Licence - British Columbia. Not legal title.", "as_of": "2026-09-20", "role": "focus", "color": "#e8b040"}}, {"type": "Feature", "geometry": {"type": "Polygon", "coordinates": [[[-120.7124, 50.6033], [-120.7125, 50.6], [-120.7121, 50.6], [-120.7124, 50.6033]]]}, "properties": {"company_id": "international-tower-hill", "jurisdiction": "British Columbia", "claim_id": 403933, "claim_name": "RABBIT 59", "holder": "TOWER RESOURCES LTD.", "status": "Mineral", "recorded_date": "2003-07-23", "anniversary_or_expiry": "2028-05-23", "area_ha": 25, "tenure_type": "Mineral", "source": "BC MTA Mineral, Placer and Coal Tenure Spatial View (BCGW). Open Government Licence - British Columbia. Not legal title.", "as_of": "2026-09-20", "role": "focus", "color": "#e8b040"}}, {"type": "Feature", "geometry": {"type": "Polygon", "coordinates": [[[-120.7125, 50.6044], [-120.7196, 50.6044], [-120.7196, 50.6], [-120.7125, 50.6], [-120.7125, 50.6044]]]}, "properties": {"company_id": "international-tower-hill", "jurisdiction": "British Columbia", "claim_id": 403934, "claim_name": "RABBIT 60", "holder": "TOWER RESOURCES LTD.", "status": "Mineral", "recorded_date": "2003-07-23", "anniversary_or_expiry": "2028-05-23", "area_ha": 25, "tenure_type": "Mineral", "source": "BC MTA Mineral, Placer and Coal Tenure Spatial View (BCGW). Open Government Licence - British Columbia. Not legal title.", "as_of": "2026-09-20", "role": "focus", "color": "#e8b040"}}, {"type": "Feature", "geometry": {"type": "Polygon", "coordinates": [[[-120.712, 50.5898], [-120.7102, 50.5898], [-120.7102, 50.5907], [-120.7054, 50.591], [-120.712, 50.591], [-120.712, 50.5898]]]}, "properties": {"company_id": "international-tower-hill", "jurisdiction": "British Columbia", "claim_id": 403935, "claim_name": "RABBIT 65", "holder": "TOWER RESOURCES LTD.", "status": "Mineral", "recorded_date": "2003-07-26", "anniversary_or_expiry": "2028-05-23", "area_ha": 25, "tenure_type": "Mineral", "source": "BC MTA Mineral, Placer and Coal Tenure Spatial View (BCGW). Open Government Licence - British Columbia. Not legal title.", "as_of": "2026-09-20", "role": "focus", "color": "#e8b040"}}, {"type": "Feature", "geometry": {"type": "Polygon", "coordinates": [[[-120.7185, 50.5842], [-120.7185, 50.583], [-120.7212, 50.583], [-120.7212, 50.5822], [-120.7141, 50.5822], [-120.7141, 50.5842], [-120.7185, 50.5842]]]}, "properties": {"company_id": "international-tower-hill", "jurisdiction": "British Columbia", "claim_id": 403936, "claim_name": "RABBIT 66", "holder": "TOWER RESOURCES LTD.", "status": "Mineral", "recorded_date": "2003-07-26", "anniversary_or_expiry": "2028-05-23", "area_ha": 25, "tenure_type": "Mineral", "source": "BC MTA Mineral, Placer and Coal Tenure Spatial View (BCGW). Open Government Licence - British Columbia. Not legal title.", "as_of": "2026-09-20", "role": "focus", "color": "#e8b040"}}, {"type": "Feature", "geometry": {"type": "Polygon", "coordinates": [[[-120.7102, 50.5822], [-120.7102, 50.5842], [-120.7141, 50.5842], [-120.7141, 50.5822], [-120.7102, 50.5822]]]}, "properties": {"company_id": "international-tower-hill", "jurisdiction": "British Columbia", "claim_id": 403937, "claim_name": "RABBIT 67", "holder": "TOWER RESOURCES LTD.", "status": "Mineral", "recorded_date": "2003-07-26", "anniversary_or_expiry": "2028-05-23", "area_ha": 25, "tenure_type": "Mineral", "source": "BC MTA Mineral, Placer and Coal Tenure Spatial View (BCGW). Open Government Licence - British Columbia. Not legal title.", "as_of": "2026-09-20", "role": "focus", "color": "#e8b040"}}, {"type": "Feature", "geometry": {"type": "MultiPolygon", "coordinates": [[[[-120.6578, 50.6159], [-120.6631, 50.6159], [-120.6631, 50.607], [-120.6526, 50.607], [-120.6525, 50.6091], [-120.6511, 50.6091], [-120.6511, 50.6133], [-120.6578, 50.6159]]], [[[-120.6517, 50.6159], [-120.6511, 50.6157], [-120.6511, 50.616], [-120.6517, 50.6159]]]]}, "properties": {"company_id": "international-tower-hill", "jurisdiction": "British Columbia", "claim_id": 412822, "claim_name": "RABBIT 87", "holder": "TOWER RESOURCES LTD.", "status": "Mineral", "recorded_date": "2004-07-30", "anniversary_or_expiry": "2028-05-23", "area_ha": 100, "tenure_type": "Mineral", "source": "BC MTA Mineral, Placer and Coal Tenure Spatial View (BCGW). Open Government Licence - British Columbia. Not legal title.", "as_of": "2026-09-20", "role": "focus", "color": "#e8b040"}}, {"type": "Feature", "geometry": {"type": "Polygon", "coordinates": [[[-120.6513, 50.6124], [-120.6513, 50.6082], [-120.645, 50.6082], [-120.645, 50.6166], [-120.6513, 50.6166], [-120.6513, 50.6124]]]}, "properties": {"company_id": "international-tower-hill", "jurisdiction": "British Columbia", "claim_id": 517645, "claim_name": "RABBIT 113", "holder": "TOWER RESOURCES LTD.", "status": "Mineral", "recorded_date": "2005-07-13", "anniversary_or_expiry": "2028-05-23", "area_ha": 41.012, "tenure_type": "Mineral", "source": "BC MTA Mineral, Placer and Coal Tenure Spatial View (BCGW). Open Government Licence - British Columbia. Not legal title.", "as_of": "2026-09-20", "role": "focus", "color": "#e8b040"}}, {"type": "Feature", "geometry": {"type": "Polygon", "coordinates": [[[-128.633, 58.2873], [-128.633, 58.2831], [-128.6268, 58.2831], [-128.6268, 58.2623], [-128.6143, 58.2623], [-128.6143, 58.2873], [-128.6205, 58.2873], [-128.6205, 58.2914], [-128.6143, 58.2914], [-128.6143, 58.2956], [-128.6205, 58.2956], [-128.6205, 58.3039], [-128.633, 58.3039], [-128.633, 58.2998], [-128.6268, 58.2998], [-128.6268, 58.2956], [-128.633, 58.2956], [-128.633, 58.2873]]]}, "properties": {"company_id": "international-tower-hill", "jurisdiction": "British Columbia", "claim_id": 513719, "claim_name": null, "holder": "CANADA TSINGHUA INTERNATIONAL JADE INVESTMENT GROUP CORP.", "status": "Placer", "recorded_date": "2005-05-31", "anniversary_or_expiry": "2028-03-01", "area_ha": 357.394, "tenure_type": "Placer", "source": "BC MTA Mineral, Placer and Coal Tenure Spatial View (BCGW). Open Government Licence - British Columbia. Not legal title.", "as_of": "2026-09-20", "role": "focus", "color": "#e8b040"}}, {"type": "Feature", "geometry": {"type": "Polygon", "coordinates": [[[-124.5391, 53.3541], [-124.5391, 53.3374], [-124.5078, 53.3374], [-124.5078, 53.3582], [-124.5391, 53.3582], [-124.5391, 53.3541]]]}, "properties": {"company_id": "international-tower-hill", "jurisdiction": "British Columbia", "claim_id": 527382, "claim_name": "PORPHYRY#1", "holder": "TOWER RESOURCES LTD.", "status": "Mineral", "recorded_date": "2006-02-10", "anniversary_or_expiry": "2030-02-10", "area_ha": 482.637, "tenure_type": "Mineral", "source": "BC MTA Mineral, Placer and Coal Tenure Spatial View (BCGW). Open Government Licence - British Columbia. Not legal title.", "as_of": "2026-09-20", "role": "focus", "color": "#e8b040"}}, {"type": "Feature", "geometry": {"type": "Polygon", "coordinates": [[[-124.5891, 53.3416], [-124.5953, 53.3416], [-124.5953, 53.3374], [-124.5641, 53.3374], [-124.5641, 53.3332], [-124.5516, 53.3332], [-124.5516, 53.3291], [-124.5078, 53.3291], [-124.5078, 53.3374], [-124.5391, 53.3374], [-124.5391, 53.3416], [-124.5891, 53.3416]]]}, "properties": {"company_id": "international-tower-hill", "jurisdiction": "British Columbia", "claim_id": 533567, "claim_name": "AU#1", "holder": "TOWER RESOURCES LTD.", "status": "Mineral", "recorded_date": "2006-05-04", "anniversary_or_expiry": "2028-05-04", "area_ha": 482.778, "tenure_type": "Mineral", "source": "BC MTA Mineral, Placer and Coal Tenure Spatial View (BCGW). Open Government Licence - British Columbia. Not legal title.", "as_of": "2026-09-20", "role": "focus", "color": "#e8b040"}}, {"type": "Feature", "geometry": {"type": "Polygon", "coordinates": [[[-124.5391, 53.3249], [-124.5391, 53.3166], [-124.5266, 53.3166], [-124.5266, 53.3207], [-124.5141, 53.3207], [-124.5141, 53.3291], [-124.5391, 53.3291], [-124.5391, 53.3249]]]}, "properties": {"company_id": "international-tower-hill", "jurisdiction": "British Columbia", "claim_id": 533569, "claim_name": null, "holder": "TOWER RESOURCES LTD.", "status": "Mineral", "recorded_date": "2006-05-04", "anniversary_or_expiry": "2028-05-04", "area_ha": 193.163, "tenure_type": "Mineral", "source": "BC MTA Mineral, Placer and Coal Tenure Spatial View (BCGW). Open Government Licence - British Columbia. Not legal title.", "as_of": "2026-09-20", "role": "focus", "color": "#e8b040"}}, {"type": "Feature", "geometry": {"type": "Polygon", "coordinates": [[[-124.5703, 53.3332], [-124.5703, 53.3291], [-124.5516, 53.3291], [-124.5516, 53.3332], [-124.5641, 53.3332], [-124.5641, 53.3374], [-124.5703, 53.3374], [-124.5703, 53.3332]]]}, "properties": {"company_id": "international-tower-hill", "jurisdiction": "British Columbia", "claim_id": 533570, "claim_name": null, "holder": "TOWER RESOURCES LTD.", "status": "Mineral", "recorded_date": "2006-05-04", "anniversary_or_expiry": "2028-05-04", "area_ha": 77.251, "tenure_type": "Mineral", "source": "BC MTA Mineral, Placer and Coal Tenure Spatial View (BCGW). Open Government Licence - British Columbia. Not legal title.", "as_of": "2026-09-20", "role": "focus", "color": "#e8b040"}}]}