{"type": "FeatureCollection", "features": [{"type": "Feature", "geometry": {"type": "Polygon", "coordinates": [[[-127.2119, 57.4798], [-127.2119, 57.4977], [-127.2536, 57.4977], [-127.2536, 57.4798], [-127.2119, 57.4798]]]}, "properties": {"company_id": "integra-resources", "jurisdiction": "British Columbia", "claim_id": 406021, "claim_name": "PEARL 1", "holder": "INTEGRATED MINERALS MANAGEMENT INC", "status": "Mineral", "recorded_date": "2003-10-11", "anniversary_or_expiry": "2025-10-03", "area_ha": 500, "tenure_type": "Mineral", "source": "BC MTA Mineral, Placer and Coal Tenure Spatial View (BCGW). Open Government Licence - British Columbia. Not legal title.", "as_of": "2026-09-20", "role": "focus", "color": "#e8b040"}}, {"type": "Feature", "geometry": {"type": "Polygon", "coordinates": [[[-127.2343, 57.4575], [-127.2292, 57.4575], [-127.2292, 57.4798], [-127.2625, 57.4799], [-127.2625, 57.4794], [-127.2611, 57.4794], [-127.261, 57.4575], [-127.251, 57.4575], [-127.251, 57.4588], [-127.2343, 57.4588], [-127.2343, 57.4575]]]}, "properties": {"company_id": "integra-resources", "jurisdiction": "British Columbia", "claim_id": 406022, "claim_name": "PEARL 2", "holder": "INTEGRATED MINERALS MANAGEMENT INC", "status": "Mineral", "recorded_date": "2003-10-12", "anniversary_or_expiry": "2025-10-03", "area_ha": 500, "tenure_type": "Mineral", "source": "BC MTA Mineral, Placer and Coal Tenure Spatial View (BCGW). Open Government Licence - British Columbia. Not legal title.", "as_of": "2026-09-20", "role": "focus", "color": "#e8b040"}}, {"type": "Feature", "geometry": {"type": "Polygon", "coordinates": [[[-127.2292, 57.4798], [-127.2292, 57.4575], [-127.1959, 57.4577], [-127.1959, 57.4799], [-127.2292, 57.4798]]]}, "properties": {"company_id": "integra-resources", "jurisdiction": "British Columbia", "claim_id": 406023, "claim_name": "PEARL 3", "holder": "INTEGRATED MINERALS MANAGEMENT INC", "status": "Mineral", "recorded_date": "2003-10-12", "anniversary_or_expiry": "2025-10-03", "area_ha": 500, "tenure_type": "Mineral", "source": "BC MTA Mineral, Placer and Coal Tenure Spatial View (BCGW). Open Government Licence - British Columbia. Not legal title.", "as_of": "2026-09-20", "role": "focus", "color": "#e8b040"}}, {"type": "Feature", "geometry": {"type": "Polygon", "coordinates": [[[-127.2042, 57.4409], [-127.2042, 57.4573], [-127.2343, 57.4573], [-127.2343, 57.4409], [-127.2042, 57.4409]]]}, "properties": {"company_id": "integra-resources", "jurisdiction": "British Columbia", "claim_id": 406024, "claim_name": "PEARL 4", "holder": "INTEGRATED MINERALS MANAGEMENT INC", "status": "Mineral", "recorded_date": "2003-10-12", "anniversary_or_expiry": "2025-10-03", "area_ha": 400, "tenure_type": "Mineral", "source": "BC MTA Mineral, Placer and Coal Tenure Spatial View (BCGW). Open Government Licence - British Columbia. Not legal title.", "as_of": "2026-09-20", "role": "focus", "color": "#e8b040"}}, {"type": "Feature", "geometry": {"type": "Polygon", "coordinates": [[[-127.1626, 57.4659], [-127.1626, 57.4666], [-127.1656, 57.4666], [-127.1656, 57.4802], [-127.1721, 57.4802], [-127.1721, 57.4789], [-127.1959, 57.4789], [-127.1959, 57.4578], [-127.1792, 57.4578], [-127.1792, 57.4711], [-127.173, 57.4711], [-127.173, 57.4659], [-127.1626, 57.4659]]]}, "properties": {"company_id": "integra-resources", "jurisdiction": "British Columbia", "claim_id": 409181, "claim_name": "PEARL 5", "holder": "INTEGRATED MINERALS MANAGEMENT INC", "status": "Mineral", "recorded_date": "2004-03-23", "anniversary_or_expiry": "2025-10-03", "area_ha": 500, "tenure_type": "Mineral", "source": "BC MTA Mineral, Placer and Coal Tenure Spatial View (BCGW). Open Government Licence - British Columbia. Not legal title.", "as_of": "2026-09-20", "role": "focus", "color": "#e8b040"}}, {"type": "Feature", "geometry": {"type": "Polygon", "coordinates": [[[-127.2119, 57.4799], [-127.1959, 57.4799], [-127.1959, 57.4789], [-127.1721, 57.4789], [-127.1721, 57.4969], [-127.2119, 57.4969], [-127.2119, 57.4799]]]}, "properties": {"company_id": "integra-resources", "jurisdiction": "British Columbia", "claim_id": 409182, "claim_name": "PEARL 6", "holder": "INTEGRATED MINERALS MANAGEMENT INC", "status": "Mineral", "recorded_date": "2004-03-23", "anniversary_or_expiry": "2025-10-03", "area_ha": 500, "tenure_type": "Mineral", "source": "BC MTA Mineral, Placer and Coal Tenure Spatial View (BCGW). Open Government Licence - British Columbia. Not legal title.", "as_of": "2026-09-20", "role": "focus", "color": "#e8b040"}}, {"type": "Feature", "geometry": {"type": "Polygon", "coordinates": [[[-127.2119, 57.4969], [-127.1721, 57.4969], [-127.1721, 57.5148], [-127.2138, 57.5149], [-127.2138, 57.4977], [-127.2119, 57.4977], [-127.2119, 57.4969]]]}, "properties": {"company_id": "integra-resources", "jurisdiction": "British Columbia", "claim_id": 409183, "claim_name": "PEARL 7", "holder": "INTEGRATED MINERALS MANAGEMENT INC", "status": "Mineral", "recorded_date": "2004-03-23", "anniversary_or_expiry": "2025-10-03", "area_ha": 500, "tenure_type": "Mineral", "source": "BC MTA Mineral, Placer and Coal Tenure Spatial View (BCGW). Open Government Licence - British Columbia. Not legal title.", "as_of": "2026-09-20", "role": "focus", "color": "#e8b040"}}, {"type": "Feature", "geometry": {"type": "Polygon", "coordinates": [[[-127.2056, 57.4678], [-127.2136, 57.4666], [-127.2113, 57.4623], [-127.2033, 57.4635], [-127.2056, 57.4678]]]}, "properties": {"company_id": "integra-resources", "jurisdiction": "British Columbia", "claim_id": 414658, "claim_name": "PP 1", "holder": "INTEGRATED MINERALS MANAGEMENT INC", "status": "Mineral", "recorded_date": "2004-09-29", "anniversary_or_expiry": "2025-10-03", "area_ha": 25, "tenure_type": "Mineral", "source": "BC MTA Mineral, Placer and Coal Tenure Spatial View (BCGW). Open Government Licence - British Columbia. Not legal title.", "as_of": "2026-09-20", "role": "focus", "color": "#e8b040"}}, {"type": "Feature", "geometry": {"type": "Polygon", "coordinates": [[[-127.2136, 57.4666], [-127.2216, 57.4653], [-127.2193, 57.461], [-127.2113, 57.4623], [-127.2136, 57.4666]]]}, "properties": {"company_id": "integra-resources", "jurisdiction": "British Columbia", "claim_id": 414659, "claim_name": "PP 2", "holder": "INTEGRATED MINERALS MANAGEMENT INC", "status": "Mineral", "recorded_date": "2004-09-29", "anniversary_or_expiry": "2025-10-03", "area_ha": 25, "tenure_type": "Mineral", "source": "BC MTA Mineral, Placer and Coal Tenure Spatial View (BCGW). Open Government Licence - British Columbia. Not legal title.", "as_of": "2026-09-20", "role": "focus", "color": "#e8b040"}}, {"type": "Feature", "geometry": {"type": "Polygon", "coordinates": [[[-127.1705, 57.4915], [-127.1705, 57.4873], [-127.1392, 57.4873], [-127.1392, 57.5082], [-127.1705, 57.5082], [-127.1705, 57.4915]]]}, "properties": {"company_id": "integra-resources", "jurisdiction": "British Columbia", "claim_id": 502951, "claim_name": "Pearl East 1", "holder": "INTEGRATED MINERALS MANAGEMENT INC", "status": "Mineral", "recorded_date": "2005-01-13", "anniversary_or_expiry": "2025-10-03", "area_ha": 434.74800000000005, "tenure_type": "Mineral", "source": "BC MTA Mineral, Placer and Coal Tenure Spatial View (BCGW). Open Government Licence - British Columbia. Not legal title.", "as_of": "2026-09-20", "role": "focus", "color": "#e8b040"}}, {"type": "Feature", "geometry": {"type": "Polygon", "coordinates": [[[-127.1392, 57.4915], [-127.1392, 57.4873], [-127.1267, 57.4873], [-127.1267, 57.5082], [-127.1392, 57.5082], [-127.1392, 57.4915]]]}, "properties": {"company_id": "integra-resources", "jurisdiction": "British Columbia", "claim_id": 502954, "claim_name": "Pearl East 2", "holder": "INTEGRATED MINERALS MANAGEMENT INC", "status": "Mineral", "recorded_date": "2005-01-13", "anniversary_or_expiry": "2025-10-03", "area_ha": 173.9, "tenure_type": "Mineral", "source": "BC MTA Mineral, Placer and Coal Tenure Spatial View (BCGW). Open Government Licence - British Columbia. Not legal title.", "as_of": "2026-09-20", "role": "focus", "color": "#e8b040"}}, {"type": "Feature", "geometry": {"type": "Polygon", "coordinates": [[[-127.1017, 57.504], [-127.083, 57.504], [-127.083, 57.5123], [-127.0892, 57.5123], [-127.0892, 57.5082], [-127.108, 57.5082], [-127.108, 57.504], [-127.1017, 57.504]]]}, "properties": {"company_id": "integra-resources", "jurisdiction": "British Columbia", "claim_id": 502961, "claim_name": "Pearl East 4", "holder": "INTEGRATED MINERALS MANAGEMENT INC", "status": "Mineral", "recorded_date": "2005-01-13", "anniversary_or_expiry": "2025-10-03", "area_ha": 86.929, "tenure_type": "Mineral", "source": "BC MTA Mineral, Placer and Coal Tenure Spatial View (BCGW). Open Government Licence - British Columbia. Not legal title.", "as_of": "2026-09-20", "role": "focus", "color": "#e8b040"}}, {"type": "Feature", "geometry": {"type": "Polygon", "coordinates": [[[-127.2955, 57.4832], [-127.2955, 57.479], [-127.2517, 57.479], [-127.2517, 57.4957], [-127.2142, 57.4957], [-127.2142, 57.4998], [-127.208, 57.4998], [-127.208, 57.5123], [-127.2142, 57.5123], [-127.2142, 57.5165], [-127.2955, 57.5165], [-127.2955, 57.4832]]]}, "properties": {"company_id": "integra-resources", "jurisdiction": "British Columbia", "claim_id": 524927, "claim_name": null, "holder": "INTEGRATED MINERALS MANAGEMENT INC", "status": "Mineral", "recorded_date": "2006-01-09", "anniversary_or_expiry": "2025-10-03", "area_ha": 1669.202, "tenure_type": "Mineral", "source": "BC MTA Mineral, Placer and Coal Tenure Spatial View (BCGW). Open Government Licence - British Columbia. Not legal title.", "as_of": "2026-09-20", "role": "focus", "color": "#e8b040"}}, {"type": "Feature", "geometry": {"type": "Polygon", "coordinates": [[[-127.1267, 57.4957], [-127.1267, 57.4915], [-127.108, 57.4915], [-127.108, 57.5082], [-127.1267, 57.5082], [-127.1267, 57.4957]]]}, "properties": {"company_id": "integra-resources", "jurisdiction": "British Columbia", "claim_id": 502957, "claim_name": "Pearl East 3", "holder": "INTEGRATED MINERALS MANAGEMENT INC", "status": "Mineral", "recorded_date": "2005-01-13", "anniversary_or_expiry": "2025-10-03", "area_ha": 208.669, "tenure_type": "Mineral", "source": "BC MTA Mineral, Placer and Coal Tenure Spatial View (BCGW). Open Government Licence - British Columbia. Not legal title.", "as_of": "2026-09-20", "role": "focus", "color": "#e8b040"}}]}