{"type": "FeatureCollection", "features": [{"type": "Feature", "geometry": {"type": "Polygon", "coordinates": [[[-79.9063, 48.175], [-79.9063, 48.1792], [-79.9125, 48.1792], [-79.9125, 48.175], [-79.9063, 48.175]]]}, "properties": {"company_id": "integra-resources", "jurisdiction": "Ontario", "claim_id": "113137", "claim_name": null, "holder": "(30) INTEGRA GOLD CORP., (70) VAL-D'OR MINING CORPORATION", "status": "Active", "recorded_date": "2018-04-10", "anniversary_or_expiry": "2027-06-22", "area_ha": null, "tenure_type": "Single Cell Mining Claim", "source": "Ontario MLAS operational claims (OGSEarth / LIO MapServer). Unofficial viewing data, not legal title.", "as_of": "2026-09-20", "role": "focus", "color": "#e8b040"}}, {"type": "Feature", "geometry": {"type": "Polygon", "coordinates": [[[-79.8938, 48.1833], [-79.8938, 48.1875], [-79.9, 48.1875], [-79.9, 48.1833], [-79.8938, 48.1833]]]}, "properties": {"company_id": "integra-resources", "jurisdiction": "Ontario", "claim_id": "113208", "claim_name": null, "holder": "(30) INTEGRA GOLD CORP., (70) VAL-D'OR MINING CORPORATION", "status": "Active", "recorded_date": "2018-04-10", "anniversary_or_expiry": "2027-06-22", "area_ha": null, "tenure_type": "Single Cell Mining Claim", "source": "Ontario MLAS operational claims (OGSEarth / LIO MapServer). Unofficial viewing data, not legal title.", "as_of": "2026-09-20", "role": "focus", "color": "#e8b040"}}, {"type": "Feature", "geometry": {"type": "Polygon", "coordinates": [[[-79.8813, 48.1875], [-79.8813, 48.1917], [-79.8875, 48.1917], [-79.8875, 48.1875], [-79.8813, 48.1875]]]}, "properties": {"company_id": "integra-resources", "jurisdiction": "Ontario", "claim_id": "114554", "claim_name": null, "holder": "(30) INTEGRA GOLD CORP., (70) VAL-D'OR MINING CORPORATION", "status": "Active", "recorded_date": "2018-04-10", "anniversary_or_expiry": "2027-08-10", "area_ha": null, "tenure_type": "Single Cell Mining Claim", "source": "Ontario MLAS operational claims (OGSEarth / LIO MapServer). Unofficial viewing data, not legal title.", "as_of": "2026-09-20", "role": "focus", "color": "#e8b040"}}, {"type": "Feature", "geometry": {"type": "Polygon", "coordinates": [[[-79.9188, 48.1833], [-79.9188, 48.1875], [-79.925, 48.1875], [-79.925, 48.1833], [-79.9188, 48.1833]]]}, "properties": {"company_id": "integra-resources", "jurisdiction": "Ontario", "claim_id": "135114", "claim_name": null, "holder": "(30) INTEGRA GOLD CORP., (70) VAL-D'OR MINING CORPORATION", "status": "Active", "recorded_date": "2018-04-10", "anniversary_or_expiry": "2027-08-10", "area_ha": null, "tenure_type": "Single Cell Mining Claim", "source": "Ontario MLAS operational claims (OGSEarth / LIO MapServer). Unofficial viewing data, not legal title.", "as_of": "2026-09-20", "role": "focus", "color": "#e8b040"}}, {"type": "Feature", "geometry": {"type": "Polygon", "coordinates": [[[-79.9125, 48.1792], [-79.9125, 48.1833], [-79.9188, 48.1833], [-79.9188, 48.1792], [-79.9125, 48.1792]]]}, "properties": {"company_id": "integra-resources", "jurisdiction": "Ontario", "claim_id": "135115", "claim_name": null, "holder": "(30) INTEGRA GOLD CORP., (70) VAL-D'OR MINING CORPORATION", "status": "Active", "recorded_date": "2018-04-10", "anniversary_or_expiry": "2027-06-22", "area_ha": null, "tenure_type": "Single Cell Mining Claim", "source": "Ontario MLAS operational claims (OGSEarth / LIO MapServer). Unofficial viewing data, not legal title.", "as_of": "2026-09-20", "role": "focus", "color": "#e8b040"}}, {"type": "Feature", "geometry": {"type": "Polygon", "coordinates": [[[-79.9063, 48.1875], [-79.9063, 48.1917], [-79.9125, 48.1917], [-79.9125, 48.1875], [-79.9063, 48.1875]]]}, "properties": {"company_id": "integra-resources", "jurisdiction": "Ontario", "claim_id": "135186", "claim_name": null, "holder": "(30) INTEGRA GOLD CORP., (70) VAL-D'OR MINING CORPORATION", "status": "Active", "recorded_date": "2018-04-10", "anniversary_or_expiry": "2027-08-10", "area_ha": null, "tenure_type": "Single Cell Mining Claim", "source": "Ontario MLAS operational claims (OGSEarth / LIO MapServer). Unofficial viewing data, not legal title.", "as_of": "2026-09-20", "role": "focus", "color": "#e8b040"}}, {"type": "Feature", "geometry": {"type": "Polygon", "coordinates": [[[-79.8875, 48.2], [-79.8875, 48.2042], [-79.8938, 48.2042], [-79.8938, 48.2], [-79.8875, 48.2]]]}, "properties": {"company_id": "integra-resources", "jurisdiction": "Ontario", "claim_id": "135811", "claim_name": null, "holder": "(30) INTEGRA GOLD CORP., (70) VAL-D'OR MINING CORPORATION", "status": "Active", "recorded_date": "2018-04-10", "anniversary_or_expiry": "2027-08-10", "area_ha": null, "tenure_type": "Single Cell Mining Claim", "source": "Ontario MLAS operational claims (OGSEarth / LIO MapServer). Unofficial viewing data, not legal title.", "as_of": "2026-09-20", "role": "focus", "color": "#e8b040"}}, {"type": "Feature", "geometry": {"type": "Polygon", "coordinates": [[[-79.8813, 48.1958], [-79.8813, 48.2], [-79.8875, 48.2], [-79.8875, 48.1958], [-79.8813, 48.1958]]]}, "properties": {"company_id": "integra-resources", "jurisdiction": "Ontario", "claim_id": "136474", "claim_name": null, "holder": "(30) INTEGRA GOLD CORP., (70) VAL-D'OR MINING CORPORATION", "status": "Active", "recorded_date": "2018-04-10", "anniversary_or_expiry": "2027-08-10", "area_ha": null, "tenure_type": "Single Cell Mining Claim", "source": "Ontario MLAS operational claims (OGSEarth / LIO MapServer). Unofficial viewing data, not legal title.", "as_of": "2026-09-20", "role": "focus", "color": "#e8b040"}}, {"type": "Feature", "geometry": {"type": "Polygon", "coordinates": [[[-79.9313, 48.1708], [-79.9313, 48.175], [-79.9375, 48.175], [-79.9375, 48.1708], [-79.9313, 48.1708]]]}, "properties": {"company_id": "integra-resources", "jurisdiction": "Ontario", "claim_id": "137234", "claim_name": null, "holder": "(30) INTEGRA GOLD CORP., (70) VAL-D'OR MINING CORPORATION", "status": "Active", "recorded_date": "2018-04-10", "anniversary_or_expiry": "2027-06-22", "area_ha": null, "tenure_type": "Boundary Cell Mining Claim", "source": "Ontario MLAS operational claims (OGSEarth / LIO MapServer). Unofficial viewing data, not legal title.", "as_of": "2026-09-20", "role": "focus", "color": "#e8b040"}}, {"type": "Feature", "geometry": {"type": "Polygon", "coordinates": [[[-79.9375, 48.1833], [-79.9375, 48.1875], [-79.9438, 48.1875], [-79.9438, 48.1833], [-79.9375, 48.1833]]]}, "properties": {"company_id": "integra-resources", "jurisdiction": "Ontario", "claim_id": "137172", "claim_name": null, "holder": "(30) INTEGRA GOLD CORP., (70) VAL-D'OR MINING CORPORATION", "status": "Active", "recorded_date": "2018-04-10", "anniversary_or_expiry": "2027-06-22", "area_ha": null, "tenure_type": "Boundary Cell Mining Claim", "source": "Ontario MLAS operational claims (OGSEarth / LIO MapServer). Unofficial viewing data, not legal title.", "as_of": "2026-09-20", "role": "focus", "color": "#e8b040"}}, {"type": "Feature", "geometry": {"type": "Polygon", "coordinates": [[[-79.925, 48.175], [-79.925, 48.1792], [-79.9313, 48.1792], [-79.9313, 48.175], [-79.925, 48.175]]]}, "properties": {"company_id": "integra-resources", "jurisdiction": "Ontario", "claim_id": "137195", "claim_name": null, "holder": "(30) INTEGRA GOLD CORP., (70) VAL-D'OR MINING CORPORATION", "status": "Active", "recorded_date": "2018-04-10", "anniversary_or_expiry": "2027-06-22", "area_ha": null, "tenure_type": "Boundary Cell Mining Claim", "source": "Ontario MLAS operational claims (OGSEarth / LIO MapServer). Unofficial viewing data, not legal title.", "as_of": "2026-09-20", "role": "focus", "color": "#e8b040"}}, {"type": "Feature", "geometry": {"type": "Polygon", "coordinates": [[[-79.925, 48.1833], [-79.925, 48.1875], [-79.9313, 48.1875], [-79.9313, 48.1833], [-79.925, 48.1833]]]}, "properties": {"company_id": "integra-resources", "jurisdiction": "Ontario", "claim_id": "137196", "claim_name": null, "holder": "(30) INTEGRA GOLD CORP., (70) VAL-D'OR MINING CORPORATION", "status": "Active", "recorded_date": "2018-04-10", "anniversary_or_expiry": "2027-06-22", "area_ha": null, "tenure_type": "Single Cell Mining Claim", "source": "Ontario MLAS operational claims (OGSEarth / LIO MapServer). Unofficial viewing data, not legal title.", "as_of": "2026-09-20", "role": "focus", "color": "#e8b040"}}, {"type": "Feature", "geometry": {"type": "Polygon", "coordinates": [[[-79.8938, 48.1792], [-79.8938, 48.1833], [-79.9, 48.1833], [-79.9, 48.1792], [-79.8938, 48.1792]]]}, "properties": {"company_id": "integra-resources", "jurisdiction": "Ontario", "claim_id": "141301", "claim_name": null, "holder": "(30) INTEGRA GOLD CORP., (70) VAL-D'OR MINING CORPORATION", "status": "Active", "recorded_date": "2018-04-10", "anniversary_or_expiry": "2027-06-22", "area_ha": null, "tenure_type": "Single Cell Mining Claim", "source": "Ontario MLAS operational claims (OGSEarth / LIO MapServer). Unofficial viewing data, not legal title.", "as_of": "2026-09-20", "role": "focus", "color": "#e8b040"}}, {"type": "Feature", "geometry": {"type": "Polygon", "coordinates": [[[-79.9188, 48.175], [-79.9188, 48.1792], [-79.925, 48.1792], [-79.925, 48.175], [-79.9188, 48.175]]]}, "properties": {"company_id": "integra-resources", "jurisdiction": "Ontario", "claim_id": "142582", "claim_name": null, "holder": "(30) INTEGRA GOLD CORP., (70) VAL-D'OR MINING CORPORATION", "status": "Active", "recorded_date": "2018-04-10", "anniversary_or_expiry": "2027-06-22", "area_ha": null, "tenure_type": "Single Cell Mining Claim", "source": "Ontario MLAS operational claims (OGSEarth / LIO MapServer). Unofficial viewing data, not legal title.", "as_of": "2026-09-20", "role": "focus", "color": "#e8b040"}}, {"type": "Feature", "geometry": {"type": "Polygon", "coordinates": [[[-79.8938, 48.1917], [-79.8938, 48.1958], [-79.9, 48.1958], [-79.9, 48.1917], [-79.8938, 48.1917]]]}, "properties": {"company_id": "integra-resources", "jurisdiction": "Ontario", "claim_id": "143175", "claim_name": null, "holder": "(30) INTEGRA GOLD CORP., (70) VAL-D'OR MINING CORPORATION", "status": "Active", "recorded_date": "2018-04-10", "anniversary_or_expiry": "2027-08-10", "area_ha": null, "tenure_type": "Single Cell Mining Claim", "source": "Ontario MLAS operational claims (OGSEarth / LIO MapServer). Unofficial viewing data, not legal title.", "as_of": "2026-09-20", "role": "focus", "color": "#e8b040"}}, {"type": "Feature", "geometry": {"type": "Polygon", "coordinates": [[[-79.9313, 48.175], [-79.9313, 48.1792], [-79.9375, 48.1792], [-79.9375, 48.175], [-79.9313, 48.175]]]}, "properties": {"company_id": "integra-resources", "jurisdiction": "Ontario", "claim_id": "154636", "claim_name": null, "holder": "(30) INTEGRA GOLD CORP., (70) VAL-D'OR MINING CORPORATION", "status": "Active", "recorded_date": "2018-04-10", "anniversary_or_expiry": "2027-06-22", "area_ha": null, "tenure_type": "Boundary Cell Mining Claim", "source": "Ontario MLAS operational claims (OGSEarth / LIO MapServer). Unofficial viewing data, not legal title.", "as_of": "2026-09-20", "role": "focus", "color": "#e8b040"}}, {"type": "Feature", "geometry": {"type": "Polygon", "coordinates": [[[-79.9438, 48.1667], [-79.9438, 48.1708], [-79.95, 48.1708], [-79.95, 48.1667], [-79.9438, 48.1667]]]}, "properties": {"company_id": "integra-resources", "jurisdiction": "Ontario", "claim_id": "155327", "claim_name": null, "holder": "(30) INTEGRA GOLD CORP., (70) VAL-D'OR MINING CORPORATION", "status": "Active", "recorded_date": "2018-04-10", "anniversary_or_expiry": "2027-06-22", "area_ha": null, "tenure_type": "Boundary Cell Mining Claim", "source": "Ontario MLAS operational claims (OGSEarth / LIO MapServer). Unofficial viewing data, not legal title.", "as_of": "2026-09-20", "role": "focus", "color": "#e8b040"}}, {"type": "Feature", "geometry": {"type": "Polygon", "coordinates": [[[-79.9125, 48.1875], [-79.9125, 48.1917], [-79.9188, 48.1917], [-79.9188, 48.1875], [-79.9125, 48.1875]]]}, "properties": {"company_id": "integra-resources", "jurisdiction": "Ontario", "claim_id": "156649", "claim_name": null, "holder": "(30) INTEGRA GOLD CORP., (70) VAL-D'OR MINING CORPORATION", "status": "Active", "recorded_date": "2018-04-10", "anniversary_or_expiry": "2027-08-10", "area_ha": null, "tenure_type": "Single Cell Mining Claim", "source": "Ontario MLAS operational claims (OGSEarth / LIO MapServer). Unofficial viewing data, not legal title.", "as_of": "2026-09-20", "role": "focus", "color": "#e8b040"}}, {"type": "Feature", "geometry": {"type": "Polygon", "coordinates": [[[-79.925, 48.1792], [-79.925, 48.1833], [-79.9313, 48.1833], [-79.9313, 48.1792], [-79.925, 48.1792]]]}, "properties": {"company_id": "integra-resources", "jurisdiction": "Ontario", "claim_id": "156656", "claim_name": null, "holder": "(30) INTEGRA GOLD CORP., (70) VAL-D'OR MINING CORPORATION", "status": "Active", "recorded_date": "2018-04-10", "anniversary_or_expiry": "2027-06-22", "area_ha": null, "tenure_type": "Boundary Cell Mining Claim", "source": "Ontario MLAS operational claims (OGSEarth / LIO MapServer). Unofficial viewing data, not legal title.", "as_of": "2026-09-20", "role": "focus", "color": "#e8b040"}}, {"type": "Feature", "geometry": {"type": "Polygon", "coordinates": [[[-79.925, 48.1667], [-79.925, 48.1708], [-79.9313, 48.1708], [-79.9313, 48.1667], [-79.925, 48.1667]]]}, "properties": {"company_id": "integra-resources", "jurisdiction": "Ontario", "claim_id": "158654", "claim_name": null, "holder": "(30) INTEGRA GOLD CORP., (70) VAL-D'OR MINING CORPORATION", "status": "Active", "recorded_date": "2018-04-10", "anniversary_or_expiry": "2027-06-22", "area_ha": null, "tenure_type": "Single Cell Mining Claim", "source": "Ontario MLAS operational claims (OGSEarth / LIO MapServer). Unofficial viewing data, not legal title.", "as_of": "2026-09-20", "role": "focus", "color": "#e8b040"}}, {"type": "Feature", "geometry": {"type": "Polygon", "coordinates": [[[-79.8813, 48.1917], [-79.8813, 48.1958], [-79.8875, 48.1958], [-79.8875, 48.1917], [-79.8813, 48.1917]]]}, "properties": {"company_id": "integra-resources", "jurisdiction": "Ontario", "claim_id": "162662", "claim_name": null, "holder": "(30) INTEGRA GOLD CORP., (70) VAL-D'OR MINING CORPORATION", "status": "Active", "recorded_date": "2018-04-10", "anniversary_or_expiry": "2027-08-10", "area_ha": null, "tenure_type": "Single Cell Mining Claim", "source": "Ontario MLAS operational claims (OGSEarth / LIO MapServer). Unofficial viewing data, not legal title.", "as_of": "2026-09-20", "role": "focus", "color": "#e8b040"}}, {"type": "Feature", "geometry": {"type": "Polygon", "coordinates": [[[-79.9, 48.2], [-79.9, 48.2042], [-79.9063, 48.2042], [-79.9063, 48.2], [-79.9, 48.2]]]}, "properties": {"company_id": "integra-resources", "jurisdiction": "Ontario", "claim_id": "162803", "claim_name": null, "holder": "(30) INTEGRA GOLD CORP., (70) VAL-D'OR MINING CORPORATION", "status": "Active", "recorded_date": "2018-04-10", "anniversary_or_expiry": "2027-08-10", "area_ha": null, "tenure_type": "Single Cell Mining Claim", "source": "Ontario MLAS operational claims (OGSEarth / LIO MapServer). Unofficial viewing data, not legal title.", "as_of": "2026-09-20", "role": "focus", "color": "#e8b040"}}, {"type": "Feature", "geometry": {"type": "Polygon", "coordinates": [[[-79.8938, 48.175], [-79.8938, 48.1792], [-79.9, 48.1792], [-79.9, 48.175], [-79.8938, 48.175]]]}, "properties": {"company_id": "integra-resources", "jurisdiction": "Ontario", "claim_id": "170040", "claim_name": null, "holder": "(30) INTEGRA GOLD CORP., (70) VAL-D'OR MINING CORPORATION", "status": "Active", "recorded_date": "2018-04-10", "anniversary_or_expiry": "2027-06-22", "area_ha": null, "tenure_type": "Single Cell Mining Claim", "source": "Ontario MLAS operational claims (OGSEarth / LIO MapServer). Unofficial viewing data, not legal title.", "as_of": "2026-09-20", "role": "focus", "color": "#e8b040"}}, {"type": "Feature", "geometry": {"type": "Polygon", "coordinates": [[[-79.9, 48.1875], [-79.9, 48.1917], [-79.9063, 48.1917], [-79.9063, 48.1875], [-79.9, 48.1875]]]}, "properties": {"company_id": "integra-resources", "jurisdiction": "Ontario", "claim_id": "187847", "claim_name": null, "holder": "(30) INTEGRA GOLD CORP., (70) VAL-D'OR MINING CORPORATION", "status": "Active", "recorded_date": "2018-04-10", "anniversary_or_expiry": "2027-08-10", "area_ha": null, "tenure_type": "Single Cell Mining Claim", "source": "Ontario MLAS operational claims (OGSEarth / LIO MapServer). Unofficial viewing data, not legal title.", "as_of": "2026-09-20", "role": "focus", "color": "#e8b040"}}, {"type": "Feature", "geometry": {"type": "Polygon", "coordinates": [[[-79.9063, 48.1792], [-79.9063, 48.1833], [-79.9125, 48.1833], [-79.9125, 48.1792], [-79.9063, 48.1792]]]}, "properties": {"company_id": "integra-resources", "jurisdiction": "Ontario", "claim_id": "200563", "claim_name": null, "holder": "(30) INTEGRA GOLD CORP., (70) VAL-D'OR MINING CORPORATION", "status": "Active", "recorded_date": "2018-04-10", "anniversary_or_expiry": "2027-06-22", "area_ha": null, "tenure_type": "Single Cell Mining Claim", "source": "Ontario MLAS operational claims (OGSEarth / LIO MapServer). Unofficial viewing data, not legal title.", "as_of": "2026-09-20", "role": "focus", "color": "#e8b040"}}, {"type": "Feature", "geometry": {"type": "Polygon", "coordinates": [[[-79.8875, 48.1958], [-79.8875, 48.2], [-79.8938, 48.2], [-79.8938, 48.1958], [-79.8875, 48.1958]]]}, "properties": {"company_id": "integra-resources", "jurisdiction": "Ontario", "claim_id": "200696", "claim_name": null, "holder": "(30) INTEGRA GOLD CORP., (70) VAL-D'OR MINING CORPORATION", "status": "Active", "recorded_date": "2018-04-10", "anniversary_or_expiry": "2027-08-10", "area_ha": null, "tenure_type": "Single Cell Mining Claim", "source": "Ontario MLAS operational claims (OGSEarth / LIO MapServer). Unofficial viewing data, not legal title.", "as_of": "2026-09-20", "role": "focus", "color": "#e8b040"}}, {"type": "Feature", "geometry": {"type": "Polygon", "coordinates": [[[-79.9125, 48.1958], [-79.9125, 48.2], [-79.9188, 48.2], [-79.9188, 48.1958], [-79.9125, 48.1958]]]}, "properties": {"company_id": "integra-resources", "jurisdiction": "Ontario", "claim_id": "199944", "claim_name": null, "holder": "(30) INTEGRA GOLD CORP., (70) VAL-D'OR MINING CORPORATION", "status": "Active", "recorded_date": "2018-04-10", "anniversary_or_expiry": "2027-08-10", "area_ha": null, "tenure_type": "Boundary Cell Mining Claim", "source": "Ontario MLAS operational claims (OGSEarth / LIO MapServer). Unofficial viewing data, not legal title.", "as_of": "2026-09-20", "role": "focus", "color": "#e8b040"}}, {"type": "Feature", "geometry": {"type": "Polygon", "coordinates": [[[-79.9188, 48.1958], [-79.9188, 48.2], [-79.925, 48.2], [-79.925, 48.1958], [-79.9188, 48.1958]]]}, "properties": {"company_id": "integra-resources", "jurisdiction": "Ontario", "claim_id": "199945", "claim_name": null, "holder": "(30) INTEGRA GOLD CORP., (70) VAL-D'OR MINING CORPORATION", "status": "Active", "recorded_date": "2018-04-10", "anniversary_or_expiry": "2027-06-22", "area_ha": null, "tenure_type": "Boundary Cell Mining Claim", "source": "Ontario MLAS operational claims (OGSEarth / LIO MapServer). Unofficial viewing data, not legal title.", "as_of": "2026-09-20", "role": "focus", "color": "#e8b040"}}, {"type": "Feature", "geometry": {"type": "Polygon", "coordinates": [[[-79.9063, 48.2], [-79.9063, 48.2042], [-79.9125, 48.2042], [-79.9125, 48.2], [-79.9063, 48.2]]]}, "properties": {"company_id": "integra-resources", "jurisdiction": "Ontario", "claim_id": "202628", "claim_name": null, "holder": "(30) INTEGRA GOLD CORP., (70) VAL-D'OR MINING CORPORATION", "status": "Active", "recorded_date": "2018-04-10", "anniversary_or_expiry": "2027-08-10", "area_ha": null, "tenure_type": "Boundary Cell Mining Claim", "source": "Ontario MLAS operational claims (OGSEarth / LIO MapServer). Unofficial viewing data, not legal title.", "as_of": "2026-09-20", "role": "focus", "color": "#e8b040"}}, {"type": "Feature", "geometry": {"type": "Polygon", "coordinates": [[[-79.9375, 48.1792], [-79.9375, 48.1833], [-79.9438, 48.1833], [-79.9438, 48.1792], [-79.9375, 48.1792]]]}, "properties": {"company_id": "integra-resources", "jurisdiction": "Ontario", "claim_id": "207284", "claim_name": null, "holder": "(30) INTEGRA GOLD CORP., (70) VAL-D'OR MINING CORPORATION", "status": "Active", "recorded_date": "2018-04-10", "anniversary_or_expiry": "2027-06-22", "area_ha": null, "tenure_type": "Boundary Cell Mining Claim", "source": "Ontario MLAS operational claims (OGSEarth / LIO MapServer). Unofficial viewing data, not legal title.", "as_of": "2026-09-20", "role": "focus", "color": "#e8b040"}}, {"type": "Feature", "geometry": {"type": "Polygon", "coordinates": [[[-79.925, 48.1917], [-79.925, 48.1958], [-79.9313, 48.1958], [-79.9313, 48.1917], [-79.925, 48.1917]]]}, "properties": {"company_id": "integra-resources", "jurisdiction": "Ontario", "claim_id": "207350", "claim_name": null, "holder": "(30) INTEGRA GOLD CORP., (70) VAL-D'OR MINING CORPORATION", "status": "Active", "recorded_date": "2018-04-10", "anniversary_or_expiry": "2027-06-22", "area_ha": null, "tenure_type": "Boundary Cell Mining Claim", "source": "Ontario MLAS operational claims (OGSEarth / LIO MapServer). Unofficial viewing data, not legal title.", "as_of": "2026-09-20", "role": "focus", "color": "#e8b040"}}, {"type": "Feature", "geometry": {"type": "Polygon", "coordinates": [[[-79.9, 48.175], [-79.9, 48.1792], [-79.9063, 48.1792], [-79.9063, 48.175], [-79.9, 48.175]]]}, "properties": {"company_id": "integra-resources", "jurisdiction": "Ontario", "claim_id": "208034", "claim_name": null, "holder": "(30) INTEGRA GOLD CORP., (70) VAL-D'OR MINING CORPORATION", "status": "Active", "recorded_date": "2018-04-10", "anniversary_or_expiry": "2027-06-22", "area_ha": null, "tenure_type": "Single Cell Mining Claim", "source": "Ontario MLAS operational claims (OGSEarth / LIO MapServer). Unofficial viewing data, not legal title.", "as_of": "2026-09-20", "role": "focus", "color": "#e8b040"}}, {"type": "Feature", "geometry": {"type": "Polygon", "coordinates": [[[-79.8875, 48.1792], [-79.8875, 48.1833], [-79.8938, 48.1833], [-79.8938, 48.1792], [-79.8875, 48.1792]]]}, "properties": {"company_id": "integra-resources", "jurisdiction": "Ontario", "claim_id": "224130", "claim_name": null, "holder": "(30) INTEGRA GOLD CORP., (70) VAL-D'OR MINING CORPORATION", "status": "Active", "recorded_date": "2018-04-10", "anniversary_or_expiry": "2027-06-22", "area_ha": null, "tenure_type": "Single Cell Mining Claim", "source": "Ontario MLAS operational claims (OGSEarth / LIO MapServer). Unofficial viewing data, not legal title.", "as_of": "2026-09-20", "role": "focus", "color": "#e8b040"}}, {"type": "Feature", "geometry": {"type": "Polygon", "coordinates": [[[-79.8875, 48.175], [-79.8875, 48.1792], [-79.8938, 48.1792], [-79.8938, 48.175], [-79.8875, 48.175]]]}, "properties": {"company_id": "integra-resources", "jurisdiction": "Ontario", "claim_id": "231438", "claim_name": null, "holder": "(30) INTEGRA GOLD CORP., (70) VAL-D'OR MINING CORPORATION", "status": "Active", "recorded_date": "2018-04-10", "anniversary_or_expiry": "2027-06-22", "area_ha": null, "tenure_type": "Single Cell Mining Claim", "source": "Ontario MLAS operational claims (OGSEarth / LIO MapServer). Unofficial viewing data, not legal title.", "as_of": "2026-09-20", "role": "focus", "color": "#e8b040"}}, {"type": "Feature", "geometry": {"type": "Polygon", "coordinates": [[[-79.9188, 48.1917], [-79.9188, 48.1958], [-79.925, 48.1958], [-79.925, 48.1917], [-79.9188, 48.1917]]]}, "properties": {"company_id": "integra-resources", "jurisdiction": "Ontario", "claim_id": "236541", "claim_name": null, "holder": "(30) INTEGRA GOLD CORP., (70) VAL-D'OR MINING CORPORATION", "status": "Active", "recorded_date": "2018-04-10", "anniversary_or_expiry": "2027-08-10", "area_ha": null, "tenure_type": "Single Cell Mining Claim", "source": "Ontario MLAS operational claims (OGSEarth / LIO MapServer). Unofficial viewing data, not legal title.", "as_of": "2026-09-20", "role": "focus", "color": "#e8b040"}}, {"type": "Feature", "geometry": {"type": "Polygon", "coordinates": [[[-79.9438, 48.1708], [-79.9438, 48.175], [-79.95, 48.175], [-79.95, 48.1708], [-79.9438, 48.1708]]]}, "properties": {"company_id": "integra-resources", "jurisdiction": "Ontario", "claim_id": "236559", "claim_name": null, "holder": "(30) INTEGRA GOLD CORP., (70) VAL-D'OR MINING CORPORATION", "status": "Active", "recorded_date": "2018-04-10", "anniversary_or_expiry": "2027-06-22", "area_ha": null, "tenure_type": "Single Cell Mining Claim", "source": "Ontario MLAS operational claims (OGSEarth / LIO MapServer). Unofficial viewing data, not legal title.", "as_of": "2026-09-20", "role": "focus", "color": "#e8b040"}}, {"type": "Feature", "geometry": {"type": "Polygon", "coordinates": [[[-79.9, 48.1958], [-79.9, 48.2], [-79.9063, 48.2], [-79.9063, 48.1958], [-79.9, 48.1958]]]}, "properties": {"company_id": "integra-resources", "jurisdiction": "Ontario", "claim_id": "238482", "claim_name": null, "holder": "(30) INTEGRA GOLD CORP., (70) VAL-D'OR MINING CORPORATION", "status": "Active", "recorded_date": "2018-04-10", "anniversary_or_expiry": "2027-08-10", "area_ha": null, "tenure_type": "Single Cell Mining Claim", "source": "Ontario MLAS operational claims (OGSEarth / LIO MapServer). Unofficial viewing data, not legal title.", "as_of": "2026-09-20", "role": "focus", "color": "#e8b040"}}, {"type": "Feature", "geometry": {"type": "Polygon", "coordinates": [[[-79.8938, 48.1958], [-79.8938, 48.2], [-79.9, 48.2], [-79.9, 48.1958], [-79.8938, 48.1958]]]}, "properties": {"company_id": "integra-resources", "jurisdiction": "Ontario", "claim_id": "238501", "claim_name": null, "holder": "(30) INTEGRA GOLD CORP., (70) VAL-D'OR MINING CORPORATION", "status": "Active", "recorded_date": "2018-04-10", "anniversary_or_expiry": "2027-08-10", "area_ha": null, "tenure_type": "Single Cell Mining Claim", "source": "Ontario MLAS operational claims (OGSEarth / LIO MapServer). Unofficial viewing data, not legal title.", "as_of": "2026-09-20", "role": "focus", "color": "#e8b040"}}, {"type": "Feature", "geometry": {"type": "Polygon", "coordinates": [[[-79.8875, 48.1833], [-79.8875, 48.1875], [-79.8938, 48.1875], [-79.8938, 48.1833], [-79.8875, 48.1833]]]}, "properties": {"company_id": "integra-resources", "jurisdiction": "Ontario", "claim_id": "239120", "claim_name": null, "holder": "(30) INTEGRA GOLD CORP., (70) VAL-D'OR MINING CORPORATION", "status": "Active", "recorded_date": "2018-04-10", "anniversary_or_expiry": "2027-06-22", "area_ha": null, "tenure_type": "Single Cell Mining Claim", "source": "Ontario MLAS operational claims (OGSEarth / LIO MapServer). Unofficial viewing data, not legal title.", "as_of": "2026-09-20", "role": "focus", "color": "#e8b040"}}, {"type": "Feature", "geometry": {"type": "Polygon", "coordinates": [[[-79.925, 48.1708], [-79.925, 48.175], [-79.9313, 48.175], [-79.9313, 48.1708], [-79.925, 48.1708]]]}, "properties": {"company_id": "integra-resources", "jurisdiction": "Ontario", "claim_id": "247343", "claim_name": null, "holder": "(30) INTEGRA GOLD CORP., (70) VAL-D'OR MINING CORPORATION", "status": "Active", "recorded_date": "2018-04-10", "anniversary_or_expiry": "2027-06-22", "area_ha": null, "tenure_type": "Boundary Cell Mining Claim", "source": "Ontario MLAS operational claims (OGSEarth / LIO MapServer). Unofficial viewing data, not legal title.", "as_of": "2026-09-20", "role": "focus", "color": "#e8b040"}}, {"type": "Feature", "geometry": {"type": "Polygon", "coordinates": [[[-79.9375, 48.175], [-79.9375, 48.1792], [-79.9438, 48.1792], [-79.9438, 48.175], [-79.9375, 48.175]]]}, "properties": {"company_id": "integra-resources", "jurisdiction": "Ontario", "claim_id": "246477", "claim_name": null, "holder": "(30) INTEGRA GOLD CORP., (70) VAL-D'OR MINING CORPORATION", "status": "Active", "recorded_date": "2018-04-10", "anniversary_or_expiry": "2027-06-22", "area_ha": null, "tenure_type": "Boundary Cell Mining Claim", "source": "Ontario MLAS operational claims (OGSEarth / LIO MapServer). Unofficial viewing data, not legal title.", "as_of": "2026-09-20", "role": "focus", "color": "#e8b040"}}, {"type": "Feature", "geometry": {"type": "Polygon", "coordinates": [[[-79.925, 48.1958], [-79.925, 48.2], [-79.9313, 48.2], [-79.9313, 48.1958], [-79.925, 48.1958]]]}, "properties": {"company_id": "integra-resources", "jurisdiction": "Ontario", "claim_id": "247873", "claim_name": null, "holder": "(30) INTEGRA GOLD CORP., (70) VAL-D'OR MINING CORPORATION", "status": "Active", "recorded_date": "2018-04-10", "anniversary_or_expiry": "2027-06-22", "area_ha": null, "tenure_type": "Boundary Cell Mining Claim", "source": "Ontario MLAS operational claims (OGSEarth / LIO MapServer). Unofficial viewing data, not legal title.", "as_of": "2026-09-20", "role": "focus", "color": "#e8b040"}}, {"type": "Feature", "geometry": {"type": "Polygon", "coordinates": [[[-79.8875, 48.2042], [-79.8875, 48.2083], [-79.8938, 48.2083], [-79.8938, 48.2042], [-79.8875, 48.2042]]]}, "properties": {"company_id": "integra-resources", "jurisdiction": "Ontario", "claim_id": "255127", "claim_name": null, "holder": "(30) INTEGRA GOLD CORP., (70) VAL-D'OR MINING CORPORATION", "status": "Active", "recorded_date": "2018-04-10", "anniversary_or_expiry": "2027-08-10", "area_ha": null, "tenure_type": "Single Cell Mining Claim", "source": "Ontario MLAS operational claims (OGSEarth / LIO MapServer). Unofficial viewing data, not legal title.", "as_of": "2026-09-20", "role": "focus", "color": "#e8b040"}}, {"type": "Feature", "geometry": {"type": "Polygon", "coordinates": [[[-79.8875, 48.1917], [-79.8875, 48.1958], [-79.8938, 48.1958], [-79.8938, 48.1917], [-79.8875, 48.1917]]]}, "properties": {"company_id": "integra-resources", "jurisdiction": "Ontario", "claim_id": "257402", "claim_name": null, "holder": "(30) INTEGRA GOLD CORP., (70) VAL-D'OR MINING CORPORATION", "status": "Active", "recorded_date": "2018-04-10", "anniversary_or_expiry": "2027-08-10", "area_ha": null, "tenure_type": "Single Cell Mining Claim", "source": "Ontario MLAS operational claims (OGSEarth / LIO MapServer). Unofficial viewing data, not legal title.", "as_of": "2026-09-20", "role": "focus", "color": "#e8b040"}}, {"type": "Feature", "geometry": {"type": "Polygon", "coordinates": [[[-79.8938, 48.1875], [-79.8938, 48.1917], [-79.9, 48.1917], [-79.9, 48.1875], [-79.8938, 48.1875]]]}, "properties": {"company_id": "integra-resources", "jurisdiction": "Ontario", "claim_id": "258001", "claim_name": null, "holder": "(30) INTEGRA GOLD CORP., (70) VAL-D'OR MINING CORPORATION", "status": "Active", "recorded_date": "2018-04-10", "anniversary_or_expiry": "2027-08-10", "area_ha": null, "tenure_type": "Single Cell Mining Claim", "source": "Ontario MLAS operational claims (OGSEarth / LIO MapServer). Unofficial viewing data, not legal title.", "as_of": "2026-09-20", "role": "focus", "color": "#e8b040"}}, {"type": "Feature", "geometry": {"type": "Polygon", "coordinates": [[[-79.9313, 48.1792], [-79.9313, 48.1833], [-79.9375, 48.1833], [-79.9375, 48.1792], [-79.9313, 48.1792]]]}, "properties": {"company_id": "integra-resources", "jurisdiction": "Ontario", "claim_id": "273271", "claim_name": null, "holder": "(30) INTEGRA GOLD CORP., (70) VAL-D'OR MINING CORPORATION", "status": "Active", "recorded_date": "2018-04-10", "anniversary_or_expiry": "2027-06-22", "area_ha": null, "tenure_type": "Boundary Cell Mining Claim", "source": "Ontario MLAS operational claims (OGSEarth / LIO MapServer). Unofficial viewing data, not legal title.", "as_of": "2026-09-20", "role": "focus", "color": "#e8b040"}}, {"type": "Feature", "geometry": {"type": "Polygon", "coordinates": [[[-79.9, 48.1792], [-79.9, 48.1833], [-79.9063, 48.1833], [-79.9063, 48.1792], [-79.9, 48.1792]]]}, "properties": {"company_id": "integra-resources", "jurisdiction": "Ontario", "claim_id": "274025", "claim_name": null, "holder": "(30) INTEGRA GOLD CORP., (70) VAL-D'OR MINING CORPORATION", "status": "Active", "recorded_date": "2018-04-10", "anniversary_or_expiry": "2027-06-22", "area_ha": null, "tenure_type": "Single Cell Mining Claim", "source": "Ontario MLAS operational claims (OGSEarth / LIO MapServer). Unofficial viewing data, not legal title.", "as_of": "2026-09-20", "role": "focus", "color": "#e8b040"}}, {"type": "Feature", "geometry": {"type": "Polygon", "coordinates": [[[-79.8938, 48.2], [-79.8938, 48.2042], [-79.9, 48.2042], [-79.9, 48.2], [-79.8938, 48.2]]]}, "properties": {"company_id": "integra-resources", "jurisdiction": "Ontario", "claim_id": "274647", "claim_name": null, "holder": "(30) INTEGRA GOLD CORP., (70) VAL-D'OR MINING CORPORATION", "status": "Active", "recorded_date": "2018-04-10", "anniversary_or_expiry": "2027-08-10", "area_ha": null, "tenure_type": "Single Cell Mining Claim", "source": "Ontario MLAS operational claims (OGSEarth / LIO MapServer). Unofficial viewing data, not legal title.", "as_of": "2026-09-20", "role": "focus", "color": "#e8b040"}}, {"type": "Feature", "geometry": {"type": "Polygon", "coordinates": [[[-79.9188, 48.1708], [-79.9188, 48.175], [-79.925, 48.175], [-79.925, 48.1708], [-79.9188, 48.1708]]]}, "properties": {"company_id": "integra-resources", "jurisdiction": "Ontario", "claim_id": "307121", "claim_name": null, "holder": "(30) INTEGRA GOLD CORP., (70) VAL-D'OR MINING CORPORATION", "status": "Active", "recorded_date": "2018-04-10", "anniversary_or_expiry": "2027-06-22", "area_ha": null, "tenure_type": "Single Cell Mining Claim", "source": "Ontario MLAS operational claims (OGSEarth / LIO MapServer). Unofficial viewing data, not legal title.", "as_of": "2026-09-20", "role": "focus", "color": "#e8b040"}}, {"type": "Feature", "geometry": {"type": "Polygon", "coordinates": [[[-79.9063, 48.1958], [-79.9063, 48.2], [-79.9125, 48.2], [-79.9125, 48.1958], [-79.9063, 48.1958]]]}, "properties": {"company_id": "integra-resources", "jurisdiction": "Ontario", "claim_id": "305155", "claim_name": null, "holder": "(30) INTEGRA GOLD CORP., (70) VAL-D'OR MINING CORPORATION", "status": "Active", "recorded_date": "2018-04-10", "anniversary_or_expiry": "2027-08-10", "area_ha": null, "tenure_type": "Boundary Cell Mining Claim", "source": "Ontario MLAS operational claims (OGSEarth / LIO MapServer). Unofficial viewing data, not legal title.", "as_of": "2026-09-20", "role": "focus", "color": "#e8b040"}}, {"type": "Feature", "geometry": {"type": "Polygon", "coordinates": [[[-79.9188, 48.1875], [-79.9188, 48.1917], [-79.925, 48.1917], [-79.925, 48.1875], [-79.9188, 48.1875]]]}, "properties": {"company_id": "integra-resources", "jurisdiction": "Ontario", "claim_id": "305205", "claim_name": null, "holder": "(30) INTEGRA GOLD CORP., (70) VAL-D'OR MINING CORPORATION", "status": "Active", "recorded_date": "2018-04-10", "anniversary_or_expiry": "2027-08-10", "area_ha": null, "tenure_type": "Single Cell Mining Claim", "source": "Ontario MLAS operational claims (OGSEarth / LIO MapServer). Unofficial viewing data, not legal title.", "as_of": "2026-09-20", "role": "focus", "color": "#e8b040"}}, {"type": "Feature", "geometry": {"type": "Polygon", "coordinates": [[[-79.9438, 48.175], [-79.9438, 48.1792], [-79.95, 48.1792], [-79.95, 48.175], [-79.9438, 48.175]]]}, "properties": {"company_id": "integra-resources", "jurisdiction": "Ontario", "claim_id": "305765", "claim_name": null, "holder": "(30) INTEGRA GOLD CORP., (70) VAL-D'OR MINING CORPORATION", "status": "Active", "recorded_date": "2018-04-10", "anniversary_or_expiry": "2027-06-22", "area_ha": null, "tenure_type": "Boundary Cell Mining Claim", "source": "Ontario MLAS operational claims (OGSEarth / LIO MapServer). Unofficial viewing data, not legal title.", "as_of": "2026-09-20", "role": "focus", "color": "#e8b040"}}, {"type": "Feature", "geometry": {"type": "Polygon", "coordinates": [[[-79.875, 48.1917], [-79.875, 48.1958], [-79.8813, 48.1958], [-79.8813, 48.1917], [-79.875, 48.1917]]]}, "properties": {"company_id": "integra-resources", "jurisdiction": "Ontario", "claim_id": "305816", "claim_name": null, "holder": "(30) INTEGRA GOLD CORP., (70) VAL-D'OR MINING CORPORATION", "status": "Active", "recorded_date": "2018-04-10", "anniversary_or_expiry": "2027-08-10", "area_ha": null, "tenure_type": "Single Cell Mining Claim", "source": "Ontario MLAS operational claims (OGSEarth / LIO MapServer). Unofficial viewing data, not legal title.", "as_of": "2026-09-20", "role": "focus", "color": "#e8b040"}}, {"type": "Feature", "geometry": {"type": "Polygon", "coordinates": [[[-79.9125, 48.1917], [-79.9125, 48.1958], [-79.9188, 48.1958], [-79.9188, 48.1917], [-79.9125, 48.1917]]]}, "properties": {"company_id": "integra-resources", "jurisdiction": "Ontario", "claim_id": "310567", "claim_name": null, "holder": "(30) INTEGRA GOLD CORP., (70) VAL-D'OR MINING CORPORATION", "status": "Active", "recorded_date": "2018-04-10", "anniversary_or_expiry": "2027-08-10", "area_ha": null, "tenure_type": "Single Cell Mining Claim", "source": "Ontario MLAS operational claims (OGSEarth / LIO MapServer). Unofficial viewing data, not legal title.", "as_of": "2026-09-20", "role": "focus", "color": "#e8b040"}}, {"type": "Feature", "geometry": {"type": "Polygon", "coordinates": [[[-79.9063, 48.1917], [-79.9063, 48.1958], [-79.9125, 48.1958], [-79.9125, 48.1917], [-79.9063, 48.1917]]]}, "properties": {"company_id": "integra-resources", "jurisdiction": "Ontario", "claim_id": "311888", "claim_name": null, "holder": "(30) INTEGRA GOLD CORP., (70) VAL-D'OR MINING CORPORATION", "status": "Active", "recorded_date": "2018-04-10", "anniversary_or_expiry": "2027-08-10", "area_ha": null, "tenure_type": "Single Cell Mining Claim", "source": "Ontario MLAS operational claims (OGSEarth / LIO MapServer). Unofficial viewing data, not legal title.", "as_of": "2026-09-20", "role": "focus", "color": "#e8b040"}}, {"type": "Feature", "geometry": {"type": "Polygon", "coordinates": [[[-79.9, 48.1833], [-79.9, 48.1875], [-79.9063, 48.1875], [-79.9063, 48.1833], [-79.9, 48.1833]]]}, "properties": {"company_id": "integra-resources", "jurisdiction": "Ontario", "claim_id": "310493", "claim_name": null, "holder": "(30) INTEGRA GOLD CORP., (70) VAL-D'OR MINING CORPORATION", "status": "Active", "recorded_date": "2018-04-10", "anniversary_or_expiry": "2027-06-22", "area_ha": null, "tenure_type": "Single Cell Mining Claim", "source": "Ontario MLAS operational claims (OGSEarth / LIO MapServer). Unofficial viewing data, not legal title.", "as_of": "2026-09-20", "role": "focus", "color": "#e8b040"}}, {"type": "Feature", "geometry": {"type": "Polygon", "coordinates": [[[-79.9313, 48.1833], [-79.9313, 48.1875], [-79.9375, 48.1875], [-79.9375, 48.1833], [-79.9313, 48.1833]]]}, "properties": {"company_id": "integra-resources", "jurisdiction": "Ontario", "claim_id": "311968", "claim_name": null, "holder": "(30) INTEGRA GOLD CORP., (70) VAL-D'OR MINING CORPORATION", "status": "Active", "recorded_date": "2018-04-10", "anniversary_or_expiry": "2027-06-22", "area_ha": null, "tenure_type": "Single Cell Mining Claim", "source": "Ontario MLAS operational claims (OGSEarth / LIO MapServer). Unofficial viewing data, not legal title.", "as_of": "2026-09-20", "role": "focus", "color": "#e8b040"}}, {"type": "Feature", "geometry": {"type": "Polygon", "coordinates": [[[-79.9188, 48.1792], [-79.9188, 48.1833], [-79.925, 48.1833], [-79.925, 48.1792], [-79.9188, 48.1792]]]}, "properties": {"company_id": "integra-resources", "jurisdiction": "Ontario", "claim_id": "320505", "claim_name": null, "holder": "(30) INTEGRA GOLD CORP., (70) VAL-D'OR MINING CORPORATION", "status": "Active", "recorded_date": "2018-04-10", "anniversary_or_expiry": "2027-06-22", "area_ha": null, "tenure_type": "Single Cell Mining Claim", "source": "Ontario MLAS operational claims (OGSEarth / LIO MapServer). Unofficial viewing data, not legal title.", "as_of": "2026-09-20", "role": "focus", "color": "#e8b040"}}, {"type": "Feature", "geometry": {"type": "Polygon", "coordinates": [[[-79.9125, 48.1833], [-79.9125, 48.1875], [-79.9188, 48.1875], [-79.9188, 48.1833], [-79.9125, 48.1833]]]}, "properties": {"company_id": "integra-resources", "jurisdiction": "Ontario", "claim_id": "322674", "claim_name": null, "holder": "(30) INTEGRA GOLD CORP., (70) VAL-D'OR MINING CORPORATION", "status": "Active", "recorded_date": "2018-04-10", "anniversary_or_expiry": "2027-08-10", "area_ha": null, "tenure_type": "Single Cell Mining Claim", "source": "Ontario MLAS operational claims (OGSEarth / LIO MapServer). Unofficial viewing data, not legal title.", "as_of": "2026-09-20", "role": "focus", "color": "#e8b040"}}, {"type": "Feature", "geometry": {"type": "Polygon", "coordinates": [[[-79.925, 48.1875], [-79.925, 48.1917], [-79.9313, 48.1917], [-79.9313, 48.1875], [-79.925, 48.1875]]]}, "properties": {"company_id": "integra-resources", "jurisdiction": "Ontario", "claim_id": "322695", "claim_name": null, "holder": "(30) INTEGRA GOLD CORP., (70) VAL-D'OR MINING CORPORATION", "status": "Active", "recorded_date": "2018-04-10", "anniversary_or_expiry": "2027-06-22", "area_ha": null, "tenure_type": "Boundary Cell Mining Claim", "source": "Ontario MLAS operational claims (OGSEarth / LIO MapServer). Unofficial viewing data, not legal title.", "as_of": "2026-09-20", "role": "focus", "color": "#e8b040"}}, {"type": "Feature", "geometry": {"type": "Polygon", "coordinates": [[[-79.9063, 48.1833], [-79.9063, 48.1875], [-79.9125, 48.1875], [-79.9125, 48.1833], [-79.9063, 48.1833]]]}, "properties": {"company_id": "integra-resources", "jurisdiction": "Ontario", "claim_id": "322728", "claim_name": null, "holder": "(30) INTEGRA GOLD CORP., (70) VAL-D'OR MINING CORPORATION", "status": "Active", "recorded_date": "2018-04-10", "anniversary_or_expiry": "2027-08-10", "area_ha": null, "tenure_type": "Single Cell Mining Claim", "source": "Ontario MLAS operational claims (OGSEarth / LIO MapServer). Unofficial viewing data, not legal title.", "as_of": "2026-09-20", "role": "focus", "color": "#e8b040"}}, {"type": "Feature", "geometry": {"type": "Polygon", "coordinates": [[[-79.9125, 48.175], [-79.9125, 48.1792], [-79.9188, 48.1792], [-79.9188, 48.175], [-79.9125, 48.175]]]}, "properties": {"company_id": "integra-resources", "jurisdiction": "Ontario", "claim_id": "323409", "claim_name": null, "holder": "(30) INTEGRA GOLD CORP., (70) VAL-D'OR MINING CORPORATION", "status": "Active", "recorded_date": "2018-04-10", "anniversary_or_expiry": "2027-06-22", "area_ha": null, "tenure_type": "Single Cell Mining Claim", "source": "Ontario MLAS operational claims (OGSEarth / LIO MapServer). Unofficial viewing data, not legal title.", "as_of": "2026-09-20", "role": "focus", "color": "#e8b040"}}, {"type": "Feature", "geometry": {"type": "Polygon", "coordinates": [[[-79.9313, 48.1875], [-79.9313, 48.1917], [-79.9375, 48.1917], [-79.9375, 48.1875], [-79.9313, 48.1875]]]}, "properties": {"company_id": "integra-resources", "jurisdiction": "Ontario", "claim_id": "326661", "claim_name": null, "holder": "(30) INTEGRA GOLD CORP., (70) VAL-D'OR MINING CORPORATION", "status": "Active", "recorded_date": "2018-04-10", "anniversary_or_expiry": "2027-06-22", "area_ha": null, "tenure_type": "Boundary Cell Mining Claim", "source": "Ontario MLAS operational claims (OGSEarth / LIO MapServer). Unofficial viewing data, not legal title.", "as_of": "2026-09-20", "role": "focus", "color": "#e8b040"}}, {"type": "Feature", "geometry": {"type": "Polygon", "coordinates": [[[-79.8875, 48.1875], [-79.8875, 48.1917], [-79.8938, 48.1917], [-79.8938, 48.1875], [-79.8875, 48.1875]]]}, "properties": {"company_id": "integra-resources", "jurisdiction": "Ontario", "claim_id": "331481", "claim_name": null, "holder": "(30) INTEGRA GOLD CORP., (70) VAL-D'OR MINING CORPORATION", "status": "Active", "recorded_date": "2018-04-10", "anniversary_or_expiry": "2027-08-10", "area_ha": null, "tenure_type": "Single Cell Mining Claim", "source": "Ontario MLAS operational claims (OGSEarth / LIO MapServer). Unofficial viewing data, not legal title.", "as_of": "2026-09-20", "role": "focus", "color": "#e8b040"}}, {"type": "Feature", "geometry": {"type": "Polygon", "coordinates": [[[-79.9188, 48.1667], [-79.9188, 48.1708], [-79.925, 48.1708], [-79.925, 48.1667], [-79.9188, 48.1667]]]}, "properties": {"company_id": "integra-resources", "jurisdiction": "Ontario", "claim_id": "331662", "claim_name": null, "holder": "(30) INTEGRA GOLD CORP., (70) VAL-D'OR MINING CORPORATION", "status": "Active", "recorded_date": "2018-04-10", "anniversary_or_expiry": "2027-06-22", "area_ha": null, "tenure_type": "Single Cell Mining Claim", "source": "Ontario MLAS operational claims (OGSEarth / LIO MapServer). Unofficial viewing data, not legal title.", "as_of": "2026-09-20", "role": "focus", "color": "#e8b040"}}, {"type": "Feature", "geometry": {"type": "Polygon", "coordinates": [[[-79.9, 48.1917], [-79.9, 48.1958], [-79.9063, 48.1958], [-79.9063, 48.1917], [-79.9, 48.1917]]]}, "properties": {"company_id": "integra-resources", "jurisdiction": "Ontario", "claim_id": "334593", "claim_name": null, "holder": "(30) INTEGRA GOLD CORP., (70) VAL-D'OR MINING CORPORATION", "status": "Active", "recorded_date": "2018-04-10", "anniversary_or_expiry": "2027-08-10", "area_ha": null, "tenure_type": "Single Cell Mining Claim", "source": "Ontario MLAS operational claims (OGSEarth / LIO MapServer). Unofficial viewing data, not legal title.", "as_of": "2026-09-20", "role": "focus", "color": "#e8b040"}}, {"type": "Feature", "geometry": {"type": "Polygon", "coordinates": [[[-79.9375, 48.1708], [-79.9375, 48.175], [-79.9438, 48.175], [-79.9438, 48.1708], [-79.9375, 48.1708]]]}, "properties": {"company_id": "integra-resources", "jurisdiction": "Ontario", "claim_id": "334065", "claim_name": null, "holder": "(30) INTEGRA GOLD CORP., (70) VAL-D'OR MINING CORPORATION", "status": "Active", "recorded_date": "2018-04-10", "anniversary_or_expiry": "2027-06-22", "area_ha": null, "tenure_type": "Single Cell Mining Claim", "source": "Ontario MLAS operational claims (OGSEarth / LIO MapServer). Unofficial viewing data, not legal title.", "as_of": "2026-09-20", "role": "focus", "color": "#e8b040"}}, {"type": "Feature", "geometry": {"type": "Polygon", "coordinates": [[[-79.8938, 48.2042], [-79.8938, 48.2083], [-79.9, 48.2083], [-79.9, 48.2042], [-79.8938, 48.2042]]]}, "properties": {"company_id": "integra-resources", "jurisdiction": "Ontario", "claim_id": "334069", "claim_name": null, "holder": "(30) INTEGRA GOLD CORP., (70) VAL-D'OR MINING CORPORATION", "status": "Active", "recorded_date": "2018-04-10", "anniversary_or_expiry": "2027-08-10", "area_ha": null, "tenure_type": "Single Cell Mining Claim", "source": "Ontario MLAS operational claims (OGSEarth / LIO MapServer). Unofficial viewing data, not legal title.", "as_of": "2026-09-20", "role": "focus", "color": "#e8b040"}}]}