{"type": "FeatureCollection", "features": [{"type": "Feature", "geometry": {"type": "Polygon", "coordinates": [[[-118.6526, 49.0888], [-118.6581, 49.0881], [-118.6584, 49.0889], [-118.6594, 49.0884], [-118.6588, 49.0876], [-118.6569, 49.0876], [-118.6565, 49.0851], [-118.6512, 49.0861], [-118.6526, 49.0888]]]}, "properties": {"company_id": "kirkland-lake-discoveries", "jurisdiction": "British Columbia", "claim_id": 354098, "claim_name": "BAY", "holder": "GRIZZLY DISCOVERIES INC.", "status": "Mineral", "recorded_date": "8580384000", "anniversary_or_expiry": "2026-01-31", "area_ha": 25, "tenure_type": "Mineral", "source": "BC MTA Mineral, Placer and Coal Tenure Spatial View (BCGW). Open Government Licence - British Columbia. Not legal title.", "as_of": "2026-09-20", "role": "focus", "color": "#e8b040"}}, {"type": "Feature", "geometry": {"type": "MultiPolygon", "coordinates": [[[[-118.6722, 49.0882], [-118.6722, 49.0839], [-118.6678, 49.0844], [-118.6713, 49.0856], [-118.6708, 49.0862], [-118.6679, 49.0862], [-118.6679, 49.0882], [-118.6722, 49.0882]]], [[[-118.6654, 49.0881], [-118.6654, 49.0882], [-118.6658, 49.0882], [-118.6654, 49.0881]]]]}, "properties": {"company_id": "kirkland-lake-discoveries", "jurisdiction": "British Columbia", "claim_id": 354866, "claim_name": "EPU-BAY-1", "holder": "GRIZZLY DISCOVERIES INC.", "status": "Mineral", "recorded_date": "8598528000", "anniversary_or_expiry": "2026-01-31", "area_ha": 25, "tenure_type": "Mineral", "source": "BC MTA Mineral, Placer and Coal Tenure Spatial View (BCGW). Open Government Licence - British Columbia. Not legal title.", "as_of": "2026-09-20", "role": "focus", "color": "#e8b040"}}, {"type": "Feature", "geometry": {"type": "Polygon", "coordinates": [[[-118.6654, 49.0894], [-118.6654, 49.0927], [-118.6722, 49.0927], [-118.6722, 49.0882], [-118.6679, 49.0882], [-118.6679, 49.089], [-118.6654, 49.0882], [-118.6654, 49.0894]]]}, "properties": {"company_id": "kirkland-lake-discoveries", "jurisdiction": "British Columbia", "claim_id": 354867, "claim_name": "EPU-BAY-2", "holder": "GRIZZLY DISCOVERIES INC.", "status": "Mineral", "recorded_date": "8598528000", "anniversary_or_expiry": "2026-01-31", "area_ha": 25, "tenure_type": "Mineral", "source": "BC MTA Mineral, Placer and Coal Tenure Spatial View (BCGW). Open Government Licence - British Columbia. Not legal title.", "as_of": "2026-09-20", "role": "focus", "color": "#e8b040"}}, {"type": "Feature", "geometry": {"type": "MultiPolygon", "coordinates": [[[[-118.6638, 49.0876], [-118.661, 49.0876], [-118.6585, 49.0889], [-118.6585, 49.0894], [-118.6654, 49.0894], [-118.6654, 49.0881], [-118.6638, 49.0876]]], [[[-118.6651, 49.0849], [-118.6638, 49.0849], [-118.6638, 49.0866], [-118.6651, 49.0849]]]]}, "properties": {"company_id": "kirkland-lake-discoveries", "jurisdiction": "British Columbia", "claim_id": 354868, "claim_name": "EPU-BAY-3", "holder": "GRIZZLY DISCOVERIES INC.", "status": "Mineral", "recorded_date": "8598528000", "anniversary_or_expiry": "2026-01-31", "area_ha": 25, "tenure_type": "Mineral", "source": "BC MTA Mineral, Placer and Coal Tenure Spatial View (BCGW). Open Government Licence - British Columbia. Not legal title.", "as_of": "2026-09-20", "role": "focus", "color": "#e8b040"}}, {"type": "Feature", "geometry": {"type": "Polygon", "coordinates": [[[-118.6595, 49.0915], [-118.6603, 49.0913], [-118.6608, 49.0939], [-118.6654, 49.0939], [-118.6654, 49.0894], [-118.6586, 49.0894], [-118.6595, 49.0915]]]}, "properties": {"company_id": "kirkland-lake-discoveries", "jurisdiction": "British Columbia", "claim_id": 354869, "claim_name": "EPU-BAY-4", "holder": "GRIZZLY DISCOVERIES INC.", "status": "Mineral", "recorded_date": "8598528000", "anniversary_or_expiry": "2026-01-31", "area_ha": 25, "tenure_type": "Mineral", "source": "BC MTA Mineral, Placer and Coal Tenure Spatial View (BCGW). Open Government Licence - British Columbia. Not legal title.", "as_of": "2026-09-20", "role": "focus", "color": "#e8b040"}}, {"type": "Feature", "geometry": {"type": "Polygon", "coordinates": [[[-118.6508, 49.0817], [-118.6536, 49.0818], [-118.6531, 49.0821], [-118.6566, 49.0844], [-118.6554, 49.0808], [-118.6506, 49.0808], [-118.6508, 49.0817]]]}, "properties": {"company_id": "kirkland-lake-discoveries", "jurisdiction": "British Columbia", "claim_id": 354870, "claim_name": "TIPTOP 1", "holder": "GRIZZLY DISCOVERIES INC.", "status": "Mineral", "recorded_date": "8607168000", "anniversary_or_expiry": "2026-01-31", "area_ha": 25, "tenure_type": "Mineral", "source": "BC MTA Mineral, Placer and Coal Tenure Spatial View (BCGW). Open Government Licence - British Columbia. Not legal title.", "as_of": "2026-09-20", "role": "focus", "color": "#e8b040"}}, {"type": "Feature", "geometry": {"type": "Polygon", "coordinates": [[[-118.6504, 49.0796], [-118.6506, 49.0808], [-118.6554, 49.0807], [-118.6532, 49.0779], [-118.6541, 49.0776], [-118.65, 49.078], [-118.6504, 49.0796]]]}, "properties": {"company_id": "kirkland-lake-discoveries", "jurisdiction": "British Columbia", "claim_id": 354871, "claim_name": "TIPTOP 2", "holder": "GRIZZLY DISCOVERIES INC.", "status": "Mineral", "recorded_date": "8607168000", "anniversary_or_expiry": "2026-01-31", "area_ha": 25, "tenure_type": "Mineral", "source": "BC MTA Mineral, Placer and Coal Tenure Spatial View (BCGW). Open Government Licence - British Columbia. Not legal title.", "as_of": "2026-09-20", "role": "focus", "color": "#e8b040"}}, {"type": "Feature", "geometry": {"type": "Polygon", "coordinates": [[[-118.6217, 49.0841], [-118.6217, 49.0886], [-118.6343, 49.0885], [-118.633, 49.0861], [-118.6435, 49.0842], [-118.6446, 49.0863], [-118.6491, 49.0853], [-118.6491, 49.0751], [-118.6217, 49.0751], [-118.6217, 49.0841]]]}, "properties": {"company_id": "kirkland-lake-discoveries", "jurisdiction": "British Columbia", "claim_id": 368085, "claim_name": "BO", "holder": "GRIZZLY DISCOVERIES INC.", "status": "Mineral", "recorded_date": "9211968000", "anniversary_or_expiry": "2026-01-31", "area_ha": 300, "tenure_type": "Mineral", "source": "BC MTA Mineral, Placer and Coal Tenure Spatial View (BCGW). Open Government Licence - British Columbia. Not legal title.", "as_of": "2026-09-20", "role": "focus", "color": "#e8b040"}}, {"type": "Feature", "geometry": {"type": "Polygon", "coordinates": [[[-118.6491, 49.0751], [-118.6491, 49.0796], [-118.6504, 49.0796], [-118.65, 49.078], [-118.6559, 49.077], [-118.6559, 49.0751], [-118.6491, 49.0751]]]}, "properties": {"company_id": "kirkland-lake-discoveries", "jurisdiction": "British Columbia", "claim_id": 368086, "claim_name": "BO #3", "holder": "GRIZZLY DISCOVERIES INC.", "status": "Mineral", "recorded_date": "9211968000", "anniversary_or_expiry": "2026-01-31", "area_ha": 25, "tenure_type": "Mineral", "source": "BC MTA Mineral, Placer and Coal Tenure Spatial View (BCGW). Open Government Licence - British Columbia. Not legal title.", "as_of": "2026-09-20", "role": "focus", "color": "#e8b040"}}, {"type": "Feature", "geometry": {"type": "Polygon", "coordinates": [[[-118.6491, 49.0841], [-118.6491, 49.0853], [-118.6504, 49.085], [-118.6501, 49.0841], [-118.6491, 49.0841]]]}, "properties": {"company_id": "kirkland-lake-discoveries", "jurisdiction": "British Columbia", "claim_id": 368743, "claim_name": "MO #4", "holder": "GRIZZLY DISCOVERIES INC.", "status": "Mineral", "recorded_date": "9253440000", "anniversary_or_expiry": "2026-01-31", "area_ha": 25, "tenure_type": "Mineral", "source": "BC MTA Mineral, Placer and Coal Tenure Spatial View (BCGW). Open Government Licence - British Columbia. Not legal title.", "as_of": "2026-09-20", "role": "focus", "color": "#e8b040"}}, {"type": "Feature", "geometry": {"type": "Polygon", "coordinates": [[[-118.6491, 49.0796], [-118.6491, 49.0841], [-118.6502, 49.0841], [-118.6495, 49.0819], [-118.6508, 49.0817], [-118.6504, 49.0796], [-118.6491, 49.0796]]]}, "properties": {"company_id": "kirkland-lake-discoveries", "jurisdiction": "British Columbia", "claim_id": 368744, "claim_name": "MO #6", "holder": "GRIZZLY DISCOVERIES INC.", "status": "Mineral", "recorded_date": "9253440000", "anniversary_or_expiry": "2026-01-31", "area_ha": 25, "tenure_type": "Mineral", "source": "BC MTA Mineral, Placer and Coal Tenure Spatial View (BCGW). Open Government Licence - British Columbia. Not legal title.", "as_of": "2026-09-20", "role": "focus", "color": "#e8b040"}}, {"type": "Feature", "geometry": {"type": "MultiPolygon", "coordinates": [[[[-118.627, 49.1068], [-118.6276, 49.1061], [-118.6287, 49.1065], [-118.6464, 49.1065], [-118.6423, 49.1039], [-118.6451, 49.102], [-118.6357, 49.102], [-118.6357, 49.0913], [-118.6343, 49.0885], [-118.6202, 49.0886], [-118.6202, 49.0908], [-118.6224, 49.0927], [-118.6249, 49.0927], [-118.6242, 49.0998], [-118.627, 49.0989], [-118.6295, 49.102], [-118.6282, 49.1031], [-118.6246, 49.1044], [-118.6266, 49.1042], [-118.6261, 49.1049], [-118.6267, 49.1052], [-118.627, 49.1068]]], [[[-118.647, 49.1065], [-118.6498, 49.1065], [-118.6497, 49.1047], [-118.647, 49.1065]], [[-118.6539, 49.0972], [-118.6411, 49.0975], [-118.6544, 49.0971], [-118.6539, 49.0972]]]]}, "properties": {"company_id": "kirkland-lake-discoveries", "jurisdiction": "British Columbia", "claim_id": 369117, "claim_name": "MO", "holder": "GRIZZLY DISCOVERIES INC.", "status": "Mineral", "recorded_date": "9264672000", "anniversary_or_expiry": "2026-01-31", "area_ha": 500, "tenure_type": "Mineral", "source": "BC MTA Mineral, Placer and Coal Tenure Spatial View (BCGW). Open Government Licence - British Columbia. Not legal title.", "as_of": "2026-09-20", "role": "focus", "color": "#e8b040"}}, {"type": "Feature", "geometry": {"type": "Polygon", "coordinates": [[[-118.6089, 49.073], [-118.6089, 49.0751], [-118.6491, 49.0751], [-118.6491, 49.0616], [-118.6097, 49.0616], [-118.6098, 49.0685], [-118.6079, 49.0686], [-118.608, 49.0703], [-118.6089, 49.0703], [-118.6089, 49.073]]]}, "properties": {"company_id": "kirkland-lake-discoveries", "jurisdiction": "British Columbia", "claim_id": 390485, "claim_name": "ME TOO", "holder": "GRIZZLY DISCOVERIES INC.", "status": "Mineral", "recorded_date": "2001-10-16", "anniversary_or_expiry": "2026-01-31", "area_ha": 450, "tenure_type": "Mineral", "source": "BC MTA Mineral, Placer and Coal Tenure Spatial View (BCGW). Open Government Licence - British Columbia. Not legal title.", "as_of": "2026-09-20", "role": "focus", "color": "#e8b040"}}, {"type": "Feature", "geometry": {"type": "Polygon", "coordinates": [[[-118.6505, 49.0849], [-118.6509, 49.0859], [-118.6574, 49.085], [-118.6531, 49.0821], [-118.6536, 49.0818], [-118.6508, 49.0817], [-118.6495, 49.0819], [-118.6505, 49.0849]]]}, "properties": {"company_id": "kirkland-lake-discoveries", "jurisdiction": "British Columbia", "claim_id": 404246, "claim_name": "REFER TO LOT TABLE", "holder": "GRIZZLY DISCOVERIES INC.", "status": "Mineral", "recorded_date": "2003-07-21", "anniversary_or_expiry": "2026-01-31", "area_ha": 25, "tenure_type": "Mineral", "source": "BC MTA Mineral, Placer and Coal Tenure Spatial View (BCGW). Open Government Licence - British Columbia. Not legal title.", "as_of": "2026-09-20", "role": "focus", "color": "#e8b040"}}, {"type": "Feature", "geometry": {"type": "Polygon", "coordinates": [[[-118.6701, 49.0251], [-118.6671, 49.0211], [-118.6609, 49.0231], [-118.6639, 49.0271], [-118.6701, 49.0251]]]}, "properties": {"company_id": "kirkland-lake-discoveries", "jurisdiction": "British Columbia", "claim_id": 412317, "claim_name": "GOLD401", "holder": "GRIZZLY DISCOVERIES INC.", "status": "Mineral", "recorded_date": "2004-07-03", "anniversary_or_expiry": "2027-01-31", "area_ha": 25, "tenure_type": "Mineral", "source": "BC MTA Mineral, Placer and Coal Tenure Spatial View (BCGW). Open Government Licence - British Columbia. Not legal title.", "as_of": "2026-09-20", "role": "focus", "color": "#e8b040"}}, {"type": "Feature", "geometry": {"type": "Polygon", "coordinates": [[[-118.6671, 49.0211], [-118.664, 49.017], [-118.6579, 49.019], [-118.6609, 49.0231], [-118.6671, 49.0211]]]}, "properties": {"company_id": "kirkland-lake-discoveries", "jurisdiction": "British Columbia", "claim_id": 412318, "claim_name": "GOLD402", "holder": "GRIZZLY DISCOVERIES INC.", "status": "Mineral", "recorded_date": "2004-07-03", "anniversary_or_expiry": "2027-01-31", "area_ha": 25, "tenure_type": "Mineral", "source": "BC MTA Mineral, Placer and Coal Tenure Spatial View (BCGW). Open Government Licence - British Columbia. Not legal title.", "as_of": "2026-09-20", "role": "focus", "color": "#e8b040"}}, {"type": "Feature", "geometry": {"type": "Polygon", "coordinates": [[[-118.658, 49.0249], [-118.6633, 49.0264], [-118.6609, 49.0231], [-118.6565, 49.0245], [-118.658, 49.0249]]]}, "properties": {"company_id": "kirkland-lake-discoveries", "jurisdiction": "British Columbia", "claim_id": 412319, "claim_name": "GOLD403", "holder": "GRIZZLY DISCOVERIES INC.", "status": "Mineral", "recorded_date": "2004-07-03", "anniversary_or_expiry": "2027-01-31", "area_ha": 25, "tenure_type": "Mineral", "source": "BC MTA Mineral, Placer and Coal Tenure Spatial View (BCGW). Open Government Licence - British Columbia. Not legal title.", "as_of": "2026-09-20", "role": "focus", "color": "#e8b040"}}, {"type": "Feature", "geometry": {"type": "Polygon", "coordinates": [[[-118.6574, 49.0791], [-118.6637, 49.0791], [-118.6637, 49.0749], [-118.6512, 49.0749], [-118.6512, 49.0791], [-118.6574, 49.0791]]]}, "properties": {"company_id": "kirkland-lake-discoveries", "jurisdiction": "British Columbia", "claim_id": 517077, "claim_name": "ATTWOOD-NORTH2", "holder": "GRIZZLY DISCOVERIES INC.", "status": "Mineral", "recorded_date": "2005-07-12", "anniversary_or_expiry": "2026-01-31", "area_ha": 42.32, "tenure_type": "Mineral", "source": "BC MTA Mineral, Placer and Coal Tenure Spatial View (BCGW). Open Government Licence - British Columbia. Not legal title.", "as_of": "2026-09-20", "role": "focus", "color": "#e8b040"}}, {"type": "Feature", "geometry": {"type": "Polygon", "coordinates": [[[-118.6699, 49.0999], [-118.6699, 49.0874], [-118.6637, 49.0874], [-118.6637, 49.0999], [-118.6574, 49.0999], [-118.6574, 49.1041], [-118.6699, 49.1041], [-118.6699, 49.0999]]]}, "properties": {"company_id": "kirkland-lake-discoveries", "jurisdiction": "British Columbia", "claim_id": 523547, "claim_name": "GREENWOOD", "holder": "GRIZZLY DISCOVERIES INC.", "status": "Mineral", "recorded_date": "2005-12-06", "anniversary_or_expiry": "2026-01-31", "area_ha": 105.75710000000001, "tenure_type": "Mineral", "source": "BC MTA Mineral, Placer and Coal Tenure Spatial View (BCGW). Open Government Licence - British Columbia. Not legal title.", "as_of": "2026-09-20", "role": "focus", "color": "#e8b040"}}, {"type": "Feature", "geometry": {"type": "Polygon", "coordinates": [[[-118.9074, 49.0707], [-118.9074, 49.0624], [-118.8949, 49.0624], [-118.8949, 49.0749], [-118.9074, 49.0749], [-118.9074, 49.0707]]]}, "properties": {"company_id": "kirkland-lake-discoveries", "jurisdiction": "British Columbia", "claim_id": 526434, "claim_name": "BUBAR 2000", "holder": "GRIZZLY DISCOVERIES INC.", "status": "Mineral", "recorded_date": "2006-01-26", "anniversary_or_expiry": "2026-01-31", "area_ha": 126.98110000000001, "tenure_type": "Mineral", "source": "BC MTA Mineral, Placer and Coal Tenure Spatial View (BCGW). Open Government Licence - British Columbia. Not legal title.", "as_of": "2026-09-20", "role": "focus", "color": "#e8b040"}}]}