{"type": "FeatureCollection", "features": [{"type": "Feature", "geometry": {"type": "Polygon", "coordinates": [[[-74.98333333641064, 49.76666666772393], [-74.9833333397312, 49.77500000753161], [-74.9749999956382, 49.77500000235548], [-74.97500000454156, 49.766666671472045], [-74.98333333641064, 49.76666666772393]]]}, "properties": {"company_id": "kirkland-lake-discoveries", "jurisdiction": "Quebec", "claim_id": "", "claim_name": null, "holder": "Kirkland William", "status": "Active", "recorded_date": null, "anniversary_or_expiry": null, "area_ha": null, "tenure_type": null, "source": "GESTIM active titles (MRNF digital data dump). Not legal title.", "as_of": "2026-09-20", "role": "focus", "color": "#e8b040"}}, {"type": "Feature", "geometry": {"type": "Polygon", "coordinates": [[[-74.9833333397312, 49.77500000753161], [-74.98333332881022, 49.78333333528827], [-74.97500000008613, 49.78333333918175], [-74.9749999956382, 49.77500000235548], [-74.9833333397312, 49.77500000753161]]]}, "properties": {"company_id": "kirkland-lake-discoveries", "jurisdiction": "Quebec", "claim_id": "", "claim_name": null, "holder": "Kirkland William", "status": "Active", "recorded_date": null, "anniversary_or_expiry": null, "area_ha": null, "tenure_type": null, "source": "GESTIM active titles (MRNF digital data dump). Not legal title.", "as_of": "2026-09-20", "role": "focus", "color": "#e8b040"}}, {"type": "Feature", "geometry": {"type": "Polygon", "coordinates": [[[-77.71666666700591, 53.11666667000206], [-77.70833333193637, 53.116666672902845], [-77.70833334192808, 53.108333341034914], [-77.71666666247401, 53.10833334039491], [-77.71666666700591, 53.11666667000206]]]}, "properties": {"company_id": "kirkland-lake-discoveries", "jurisdiction": "Quebec", "claim_id": "", "claim_name": null, "holder": "Bradley Kirkland", "status": "Active", "recorded_date": null, "anniversary_or_expiry": null, "area_ha": null, "tenure_type": null, "source": "GESTIM active titles (MRNF digital data dump). Not legal title.", "as_of": "2026-09-20", "role": "focus", "color": "#e8b040"}}, {"type": "Feature", "geometry": {"type": "Polygon", "coordinates": [[[-77.70833333193637, 53.116666672902845], [-77.69999999741087, 53.11666666707076], [-77.70000000698946, 53.10833333323329], [-77.70833334192808, 53.108333341034914], [-77.70833333193637, 53.116666672902845]]]}, "properties": {"company_id": "kirkland-lake-discoveries", "jurisdiction": "Quebec", "claim_id": "", "claim_name": null, "holder": "Bradley Kirkland", "status": "Active", "recorded_date": null, "anniversary_or_expiry": null, "area_ha": null, "tenure_type": null, "source": "GESTIM active titles (MRNF digital data dump). Not legal title.", "as_of": "2026-09-20", "role": "focus", "color": "#e8b040"}}, {"type": "Feature", "geometry": {"type": "Polygon", "coordinates": [[[-77.67500000571415, 53.13333333908784], [-77.66666667555006, 53.13333333860108], [-77.66666667477973, 53.125000006007504], [-77.67500000450715, 53.12499999965893], [-77.67500000571415, 53.13333333908784]]]}, "properties": {"company_id": "kirkland-lake-discoveries", "jurisdiction": "Quebec", "claim_id": "", "claim_name": null, "holder": "Bradley Kirkland", "status": "Active", "recorded_date": null, "anniversary_or_expiry": null, "area_ha": null, "tenure_type": null, "source": "GESTIM active titles (MRNF digital data dump). Not legal title.", "as_of": "2026-09-20", "role": "focus", "color": "#e8b040"}}, {"type": "Feature", "geometry": {"type": "Polygon", "coordinates": [[[-79.5083334166853, 49.91666667807554], [-79.50833341790766, 49.925000011187095], [-79.50000009090152, 49.92500000644954], [-79.5000000918384, 49.916666676976725], [-79.5083334166853, 49.91666667807554]]]}, "properties": {"company_id": "kirkland-lake-discoveries", "jurisdiction": "Quebec", "claim_id": "", "claim_name": null, "holder": "Kirkland Lake Gold inc.", "status": "Active", "recorded_date": null, "anniversary_or_expiry": null, "area_ha": null, "tenure_type": null, "source": "GESTIM active titles (MRNF digital data dump). Not legal title.", "as_of": "2026-09-20", "role": "focus", "color": "#e8b040"}}, {"type": "Feature", "geometry": {"type": "Polygon", "coordinates": [[[-79.51666675027542, 49.91666667381649], [-79.5166667536508, 49.925000010596555], [-79.50833341790766, 49.925000011187095], [-79.5083334166853, 49.91666667807554], [-79.51666675027542, 49.91666667381649]]]}, "properties": {"company_id": "kirkland-lake-discoveries", "jurisdiction": "Quebec", "claim_id": "", "claim_name": null, "holder": "Kirkland Lake Gold inc.", "status": "Active", "recorded_date": null, "anniversary_or_expiry": null, "area_ha": null, "tenure_type": null, "source": "GESTIM active titles (MRNF digital data dump). Not legal title.", "as_of": "2026-09-20", "role": "focus", "color": "#e8b040"}}, {"type": "Feature", "geometry": {"type": "Polygon", "coordinates": [[[-76.03333333111392, 49.50833333966235], [-76.03333332930647, 49.516666670669814], [-76.02500000124903, 49.516666666365886], [-76.02499999632859, 49.508333338810964], [-76.03333333111392, 49.50833333966235]]]}, "properties": {"company_id": "kirkland-lake-discoveries", "jurisdiction": "Quebec", "claim_id": "", "claim_name": null, "holder": "Bradley Kirkland", "status": "Active", "recorded_date": null, "anniversary_or_expiry": null, "area_ha": null, "tenure_type": null, "source": "GESTIM active titles (MRNF digital data dump). Not legal title.", "as_of": "2026-09-20", "role": "focus", "color": "#e8b040"}}, {"type": "Feature", "geometry": {"type": "Polygon", "coordinates": [[[-79.51776493198393, 49.91666670375852], [-79.51666675027542, 49.91666667381649], [-79.51666675683616, 49.9083333439165], [-79.51776380200812, 49.908333378020465], [-79.51776493198393, 49.91666670375852]]]}, "properties": {"company_id": "kirkland-lake-discoveries", "jurisdiction": "Quebec", "claim_id": "", "claim_name": null, "holder": "Kirkland Lake Gold inc.", "status": "Active", "recorded_date": null, "anniversary_or_expiry": null, "area_ha": null, "tenure_type": null, "source": "GESTIM active titles (MRNF digital data dump). Not legal title.", "as_of": "2026-09-20", "role": "focus", "color": "#e8b040"}}, {"type": "Feature", "geometry": {"type": "Polygon", "coordinates": [[[-79.5177659884732, 49.925000044302244], [-79.5166667536508, 49.925000010596555], [-79.51666675027542, 49.91666667381649], [-79.51776493198393, 49.91666670375852], [-79.51776544826014, 49.92053836748193], [-79.51776545142603, 49.92056552248821], [-79.5177659884732, 49.925000044302244]]]}, "properties": {"company_id": "kirkland-lake-discoveries", "jurisdiction": "Quebec", "claim_id": "", "claim_name": null, "holder": "Kirkland Lake Gold inc.", "status": "Active", "recorded_date": null, "anniversary_or_expiry": null, "area_ha": null, "tenure_type": null, "source": "GESTIM active titles (MRNF digital data dump). Not legal title.", "as_of": "2026-09-20", "role": "focus", "color": "#e8b040"}}, {"type": "Feature", "geometry": {"type": "Polygon", "coordinates": [[[-79.5166667501241, 49.939932324461495], [-79.51237354007026, 49.93995984094771], [-79.51242514440182, 49.936354918699124], [-79.51666675184356, 49.9363813060703], [-79.5166667501241, 49.939932324461495]]]}, "properties": {"company_id": "kirkland-lake-discoveries", "jurisdiction": "Quebec", "claim_id": "", "claim_name": null, "holder": "Kirkland Lake Gold inc.", "status": "Active", "recorded_date": null, "anniversary_or_expiry": null, "area_ha": null, "tenure_type": null, "source": "GESTIM active titles (MRNF digital data dump). Not legal title.", "as_of": "2026-09-20", "role": "focus", "color": "#e8b040"}}, {"type": "Feature", "geometry": {"type": "Polygon", "coordinates": [[[-79.51776748150846, 49.936388130370425], [-79.51776795807582, 49.93992524282328], [-79.5166667501241, 49.939932324461495], [-79.51666675184356, 49.9363813060703], [-79.51776748150846, 49.936388130370425]]]}, "properties": {"company_id": "kirkland-lake-discoveries", "jurisdiction": "Quebec", "claim_id": "", "claim_name": null, "holder": "Kirkland Lake Gold inc.", "status": "Active", "recorded_date": null, "anniversary_or_expiry": null, "area_ha": null, "tenure_type": null, "source": "GESTIM active titles (MRNF digital data dump). Not legal title.", "as_of": "2026-09-20", "role": "focus", "color": "#e8b040"}}, {"type": "Feature", "geometry": {"type": "Polygon", "coordinates": [[[-79.51666675513394, 49.91049572664298], [-79.51666675027542, 49.91666667381649], [-79.5083334166853, 49.91666667807554], [-79.50833342320965, 49.91049662025899], [-79.51283409439051, 49.91049621705445], [-79.51666675513394, 49.91049572664298]]]}, "properties": {"company_id": "kirkland-lake-discoveries", "jurisdiction": "Quebec", "claim_id": "", "claim_name": null, "holder": "Kirkland Lake Gold inc.", "status": "Active", "recorded_date": null, "anniversary_or_expiry": null, "area_ha": null, "tenure_type": null, "source": "GESTIM active titles (MRNF digital data dump). Not legal title.", "as_of": "2026-09-20", "role": "focus", "color": "#e8b040"}}, {"type": "Feature", "geometry": {"type": "Polygon", "coordinates": [[[-79.50833342320965, 49.91049662025899], [-79.5083334166853, 49.91666667807554], [-79.50187068847723, 49.916666725391444], [-79.50202634694372, 49.91409465208197], [-79.50205273278193, 49.910496901362755], [-79.50731063142958, 49.910496693185], [-79.50752308143937, 49.910496675705545], [-79.50833342320965, 49.91049662025899]]]}, "properties": {"company_id": "kirkland-lake-discoveries", "jurisdiction": "Quebec", "claim_id": "", "claim_name": null, "holder": "Kirkland Lake Gold inc.", "status": "Active", "recorded_date": null, "anniversary_or_expiry": null, "area_ha": null, "tenure_type": null, "source": "GESTIM active titles (MRNF digital data dump). Not legal title.", "as_of": "2026-09-20", "role": "focus", "color": "#e8b040"}}, {"type": "Feature", "geometry": {"type": "Polygon", "coordinates": [[[-79.5177659884732, 49.925000044302244], [-79.51776603866635, 49.92549629054824], [-79.51776626397552, 49.927321448997304], [-79.51776651658716, 49.92924651112619], [-79.51666675348157, 49.9292537222202], [-79.5166667536508, 49.925000010596555], [-79.5177659884732, 49.925000044302244]]]}, "properties": {"company_id": "kirkland-lake-discoveries", "jurisdiction": "Quebec", "claim_id": "", "claim_name": null, "holder": "Kirkland Lake Gold inc.", "status": "Active", "recorded_date": null, "anniversary_or_expiry": null, "area_ha": null, "tenure_type": null, "source": "GESTIM active titles (MRNF digital data dump). Not legal title.", "as_of": "2026-09-20", "role": "focus", "color": "#e8b040"}}, {"type": "Feature", "geometry": {"type": "Polygon", "coordinates": [[[-79.5166667536508, 49.925000010596555], [-79.51666675348157, 49.9292537222202], [-79.51247584389232, 49.92928111347276], [-79.50833341654796, 49.92925594032947], [-79.50833341790766, 49.925000011187095], [-79.5166667536508, 49.925000010596555]]]}, "properties": {"company_id": "kirkland-lake-discoveries", "jurisdiction": "Quebec", "claim_id": "", "claim_name": null, "holder": "Kirkland Lake Gold inc.", "status": "Active", "recorded_date": null, "anniversary_or_expiry": null, "area_ha": null, "tenure_type": null, "source": "GESTIM active titles (MRNF digital data dump). Not legal title.", "as_of": "2026-09-20", "role": "focus", "color": "#e8b040"}}, {"type": "Feature", "geometry": {"type": "Polygon", "coordinates": [[[-79.50833341790766, 49.925000011187095], [-79.50833341654796, 49.92925594032947], [-79.50696032739313, 49.9292475660224], [-79.5018124502886, 49.929315772081], [-79.50000008816009, 49.92932775655352], [-79.50000009090152, 49.92500000644954], [-79.50833341790766, 49.925000011187095]]]}, "properties": {"company_id": "kirkland-lake-discoveries", "jurisdiction": "Quebec", "claim_id": "", "claim_name": null, "holder": "Kirkland Lake Gold inc.", "status": "Active", "recorded_date": null, "anniversary_or_expiry": null, "area_ha": null, "tenure_type": null, "source": "GESTIM active titles (MRNF digital data dump). Not legal title.", "as_of": "2026-09-20", "role": "focus", "color": "#e8b040"}}, {"type": "Feature", "geometry": {"type": "Polygon", "coordinates": [[[-79.50000009173272, 49.917606893611016], [-79.50000009090152, 49.92500000644954], [-79.49166667352289, 49.92500000097244], [-79.4916666641219, 49.91755172837477], [-79.49669067417551, 49.91758452065127], [-79.50000009173272, 49.917606893611016]]]}, "properties": {"company_id": "kirkland-lake-discoveries", "jurisdiction": "Quebec", "claim_id": "", "claim_name": null, "holder": "Kirkland Lake Gold inc.", "status": "Active", "recorded_date": null, "anniversary_or_expiry": null, "area_ha": null, "tenure_type": null, "source": "GESTIM active titles (MRNF digital data dump). Not legal title.", "as_of": "2026-09-20", "role": "focus", "color": "#e8b040"}}, {"type": "Feature", "geometry": {"type": "Polygon", "coordinates": [[[-79.4916666641219, 49.91755172837477], [-79.49166667352289, 49.92500000097244], [-79.48333333658145, 49.925000003160456], [-79.48333332908997, 49.91751425754634], [-79.48569912215143, 49.917514574349056], [-79.49135495851007, 49.917549687209274], [-79.4916666641219, 49.91755172837477]]]}, "properties": {"company_id": "kirkland-lake-discoveries", "jurisdiction": "Quebec", "claim_id": "", "claim_name": null, "holder": "Kirkland Lake Gold inc.", "status": "Active", "recorded_date": null, "anniversary_or_expiry": null, "area_ha": null, "tenure_type": null, "source": "GESTIM active titles (MRNF digital data dump). Not legal title.", "as_of": "2026-09-20", "role": "focus", "color": "#e8b040"}}, {"type": "Feature", "geometry": {"type": "Polygon", "coordinates": [[[-79.48333333658145, 49.925000003160456], [-79.47499999434974, 49.92499999982761], [-79.47500000141896, 49.91742033933402], [-79.48004325839572, 49.9175137428326], [-79.48333332908997, 49.91751425754634], [-79.48333333658145, 49.925000003160456]]]}, "properties": {"company_id": "kirkland-lake-discoveries", "jurisdiction": "Quebec", "claim_id": "", "claim_name": null, "holder": "Kirkland Lake Gold inc.", "status": "Active", "recorded_date": null, "anniversary_or_expiry": null, "area_ha": null, "tenure_type": null, "source": "GESTIM active titles (MRNF digital data dump). Not legal title.", "as_of": "2026-09-20", "role": "focus", "color": "#e8b040"}}, {"type": "Feature", "geometry": {"type": "Polygon", "coordinates": [[[-79.47499999434974, 49.92499999982761], [-79.47433006754937, 49.92500002030514], [-79.47433205319561, 49.92127895029317], [-79.47438746829849, 49.91740898110469], [-79.47500000141896, 49.91742033933402], [-79.47499999434974, 49.92499999982761]]]}, "properties": {"company_id": "kirkland-lake-discoveries", "jurisdiction": "Quebec", "claim_id": "", "claim_name": null, "holder": "Kirkland Lake Gold inc.", "status": "Active", "recorded_date": null, "anniversary_or_expiry": null, "area_ha": null, "tenure_type": null, "source": "GESTIM active titles (MRNF digital data dump). Not legal title.", "as_of": "2026-09-20", "role": "focus", "color": "#e8b040"}}, {"type": "Feature", "geometry": {"type": "Polygon", "coordinates": [[[-79.50000008816009, 49.92932775655352], [-79.49666462186296, 49.92934974433317], [-79.49166666953141, 49.92934949654203], [-79.49166667352289, 49.92500000097244], [-79.50000009090152, 49.92500000644954], [-79.50000008816009, 49.92932775655352]]]}, "properties": {"company_id": "kirkland-lake-discoveries", "jurisdiction": "Quebec", "claim_id": "", "claim_name": null, "holder": "Kirkland Lake Gold inc.", "status": "Active", "recorded_date": null, "anniversary_or_expiry": null, "area_ha": null, "tenure_type": null, "source": "GESTIM active titles (MRNF digital data dump). Not legal title.", "as_of": "2026-09-20", "role": "focus", "color": "#e8b040"}}, {"type": "Feature", "geometry": {"type": "Polygon", "coordinates": [[[-79.49166666953141, 49.92934949654203], [-79.49130668611248, 49.92934947101162], [-79.4855810577422, 49.92934889773439], [-79.4833333311972, 49.92936219720761], [-79.48333333658145, 49.925000003160456], [-79.49166667352289, 49.92500000097244], [-79.49166666953141, 49.92934949654203]]]}, "properties": {"company_id": "kirkland-lake-discoveries", "jurisdiction": "Quebec", "claim_id": "", "claim_name": null, "holder": "Kirkland Lake Gold inc.", "status": "Active", "recorded_date": null, "anniversary_or_expiry": null, "area_ha": null, "tenure_type": null, "source": "GESTIM active titles (MRNF digital data dump). Not legal title.", "as_of": "2026-09-20", "role": "focus", "color": "#e8b040"}}, {"type": "Feature", "geometry": {"type": "Polygon", "coordinates": [[[-79.4833333311972, 49.92936219720761], [-79.47996047127977, 49.92938207840507], [-79.47499999502038, 49.92938111547256], [-79.47499999434974, 49.92499999982761], [-79.48333333658145, 49.925000003160456], [-79.4833333311972, 49.92936219720761]]]}, "properties": {"company_id": "kirkland-lake-discoveries", "jurisdiction": "Quebec", "claim_id": "", "claim_name": null, "holder": "Kirkland Lake Gold inc.", "status": "Active", "recorded_date": null, "anniversary_or_expiry": null, "area_ha": null, "tenure_type": null, "source": "GESTIM active titles (MRNF digital data dump). Not legal title.", "as_of": "2026-09-20", "role": "focus", "color": "#e8b040"}}, {"type": "Feature", "geometry": {"type": "Polygon", "coordinates": [[[-79.47499999502038, 49.92938111547256], [-79.47428735399443, 49.92938096102969], [-79.46866747885667, 49.92938194214656], [-79.46666666704489, 49.929386077014684], [-79.46666666142147, 49.925650636394984], [-79.46874704344762, 49.92563641594241], [-79.47432978523327, 49.92552903132916], [-79.47433006754937, 49.92500002030514], [-79.47499999434974, 49.92499999982761], [-79.47499999502038, 49.92938111547256]]]}, "properties": {"company_id": "kirkland-lake-discoveries", "jurisdiction": "Quebec", "claim_id": "", "claim_name": null, "holder": "Kirkland Lake Gold inc.", "status": "Active", "recorded_date": null, "anniversary_or_expiry": null, "area_ha": null, "tenure_type": null, "source": "GESTIM active titles (MRNF digital data dump). Not legal title.", "as_of": "2026-09-20", "role": "focus", "color": "#e8b040"}}, {"type": "Feature", "geometry": {"type": "Polygon", "coordinates": [[[-79.46666666704489, 49.929386077014684], [-79.46334503737287, 49.92939287105484], [-79.46348284940298, 49.92567233256145], [-79.46666666142147, 49.925650636394984], [-79.46666666704489, 49.929386077014684]]]}, "properties": {"company_id": "kirkland-lake-discoveries", "jurisdiction": "Quebec", "claim_id": "", "claim_name": null, "holder": "Kirkland Lake Gold inc.", "status": "Active", "recorded_date": null, "anniversary_or_expiry": null, "area_ha": null, "tenure_type": null, "source": "GESTIM active titles (MRNF digital data dump). Not legal title.", "as_of": "2026-09-20", "role": "focus", "color": "#e8b040"}}]}