{"type": "FeatureCollection", "features": [{"type": "Feature", "geometry": {"type": "Polygon", "coordinates": [[[-117.2499, 49.9702], [-117.2484, 49.9701], [-117.2487, 49.9713], [-117.2473, 49.9715], [-117.2483, 49.9741], [-117.2517, 49.9744], [-117.2513, 49.9769], [-117.2529, 49.9745], [-117.2578, 49.976], [-117.2595, 49.9735], [-117.2619, 49.9741], [-117.2626, 49.9722], [-117.257, 49.9712], [-117.2562, 49.9737], [-117.2498, 49.9736], [-117.2499, 49.9702]]]}, "properties": {"company_id": "klondike-silver", "jurisdiction": "British Columbia", "claim_id": 257273, "claim_name": null, "holder": "KLONDIKE SILVER CORP.", "status": "Mineral", "recorded_date": "-649728000", "anniversary_or_expiry": "2025-12-11", "area_ha": 28.57, "tenure_type": "Mineral", "source": "BC MTA Mineral, Placer and Coal Tenure Spatial View (BCGW). Open Government Licence - British Columbia. Not legal title.", "as_of": "2026-09-20", "role": "focus", "color": "#e8b040"}}, {"type": "Feature", "geometry": {"type": "Polygon", "coordinates": [[[-117.1839, 49.9901], [-117.1841, 49.9905], [-117.1839, 49.9901], [-117.1859, 49.989], [-117.1877, 49.99], [-117.1893, 49.9868], [-117.1881, 49.985], [-117.1817, 49.9868], [-117.1839, 49.9901]]]}, "properties": {"company_id": "klondike-silver", "jurisdiction": "British Columbia", "claim_id": 387664, "claim_name": "IDAHO", "holder": "KLONDIKE SILVER CORP.", "status": "Mineral", "recorded_date": "9933408000", "anniversary_or_expiry": "2032-03-15", "area_ha": 25, "tenure_type": "Mineral", "source": "BC MTA Mineral, Placer and Coal Tenure Spatial View (BCGW). Open Government Licence - British Columbia. Not legal title.", "as_of": "2026-09-20", "role": "focus", "color": "#e8b040"}}, {"type": "Feature", "geometry": {"type": "Polygon", "coordinates": [[[-117.2013, 50.0019], [-117.1993, 49.9994], [-117.1956, 49.9992], [-117.197, 50.0013], [-117.1992, 50.0006], [-117.2002, 50.002], [-117.1982, 50.003], [-117.2013, 50.0019]]]}, "properties": {"company_id": "klondike-silver", "jurisdiction": "British Columbia", "claim_id": 394719, "claim_name": "OGEMA", "holder": "KLONDIKE SILVER CORP.", "status": "Mineral", "recorded_date": "2002-07-07", "anniversary_or_expiry": "2031-07-31", "area_ha": 25, "tenure_type": "Mineral", "source": "BC MTA Mineral, Placer and Coal Tenure Spatial View (BCGW). Open Government Licence - British Columbia. Not legal title.", "as_of": "2026-09-20", "role": "focus", "color": "#e8b040"}}, {"type": "Feature", "geometry": {"type": "MultiPolygon", "coordinates": [[[[-117.191, 49.9894], [-117.1929, 49.9922], [-117.1963, 49.9928], [-117.198, 49.9905], [-117.1917, 49.9885], [-117.191, 49.9894]]], [[[-117.1906, 49.9931], [-117.1923, 49.9937], [-117.1926, 49.9926], [-117.1906, 49.9931]]]]}, "properties": {"company_id": "klondike-silver", "jurisdiction": "British Columbia", "claim_id": 395031, "claim_name": "DEADMAN", "holder": "KLONDIKE SILVER CORP.", "status": "Mineral", "recorded_date": "2002-07-14", "anniversary_or_expiry": "2032-03-16", "area_ha": 25, "tenure_type": "Mineral", "source": "BC MTA Mineral, Placer and Coal Tenure Spatial View (BCGW). Open Government Licence - British Columbia. Not legal title.", "as_of": "2026-09-20", "role": "focus", "color": "#e8b040"}}, {"type": "Feature", "geometry": {"type": "Polygon", "coordinates": [[[-117.2, 50.0046], [-117.2005, 50.005], [-117.2026, 50.0046], [-117.2076, 50.0049], [-117.2068, 50.0039], [-117.2055, 50.0039], [-117.2038, 50.0011], [-117.1982, 50.0029], [-117.2, 50.0046]]]}, "properties": {"company_id": "klondike-silver", "jurisdiction": "British Columbia", "claim_id": 395046, "claim_name": "OLD TOM MOORE", "holder": "KLONDIKE SILVER CORP.", "status": "Mineral", "recorded_date": "2002-07-21", "anniversary_or_expiry": "2031-07-31", "area_ha": 25, "tenure_type": "Mineral", "source": "BC MTA Mineral, Placer and Coal Tenure Spatial View (BCGW). Open Government Licence - British Columbia. Not legal title.", "as_of": "2026-09-20", "role": "focus", "color": "#e8b040"}}, {"type": "Feature", "geometry": {"type": "Polygon", "coordinates": [[[-117.1949, 49.9916], [-117.1949, 49.9874], [-117.1824, 49.9874], [-117.1824, 49.9958], [-117.1949, 49.9958], [-117.1949, 49.9916]]]}, "properties": {"company_id": "klondike-silver", "jurisdiction": "British Columbia", "claim_id": 542785, "claim_name": "RECO", "holder": "KLONDIKE SILVER CORP.", "status": "Mineral", "recorded_date": "2006-10-08", "anniversary_or_expiry": "2032-01-15", "area_ha": 83.0888, "tenure_type": "Mineral", "source": "BC MTA Mineral, Placer and Coal Tenure Spatial View (BCGW). Open Government Licence - British Columbia. Not legal title.", "as_of": "2026-09-20", "role": "focus", "color": "#e8b040"}}]}