{"type": "FeatureCollection", "features": [{"type": "Feature", "geometry": {"type": "Polygon", "coordinates": [[[-81.2563, 46.7667], [-81.2563, 46.7708], [-81.2625, 46.7708], [-81.2625, 46.7667], [-81.2563, 46.7667]]]}, "properties": {"company_id": "klondike-silver", "jurisdiction": "Ontario", "claim_id": "107633", "claim_name": null, "holder": "(100) NEW KLONDIKE EXPLORATION LTD.", "status": "Active", "recorded_date": "2018-04-10", "anniversary_or_expiry": "2030-07-28", "area_ha": null, "tenure_type": "Single Cell Mining Claim", "source": "Ontario MLAS operational claims (OGSEarth / LIO MapServer). Unofficial viewing data, not legal title.", "as_of": "2026-09-20", "role": "focus", "color": "#e8b040"}}, {"type": "Feature", "geometry": {"type": "Polygon", "coordinates": [[[-81.2375, 46.7667], [-81.2375, 46.7708], [-81.2438, 46.7708], [-81.2438, 46.7667], [-81.2375, 46.7667]]]}, "properties": {"company_id": "klondike-silver", "jurisdiction": "Ontario", "claim_id": "126805", "claim_name": null, "holder": "(100) NEW KLONDIKE EXPLORATION LTD.", "status": "Active", "recorded_date": "2018-04-10", "anniversary_or_expiry": "2030-07-28", "area_ha": null, "tenure_type": "Single Cell Mining Claim", "source": "Ontario MLAS operational claims (OGSEarth / LIO MapServer). Unofficial viewing data, not legal title.", "as_of": "2026-09-20", "role": "focus", "color": "#e8b040"}}, {"type": "Feature", "geometry": {"type": "Polygon", "coordinates": [[[-81.2375, 46.7625], [-81.2375, 46.7667], [-81.2438, 46.7667], [-81.2438, 46.7625], [-81.2375, 46.7625]]]}, "properties": {"company_id": "klondike-silver", "jurisdiction": "Ontario", "claim_id": "134876", "claim_name": null, "holder": "(100) NEW KLONDIKE EXPLORATION LTD.", "status": "Active", "recorded_date": "2018-04-10", "anniversary_or_expiry": "2030-07-28", "area_ha": null, "tenure_type": "Single Cell Mining Claim", "source": "Ontario MLAS operational claims (OGSEarth / LIO MapServer). Unofficial viewing data, not legal title.", "as_of": "2026-09-20", "role": "focus", "color": "#e8b040"}}, {"type": "Feature", "geometry": {"type": "Polygon", "coordinates": [[[-81.2438, 46.7625], [-81.2438, 46.7667], [-81.25, 46.7667], [-81.25, 46.7625], [-81.2438, 46.7625]]]}, "properties": {"company_id": "klondike-silver", "jurisdiction": "Ontario", "claim_id": "138852", "claim_name": null, "holder": "(100) NEW KLONDIKE EXPLORATION LTD.", "status": "Active", "recorded_date": "2018-04-10", "anniversary_or_expiry": "2030-07-28", "area_ha": null, "tenure_type": "Single Cell Mining Claim", "source": "Ontario MLAS operational claims (OGSEarth / LIO MapServer). Unofficial viewing data, not legal title.", "as_of": "2026-09-20", "role": "focus", "color": "#e8b040"}}, {"type": "Feature", "geometry": {"type": "Polygon", "coordinates": [[[-81.2375, 46.7583], [-81.2375, 46.7625], [-81.2438, 46.7625], [-81.2438, 46.7583], [-81.2375, 46.7583]]]}, "properties": {"company_id": "klondike-silver", "jurisdiction": "Ontario", "claim_id": "180086", "claim_name": null, "holder": "(100) NEW KLONDIKE EXPLORATION LTD.", "status": "Active", "recorded_date": "2018-04-10", "anniversary_or_expiry": "2030-07-28", "area_ha": null, "tenure_type": "Single Cell Mining Claim", "source": "Ontario MLAS operational claims (OGSEarth / LIO MapServer). Unofficial viewing data, not legal title.", "as_of": "2026-09-20", "role": "focus", "color": "#e8b040"}}, {"type": "Feature", "geometry": {"type": "Polygon", "coordinates": [[[-81.2188, 46.7583], [-81.2188, 46.7625], [-81.225, 46.7625], [-81.225, 46.7583], [-81.2188, 46.7583]]]}, "properties": {"company_id": "klondike-silver", "jurisdiction": "Ontario", "claim_id": "186959", "claim_name": null, "holder": "(100) NEW KLONDIKE EXPLORATION LTD.", "status": "Active", "recorded_date": "2018-04-10", "anniversary_or_expiry": "2030-07-28", "area_ha": null, "tenure_type": "Boundary Cell Mining Claim", "source": "Ontario MLAS operational claims (OGSEarth / LIO MapServer). Unofficial viewing data, not legal title.", "as_of": "2026-09-20", "role": "focus", "color": "#e8b040"}}, {"type": "Feature", "geometry": {"type": "Polygon", "coordinates": [[[-81.25, 46.7667], [-81.25, 46.7708], [-81.2563, 46.7708], [-81.2563, 46.7667], [-81.25, 46.7667]]]}, "properties": {"company_id": "klondike-silver", "jurisdiction": "Ontario", "claim_id": "200244", "claim_name": null, "holder": "(100) NEW KLONDIKE EXPLORATION LTD.", "status": "Active", "recorded_date": "2018-04-10", "anniversary_or_expiry": "2030-07-28", "area_ha": null, "tenure_type": "Single Cell Mining Claim", "source": "Ontario MLAS operational claims (OGSEarth / LIO MapServer). Unofficial viewing data, not legal title.", "as_of": "2026-09-20", "role": "focus", "color": "#e8b040"}}, {"type": "Feature", "geometry": {"type": "Polygon", "coordinates": [[[-81.2125, 46.7583], [-81.2125, 46.7625], [-81.2188, 46.7625], [-81.2188, 46.7583], [-81.2125, 46.7583]]]}, "properties": {"company_id": "klondike-silver", "jurisdiction": "Ontario", "claim_id": "199132", "claim_name": null, "holder": "(100) NEW KLONDIKE EXPLORATION LTD.", "status": "Active", "recorded_date": "2018-04-10", "anniversary_or_expiry": "2030-07-28", "area_ha": null, "tenure_type": "Boundary Cell Mining Claim", "source": "Ontario MLAS operational claims (OGSEarth / LIO MapServer). Unofficial viewing data, not legal title.", "as_of": "2026-09-20", "role": "focus", "color": "#e8b040"}}, {"type": "Feature", "geometry": {"type": "Polygon", "coordinates": [[[-81.2313, 46.7583], [-81.2313, 46.7625], [-81.2375, 46.7625], [-81.2375, 46.7583], [-81.2313, 46.7583]]]}, "properties": {"company_id": "klondike-silver", "jurisdiction": "Ontario", "claim_id": "246800", "claim_name": null, "holder": "(100) NEW KLONDIKE EXPLORATION LTD.", "status": "Active", "recorded_date": "2018-04-10", "anniversary_or_expiry": "2030-07-28", "area_ha": null, "tenure_type": "Single Cell Mining Claim", "source": "Ontario MLAS operational claims (OGSEarth / LIO MapServer). Unofficial viewing data, not legal title.", "as_of": "2026-09-20", "role": "focus", "color": "#e8b040"}}, {"type": "Feature", "geometry": {"type": "Polygon", "coordinates": [[[-81.25, 46.7625], [-81.25, 46.7667], [-81.2563, 46.7667], [-81.2563, 46.7625], [-81.25, 46.7625]]]}, "properties": {"company_id": "klondike-silver", "jurisdiction": "Ontario", "claim_id": "254818", "claim_name": null, "holder": "(100) NEW KLONDIKE EXPLORATION LTD.", "status": "Active", "recorded_date": "2018-04-10", "anniversary_or_expiry": "2030-07-28", "area_ha": null, "tenure_type": "Single Cell Mining Claim", "source": "Ontario MLAS operational claims (OGSEarth / LIO MapServer). Unofficial viewing data, not legal title.", "as_of": "2026-09-20", "role": "focus", "color": "#e8b040"}}, {"type": "Feature", "geometry": {"type": "Polygon", "coordinates": [[[-81.225, 46.7625], [-81.225, 46.7667], [-81.2313, 46.7667], [-81.2313, 46.7625], [-81.225, 46.7625]]]}, "properties": {"company_id": "klondike-silver", "jurisdiction": "Ontario", "claim_id": "285354", "claim_name": null, "holder": "(100) NEW KLONDIKE EXPLORATION LTD.", "status": "Active", "recorded_date": "2018-04-10", "anniversary_or_expiry": "2030-07-28", "area_ha": null, "tenure_type": "Boundary Cell Mining Claim", "source": "Ontario MLAS operational claims (OGSEarth / LIO MapServer). Unofficial viewing data, not legal title.", "as_of": "2026-09-20", "role": "focus", "color": "#e8b040"}}, {"type": "Feature", "geometry": {"type": "Polygon", "coordinates": [[[-81.225, 46.7583], [-81.225, 46.7625], [-81.2313, 46.7625], [-81.2313, 46.7583], [-81.225, 46.7583]]]}, "properties": {"company_id": "klondike-silver", "jurisdiction": "Ontario", "claim_id": "293387", "claim_name": null, "holder": "(100) NEW KLONDIKE EXPLORATION LTD.", "status": "Active", "recorded_date": "2018-04-10", "anniversary_or_expiry": "2030-07-28", "area_ha": null, "tenure_type": "Boundary Cell Mining Claim", "source": "Ontario MLAS operational claims (OGSEarth / LIO MapServer). Unofficial viewing data, not legal title.", "as_of": "2026-09-20", "role": "focus", "color": "#e8b040"}}, {"type": "Feature", "geometry": {"type": "Polygon", "coordinates": [[[-81.2438, 46.7667], [-81.2438, 46.7708], [-81.25, 46.7708], [-81.25, 46.7667], [-81.2438, 46.7667]]]}, "properties": {"company_id": "klondike-silver", "jurisdiction": "Ontario", "claim_id": "306837", "claim_name": null, "holder": "(100) NEW KLONDIKE EXPLORATION LTD.", "status": "Active", "recorded_date": "2018-04-10", "anniversary_or_expiry": "2030-07-28", "area_ha": null, "tenure_type": "Single Cell Mining Claim", "source": "Ontario MLAS operational claims (OGSEarth / LIO MapServer). Unofficial viewing data, not legal title.", "as_of": "2026-09-20", "role": "focus", "color": "#e8b040"}}, {"type": "Feature", "geometry": {"type": "Polygon", "coordinates": [[[-81.2563, 46.7625], [-81.2563, 46.7667], [-81.2625, 46.7667], [-81.2625, 46.7625], [-81.2563, 46.7625]]]}, "properties": {"company_id": "klondike-silver", "jurisdiction": "Ontario", "claim_id": "310808", "claim_name": null, "holder": "(100) NEW KLONDIKE EXPLORATION LTD.", "status": "Active", "recorded_date": "2018-04-10", "anniversary_or_expiry": "2030-07-28", "area_ha": null, "tenure_type": "Single Cell Mining Claim", "source": "Ontario MLAS operational claims (OGSEarth / LIO MapServer). Unofficial viewing data, not legal title.", "as_of": "2026-09-20", "role": "focus", "color": "#e8b040"}}, {"type": "Feature", "geometry": {"type": "Polygon", "coordinates": [[[-81.2313, 46.7625], [-81.2313, 46.7667], [-81.2375, 46.7667], [-81.2375, 46.7625], [-81.2313, 46.7625]]]}, "properties": {"company_id": "klondike-silver", "jurisdiction": "Ontario", "claim_id": "341627", "claim_name": null, "holder": "(100) NEW KLONDIKE EXPLORATION LTD.", "status": "Active", "recorded_date": "2018-04-10", "anniversary_or_expiry": "2030-07-28", "area_ha": null, "tenure_type": "Single Cell Mining Claim", "source": "Ontario MLAS operational claims (OGSEarth / LIO MapServer). Unofficial viewing data, not legal title.", "as_of": "2026-09-20", "role": "focus", "color": "#e8b040"}}]}