{"type": "FeatureCollection", "features": [{"type": "Feature", "geometry": {"type": "Polygon", "coordinates": [[[-120.5087, 49.6457], [-120.5088, 49.6592], [-120.5285, 49.6592], [-120.5285, 49.6412], [-120.5079, 49.6412], [-120.5079, 49.6418], [-120.5087, 49.6418], [-120.5087, 49.6457]]]}, "properties": {"company_id": "kodiak-copper", "jurisdiction": "British Columbia", "claim_id": 248850, "claim_name": "AXE 3000", "holder": "KODIAK COPPER CORP.", "status": "Mineral", "recorded_date": "3453408000", "anniversary_or_expiry": "2034-12-31", "area_ha": 400, "tenure_type": "Mineral", "source": "BC MTA Mineral, Placer and Coal Tenure Spatial View (BCGW). Open Government Licence - British Columbia. Not legal title.", "as_of": "2026-09-20", "role": "focus", "color": "#e8b040"}}, {"type": "Feature", "geometry": {"type": "Polygon", "coordinates": [[[-120.5079, 49.6412], [-120.5285, 49.6412], [-120.5285, 49.6232], [-120.5008, 49.6232], [-120.5008, 49.63], [-120.5079, 49.63], [-120.5079, 49.6412]]]}, "properties": {"company_id": "kodiak-copper", "jurisdiction": "British Columbia", "claim_id": 248851, "claim_name": "AXE 4000", "holder": "KODIAK COPPER CORP.", "status": "Mineral", "recorded_date": "3453408000", "anniversary_or_expiry": "2034-12-31", "area_ha": 400, "tenure_type": "Mineral", "source": "BC MTA Mineral, Placer and Coal Tenure Spatial View (BCGW). Open Government Licence - British Columbia. Not legal title.", "as_of": "2026-09-20", "role": "focus", "color": "#e8b040"}}, {"type": "Feature", "geometry": {"type": "Polygon", "coordinates": [[[-120.5562, 49.6412], [-120.5285, 49.6412], [-120.5285, 49.6592], [-120.5562, 49.6592], [-120.5562, 49.6412]]]}, "properties": {"company_id": "kodiak-copper", "jurisdiction": "British Columbia", "claim_id": 248853, "claim_name": "AXE 6000", "holder": "KODIAK COPPER CORP.", "status": "Mineral", "recorded_date": "3453408000", "anniversary_or_expiry": "2034-12-31", "area_ha": 400, "tenure_type": "Mineral", "source": "BC MTA Mineral, Placer and Coal Tenure Spatial View (BCGW). Open Government Licence - British Columbia. Not legal title.", "as_of": "2026-09-20", "role": "focus", "color": "#e8b040"}}, {"type": "Feature", "geometry": {"type": "Polygon", "coordinates": [[[-120.4393, 49.7581], [-120.4626, 49.7581], [-120.4626, 49.7401], [-120.4348, 49.7401], [-120.4348, 49.7435], [-120.4393, 49.7435], [-120.4393, 49.7581]]]}, "properties": {"company_id": "kodiak-copper", "jurisdiction": "British Columbia", "claim_id": 249368, "claim_name": "DILL #2", "holder": "KODIAK COPPER CORP.", "status": "Mineral", "recorded_date": "5927040000", "anniversary_or_expiry": "2034-12-31", "area_ha": 400, "tenure_type": "Mineral", "source": "BC MTA Mineral, Placer and Coal Tenure Spatial View (BCGW). Open Government Licence - British Columbia. Not legal title.", "as_of": "2026-09-20", "role": "focus", "color": "#e8b040"}}, {"type": "Feature", "geometry": {"type": "Polygon", "coordinates": [[[-120.5018, 49.63], [-120.5018, 49.6322], [-120.5079, 49.6322], [-120.5079, 49.63], [-120.5018, 49.63]]]}, "properties": {"company_id": "kodiak-copper", "jurisdiction": "British Columbia", "claim_id": 357470, "claim_name": "AXE 100", "holder": "KODIAK COPPER CORP.", "status": "Mineral", "recorded_date": "8672832000", "anniversary_or_expiry": "2034-12-31", "area_ha": 25, "tenure_type": "Mineral", "source": "BC MTA Mineral, Placer and Coal Tenure Spatial View (BCGW). Open Government Licence - British Columbia. Not legal title.", "as_of": "2026-09-20", "role": "focus", "color": "#e8b040"}}, {"type": "Feature", "geometry": {"type": "Polygon", "coordinates": [[[-120.4949, 49.6277], [-120.4949, 49.6316], [-120.5018, 49.6322], [-120.5018, 49.63], [-120.5008, 49.63], [-120.5008, 49.6277], [-120.4949, 49.6277]]]}, "properties": {"company_id": "kodiak-copper", "jurisdiction": "British Columbia", "claim_id": 357471, "claim_name": "AXE 200", "holder": "KODIAK COPPER CORP.", "status": "Mineral", "recorded_date": "8672832000", "anniversary_or_expiry": "2034-12-31", "area_ha": 25, "tenure_type": "Mineral", "source": "BC MTA Mineral, Placer and Coal Tenure Spatial View (BCGW). Open Government Licence - British Columbia. Not legal title.", "as_of": "2026-09-20", "role": "focus", "color": "#e8b040"}}, {"type": "Feature", "geometry": {"type": "Polygon", "coordinates": [[[-120.5018, 49.6322], [-120.5018, 49.6367], [-120.5079, 49.6367], [-120.5079, 49.6322], [-120.5018, 49.6322]]]}, "properties": {"company_id": "kodiak-copper", "jurisdiction": "British Columbia", "claim_id": 357472, "claim_name": "AXE 300", "holder": "KODIAK COPPER CORP.", "status": "Mineral", "recorded_date": "8672832000", "anniversary_or_expiry": "2034-12-31", "area_ha": 25, "tenure_type": "Mineral", "source": "BC MTA Mineral, Placer and Coal Tenure Spatial View (BCGW). Open Government Licence - British Columbia. Not legal title.", "as_of": "2026-09-20", "role": "focus", "color": "#e8b040"}}, {"type": "Feature", "geometry": {"type": "Polygon", "coordinates": [[[-120.4975, 49.6322], [-120.4975, 49.6367], [-120.5018, 49.6367], [-120.5018, 49.6322], [-120.4975, 49.6322]]]}, "properties": {"company_id": "kodiak-copper", "jurisdiction": "British Columbia", "claim_id": 357473, "claim_name": "AXE 400", "holder": "KODIAK COPPER CORP.", "status": "Mineral", "recorded_date": "8672832000", "anniversary_or_expiry": "2034-12-31", "area_ha": 25, "tenure_type": "Mineral", "source": "BC MTA Mineral, Placer and Coal Tenure Spatial View (BCGW). Open Government Licence - British Columbia. Not legal title.", "as_of": "2026-09-20", "role": "focus", "color": "#e8b040"}}, {"type": "Feature", "geometry": {"type": "Polygon", "coordinates": [[[-120.5018, 49.6367], [-120.5018, 49.6412], [-120.5079, 49.6412], [-120.5079, 49.6367], [-120.5018, 49.6367]]]}, "properties": {"company_id": "kodiak-copper", "jurisdiction": "British Columbia", "claim_id": 357474, "claim_name": "AXE 500", "holder": "KODIAK COPPER CORP.", "status": "Mineral", "recorded_date": "8672832000", "anniversary_or_expiry": "2034-12-31", "area_ha": 25, "tenure_type": "Mineral", "source": "BC MTA Mineral, Placer and Coal Tenure Spatial View (BCGW). Open Government Licence - British Columbia. Not legal title.", "as_of": "2026-09-20", "role": "focus", "color": "#e8b040"}}, {"type": "Feature", "geometry": {"type": "Polygon", "coordinates": [[[-120.4975, 49.6367], [-120.4975, 49.6402], [-120.4949, 49.6402], [-120.4949, 49.6412], [-120.5018, 49.6412], [-120.5018, 49.6367], [-120.4975, 49.6367]]]}, "properties": {"company_id": "kodiak-copper", "jurisdiction": "British Columbia", "claim_id": 357475, "claim_name": "AXE 600", "holder": "KODIAK COPPER CORP.", "status": "Mineral", "recorded_date": "8672832000", "anniversary_or_expiry": "2034-12-31", "area_ha": 25, "tenure_type": "Mineral", "source": "BC MTA Mineral, Placer and Coal Tenure Spatial View (BCGW). Open Government Licence - British Columbia. Not legal title.", "as_of": "2026-09-20", "role": "focus", "color": "#e8b040"}}, {"type": "Feature", "geometry": {"type": "Polygon", "coordinates": [[[-120.5018, 49.6457], [-120.5087, 49.6457], [-120.5087, 49.6418], [-120.5079, 49.6418], [-120.5079, 49.6412], [-120.5018, 49.6412], [-120.5018, 49.6457]]]}, "properties": {"company_id": "kodiak-copper", "jurisdiction": "British Columbia", "claim_id": 357476, "claim_name": "AXE 700", "holder": "KODIAK COPPER CORP.", "status": "Mineral", "recorded_date": "8672832000", "anniversary_or_expiry": "2034-12-31", "area_ha": 25, "tenure_type": "Mineral", "source": "BC MTA Mineral, Placer and Coal Tenure Spatial View (BCGW). Open Government Licence - British Columbia. Not legal title.", "as_of": "2026-09-20", "role": "focus", "color": "#e8b040"}}, {"type": "Feature", "geometry": {"type": "Polygon", "coordinates": [[[-120.4949, 49.6412], [-120.4949, 49.6457], [-120.5018, 49.6457], [-120.5018, 49.6412], [-120.4949, 49.6412]]]}, "properties": {"company_id": "kodiak-copper", "jurisdiction": "British Columbia", "claim_id": 357477, "claim_name": "AXE 800", "holder": "KODIAK COPPER CORP.", "status": "Mineral", "recorded_date": "8672832000", "anniversary_or_expiry": "2034-12-31", "area_ha": 25, "tenure_type": "Mineral", "source": "BC MTA Mineral, Placer and Coal Tenure Spatial View (BCGW). Open Government Licence - British Columbia. Not legal title.", "as_of": "2026-09-20", "role": "focus", "color": "#e8b040"}}, {"type": "Feature", "geometry": {"type": "Polygon", "coordinates": [[[-120.5087, 49.6457], [-120.5018, 49.6457], [-120.5018, 49.6502], [-120.5087, 49.6502], [-120.5087, 49.6457]]]}, "properties": {"company_id": "kodiak-copper", "jurisdiction": "British Columbia", "claim_id": 357478, "claim_name": "AXE 900", "holder": "KODIAK COPPER CORP.", "status": "Mineral", "recorded_date": "8672832000", "anniversary_or_expiry": "2034-12-31", "area_ha": 25, "tenure_type": "Mineral", "source": "BC MTA Mineral, Placer and Coal Tenure Spatial View (BCGW). Open Government Licence - British Columbia. Not legal title.", "as_of": "2026-09-20", "role": "focus", "color": "#e8b040"}}, {"type": "Feature", "geometry": {"type": "Polygon", "coordinates": [[[-120.4949, 49.6457], [-120.4949, 49.6502], [-120.5018, 49.6502], [-120.5018, 49.6457], [-120.4949, 49.6457]]]}, "properties": {"company_id": "kodiak-copper", "jurisdiction": "British Columbia", "claim_id": 357479, "claim_name": "AXE 1000", "holder": "KODIAK COPPER CORP.", "status": "Mineral", "recorded_date": "8672832000", "anniversary_or_expiry": "2034-12-31", "area_ha": 25, "tenure_type": "Mineral", "source": "BC MTA Mineral, Placer and Coal Tenure Spatial View (BCGW). Open Government Licence - British Columbia. Not legal title.", "as_of": "2026-09-20", "role": "focus", "color": "#e8b040"}}, {"type": "Feature", "geometry": {"type": "Polygon", "coordinates": [[[-120.5087, 49.6502], [-120.5018, 49.6502], [-120.5018, 49.6547], [-120.5087, 49.6547], [-120.5087, 49.6502]]]}, "properties": {"company_id": "kodiak-copper", "jurisdiction": "British Columbia", "claim_id": 357480, "claim_name": "AXE 1100", "holder": "KODIAK COPPER CORP.", "status": "Mineral", "recorded_date": "8672832000", "anniversary_or_expiry": "2034-12-31", "area_ha": 25, "tenure_type": "Mineral", "source": "BC MTA Mineral, Placer and Coal Tenure Spatial View (BCGW). Open Government Licence - British Columbia. Not legal title.", "as_of": "2026-09-20", "role": "focus", "color": "#e8b040"}}, {"type": "Feature", "geometry": {"type": "Polygon", "coordinates": [[[-120.4949, 49.6502], [-120.4949, 49.6547], [-120.5018, 49.6547], [-120.5018, 49.6502], [-120.4949, 49.6502]]]}, "properties": {"company_id": "kodiak-copper", "jurisdiction": "British Columbia", "claim_id": 357481, "claim_name": "AXE 1200", "holder": "KODIAK COPPER CORP.", "status": "Mineral", "recorded_date": "8672832000", "anniversary_or_expiry": "2034-12-31", "area_ha": 25, "tenure_type": "Mineral", "source": "BC MTA Mineral, Placer and Coal Tenure Spatial View (BCGW). Open Government Licence - British Columbia. Not legal title.", "as_of": "2026-09-20", "role": "focus", "color": "#e8b040"}}, {"type": "Feature", "geometry": {"type": "Polygon", "coordinates": [[[-120.5087, 49.6547], [-120.5018, 49.6547], [-120.5018, 49.6592], [-120.5088, 49.6592], [-120.5087, 49.6547]]]}, "properties": {"company_id": "kodiak-copper", "jurisdiction": "British Columbia", "claim_id": 357482, "claim_name": "AXE 1300", "holder": "KODIAK COPPER CORP.", "status": "Mineral", "recorded_date": "8672832000", "anniversary_or_expiry": "2034-12-31", "area_ha": 25, "tenure_type": "Mineral", "source": "BC MTA Mineral, Placer and Coal Tenure Spatial View (BCGW). Open Government Licence - British Columbia. Not legal title.", "as_of": "2026-09-20", "role": "focus", "color": "#e8b040"}}, {"type": "Feature", "geometry": {"type": "Polygon", "coordinates": [[[-120.4949, 49.6547], [-120.4949, 49.6592], [-120.5018, 49.6592], [-120.5018, 49.6547], [-120.4949, 49.6547]]]}, "properties": {"company_id": "kodiak-copper", "jurisdiction": "British Columbia", "claim_id": 357483, "claim_name": "AXE 1400", "holder": "KODIAK COPPER CORP.", "status": "Mineral", "recorded_date": "8672832000", "anniversary_or_expiry": "2034-12-31", "area_ha": 25, "tenure_type": "Mineral", "source": "BC MTA Mineral, Placer and Coal Tenure Spatial View (BCGW). Open Government Licence - British Columbia. Not legal title.", "as_of": "2026-09-20", "role": "focus", "color": "#e8b040"}}, {"type": "Feature", "geometry": {"type": "Polygon", "coordinates": [[[-120.4949, 49.6232], [-120.4949, 49.6277], [-120.5008, 49.6277], [-120.5008, 49.6232], [-120.4949, 49.6232]]]}, "properties": {"company_id": "kodiak-copper", "jurisdiction": "British Columbia", "claim_id": 393962, "claim_name": "AXE 1500", "holder": "KODIAK COPPER CORP.", "status": "Mineral", "recorded_date": "2002-06-12", "anniversary_or_expiry": "2034-12-31", "area_ha": 25, "tenure_type": "Mineral", "source": "BC MTA Mineral, Placer and Coal Tenure Spatial View (BCGW). Open Government Licence - British Columbia. Not legal title.", "as_of": "2026-09-20", "role": "focus", "color": "#e8b040"}}, {"type": "Feature", "geometry": {"type": "Polygon", "coordinates": [[[-120.5285, 49.6232], [-120.5285, 49.6412], [-120.5562, 49.6412], [-120.5562, 49.6232], [-120.5285, 49.6232]]]}, "properties": {"company_id": "kodiak-copper", "jurisdiction": "British Columbia", "claim_id": 408269, "claim_name": "AXE 5000", "holder": "KODIAK COPPER CORP.", "status": "Mineral", "recorded_date": "2004-02-18", "anniversary_or_expiry": "2034-12-31", "area_ha": 400, "tenure_type": "Mineral", "source": "BC MTA Mineral, Placer and Coal Tenure Spatial View (BCGW). Open Government Licence - British Columbia. Not legal title.", "as_of": "2026-09-20", "role": "focus", "color": "#e8b040"}}, {"type": "Feature", "geometry": {"type": "Polygon", "coordinates": [[[-120.5394, 49.6798], [-120.5394, 49.6813], [-120.5562, 49.6813], [-120.5562, 49.6592], [-120.5285, 49.6592], [-120.5285, 49.6663], [-120.5394, 49.6663], [-120.5394, 49.6798]]]}, "properties": {"company_id": "kodiak-copper", "jurisdiction": "British Columbia", "claim_id": 408270, "claim_name": "AXE 7000", "holder": "KODIAK COPPER CORP.", "status": "Mineral", "recorded_date": "2004-02-19", "anniversary_or_expiry": "2034-12-31", "area_ha": 500, "tenure_type": "Mineral", "source": "BC MTA Mineral, Placer and Coal Tenure Spatial View (BCGW). Open Government Licence - British Columbia. Not legal title.", "as_of": "2026-09-20", "role": "focus", "color": "#e8b040"}}, {"type": "Feature", "geometry": {"type": "Polygon", "coordinates": [[[-120.5008, 49.6592], [-120.5008, 49.6813], [-120.5256, 49.6813], [-120.5256, 49.6663], [-120.5285, 49.6663], [-120.5285, 49.6592], [-120.5008, 49.6592]]]}, "properties": {"company_id": "kodiak-copper", "jurisdiction": "British Columbia", "claim_id": 408271, "claim_name": "AXE 8000", "holder": "KODIAK COPPER CORP.", "status": "Mineral", "recorded_date": "2004-02-19", "anniversary_or_expiry": "2034-12-31", "area_ha": 500, "tenure_type": "Mineral", "source": "BC MTA Mineral, Placer and Coal Tenure Spatial View (BCGW). Open Government Licence - British Columbia. Not legal title.", "as_of": "2026-09-20", "role": "focus", "color": "#e8b040"}}, {"type": "Feature", "geometry": {"type": "Polygon", "coordinates": [[[-120.5012, 49.754], [-120.5012, 49.7415], [-120.4575, 49.7415], [-120.4575, 49.7707], [-120.4637, 49.7707], [-120.4637, 49.7749], [-120.47, 49.7749], [-120.4825, 49.7749], [-120.4825, 49.7707], [-120.495, 49.7707], [-120.495, 49.7582], [-120.5012, 49.7582], [-120.5012, 49.754]]]}, "properties": {"company_id": "kodiak-copper", "jurisdiction": "British Columbia", "claim_id": 512854, "claim_name": null, "holder": "KODIAK COPPER CORP.", "status": "Mineral", "recorded_date": "2005-05-17", "anniversary_or_expiry": "2034-12-31", "area_ha": 1022.7560000000001, "tenure_type": "Mineral", "source": "BC MTA Mineral, Placer and Coal Tenure Spatial View (BCGW). Open Government Licence - British Columbia. Not legal title.", "as_of": "2026-09-20", "role": "focus", "color": "#e8b040"}}, {"type": "Feature", "geometry": {"type": "Polygon", "coordinates": [[[-120.42, 49.754], [-120.42, 49.7499], [-120.4075, 49.7499], [-120.4075, 49.7582], [-120.42, 49.7582], [-120.42, 49.754]]]}, "properties": {"company_id": "kodiak-copper", "jurisdiction": "British Columbia", "claim_id": 505708, "claim_name": null, "holder": "KODIAK COPPER CORP.", "status": "Mineral", "recorded_date": "2005-02-03", "anniversary_or_expiry": "2034-12-31", "area_ha": 83.494, "tenure_type": "Mineral", "source": "BC MTA Mineral, Placer and Coal Tenure Spatial View (BCGW). Open Government Licence - British Columbia. Not legal title.", "as_of": "2026-09-20", "role": "focus", "color": "#e8b040"}}, {"type": "Feature", "geometry": {"type": "Polygon", "coordinates": [[[-120.5012, 49.6374], [-120.5012, 49.629], [-120.495, 49.629], [-120.495, 49.6249], [-120.5012, 49.6249], [-120.5012, 49.6207], [-120.4825, 49.6207], [-120.4825, 49.6624], [-120.5012, 49.6624], [-120.5012, 49.6582], [-120.495, 49.6582], [-120.495, 49.6415], [-120.5012, 49.6415], [-120.5012, 49.6374]]]}, "properties": {"company_id": "kodiak-copper", "jurisdiction": "British Columbia", "claim_id": 531366, "claim_name": "SWAN 2000", "holder": "KODIAK COPPER CORP.", "status": "Mineral", "recorded_date": "2006-04-06", "anniversary_or_expiry": "2034-12-31", "area_ha": 523.03, "tenure_type": "Mineral", "source": "BC MTA Mineral, Placer and Coal Tenure Spatial View (BCGW). Open Government Licence - British Columbia. Not legal title.", "as_of": "2026-09-20", "role": "focus", "color": "#e8b040"}}, {"type": "Feature", "geometry": {"type": "Polygon", "coordinates": [[[-120.5137, 49.6207], [-120.5137, 49.604], [-120.4887, 49.604], [-120.4887, 49.6082], [-120.4762, 49.6082], [-120.4762, 49.6249], [-120.4825, 49.6249], [-120.4825, 49.6207], [-120.5012, 49.6207], [-120.5012, 49.6249], [-120.5137, 49.6249], [-120.5137, 49.6207]]]}, "properties": {"company_id": "kodiak-copper", "jurisdiction": "British Columbia", "claim_id": 531369, "claim_name": "SWAN 3000", "holder": "KODIAK COPPER CORP.", "status": "Mineral", "recorded_date": "2006-04-06", "anniversary_or_expiry": "2034-12-31", "area_ha": 523.3190000000001, "tenure_type": "Mineral", "source": "BC MTA Mineral, Placer and Coal Tenure Spatial View (BCGW). Open Government Licence - British Columbia. Not legal title.", "as_of": "2026-09-20", "role": "focus", "color": "#e8b040"}}, {"type": "Feature", "geometry": {"type": "Polygon", "coordinates": [[[-120.52, 49.6832], [-120.5262, 49.6832], [-120.5262, 49.679], [-120.5012, 49.679], [-120.5012, 49.6624], [-120.4825, 49.6624], [-120.4825, 49.6665], [-120.4637, 49.6665], [-120.4637, 49.6707], [-120.4762, 49.6707], [-120.4762, 49.6832], [-120.52, 49.6832]]]}, "properties": {"company_id": "kodiak-copper", "jurisdiction": "British Columbia", "claim_id": 531371, "claim_name": "SWAN 4000", "holder": "KODIAK COPPER CORP.", "status": "Mineral", "recorded_date": "2006-04-06", "anniversary_or_expiry": "2034-12-31", "area_ha": 522.682, "tenure_type": "Mineral", "source": "BC MTA Mineral, Placer and Coal Tenure Spatial View (BCGW). Open Government Licence - British Columbia. Not legal title.", "as_of": "2026-09-20", "role": "focus", "color": "#e8b040"}}, {"type": "Feature", "geometry": {"type": "Polygon", "coordinates": [[[-120.4762, 49.679], [-120.4762, 49.6707], [-120.4637, 49.6707], [-120.4637, 49.6665], [-120.445, 49.6665], [-120.445, 49.6707], [-120.4387, 49.6707], [-120.4387, 49.6832], [-120.4762, 49.6832], [-120.4762, 49.679]]]}, "properties": {"company_id": "kodiak-copper", "jurisdiction": "British Columbia", "claim_id": 531372, "claim_name": "SWAN 5000", "holder": "KODIAK COPPER CORP.", "status": "Mineral", "recorded_date": "2006-04-06", "anniversary_or_expiry": "2034-12-31", "area_ha": 439.038, "tenure_type": "Mineral", "source": "BC MTA Mineral, Placer and Coal Tenure Spatial View (BCGW). Open Government Licence - British Columbia. Not legal title.", "as_of": "2026-09-20", "role": "focus", "color": "#e8b040"}}]}