{"type": "FeatureCollection", "features": [{"type": "Feature", "geometry": {"type": "Polygon", "coordinates": [[[-83.1563, 47.825], [-83.1563, 47.8292], [-83.1625, 47.8292], [-83.1625, 47.825], [-83.1563, 47.825]]]}, "properties": {"company_id": "labrador-gold", "jurisdiction": "Ontario", "claim_id": "104511", "claim_name": null, "holder": "(33) RANDALL W SALO, (34) MICHAEL A TREMBLAY, (33) Labrador Gold Corp.", "status": "Active", "recorded_date": "2018-04-10", "anniversary_or_expiry": "2027-02-14", "area_ha": null, "tenure_type": "Single Cell Mining Claim", "source": "Ontario MLAS operational claims (OGSEarth / LIO MapServer). Unofficial viewing data, not legal title.", "as_of": "2026-09-20", "role": "focus", "color": "#e8b040"}}, {"type": "Feature", "geometry": {"type": "Polygon", "coordinates": [[[-83.1688, 47.825], [-83.1688, 47.8292], [-83.175, 47.8292], [-83.175, 47.825], [-83.1688, 47.825]]]}, "properties": {"company_id": "labrador-gold", "jurisdiction": "Ontario", "claim_id": "110963", "claim_name": null, "holder": "(33) RANDALL W SALO, (34) MICHAEL A TREMBLAY, (33) Labrador Gold Corp.", "status": "Active", "recorded_date": "2018-04-10", "anniversary_or_expiry": "2027-02-14", "area_ha": null, "tenure_type": "Single Cell Mining Claim", "source": "Ontario MLAS operational claims (OGSEarth / LIO MapServer). Unofficial viewing data, not legal title.", "as_of": "2026-09-20", "role": "focus", "color": "#e8b040"}}, {"type": "Feature", "geometry": {"type": "Polygon", "coordinates": [[[-83.1438, 47.8292], [-83.1438, 47.8333], [-83.15, 47.8333], [-83.15, 47.8292], [-83.1438, 47.8292]]]}, "properties": {"company_id": "labrador-gold", "jurisdiction": "Ontario", "claim_id": "114477", "claim_name": null, "holder": "(33.33) RANDALL W SALO, (33.33) MICHAEL A TREMBLAY, (33.34) Labrador Gold Corp.", "status": "Active", "recorded_date": "2018-04-10", "anniversary_or_expiry": "2027-11-30", "area_ha": null, "tenure_type": "Boundary Cell Mining Claim", "source": "Ontario MLAS operational claims (OGSEarth / LIO MapServer). Unofficial viewing data, not legal title.", "as_of": "2026-09-20", "role": "focus", "color": "#e8b040"}}, {"type": "Feature", "geometry": {"type": "Polygon", "coordinates": [[[-83.15, 47.8333], [-83.15, 47.8375], [-83.1563, 47.8375], [-83.1563, 47.8333], [-83.15, 47.8333]]]}, "properties": {"company_id": "labrador-gold", "jurisdiction": "Ontario", "claim_id": "114632", "claim_name": null, "holder": "(33.33) RANDALL W SALO, (33.33) MICHAEL A TREMBLAY, (33.34) Labrador Gold Corp.", "status": "Active", "recorded_date": "2018-04-10", "anniversary_or_expiry": "2027-11-30", "area_ha": null, "tenure_type": "Single Cell Mining Claim", "source": "Ontario MLAS operational claims (OGSEarth / LIO MapServer). Unofficial viewing data, not legal title.", "as_of": "2026-09-20", "role": "focus", "color": "#e8b040"}}, {"type": "Feature", "geometry": {"type": "Polygon", "coordinates": [[[-83.15, 47.8083], [-83.15, 47.8125], [-83.1563, 47.8125], [-83.1563, 47.8083], [-83.15, 47.8083]]]}, "properties": {"company_id": "labrador-gold", "jurisdiction": "Ontario", "claim_id": "119958", "claim_name": null, "holder": "(100) Labrador Gold Corp.", "status": "Active", "recorded_date": "2018-04-10", "anniversary_or_expiry": "2027-03-24", "area_ha": null, "tenure_type": "Single Cell Mining Claim", "source": "Ontario MLAS operational claims (OGSEarth / LIO MapServer). Unofficial viewing data, not legal title.", "as_of": "2026-09-20", "role": "focus", "color": "#e8b040"}}, {"type": "Feature", "geometry": {"type": "Polygon", "coordinates": [[[-83.15, 47.8292], [-83.15, 47.8333], [-83.1563, 47.8333], [-83.1563, 47.8292], [-83.15, 47.8292]]]}, "properties": {"company_id": "labrador-gold", "jurisdiction": "Ontario", "claim_id": "134108", "claim_name": null, "holder": "(100) Labrador Gold Corp.", "status": "Active", "recorded_date": "2018-04-10", "anniversary_or_expiry": "2028-03-24", "area_ha": null, "tenure_type": "Boundary Cell Mining Claim", "source": "Ontario MLAS operational claims (OGSEarth / LIO MapServer). Unofficial viewing data, not legal title.", "as_of": "2026-09-20", "role": "focus", "color": "#e8b040"}}, {"type": "Feature", "geometry": {"type": "Polygon", "coordinates": [[[-83.15, 47.8458], [-83.15, 47.85], [-83.1563, 47.85], [-83.1563, 47.8458], [-83.15, 47.8458]]]}, "properties": {"company_id": "labrador-gold", "jurisdiction": "Ontario", "claim_id": "133621", "claim_name": null, "holder": "(33.33) RANDALL W SALO, (33.33) MICHAEL A TREMBLAY, (33.34) Labrador Gold Corp.", "status": "Active", "recorded_date": "2018-04-10", "anniversary_or_expiry": "2027-11-30", "area_ha": null, "tenure_type": "Single Cell Mining Claim", "source": "Ontario MLAS operational claims (OGSEarth / LIO MapServer). Unofficial viewing data, not legal title.", "as_of": "2026-09-20", "role": "focus", "color": "#e8b040"}}, {"type": "Feature", "geometry": {"type": "Polygon", "coordinates": [[[-83.175, 47.825], [-83.175, 47.8292], [-83.1813, 47.8292], [-83.1813, 47.825], [-83.175, 47.825]]]}, "properties": {"company_id": "labrador-gold", "jurisdiction": "Ontario", "claim_id": "140440", "claim_name": null, "holder": "(33) RANDALL W SALO, (34) MICHAEL A TREMBLAY, (33) Labrador Gold Corp.", "status": "Active", "recorded_date": "2018-04-10", "anniversary_or_expiry": "2027-02-14", "area_ha": null, "tenure_type": "Single Cell Mining Claim", "source": "Ontario MLAS operational claims (OGSEarth / LIO MapServer). Unofficial viewing data, not legal title.", "as_of": "2026-09-20", "role": "focus", "color": "#e8b040"}}, {"type": "Feature", "geometry": {"type": "Polygon", "coordinates": [[[-83.15, 47.8375], [-83.15, 47.8417], [-83.1563, 47.8417], [-83.1563, 47.8375], [-83.15, 47.8375]]]}, "properties": {"company_id": "labrador-gold", "jurisdiction": "Ontario", "claim_id": "144667", "claim_name": null, "holder": "(33.33) RANDALL W SALO, (33.33) MICHAEL A TREMBLAY, (33.34) Labrador Gold Corp.", "status": "Active", "recorded_date": "2018-04-10", "anniversary_or_expiry": "2027-11-30", "area_ha": null, "tenure_type": "Single Cell Mining Claim", "source": "Ontario MLAS operational claims (OGSEarth / LIO MapServer). Unofficial viewing data, not legal title.", "as_of": "2026-09-20", "role": "focus", "color": "#e8b040"}}, {"type": "Feature", "geometry": {"type": "Polygon", "coordinates": [[[-83.15, 47.8292], [-83.15, 47.8333], [-83.1563, 47.8333], [-83.1563, 47.8292], [-83.15, 47.8292]]]}, "properties": {"company_id": "labrador-gold", "jurisdiction": "Ontario", "claim_id": "144668", "claim_name": null, "holder": "(33.33) RANDALL W SALO, (33.33) MICHAEL A TREMBLAY, (33.34) Labrador Gold Corp.", "status": "Active", "recorded_date": "2018-04-10", "anniversary_or_expiry": "2027-11-30", "area_ha": null, "tenure_type": "Boundary Cell Mining Claim", "source": "Ontario MLAS operational claims (OGSEarth / LIO MapServer). Unofficial viewing data, not legal title.", "as_of": "2026-09-20", "role": "focus", "color": "#e8b040"}}, {"type": "Feature", "geometry": {"type": "Polygon", "coordinates": [[[-83.1625, 47.8458], [-83.1625, 47.85], [-83.1688, 47.85], [-83.1688, 47.8458], [-83.1625, 47.8458]]]}, "properties": {"company_id": "labrador-gold", "jurisdiction": "Ontario", "claim_id": "150295", "claim_name": null, "holder": "(33.33) RANDALL W SALO, (33.33) MICHAEL A TREMBLAY, (33.34) Labrador Gold Corp.", "status": "Active", "recorded_date": "2018-04-10", "anniversary_or_expiry": "2027-11-30", "area_ha": null, "tenure_type": "Boundary Cell Mining Claim", "source": "Ontario MLAS operational claims (OGSEarth / LIO MapServer). Unofficial viewing data, not legal title.", "as_of": "2026-09-20", "role": "focus", "color": "#e8b040"}}, {"type": "Feature", "geometry": {"type": "Polygon", "coordinates": [[[-83.1625, 47.8167], [-83.1625, 47.8208], [-83.1688, 47.8208], [-83.1688, 47.8167], [-83.1625, 47.8167]]]}, "properties": {"company_id": "labrador-gold", "jurisdiction": "Ontario", "claim_id": "168452", "claim_name": null, "holder": "(100) Labrador Gold Corp.", "status": "Active", "recorded_date": "2018-04-10", "anniversary_or_expiry": "2028-03-24", "area_ha": null, "tenure_type": "Boundary Cell Mining Claim", "source": "Ontario MLAS operational claims (OGSEarth / LIO MapServer). Unofficial viewing data, not legal title.", "as_of": "2026-09-20", "role": "focus", "color": "#e8b040"}}, {"type": "Feature", "geometry": {"type": "Polygon", "coordinates": [[[-83.175, 47.8167], [-83.175, 47.8208], [-83.1813, 47.8208], [-83.1813, 47.8167], [-83.175, 47.8167]]]}, "properties": {"company_id": "labrador-gold", "jurisdiction": "Ontario", "claim_id": "174988", "claim_name": null, "holder": "(33) RANDALL W SALO, (34) MICHAEL A TREMBLAY, (33) Labrador Gold Corp.", "status": "Active", "recorded_date": "2018-04-10", "anniversary_or_expiry": "2027-02-14", "area_ha": null, "tenure_type": "Single Cell Mining Claim", "source": "Ontario MLAS operational claims (OGSEarth / LIO MapServer). Unofficial viewing data, not legal title.", "as_of": "2026-09-20", "role": "focus", "color": "#e8b040"}}, {"type": "Feature", "geometry": {"type": "Polygon", "coordinates": [[[-83.15, 47.8292], [-83.15, 47.8333], [-83.1563, 47.8333], [-83.1563, 47.8292], [-83.15, 47.8292]]]}, "properties": {"company_id": "labrador-gold", "jurisdiction": "Ontario", "claim_id": "176586", "claim_name": null, "holder": "(33) RANDALL W SALO, (34) MICHAEL A TREMBLAY, (33) Labrador Gold Corp.", "status": "Active", "recorded_date": "2018-04-10", "anniversary_or_expiry": "2027-02-14", "area_ha": null, "tenure_type": "Boundary Cell Mining Claim", "source": "Ontario MLAS operational claims (OGSEarth / LIO MapServer). Unofficial viewing data, not legal title.", "as_of": "2026-09-20", "role": "focus", "color": "#e8b040"}}, {"type": "Feature", "geometry": {"type": "Polygon", "coordinates": [[[-83.15, 47.8208], [-83.15, 47.825], [-83.1563, 47.825], [-83.1563, 47.8208], [-83.15, 47.8208]]]}, "properties": {"company_id": "labrador-gold", "jurisdiction": "Ontario", "claim_id": "177992", "claim_name": null, "holder": "(100) Labrador Gold Corp.", "status": "Active", "recorded_date": "2018-04-10", "anniversary_or_expiry": "2028-03-24", "area_ha": null, "tenure_type": "Boundary Cell Mining Claim", "source": "Ontario MLAS operational claims (OGSEarth / LIO MapServer). Unofficial viewing data, not legal title.", "as_of": "2026-09-20", "role": "focus", "color": "#e8b040"}}, {"type": "Feature", "geometry": {"type": "Polygon", "coordinates": [[[-83.1625, 47.85], [-83.1625, 47.8542], [-83.1688, 47.8542], [-83.1688, 47.85], [-83.1625, 47.85]]]}, "properties": {"company_id": "labrador-gold", "jurisdiction": "Ontario", "claim_id": "178833", "claim_name": null, "holder": "(33.33) RANDALL W SALO, (33.33) MICHAEL A TREMBLAY, (33.34) Labrador Gold Corp.", "status": "Active", "recorded_date": "2018-04-10", "anniversary_or_expiry": "2027-11-30", "area_ha": null, "tenure_type": "Boundary Cell Mining Claim", "source": "Ontario MLAS operational claims (OGSEarth / LIO MapServer). Unofficial viewing data, not legal title.", "as_of": "2026-09-20", "role": "focus", "color": "#e8b040"}}, {"type": "Feature", "geometry": {"type": "Polygon", "coordinates": [[[-83.175, 47.8083], [-83.175, 47.8125], [-83.1813, 47.8125], [-83.1813, 47.8083], [-83.175, 47.8083]]]}, "properties": {"company_id": "labrador-gold", "jurisdiction": "Ontario", "claim_id": "181888", "claim_name": null, "holder": "(100) Labrador Gold Corp.", "status": "Active", "recorded_date": "2018-04-10", "anniversary_or_expiry": "2027-03-24", "area_ha": null, "tenure_type": "Single Cell Mining Claim", "source": "Ontario MLAS operational claims (OGSEarth / LIO MapServer). Unofficial viewing data, not legal title.", "as_of": "2026-09-20", "role": "focus", "color": "#e8b040"}}, {"type": "Feature", "geometry": {"type": "Polygon", "coordinates": [[[-83.1625, 47.8042], [-83.1625, 47.8083], [-83.1688, 47.8083], [-83.1688, 47.8042], [-83.1625, 47.8042]]]}, "properties": {"company_id": "labrador-gold", "jurisdiction": "Ontario", "claim_id": "183991", "claim_name": null, "holder": "(100) Labrador Gold Corp.", "status": "Active", "recorded_date": "2018-04-10", "anniversary_or_expiry": "2027-03-24", "area_ha": null, "tenure_type": "Boundary Cell Mining Claim", "source": "Ontario MLAS operational claims (OGSEarth / LIO MapServer). Unofficial viewing data, not legal title.", "as_of": "2026-09-20", "role": "focus", "color": "#e8b040"}}, {"type": "Feature", "geometry": {"type": "Polygon", "coordinates": [[[-83.15, 47.8417], [-83.15, 47.8458], [-83.1563, 47.8458], [-83.1563, 47.8417], [-83.15, 47.8417]]]}, "properties": {"company_id": "labrador-gold", "jurisdiction": "Ontario", "claim_id": "186254", "claim_name": null, "holder": "(33.33) RANDALL W SALO, (33.33) MICHAEL A TREMBLAY, (33.34) Labrador Gold Corp.", "status": "Active", "recorded_date": "2018-04-10", "anniversary_or_expiry": "2027-11-30", "area_ha": null, "tenure_type": "Single Cell Mining Claim", "source": "Ontario MLAS operational claims (OGSEarth / LIO MapServer). Unofficial viewing data, not legal title.", "as_of": "2026-09-20", "role": "focus", "color": "#e8b040"}}, {"type": "Feature", "geometry": {"type": "Polygon", "coordinates": [[[-83.175, 47.8125], [-83.175, 47.8167], [-83.1813, 47.8167], [-83.1813, 47.8125], [-83.175, 47.8125]]]}, "properties": {"company_id": "labrador-gold", "jurisdiction": "Ontario", "claim_id": "187943", "claim_name": null, "holder": "(100) Labrador Gold Corp.", "status": "Active", "recorded_date": "2018-04-10", "anniversary_or_expiry": "2027-03-24", "area_ha": null, "tenure_type": "Single Cell Mining Claim", "source": "Ontario MLAS operational claims (OGSEarth / LIO MapServer). Unofficial viewing data, not legal title.", "as_of": "2026-09-20", "role": "focus", "color": "#e8b040"}}, {"type": "Feature", "geometry": {"type": "Polygon", "coordinates": [[[-83.15, 47.825], [-83.15, 47.8292], [-83.1563, 47.8292], [-83.1563, 47.825], [-83.15, 47.825]]]}, "properties": {"company_id": "labrador-gold", "jurisdiction": "Ontario", "claim_id": "192593", "claim_name": null, "holder": "(33) RANDALL W SALO, (34) MICHAEL A TREMBLAY, (33) Labrador Gold Corp.", "status": "Active", "recorded_date": "2018-04-10", "anniversary_or_expiry": "2027-02-14", "area_ha": null, "tenure_type": "Single Cell Mining Claim", "source": "Ontario MLAS operational claims (OGSEarth / LIO MapServer). Unofficial viewing data, not legal title.", "as_of": "2026-09-20", "role": "focus", "color": "#e8b040"}}, {"type": "Feature", "geometry": {"type": "Polygon", "coordinates": [[[-83.1563, 47.8042], [-83.1563, 47.8083], [-83.1625, 47.8083], [-83.1625, 47.8042], [-83.1563, 47.8042]]]}, "properties": {"company_id": "labrador-gold", "jurisdiction": "Ontario", "claim_id": "195212", "claim_name": null, "holder": "(100) Labrador Gold Corp.", "status": "Active", "recorded_date": "2018-04-10", "anniversary_or_expiry": "2027-03-29", "area_ha": null, "tenure_type": "Boundary Cell Mining Claim", "source": "Ontario MLAS operational claims (OGSEarth / LIO MapServer). Unofficial viewing data, not legal title.", "as_of": "2026-09-20", "role": "focus", "color": "#e8b040"}}, {"type": "Feature", "geometry": {"type": "Polygon", "coordinates": [[[-83.1688, 47.8292], [-83.1688, 47.8333], [-83.175, 47.8333], [-83.175, 47.8292], [-83.1688, 47.8292]]]}, "properties": {"company_id": "labrador-gold", "jurisdiction": "Ontario", "claim_id": "212517", "claim_name": null, "holder": "(33) RANDALL W SALO, (34) MICHAEL A TREMBLAY, (33) Labrador Gold Corp.", "status": "Active", "recorded_date": "2018-04-10", "anniversary_or_expiry": "2027-02-14", "area_ha": null, "tenure_type": "Boundary Cell Mining Claim", "source": "Ontario MLAS operational claims (OGSEarth / LIO MapServer). Unofficial viewing data, not legal title.", "as_of": "2026-09-20", "role": "focus", "color": "#e8b040"}}, {"type": "Feature", "geometry": {"type": "Polygon", "coordinates": [[[-83.1625, 47.8375], [-83.1625, 47.8417], [-83.1688, 47.8417], [-83.1688, 47.8375], [-83.1625, 47.8375]]]}, "properties": {"company_id": "labrador-gold", "jurisdiction": "Ontario", "claim_id": "211386", "claim_name": null, "holder": "(33.33) RANDALL W SALO, (33.33) MICHAEL A TREMBLAY, (33.34) Labrador Gold Corp.", "status": "Active", "recorded_date": "2018-04-10", "anniversary_or_expiry": "2027-11-30", "area_ha": null, "tenure_type": "Boundary Cell Mining Claim", "source": "Ontario MLAS operational claims (OGSEarth / LIO MapServer). Unofficial viewing data, not legal title.", "as_of": "2026-09-20", "role": "focus", "color": "#e8b040"}}, {"type": "Feature", "geometry": {"type": "Polygon", "coordinates": [[[-83.15, 47.8208], [-83.15, 47.825], [-83.1563, 47.825], [-83.1563, 47.8208], [-83.15, 47.8208]]]}, "properties": {"company_id": "labrador-gold", "jurisdiction": "Ontario", "claim_id": "222503", "claim_name": null, "holder": "(33) RANDALL W SALO, (34) MICHAEL A TREMBLAY, (33) Labrador Gold Corp.", "status": "Active", "recorded_date": "2018-04-10", "anniversary_or_expiry": "2027-02-14", "area_ha": null, "tenure_type": "Boundary Cell Mining Claim", "source": "Ontario MLAS operational claims (OGSEarth / LIO MapServer). Unofficial viewing data, not legal title.", "as_of": "2026-09-20", "role": "focus", "color": "#e8b040"}}, {"type": "Feature", "geometry": {"type": "Polygon", "coordinates": [[[-83.15, 47.8042], [-83.15, 47.8083], [-83.1563, 47.8083], [-83.1563, 47.8042], [-83.15, 47.8042]]]}, "properties": {"company_id": "labrador-gold", "jurisdiction": "Ontario", "claim_id": "223822", "claim_name": null, "holder": "(100) Labrador Gold Corp.", "status": "Active", "recorded_date": "2018-04-10", "anniversary_or_expiry": "2027-03-24", "area_ha": null, "tenure_type": "Boundary Cell Mining Claim", "source": "Ontario MLAS operational claims (OGSEarth / LIO MapServer). Unofficial viewing data, not legal title.", "as_of": "2026-09-20", "role": "focus", "color": "#e8b040"}}, {"type": "Feature", "geometry": {"type": "Polygon", "coordinates": [[[-83.15, 47.8125], [-83.15, 47.8167], [-83.1563, 47.8167], [-83.1563, 47.8125], [-83.15, 47.8125]]]}, "properties": {"company_id": "labrador-gold", "jurisdiction": "Ontario", "claim_id": "224547", "claim_name": null, "holder": "(100) Labrador Gold Corp.", "status": "Active", "recorded_date": "2018-04-10", "anniversary_or_expiry": "2027-03-24", "area_ha": null, "tenure_type": "Single Cell Mining Claim", "source": "Ontario MLAS operational claims (OGSEarth / LIO MapServer). Unofficial viewing data, not legal title.", "as_of": "2026-09-20", "role": "focus", "color": "#e8b040"}}, {"type": "Feature", "geometry": {"type": "Polygon", "coordinates": [[[-83.1563, 47.8292], [-83.1563, 47.8333], [-83.1625, 47.8333], [-83.1625, 47.8292], [-83.1563, 47.8292]]]}, "properties": {"company_id": "labrador-gold", "jurisdiction": "Ontario", "claim_id": "230462", "claim_name": null, "holder": "(33) RANDALL W SALO, (34) MICHAEL A TREMBLAY, (33) Labrador Gold Corp.", "status": "Active", "recorded_date": "2018-04-10", "anniversary_or_expiry": "2027-02-14", "area_ha": null, "tenure_type": "Boundary Cell Mining Claim", "source": "Ontario MLAS operational claims (OGSEarth / LIO MapServer). Unofficial viewing data, not legal title.", "as_of": "2026-09-20", "role": "focus", "color": "#e8b040"}}, {"type": "Feature", "geometry": {"type": "Polygon", "coordinates": [[[-83.1625, 47.8208], [-83.1625, 47.825], [-83.1688, 47.825], [-83.1688, 47.8208], [-83.1625, 47.8208]]]}, "properties": {"company_id": "labrador-gold", "jurisdiction": "Ontario", "claim_id": "230463", "claim_name": null, "holder": "(33) RANDALL W SALO, (34) MICHAEL A TREMBLAY, (33) Labrador Gold Corp.", "status": "Active", "recorded_date": "2018-04-10", "anniversary_or_expiry": "2027-02-14", "area_ha": null, "tenure_type": "Boundary Cell Mining Claim", "source": "Ontario MLAS operational claims (OGSEarth / LIO MapServer). Unofficial viewing data, not legal title.", "as_of": "2026-09-20", "role": "focus", "color": "#e8b040"}}, {"type": "Feature", "geometry": {"type": "Polygon", "coordinates": [[[-83.1625, 47.8208], [-83.1625, 47.825], [-83.1688, 47.825], [-83.1688, 47.8208], [-83.1625, 47.8208]]]}, "properties": {"company_id": "labrador-gold", "jurisdiction": "Ontario", "claim_id": "232576", "claim_name": null, "holder": "(100) Labrador Gold Corp.", "status": "Active", "recorded_date": "2018-04-10", "anniversary_or_expiry": "2028-03-24", "area_ha": null, "tenure_type": "Boundary Cell Mining Claim", "source": "Ontario MLAS operational claims (OGSEarth / LIO MapServer). Unofficial viewing data, not legal title.", "as_of": "2026-09-20", "role": "focus", "color": "#e8b040"}}, {"type": "Feature", "geometry": {"type": "Polygon", "coordinates": [[[-83.1688, 47.8083], [-83.1688, 47.8125], [-83.175, 47.8125], [-83.175, 47.8083], [-83.1688, 47.8083]]]}, "properties": {"company_id": "labrador-gold", "jurisdiction": "Ontario", "claim_id": "237330", "claim_name": null, "holder": "(100) Labrador Gold Corp.", "status": "Active", "recorded_date": "2018-04-10", "anniversary_or_expiry": "2027-03-24", "area_ha": null, "tenure_type": "Single Cell Mining Claim", "source": "Ontario MLAS operational claims (OGSEarth / LIO MapServer). Unofficial viewing data, not legal title.", "as_of": "2026-09-20", "role": "focus", "color": "#e8b040"}}, {"type": "Feature", "geometry": {"type": "Polygon", "coordinates": [[[-83.1688, 47.8042], [-83.1688, 47.8083], [-83.175, 47.8083], [-83.175, 47.8042], [-83.1688, 47.8042]]]}, "properties": {"company_id": "labrador-gold", "jurisdiction": "Ontario", "claim_id": "237331", "claim_name": null, "holder": "(100) Labrador Gold Corp.", "status": "Active", "recorded_date": "2018-04-10", "anniversary_or_expiry": "2027-03-24", "area_ha": null, "tenure_type": "Boundary Cell Mining Claim", "source": "Ontario MLAS operational claims (OGSEarth / LIO MapServer). Unofficial viewing data, not legal title.", "as_of": "2026-09-20", "role": "focus", "color": "#e8b040"}}, {"type": "Feature", "geometry": {"type": "Polygon", "coordinates": [[[-83.1625, 47.8292], [-83.1625, 47.8333], [-83.1688, 47.8333], [-83.1688, 47.8292], [-83.1625, 47.8292]]]}, "properties": {"company_id": "labrador-gold", "jurisdiction": "Ontario", "claim_id": "242655", "claim_name": null, "holder": "(33) RANDALL W SALO, (34) MICHAEL A TREMBLAY, (33) Labrador Gold Corp.", "status": "Active", "recorded_date": "2018-04-10", "anniversary_or_expiry": "2027-02-14", "area_ha": null, "tenure_type": "Boundary Cell Mining Claim", "source": "Ontario MLAS operational claims (OGSEarth / LIO MapServer). Unofficial viewing data, not legal title.", "as_of": "2026-09-20", "role": "focus", "color": "#e8b040"}}, {"type": "Feature", "geometry": {"type": "Polygon", "coordinates": [[[-83.1563, 47.8208], [-83.1563, 47.825], [-83.1625, 47.825], [-83.1625, 47.8208], [-83.1563, 47.8208]]]}, "properties": {"company_id": "labrador-gold", "jurisdiction": "Ontario", "claim_id": "242656", "claim_name": null, "holder": "(33) RANDALL W SALO, (34) MICHAEL A TREMBLAY, (33) Labrador Gold Corp.", "status": "Active", "recorded_date": "2018-04-10", "anniversary_or_expiry": "2027-02-14", "area_ha": null, "tenure_type": "Single Cell Mining Claim", "source": "Ontario MLAS operational claims (OGSEarth / LIO MapServer). Unofficial viewing data, not legal title.", "as_of": "2026-09-20", "role": "focus", "color": "#e8b040"}}, {"type": "Feature", "geometry": {"type": "Polygon", "coordinates": [[[-83.175, 47.8208], [-83.175, 47.825], [-83.1813, 47.825], [-83.1813, 47.8208], [-83.175, 47.8208]]]}, "properties": {"company_id": "labrador-gold", "jurisdiction": "Ontario", "claim_id": "241682", "claim_name": null, "holder": "(33) RANDALL W SALO, (34) MICHAEL A TREMBLAY, (33) Labrador Gold Corp.", "status": "Active", "recorded_date": "2018-04-10", "anniversary_or_expiry": "2027-02-14", "area_ha": null, "tenure_type": "Single Cell Mining Claim", "source": "Ontario MLAS operational claims (OGSEarth / LIO MapServer). Unofficial viewing data, not legal title.", "as_of": "2026-09-20", "role": "focus", "color": "#e8b040"}}, {"type": "Feature", "geometry": {"type": "Polygon", "coordinates": [[[-83.1563, 47.8125], [-83.1563, 47.8167], [-83.1625, 47.8167], [-83.1625, 47.8125], [-83.1563, 47.8125]]]}, "properties": {"company_id": "labrador-gold", "jurisdiction": "Ontario", "claim_id": "244739", "claim_name": null, "holder": "(100) Labrador Gold Corp.", "status": "Active", "recorded_date": "2018-04-10", "anniversary_or_expiry": "2027-03-24", "area_ha": null, "tenure_type": "Single Cell Mining Claim", "source": "Ontario MLAS operational claims (OGSEarth / LIO MapServer). Unofficial viewing data, not legal title.", "as_of": "2026-09-20", "role": "focus", "color": "#e8b040"}}, {"type": "Feature", "geometry": {"type": "Polygon", "coordinates": [[[-83.1625, 47.8417], [-83.1625, 47.8458], [-83.1688, 47.8458], [-83.1688, 47.8417], [-83.1625, 47.8417]]]}, "properties": {"company_id": "labrador-gold", "jurisdiction": "Ontario", "claim_id": "245519", "claim_name": null, "holder": "(33.33) RANDALL W SALO, (33.33) MICHAEL A TREMBLAY, (33.34) Labrador Gold Corp.", "status": "Active", "recorded_date": "2018-04-10", "anniversary_or_expiry": "2027-11-30", "area_ha": null, "tenure_type": "Boundary Cell Mining Claim", "source": "Ontario MLAS operational claims (OGSEarth / LIO MapServer). Unofficial viewing data, not legal title.", "as_of": "2026-09-20", "role": "focus", "color": "#e8b040"}}, {"type": "Feature", "geometry": {"type": "Polygon", "coordinates": [[[-83.1688, 47.8167], [-83.1688, 47.8208], [-83.175, 47.8208], [-83.175, 47.8167], [-83.1688, 47.8167]]]}, "properties": {"company_id": "labrador-gold", "jurisdiction": "Ontario", "claim_id": "249738", "claim_name": null, "holder": "(33) RANDALL W SALO, (34) MICHAEL A TREMBLAY, (33) Labrador Gold Corp.", "status": "Active", "recorded_date": "2018-04-10", "anniversary_or_expiry": "2027-02-14", "area_ha": null, "tenure_type": "Single Cell Mining Claim", "source": "Ontario MLAS operational claims (OGSEarth / LIO MapServer). Unofficial viewing data, not legal title.", "as_of": "2026-09-20", "role": "focus", "color": "#e8b040"}}, {"type": "Feature", "geometry": {"type": "Polygon", "coordinates": [[[-83.1438, 47.8292], [-83.1438, 47.8333], [-83.15, 47.8333], [-83.15, 47.8292], [-83.1438, 47.8292]]]}, "properties": {"company_id": "labrador-gold", "jurisdiction": "Ontario", "claim_id": "252909", "claim_name": null, "holder": "(100) Labrador Gold Corp.", "status": "Active", "recorded_date": "2018-04-10", "anniversary_or_expiry": "2028-03-24", "area_ha": null, "tenure_type": "Boundary Cell Mining Claim", "source": "Ontario MLAS operational claims (OGSEarth / LIO MapServer). Unofficial viewing data, not legal title.", "as_of": "2026-09-20", "role": "focus", "color": "#e8b040"}}, {"type": "Feature", "geometry": {"type": "Polygon", "coordinates": [[[-83.1438, 47.8333], [-83.1438, 47.8375], [-83.15, 47.8375], [-83.15, 47.8333], [-83.1438, 47.8333]]]}, "properties": {"company_id": "labrador-gold", "jurisdiction": "Ontario", "claim_id": "258735", "claim_name": null, "holder": "(33.33) RANDALL W SALO, (33.33) MICHAEL A TREMBLAY, (33.34) Labrador Gold Corp.", "status": "Active", "recorded_date": "2018-04-10", "anniversary_or_expiry": "2027-11-30", "area_ha": null, "tenure_type": "Single Cell Mining Claim", "source": "Ontario MLAS operational claims (OGSEarth / LIO MapServer). Unofficial viewing data, not legal title.", "as_of": "2026-09-20", "role": "focus", "color": "#e8b040"}}, {"type": "Feature", "geometry": {"type": "Polygon", "coordinates": [[[-83.1563, 47.8375], [-83.1563, 47.8417], [-83.1625, 47.8417], [-83.1625, 47.8375], [-83.1563, 47.8375]]]}, "properties": {"company_id": "labrador-gold", "jurisdiction": "Ontario", "claim_id": "259398", "claim_name": null, "holder": "(33.33) RANDALL W SALO, (33.33) MICHAEL A TREMBLAY, (33.34) Labrador Gold Corp.", "status": "Active", "recorded_date": "2018-04-10", "anniversary_or_expiry": "2027-11-30", "area_ha": null, "tenure_type": "Single Cell Mining Claim", "source": "Ontario MLAS operational claims (OGSEarth / LIO MapServer). Unofficial viewing data, not legal title.", "as_of": "2026-09-20", "role": "focus", "color": "#e8b040"}}, {"type": "Feature", "geometry": {"type": "Polygon", "coordinates": [[[-83.15, 47.8042], [-83.15, 47.8083], [-83.1563, 47.8083], [-83.1563, 47.8042], [-83.15, 47.8042]]]}, "properties": {"company_id": "labrador-gold", "jurisdiction": "Ontario", "claim_id": "261898", "claim_name": null, "holder": "(100) Labrador Gold Corp.", "status": "Active", "recorded_date": "2018-04-10", "anniversary_or_expiry": "2027-03-29", "area_ha": null, "tenure_type": "Boundary Cell Mining Claim", "source": "Ontario MLAS operational claims (OGSEarth / LIO MapServer). Unofficial viewing data, not legal title.", "as_of": "2026-09-20", "role": "focus", "color": "#e8b040"}}, {"type": "Feature", "geometry": {"type": "Polygon", "coordinates": [[[-83.1438, 47.8417], [-83.1438, 47.8458], [-83.15, 47.8458], [-83.15, 47.8417], [-83.1438, 47.8417]]]}, "properties": {"company_id": "labrador-gold", "jurisdiction": "Ontario", "claim_id": "265090", "claim_name": null, "holder": "(33.33) RANDALL W SALO, (33.33) MICHAEL A TREMBLAY, (33.34) Labrador Gold Corp.", "status": "Active", "recorded_date": "2018-04-10", "anniversary_or_expiry": "2027-11-30", "area_ha": null, "tenure_type": "Single Cell Mining Claim", "source": "Ontario MLAS operational claims (OGSEarth / LIO MapServer). Unofficial viewing data, not legal title.", "as_of": "2026-09-20", "role": "focus", "color": "#e8b040"}}, {"type": "Feature", "geometry": {"type": "Polygon", "coordinates": [[[-83.1563, 47.8417], [-83.1563, 47.8458], [-83.1625, 47.8458], [-83.1625, 47.8417], [-83.1563, 47.8417]]]}, "properties": {"company_id": "labrador-gold", "jurisdiction": "Ontario", "claim_id": "265091", "claim_name": null, "holder": "(33.33) RANDALL W SALO, (33.33) MICHAEL A TREMBLAY, (33.34) Labrador Gold Corp.", "status": "Active", "recorded_date": "2018-04-10", "anniversary_or_expiry": "2027-11-30", "area_ha": null, "tenure_type": "Single Cell Mining Claim", "source": "Ontario MLAS operational claims (OGSEarth / LIO MapServer). Unofficial viewing data, not legal title.", "as_of": "2026-09-20", "role": "focus", "color": "#e8b040"}}, {"type": "Feature", "geometry": {"type": "Polygon", "coordinates": [[[-83.1625, 47.8333], [-83.1625, 47.8375], [-83.1688, 47.8375], [-83.1688, 47.8333], [-83.1625, 47.8333]]]}, "properties": {"company_id": "labrador-gold", "jurisdiction": "Ontario", "claim_id": "277366", "claim_name": null, "holder": "(33.33) RANDALL W SALO, (33.33) MICHAEL A TREMBLAY, (33.34) Labrador Gold Corp.", "status": "Active", "recorded_date": "2018-04-10", "anniversary_or_expiry": "2027-11-30", "area_ha": null, "tenure_type": "Boundary Cell Mining Claim", "source": "Ontario MLAS operational claims (OGSEarth / LIO MapServer). Unofficial viewing data, not legal title.", "as_of": "2026-09-20", "role": "focus", "color": "#e8b040"}}, {"type": "Feature", "geometry": {"type": "Polygon", "coordinates": [[[-83.1625, 47.825], [-83.1625, 47.8292], [-83.1688, 47.8292], [-83.1688, 47.825], [-83.1625, 47.825]]]}, "properties": {"company_id": "labrador-gold", "jurisdiction": "Ontario", "claim_id": "277692", "claim_name": null, "holder": "(33) RANDALL W SALO, (34) MICHAEL A TREMBLAY, (33) Labrador Gold Corp.", "status": "Active", "recorded_date": "2018-04-10", "anniversary_or_expiry": "2027-02-14", "area_ha": null, "tenure_type": "Single Cell Mining Claim", "source": "Ontario MLAS operational claims (OGSEarth / LIO MapServer). Unofficial viewing data, not legal title.", "as_of": "2026-09-20", "role": "focus", "color": "#e8b040"}}, {"type": "Feature", "geometry": {"type": "Polygon", "coordinates": [[[-83.15, 47.8167], [-83.15, 47.8208], [-83.1563, 47.8208], [-83.1563, 47.8167], [-83.15, 47.8167]]]}, "properties": {"company_id": "labrador-gold", "jurisdiction": "Ontario", "claim_id": "280592", "claim_name": null, "holder": "(100) Labrador Gold Corp.", "status": "Active", "recorded_date": "2018-04-10", "anniversary_or_expiry": "2028-03-24", "area_ha": null, "tenure_type": "Single Cell Mining Claim", "source": "Ontario MLAS operational claims (OGSEarth / LIO MapServer). Unofficial viewing data, not legal title.", "as_of": "2026-09-20", "role": "focus", "color": "#e8b040"}}, {"type": "Feature", "geometry": {"type": "Polygon", "coordinates": [[[-83.1563, 47.8083], [-83.1563, 47.8125], [-83.1625, 47.8125], [-83.1625, 47.8083], [-83.1563, 47.8083]]]}, "properties": {"company_id": "labrador-gold", "jurisdiction": "Ontario", "claim_id": "279809", "claim_name": null, "holder": "(100) Labrador Gold Corp.", "status": "Active", "recorded_date": "2018-04-10", "anniversary_or_expiry": "2027-03-24", "area_ha": null, "tenure_type": "Single Cell Mining Claim", "source": "Ontario MLAS operational claims (OGSEarth / LIO MapServer). Unofficial viewing data, not legal title.", "as_of": "2026-09-20", "role": "focus", "color": "#e8b040"}}, {"type": "Feature", "geometry": {"type": "Polygon", "coordinates": [[[-83.1563, 47.85], [-83.1563, 47.8542], [-83.1625, 47.8542], [-83.1625, 47.85], [-83.1563, 47.85]]]}, "properties": {"company_id": "labrador-gold", "jurisdiction": "Ontario", "claim_id": "282766", "claim_name": null, "holder": "(33.33) RANDALL W SALO, (33.33) MICHAEL A TREMBLAY, (33.34) Labrador Gold Corp.", "status": "Active", "recorded_date": "2018-04-10", "anniversary_or_expiry": "2027-11-30", "area_ha": null, "tenure_type": "Boundary Cell Mining Claim", "source": "Ontario MLAS operational claims (OGSEarth / LIO MapServer). Unofficial viewing data, not legal title.", "as_of": "2026-09-20", "role": "focus", "color": "#e8b040"}}, {"type": "Feature", "geometry": {"type": "Polygon", "coordinates": [[[-83.1563, 47.8458], [-83.1563, 47.85], [-83.1625, 47.85], [-83.1625, 47.8458], [-83.1563, 47.8458]]]}, "properties": {"company_id": "labrador-gold", "jurisdiction": "Ontario", "claim_id": "289572", "claim_name": null, "holder": "(33.33) RANDALL W SALO, (33.33) MICHAEL A TREMBLAY, (33.34) Labrador Gold Corp.", "status": "Active", "recorded_date": "2018-04-10", "anniversary_or_expiry": "2027-11-30", "area_ha": null, "tenure_type": "Single Cell Mining Claim", "source": "Ontario MLAS operational claims (OGSEarth / LIO MapServer). Unofficial viewing data, not legal title.", "as_of": "2026-09-20", "role": "focus", "color": "#e8b040"}}, {"type": "Feature", "geometry": {"type": "Polygon", "coordinates": [[[-83.1688, 47.8125], [-83.1688, 47.8167], [-83.175, 47.8167], [-83.175, 47.8125], [-83.1688, 47.8125]]]}, "properties": {"company_id": "labrador-gold", "jurisdiction": "Ontario", "claim_id": "291281", "claim_name": null, "holder": "(100) Labrador Gold Corp.", "status": "Active", "recorded_date": "2018-04-10", "anniversary_or_expiry": "2027-03-24", "area_ha": null, "tenure_type": "Single Cell Mining Claim", "source": "Ontario MLAS operational claims (OGSEarth / LIO MapServer). Unofficial viewing data, not legal title.", "as_of": "2026-09-20", "role": "focus", "color": "#e8b040"}}, {"type": "Feature", "geometry": {"type": "Polygon", "coordinates": [[[-83.1625, 47.8083], [-83.1625, 47.8125], [-83.1688, 47.8125], [-83.1688, 47.8083], [-83.1625, 47.8083]]]}, "properties": {"company_id": "labrador-gold", "jurisdiction": "Ontario", "claim_id": "298450", "claim_name": null, "holder": "(100) Labrador Gold Corp.", "status": "Active", "recorded_date": "2018-04-10", "anniversary_or_expiry": "2027-03-24", "area_ha": null, "tenure_type": "Single Cell Mining Claim", "source": "Ontario MLAS operational claims (OGSEarth / LIO MapServer). Unofficial viewing data, not legal title.", "as_of": "2026-09-20", "role": "focus", "color": "#e8b040"}}, {"type": "Feature", "geometry": {"type": "Polygon", "coordinates": [[[-83.1563, 47.8042], [-83.1563, 47.8083], [-83.1625, 47.8083], [-83.1625, 47.8042], [-83.1563, 47.8042]]]}, "properties": {"company_id": "labrador-gold", "jurisdiction": "Ontario", "claim_id": "298451", "claim_name": null, "holder": "(100) Labrador Gold Corp.", "status": "Active", "recorded_date": "2018-04-10", "anniversary_or_expiry": "2027-03-24", "area_ha": null, "tenure_type": "Boundary Cell Mining Claim", "source": "Ontario MLAS operational claims (OGSEarth / LIO MapServer). Unofficial viewing data, not legal title.", "as_of": "2026-09-20", "role": "focus", "color": "#e8b040"}}, {"type": "Feature", "geometry": {"type": "Polygon", "coordinates": [[[-83.1563, 47.8167], [-83.1563, 47.8208], [-83.1625, 47.8208], [-83.1625, 47.8167], [-83.1563, 47.8167]]]}, "properties": {"company_id": "labrador-gold", "jurisdiction": "Ontario", "claim_id": "299280", "claim_name": null, "holder": "(100) Labrador Gold Corp.", "status": "Active", "recorded_date": "2018-04-10", "anniversary_or_expiry": "2030-03-24", "area_ha": null, "tenure_type": "Single Cell Mining Claim", "source": "Ontario MLAS operational claims (OGSEarth / LIO MapServer). Unofficial viewing data, not legal title.", "as_of": "2026-09-20", "role": "focus", "color": "#e8b040"}}, {"type": "Feature", "geometry": {"type": "Polygon", "coordinates": [[[-83.1438, 47.825], [-83.1438, 47.8292], [-83.15, 47.8292], [-83.15, 47.825], [-83.1438, 47.825]]]}, "properties": {"company_id": "labrador-gold", "jurisdiction": "Ontario", "claim_id": "302157", "claim_name": null, "holder": "(100) Labrador Gold Corp.", "status": "Active", "recorded_date": "2018-04-10", "anniversary_or_expiry": "2028-03-24", "area_ha": null, "tenure_type": "Single Cell Mining Claim", "source": "Ontario MLAS operational claims (OGSEarth / LIO MapServer). Unofficial viewing data, not legal title.", "as_of": "2026-09-20", "role": "focus", "color": "#e8b040"}}, {"type": "Feature", "geometry": {"type": "Polygon", "coordinates": [[[-83.1438, 47.8208], [-83.1438, 47.825], [-83.15, 47.825], [-83.15, 47.8208], [-83.1438, 47.8208]]]}, "properties": {"company_id": "labrador-gold", "jurisdiction": "Ontario", "claim_id": "302159", "claim_name": null, "holder": "(100) Labrador Gold Corp.", "status": "Active", "recorded_date": "2018-04-10", "anniversary_or_expiry": "2028-03-24", "area_ha": null, "tenure_type": "Single Cell Mining Claim", "source": "Ontario MLAS operational claims (OGSEarth / LIO MapServer). Unofficial viewing data, not legal title.", "as_of": "2026-09-20", "role": "focus", "color": "#e8b040"}}, {"type": "Feature", "geometry": {"type": "Polygon", "coordinates": [[[-83.1438, 47.8458], [-83.1438, 47.85], [-83.15, 47.85], [-83.15, 47.8458], [-83.1438, 47.8458]]]}, "properties": {"company_id": "labrador-gold", "jurisdiction": "Ontario", "claim_id": "301637", "claim_name": null, "holder": "(33.33) RANDALL W SALO, (33.33) MICHAEL A TREMBLAY, (33.34) Labrador Gold Corp.", "status": "Active", "recorded_date": "2018-04-10", "anniversary_or_expiry": "2027-11-30", "area_ha": null, "tenure_type": "Single Cell Mining Claim", "source": "Ontario MLAS operational claims (OGSEarth / LIO MapServer). Unofficial viewing data, not legal title.", "as_of": "2026-09-20", "role": "focus", "color": "#e8b040"}}, {"type": "Feature", "geometry": {"type": "Polygon", "coordinates": [[[-83.1438, 47.8375], [-83.1438, 47.8417], [-83.15, 47.8417], [-83.15, 47.8375], [-83.1438, 47.8375]]]}, "properties": {"company_id": "labrador-gold", "jurisdiction": "Ontario", "claim_id": "306521", "claim_name": null, "holder": "(33.33) RANDALL W SALO, (33.33) MICHAEL A TREMBLAY, (33.34) Labrador Gold Corp.", "status": "Active", "recorded_date": "2018-04-10", "anniversary_or_expiry": "2027-11-30", "area_ha": null, "tenure_type": "Single Cell Mining Claim", "source": "Ontario MLAS operational claims (OGSEarth / LIO MapServer). Unofficial viewing data, not legal title.", "as_of": "2026-09-20", "role": "focus", "color": "#e8b040"}}, {"type": "Feature", "geometry": {"type": "Polygon", "coordinates": [[[-83.1563, 47.8292], [-83.1563, 47.8333], [-83.1625, 47.8333], [-83.1625, 47.8292], [-83.1563, 47.8292]]]}, "properties": {"company_id": "labrador-gold", "jurisdiction": "Ontario", "claim_id": "313955", "claim_name": null, "holder": "(33.33) RANDALL W SALO, (33.33) MICHAEL A TREMBLAY, (33.34) Labrador Gold Corp.", "status": "Active", "recorded_date": "2018-04-10", "anniversary_or_expiry": "2027-11-30", "area_ha": null, "tenure_type": "Boundary Cell Mining Claim", "source": "Ontario MLAS operational claims (OGSEarth / LIO MapServer). Unofficial viewing data, not legal title.", "as_of": "2026-09-20", "role": "focus", "color": "#e8b040"}}, {"type": "Feature", "geometry": {"type": "Polygon", "coordinates": [[[-83.1625, 47.8042], [-83.1625, 47.8083], [-83.1688, 47.8083], [-83.1688, 47.8042], [-83.1625, 47.8042]]]}, "properties": {"company_id": "labrador-gold", "jurisdiction": "Ontario", "claim_id": "316402", "claim_name": null, "holder": "(100) Labrador Gold Corp.", "status": "Active", "recorded_date": "2018-04-10", "anniversary_or_expiry": "2027-03-29", "area_ha": null, "tenure_type": "Boundary Cell Mining Claim", "source": "Ontario MLAS operational claims (OGSEarth / LIO MapServer). Unofficial viewing data, not legal title.", "as_of": "2026-09-20", "role": "focus", "color": "#e8b040"}}, {"type": "Feature", "geometry": {"type": "Polygon", "coordinates": [[[-83.1438, 47.85], [-83.1438, 47.8542], [-83.15, 47.8542], [-83.15, 47.85], [-83.1438, 47.85]]]}, "properties": {"company_id": "labrador-gold", "jurisdiction": "Ontario", "claim_id": "319565", "claim_name": null, "holder": "(33.33) RANDALL W SALO, (33.33) MICHAEL A TREMBLAY, (33.34) Labrador Gold Corp.", "status": "Active", "recorded_date": "2018-04-10", "anniversary_or_expiry": "2027-11-30", "area_ha": null, "tenure_type": "Single Cell Mining Claim", "source": "Ontario MLAS operational claims (OGSEarth / LIO MapServer). Unofficial viewing data, not legal title.", "as_of": "2026-09-20", "role": "focus", "color": "#e8b040"}}, {"type": "Feature", "geometry": {"type": "Polygon", "coordinates": [[[-83.15, 47.85], [-83.15, 47.8542], [-83.1563, 47.8542], [-83.1563, 47.85], [-83.15, 47.85]]]}, "properties": {"company_id": "labrador-gold", "jurisdiction": "Ontario", "claim_id": "319566", "claim_name": null, "holder": "(33.33) RANDALL W SALO, (33.33) MICHAEL A TREMBLAY, (33.34) Labrador Gold Corp.", "status": "Active", "recorded_date": "2018-04-10", "anniversary_or_expiry": "2027-11-30", "area_ha": null, "tenure_type": "Boundary Cell Mining Claim", "source": "Ontario MLAS operational claims (OGSEarth / LIO MapServer). Unofficial viewing data, not legal title.", "as_of": "2026-09-20", "role": "focus", "color": "#e8b040"}}, {"type": "Feature", "geometry": {"type": "Polygon", "coordinates": [[[-83.1688, 47.8042], [-83.1688, 47.8083], [-83.175, 47.8083], [-83.175, 47.8042], [-83.1688, 47.8042]]]}, "properties": {"company_id": "labrador-gold", "jurisdiction": "Ontario", "claim_id": "323828", "claim_name": null, "holder": "(100) Labrador Gold Corp.", "status": "Active", "recorded_date": "2018-04-10", "anniversary_or_expiry": "2027-03-29", "area_ha": null, "tenure_type": "Boundary Cell Mining Claim", "source": "Ontario MLAS operational claims (OGSEarth / LIO MapServer). Unofficial viewing data, not legal title.", "as_of": "2026-09-20", "role": "focus", "color": "#e8b040"}}, {"type": "Feature", "geometry": {"type": "Polygon", "coordinates": [[[-83.1563, 47.8333], [-83.1563, 47.8375], [-83.1625, 47.8375], [-83.1625, 47.8333], [-83.1563, 47.8333]]]}, "properties": {"company_id": "labrador-gold", "jurisdiction": "Ontario", "claim_id": "326713", "claim_name": null, "holder": "(33.33) RANDALL W SALO, (33.33) MICHAEL A TREMBLAY, (33.34) Labrador Gold Corp.", "status": "Active", "recorded_date": "2018-04-10", "anniversary_or_expiry": "2027-11-30", "area_ha": null, "tenure_type": "Single Cell Mining Claim", "source": "Ontario MLAS operational claims (OGSEarth / LIO MapServer). Unofficial viewing data, not legal title.", "as_of": "2026-09-20", "role": "focus", "color": "#e8b040"}}, {"type": "Feature", "geometry": {"type": "Polygon", "coordinates": [[[-83.175, 47.8292], [-83.175, 47.8333], [-83.1813, 47.8333], [-83.1813, 47.8292], [-83.175, 47.8292]]]}, "properties": {"company_id": "labrador-gold", "jurisdiction": "Ontario", "claim_id": "328420", "claim_name": null, "holder": "(33) RANDALL W SALO, (34) MICHAEL A TREMBLAY, (33) Labrador Gold Corp.", "status": "Active", "recorded_date": "2018-04-10", "anniversary_or_expiry": "2027-02-14", "area_ha": null, "tenure_type": "Boundary Cell Mining Claim", "source": "Ontario MLAS operational claims (OGSEarth / LIO MapServer). Unofficial viewing data, not legal title.", "as_of": "2026-09-20", "role": "focus", "color": "#e8b040"}}, {"type": "Feature", "geometry": {"type": "Polygon", "coordinates": [[[-83.1688, 47.8208], [-83.1688, 47.825], [-83.175, 47.825], [-83.175, 47.8208], [-83.1688, 47.8208]]]}, "properties": {"company_id": "labrador-gold", "jurisdiction": "Ontario", "claim_id": "328421", "claim_name": null, "holder": "(33) RANDALL W SALO, (34) MICHAEL A TREMBLAY, (33) Labrador Gold Corp.", "status": "Active", "recorded_date": "2018-04-10", "anniversary_or_expiry": "2027-02-14", "area_ha": null, "tenure_type": "Single Cell Mining Claim", "source": "Ontario MLAS operational claims (OGSEarth / LIO MapServer). Unofficial viewing data, not legal title.", "as_of": "2026-09-20", "role": "focus", "color": "#e8b040"}}, {"type": "Feature", "geometry": {"type": "Polygon", "coordinates": [[[-83.1625, 47.8167], [-83.1625, 47.8208], [-83.1688, 47.8208], [-83.1688, 47.8167], [-83.1625, 47.8167]]]}, "properties": {"company_id": "labrador-gold", "jurisdiction": "Ontario", "claim_id": "328423", "claim_name": null, "holder": "(33) RANDALL W SALO, (34) MICHAEL A TREMBLAY, (33) Labrador Gold Corp.", "status": "Active", "recorded_date": "2018-04-10", "anniversary_or_expiry": "2027-02-14", "area_ha": null, "tenure_type": "Boundary Cell Mining Claim", "source": "Ontario MLAS operational claims (OGSEarth / LIO MapServer). Unofficial viewing data, not legal title.", "as_of": "2026-09-20", "role": "focus", "color": "#e8b040"}}, {"type": "Feature", "geometry": {"type": "Polygon", "coordinates": [[[-83.1625, 47.8125], [-83.1625, 47.8167], [-83.1688, 47.8167], [-83.1688, 47.8125], [-83.1625, 47.8125]]]}, "properties": {"company_id": "labrador-gold", "jurisdiction": "Ontario", "claim_id": "342863", "claim_name": null, "holder": "(100) Labrador Gold Corp.", "status": "Active", "recorded_date": "2018-04-10", "anniversary_or_expiry": "2027-03-24", "area_ha": null, "tenure_type": "Single Cell Mining Claim", "source": "Ontario MLAS operational claims (OGSEarth / LIO MapServer). Unofficial viewing data, not legal title.", "as_of": "2026-09-20", "role": "focus", "color": "#e8b040"}}]}