{"type": "FeatureCollection", "features": [{"type": "Feature", "geometry": {"type": "Polygon", "coordinates": [[[-127.2519, 50.3779], [-127.2473, 50.3813], [-127.2577, 50.3872], [-127.2624, 50.3839], [-127.2519, 50.3779]]]}, "properties": {"company_id": "lake-victoria-gold", "jurisdiction": "British Columbia", "claim_id": 314291, "claim_name": null, "holder": "BENSON LAKE CARBONATES ULC", "status": "Mineral", "recorded_date": "7361280000", "anniversary_or_expiry": "2023-04-30", "area_ha": 50, "tenure_type": "Mineral", "source": "BC MTA Mineral, Placer and Coal Tenure Spatial View (BCGW). Open Government Licence - British Columbia. Not legal title.", "as_of": "2026-09-20", "role": "focus", "color": "#e8b040"}}, {"type": "Feature", "geometry": {"type": "Polygon", "coordinates": [[[-122.9561, 53.2955], [-122.9487, 53.2913], [-122.9435, 53.2945], [-122.9543, 53.3008], [-122.9568, 53.2992], [-122.9546, 53.2958], [-122.9561, 53.2955]]]}, "properties": {"company_id": "lake-victoria-gold", "jurisdiction": "British Columbia", "claim_id": 334905, "claim_name": "LUCKY FIND", "holder": "HOUGH, BRADLEY BLAKE", "status": "Placer", "recorded_date": "7982496000", "anniversary_or_expiry": "2025-09-30", "area_ha": 50, "tenure_type": "Placer", "source": "BC MTA Mineral, Placer and Coal Tenure Spatial View (BCGW). Open Government Licence - British Columbia. Not legal title.", "as_of": "2026-09-20", "role": "focus", "color": "#e8b040"}}, {"type": "Feature", "geometry": {"type": "Polygon", "coordinates": [[[-127.2828, 50.3915], [-127.2703, 50.3915], [-127.2703, 50.3998], [-127.2828, 50.3998], [-127.2828, 50.3957], [-127.2891, 50.3957], [-127.2891, 50.3915], [-127.2828, 50.3915]]]}, "properties": {"company_id": "lake-victoria-gold", "jurisdiction": "British Columbia", "claim_id": 512755, "claim_name": null, "holder": "BENSON LAKE CARBONATES ULC", "status": "Mineral", "recorded_date": "2005-05-16", "anniversary_or_expiry": "2026-01-11", "area_ha": 103.00200000000001, "tenure_type": "Mineral", "source": "BC MTA Mineral, Placer and Coal Tenure Spatial View (BCGW). Open Government Licence - British Columbia. Not legal title.", "as_of": "2026-09-20", "role": "focus", "color": "#e8b040"}}, {"type": "Feature", "geometry": {"type": "Polygon", "coordinates": [[[-127.2703, 50.3957], [-127.2703, 50.3915], [-127.2578, 50.3915], [-127.2578, 50.3957], [-127.2641, 50.3957], [-127.2641, 50.3998], [-127.2703, 50.3998], [-127.2703, 50.3957]]]}, "properties": {"company_id": "lake-victoria-gold", "jurisdiction": "British Columbia", "claim_id": 512833, "claim_name": null, "holder": "BENSON LAKE CARBONATES ULC", "status": "Mineral", "recorded_date": "2005-05-17", "anniversary_or_expiry": "2025-09-14", "area_ha": 61.802, "tenure_type": "Mineral", "source": "BC MTA Mineral, Placer and Coal Tenure Spatial View (BCGW). Open Government Licence - British Columbia. Not legal title.", "as_of": "2026-09-20", "role": "focus", "color": "#e8b040"}}, {"type": "Feature", "geometry": {"type": "Polygon", "coordinates": [[[-127.2703, 50.3915], [-127.2766, 50.3915], [-127.2766, 50.3873], [-127.2703, 50.3873], [-127.2703, 50.3915]]]}, "properties": {"company_id": "lake-victoria-gold", "jurisdiction": "British Columbia", "claim_id": 512834, "claim_name": null, "holder": "BENSON LAKE CARBONATES ULC", "status": "Mineral", "recorded_date": "2005-05-17", "anniversary_or_expiry": "2026-01-11", "area_ha": 20.603, "tenure_type": "Mineral", "source": "BC MTA Mineral, Placer and Coal Tenure Spatial View (BCGW). Open Government Licence - British Columbia. Not legal title.", "as_of": "2026-09-20", "role": "focus", "color": "#e8b040"}}, {"type": "Feature", "geometry": {"type": "Polygon", "coordinates": [[[-127.2953, 50.379], [-127.2953, 50.3748], [-127.2641, 50.3748], [-127.2641, 50.3873], [-127.2578, 50.3873], [-127.2578, 50.3915], [-127.2703, 50.3915], [-127.2703, 50.379], [-127.2828, 50.379], [-127.2828, 50.3873], [-127.2766, 50.3873], [-127.2766, 50.3915], [-127.2891, 50.3915], [-127.2891, 50.3957], [-127.2828, 50.3957], [-127.2828, 50.3998], [-127.2953, 50.3998], [-127.2953, 50.379]]]}, "properties": {"company_id": "lake-victoria-gold", "jurisdiction": "British Columbia", "claim_id": 512861, "claim_name": "BENSON GROUP ONE", "holder": "BENSON LAKE CARBONATES ULC", "status": "Mineral", "recorded_date": "2005-05-17", "anniversary_or_expiry": "2025-05-17", "area_ha": 391.488, "tenure_type": "Mineral", "source": "BC MTA Mineral, Placer and Coal Tenure Spatial View (BCGW). Open Government Licence - British Columbia. Not legal title.", "as_of": "2026-09-20", "role": "focus", "color": "#e8b040"}}, {"type": "Feature", "geometry": {"type": "Polygon", "coordinates": [[[-127.2453, 50.3748], [-127.2391, 50.3748], [-127.2391, 50.3832], [-127.2453, 50.3832], [-127.2453, 50.379], [-127.2516, 50.379], [-127.2516, 50.3748], [-127.2453, 50.3748]]]}, "properties": {"company_id": "lake-victoria-gold", "jurisdiction": "British Columbia", "claim_id": 512862, "claim_name": "BENSON GROUP TWO", "holder": "BENSON LAKE CARBONATES ULC", "status": "Mineral", "recorded_date": "2005-05-17", "anniversary_or_expiry": "2025-05-17", "area_ha": 61.822, "tenure_type": "Mineral", "source": "BC MTA Mineral, Placer and Coal Tenure Spatial View (BCGW). Open Government Licence - British Columbia. Not legal title.", "as_of": "2026-09-20", "role": "focus", "color": "#e8b040"}}, {"type": "Feature", "geometry": {"type": "Polygon", "coordinates": [[[-127.2578, 50.3915], [-127.2516, 50.3915], [-127.2516, 50.3998], [-127.2641, 50.3998], [-127.2641, 50.3957], [-127.2578, 50.3957], [-127.2578, 50.3915]]]}, "properties": {"company_id": "lake-victoria-gold", "jurisdiction": "British Columbia", "claim_id": 512863, "claim_name": "BENSON GROUP THREE", "holder": "BENSON LAKE CARBONATES ULC", "status": "Mineral", "recorded_date": "2005-05-17", "anniversary_or_expiry": "2025-05-17", "area_ha": 61.800000000000004, "tenure_type": "Mineral", "source": "BC MTA Mineral, Placer and Coal Tenure Spatial View (BCGW). Open Government Licence - British Columbia. Not legal title.", "as_of": "2026-09-20", "role": "focus", "color": "#e8b040"}}, {"type": "Feature", "geometry": {"type": "Polygon", "coordinates": [[[-127.2453, 50.3873], [-127.2516, 50.3873], [-127.2516, 50.3832], [-127.2453, 50.3832], [-127.2453, 50.3873]]]}, "properties": {"company_id": "lake-victoria-gold", "jurisdiction": "British Columbia", "claim_id": 512865, "claim_name": "BENSON GROUP FOUR", "holder": "BENSON LAKE CARBONATES ULC", "status": "Mineral", "recorded_date": "2005-05-17", "anniversary_or_expiry": "2025-05-17", "area_ha": 20.604000000000003, "tenure_type": "Mineral", "source": "BC MTA Mineral, Placer and Coal Tenure Spatial View (BCGW). Open Government Licence - British Columbia. Not legal title.", "as_of": "2026-09-20", "role": "focus", "color": "#e8b040"}}, {"type": "Feature", "geometry": {"type": "Polygon", "coordinates": [[[-123.6326, 48.4123], [-123.6326, 48.4165], [-123.6388, 48.4165], [-123.6388, 48.4123], [-123.6326, 48.4123]]]}, "properties": {"company_id": "lake-victoria-gold", "jurisdiction": "British Columbia", "claim_id": 522939, "claim_name": "RAGGED2", "holder": "VICTORIA TELEPORT CORPORATION", "status": "Mineral", "recorded_date": "2005-11-29", "anniversary_or_expiry": "2022-11-29", "area_ha": 21.437, "tenure_type": "Mineral", "source": "BC MTA Mineral, Placer and Coal Tenure Spatial View (BCGW). Open Government Licence - British Columbia. Not legal title.", "as_of": "2026-09-20", "role": "focus", "color": "#e8b040"}}, {"type": "Feature", "geometry": {"type": "Polygon", "coordinates": [[[-123.6388, 48.4415], [-123.6388, 48.4456], [-123.6451, 48.4456], [-123.6451, 48.4415], [-123.6388, 48.4415]]]}, "properties": {"company_id": "lake-victoria-gold", "jurisdiction": "British Columbia", "claim_id": 522940, "claim_name": "RAGGED3", "holder": "VICTORIA TELEPORT CORPORATION", "status": "Mineral", "recorded_date": "2005-11-29", "anniversary_or_expiry": "2022-11-29", "area_ha": 21.424200000000003, "tenure_type": "Mineral", "source": "BC MTA Mineral, Placer and Coal Tenure Spatial View (BCGW). Open Government Licence - British Columbia. Not legal title.", "as_of": "2026-09-20", "role": "focus", "color": "#e8b040"}}]}