{"type": "FeatureCollection", "features": [{"type": "Feature", "geometry": {"type": "Polygon", "coordinates": [[[-74.83333332877147, 49.30000000471232], [-74.83333333977225, 49.30833333275388], [-74.82499999748113, 49.3083333377295], [-74.8250000024779, 49.300000000179686], [-74.83333332877147, 49.30000000471232]]]}, "properties": {"company_id": "major-drilling-group-international", "jurisdiction": "Quebec", "claim_id": "", "claim_name": null, "holder": "Major Gold Corporation", "status": "Active", "recorded_date": null, "anniversary_or_expiry": null, "area_ha": null, "tenure_type": null, "source": "GESTIM active titles (MRNF digital data dump). Not legal title.", "as_of": "2026-09-20", "role": "focus", "color": "#e8b040"}}, {"type": "Feature", "geometry": {"type": "Polygon", "coordinates": [[[-74.8250000024779, 49.300000000179686], [-74.82499999748113, 49.3083333377295], [-74.81666666842197, 49.30833333550579], [-74.81666666184226, 49.300000006370425], [-74.8250000024779, 49.300000000179686]]]}, "properties": {"company_id": "major-drilling-group-international", "jurisdiction": "Quebec", "claim_id": "", "claim_name": null, "holder": "Major Gold Corporation", "status": "Active", "recorded_date": null, "anniversary_or_expiry": null, "area_ha": null, "tenure_type": null, "source": "GESTIM active titles (MRNF digital data dump). Not legal title.", "as_of": "2026-09-20", "role": "focus", "color": "#e8b040"}}, {"type": "Feature", "geometry": {"type": "Polygon", "coordinates": [[[-74.81666666184226, 49.300000006370425], [-74.81666666842197, 49.30833333550579], [-74.80833333878032, 49.30833333505743], [-74.80833333441205, 49.30000000533637], [-74.81666666184226, 49.300000006370425]]]}, "properties": {"company_id": "major-drilling-group-international", "jurisdiction": "Quebec", "claim_id": "", "claim_name": null, "holder": "Major Gold Corporation", "status": "Active", "recorded_date": null, "anniversary_or_expiry": null, "area_ha": null, "tenure_type": null, "source": "GESTIM active titles (MRNF digital data dump). Not legal title.", "as_of": "2026-09-20", "role": "focus", "color": "#e8b040"}}, {"type": "Feature", "geometry": {"type": "Polygon", "coordinates": [[[-74.80833333441205, 49.30000000533637], [-74.80833333878032, 49.30833333505743], [-74.79999999477211, 49.308333336359986], [-74.80000000637375, 49.300000006051214], [-74.80833333441205, 49.30000000533637]]]}, "properties": {"company_id": "major-drilling-group-international", "jurisdiction": "Quebec", "claim_id": "", "claim_name": null, "holder": "Major Gold Corporation", "status": "Active", "recorded_date": null, "anniversary_or_expiry": null, "area_ha": null, "tenure_type": null, "source": "GESTIM active titles (MRNF digital data dump). Not legal title.", "as_of": "2026-09-20", "role": "focus", "color": "#e8b040"}}, {"type": "Feature", "geometry": {"type": "Polygon", "coordinates": [[[-74.79166666398359, 49.2999999994944], [-74.7916666638842, 49.308333339459416], [-74.78333333237198, 49.3083333353372], [-74.78333333464951, 49.30000000370401], [-74.79166666398359, 49.2999999994944]]]}, "properties": {"company_id": "major-drilling-group-international", "jurisdiction": "Quebec", "claim_id": "", "claim_name": null, "holder": "Major Gold Corporation", "status": "Active", "recorded_date": null, "anniversary_or_expiry": null, "area_ha": null, "tenure_type": null, "source": "GESTIM active titles (MRNF digital data dump). Not legal title.", "as_of": "2026-09-20", "role": "focus", "color": "#e8b040"}}, {"type": "Feature", "geometry": {"type": "Polygon", "coordinates": [[[-74.78333333464951, 49.30000000370401], [-74.78333333237198, 49.3083333353372], [-74.77500000017194, 49.30833333298771], [-74.77500000466718, 49.300000000665406], [-74.78333333464951, 49.30000000370401]]]}, "properties": {"company_id": "major-drilling-group-international", "jurisdiction": "Quebec", "claim_id": "", "claim_name": null, "holder": "Major Gold Corporation", "status": "Active", "recorded_date": null, "anniversary_or_expiry": null, "area_ha": null, "tenure_type": null, "source": "GESTIM active titles (MRNF digital data dump). Not legal title.", "as_of": "2026-09-20", "role": "focus", "color": "#e8b040"}}, {"type": "Feature", "geometry": {"type": "Polygon", "coordinates": [[[-74.77500000466718, 49.300000000665406], [-74.77500000017194, 49.30833333298771], [-74.76666666725697, 49.308333332410164], [-74.76666666021704, 49.29999999934518], [-74.77500000466718, 49.300000000665406]]]}, "properties": {"company_id": "major-drilling-group-international", "jurisdiction": "Quebec", "claim_id": "", "claim_name": null, "holder": "Major Gold Corporation", "status": "Active", "recorded_date": null, "anniversary_or_expiry": null, "area_ha": null, "tenure_type": null, "source": "GESTIM active titles (MRNF digital data dump). Not legal title.", "as_of": "2026-09-20", "role": "focus", "color": "#e8b040"}}, {"type": "Feature", "geometry": {"type": "Polygon", "coordinates": [[[-74.76666666021704, 49.29999999934518], [-74.76666666725697, 49.308333332410164], [-74.75833333359999, 49.30833333360386], [-74.75833332878132, 49.29999999979709], [-74.76666666021704, 49.29999999934518]]]}, "properties": {"company_id": "major-drilling-group-international", "jurisdiction": "Quebec", "claim_id": "", "claim_name": null, "holder": "Major Gold Corporation", "status": "Active", "recorded_date": null, "anniversary_or_expiry": null, "area_ha": null, "tenure_type": null, "source": "GESTIM active titles (MRNF digital data dump). Not legal title.", "as_of": "2026-09-20", "role": "focus", "color": "#e8b040"}}, {"type": "Feature", "geometry": {"type": "Polygon", "coordinates": [[[-74.75833332878132, 49.29999999979709], [-74.75833333359999, 49.30833333360386], [-74.74999999917388, 49.308333336568005], [-74.74999999657831, 49.300000001993574], [-74.75833332878132, 49.29999999979709]]]}, "properties": {"company_id": "major-drilling-group-international", "jurisdiction": "Quebec", "claim_id": "", "claim_name": null, "holder": "Major Gold Corporation", "status": "Active", "recorded_date": null, "anniversary_or_expiry": null, "area_ha": null, "tenure_type": null, "source": "GESTIM active titles (MRNF digital data dump). Not legal title.", "as_of": "2026-09-20", "role": "focus", "color": "#e8b040"}}, {"type": "Feature", "geometry": {"type": "Polygon", "coordinates": [[[-74.83333333977225, 49.30833333275388], [-74.83333333344058, 49.316666666691056], [-74.82500000251815, 49.31666667222102], [-74.82499999748113, 49.3083333377295], [-74.83333333977225, 49.30833333275388]]]}, "properties": {"company_id": "major-drilling-group-international", "jurisdiction": "Quebec", "claim_id": "", "claim_name": null, "holder": "Major Gold Corporation", "status": "Active", "recorded_date": null, "anniversary_or_expiry": null, "area_ha": null, "tenure_type": null, "source": "GESTIM active titles (MRNF digital data dump). Not legal title.", "as_of": "2026-09-20", "role": "focus", "color": "#e8b040"}}, {"type": "Feature", "geometry": {"type": "Polygon", "coordinates": [[[-74.82499999748113, 49.3083333377295], [-74.82500000251815, 49.31666667222102], [-74.81666667106936, 49.31666667055766], [-74.81666666842197, 49.30833333550579], [-74.82499999748113, 49.3083333377295]]]}, "properties": {"company_id": "major-drilling-group-international", "jurisdiction": "Quebec", "claim_id": "", "claim_name": null, "holder": "Major Gold Corporation", "status": "Active", "recorded_date": null, "anniversary_or_expiry": null, "area_ha": null, "tenure_type": null, "source": "GESTIM active titles (MRNF digital data dump). Not legal title.", "as_of": "2026-09-20", "role": "focus", "color": "#e8b040"}}, {"type": "Feature", "geometry": {"type": "Polygon", "coordinates": [[[-74.81666666842197, 49.30833333550579], [-74.81666667106936, 49.31666667055766], [-74.80833333903665, 49.31666667069554], [-74.80833333878032, 49.30833333505743], [-74.81666666842197, 49.30833333550579]]]}, "properties": {"company_id": "major-drilling-group-international", "jurisdiction": "Quebec", "claim_id": "", "claim_name": null, "holder": "Major Gold Corporation", "status": "Active", "recorded_date": null, "anniversary_or_expiry": null, "area_ha": null, "tenure_type": null, "source": "GESTIM active titles (MRNF digital data dump). Not legal title.", "as_of": "2026-09-20", "role": "focus", "color": "#e8b040"}}, {"type": "Feature", "geometry": {"type": "Polygon", "coordinates": [[[-74.80833333878032, 49.30833333505743], [-74.80833333903665, 49.31666667069554], [-74.80000000639289, 49.31666667263403], [-74.79999999477211, 49.308333336359986], [-74.80833333878032, 49.30833333505743]]]}, "properties": {"company_id": "major-drilling-group-international", "jurisdiction": "Quebec", "claim_id": "", "claim_name": null, "holder": "Major Gold Corporation", "status": "Active", "recorded_date": null, "anniversary_or_expiry": null, "area_ha": null, "tenure_type": null, "source": "GESTIM active titles (MRNF digital data dump). Not legal title.", "as_of": "2026-09-20", "role": "focus", "color": "#e8b040"}}, {"type": "Feature", "geometry": {"type": "Polygon", "coordinates": [[[-74.79999999477211, 49.308333336359986], [-74.80000000639289, 49.31666667263403], [-74.7916666731489, 49.31666666737741], [-74.7916666638842, 49.308333339459416], [-74.79999999477211, 49.308333336359986]]]}, "properties": {"company_id": "major-drilling-group-international", "jurisdiction": "Quebec", "claim_id": "", "claim_name": null, "holder": "Major Gold Corporation", "status": "Active", "recorded_date": null, "anniversary_or_expiry": null, "area_ha": null, "tenure_type": null, "source": "GESTIM active titles (MRNF digital data dump). Not legal title.", "as_of": "2026-09-20", "role": "focus", "color": "#e8b040"}}, {"type": "Feature", "geometry": {"type": "Polygon", "coordinates": [[[-74.7916666638842, 49.308333339459416], [-74.7916666731489, 49.31666666737741], [-74.78333333920304, 49.31666667291511], [-74.78333333237198, 49.3083333353372], [-74.7916666638842, 49.308333339459416]]]}, "properties": {"company_id": "major-drilling-group-international", "jurisdiction": "Quebec", "claim_id": "", "claim_name": null, "holder": "Major Gold Corporation", "status": "Active", "recorded_date": null, "anniversary_or_expiry": null, "area_ha": null, "tenure_type": null, "source": "GESTIM active titles (MRNF digital data dump). Not legal title.", "as_of": "2026-09-20", "role": "focus", "color": "#e8b040"}}, {"type": "Feature", "geometry": {"type": "Polygon", "coordinates": [[[-74.78333333237198, 49.3083333353372], [-74.78333333920304, 49.31666667291511], [-74.77500000460567, 49.31666667125635], [-74.77500000017194, 49.30833333298771], [-74.78333333237198, 49.3083333353372]]]}, "properties": {"company_id": "major-drilling-group-international", "jurisdiction": "Quebec", "claim_id": "", "claim_name": null, "holder": "Major Gold Corporation", "status": "Active", "recorded_date": null, "anniversary_or_expiry": null, "area_ha": null, "tenure_type": null, "source": "GESTIM active titles (MRNF digital data dump). Not legal title.", "as_of": "2026-09-20", "role": "focus", "color": "#e8b040"}}, {"type": "Feature", "geometry": {"type": "Polygon", "coordinates": [[[-74.77500000017194, 49.30833333298771], [-74.77500000460567, 49.31666667125635], [-74.76666666929165, 49.31666667139547], [-74.76666666725697, 49.308333332410164], [-74.77500000017194, 49.30833333298771]]]}, "properties": {"company_id": "major-drilling-group-international", "jurisdiction": "Quebec", "claim_id": "", "claim_name": null, "holder": "Major Gold Corporation", "status": "Active", "recorded_date": null, "anniversary_or_expiry": null, "area_ha": null, "tenure_type": null, "source": "GESTIM active titles (MRNF digital data dump). Not legal title.", "as_of": "2026-09-20", "role": "focus", "color": "#e8b040"}}, {"type": "Feature", "geometry": {"type": "Polygon", "coordinates": [[[-74.76666666725697, 49.308333332410164], [-74.76666666929165, 49.31666667139547], [-74.75833333323381, 49.31666667333166], [-74.75833333359999, 49.30833333360386], [-74.76666666725697, 49.308333332410164]]]}, "properties": {"company_id": "major-drilling-group-international", "jurisdiction": "Quebec", "claim_id": "", "claim_name": null, "holder": "Major Gold Corporation", "status": "Active", "recorded_date": null, "anniversary_or_expiry": null, "area_ha": null, "tenure_type": null, "source": "GESTIM active titles (MRNF digital data dump). Not legal title.", "as_of": "2026-09-20", "role": "focus", "color": "#e8b040"}}, {"type": "Feature", "geometry": {"type": "Polygon", "coordinates": [[[-74.75833333359999, 49.30833333360386], [-74.75833333323381, 49.31666667333166], [-74.74999999645053, 49.31666666806913], [-74.74999999917388, 49.308333336568005], [-74.75833333359999, 49.30833333360386]]]}, "properties": {"company_id": "major-drilling-group-international", "jurisdiction": "Quebec", "claim_id": "", "claim_name": null, "holder": "Major Gold Corporation", "status": "Active", "recorded_date": null, "anniversary_or_expiry": null, "area_ha": null, "tenure_type": null, "source": "GESTIM active titles (MRNF digital data dump). Not legal title.", "as_of": "2026-09-20", "role": "focus", "color": "#e8b040"}}, {"type": "Feature", "geometry": {"type": "Polygon", "coordinates": [[[-74.83333333344058, 49.316666666691056], [-74.83333333729149, 49.32500000656404], [-74.825000003833, 49.32500000363389], [-74.82500000251815, 49.31666667222102], [-74.83333333344058, 49.316666666691056]]]}, "properties": {"company_id": "major-drilling-group-international", "jurisdiction": "Quebec", "claim_id": "", "claim_name": null, "holder": "Major Gold Corporation", "status": "Active", "recorded_date": null, "anniversary_or_expiry": null, "area_ha": null, "tenure_type": null, "source": "GESTIM active titles (MRNF digital data dump). Not legal title.", "as_of": "2026-09-20", "role": "focus", "color": "#e8b040"}}, {"type": "Feature", "geometry": {"type": "Polygon", "coordinates": [[[-74.82500000251815, 49.31666667222102], [-74.825000003833, 49.32500000363389], [-74.81666666981641, 49.32500000253147], [-74.81666667106936, 49.31666667055766], [-74.82500000251815, 49.31666667222102]]]}, "properties": {"company_id": "major-drilling-group-international", "jurisdiction": "Quebec", "claim_id": "", "claim_name": null, "holder": "Major Gold Corporation", "status": "Active", "recorded_date": null, "anniversary_or_expiry": null, "area_ha": null, "tenure_type": null, "source": "GESTIM active titles (MRNF digital data dump). Not legal title.", "as_of": "2026-09-20", "role": "focus", "color": "#e8b040"}}, {"type": "Feature", "geometry": {"type": "Polygon", "coordinates": [[[-74.81666667106936, 49.31666667055766], [-74.81666666981641, 49.32500000253147], [-74.80833333521454, 49.32500000325616], [-74.80833333903665, 49.31666667069554], [-74.81666667106936, 49.31666667055766]]]}, "properties": {"company_id": "major-drilling-group-international", "jurisdiction": "Quebec", "claim_id": "", "claim_name": null, "holder": "Major Gold Corporation", "status": "Active", "recorded_date": null, "anniversary_or_expiry": null, "area_ha": null, "tenure_type": null, "source": "GESTIM active titles (MRNF digital data dump). Not legal title.", "as_of": "2026-09-20", "role": "focus", "color": "#e8b040"}}, {"type": "Feature", "geometry": {"type": "Polygon", "coordinates": [[[-74.80833333903665, 49.31666667069554], [-74.80833333521454, 49.32500000325616], [-74.80000000000013, 49.32500000580734], [-74.80000000639289, 49.31666667263403], [-74.80833333903665, 49.31666667069554]]]}, "properties": {"company_id": "major-drilling-group-international", "jurisdiction": "Quebec", "claim_id": "", "claim_name": null, "holder": "Major Gold Corporation", "status": "Active", "recorded_date": null, "anniversary_or_expiry": null, "area_ha": null, "tenure_type": null, "source": "GESTIM active titles (MRNF digital data dump). Not legal title.", "as_of": "2026-09-20", "role": "focus", "color": "#e8b040"}}, {"type": "Feature", "geometry": {"type": "Polygon", "coordinates": [[[-74.80000000639289, 49.31666667263403], [-74.80000000000013, 49.32500000580734], [-74.79166666418394, 49.32500000118934], [-74.7916666731489, 49.31666666737741], [-74.80000000639289, 49.31666667263403]]]}, "properties": {"company_id": "major-drilling-group-international", "jurisdiction": "Quebec", "claim_id": "", "claim_name": null, "holder": "Major Gold Corporation", "status": "Active", "recorded_date": null, "anniversary_or_expiry": null, "area_ha": null, "tenure_type": null, "source": "GESTIM active titles (MRNF digital data dump). Not legal title.", "as_of": "2026-09-20", "role": "focus", "color": "#e8b040"}}, {"type": "Feature", "geometry": {"type": "Polygon", "coordinates": [[[-74.7916666731489, 49.31666666737741], [-74.79166666418394, 49.32500000118934], [-74.78333332766434, 49.32500000739156], [-74.78333333920304, 49.31666667291511], [-74.7916666731489, 49.31666666737741]]]}, "properties": {"company_id": "major-drilling-group-international", "jurisdiction": "Quebec", "claim_id": "", "claim_name": null, "holder": "Major Gold Corporation", "status": "Active", "recorded_date": null, "anniversary_or_expiry": null, "area_ha": null, "tenure_type": null, "source": "GESTIM active titles (MRNF digital data dump). Not legal title.", "as_of": "2026-09-20", "role": "focus", "color": "#e8b040"}}, {"type": "Feature", "geometry": {"type": "Polygon", "coordinates": [[[-74.75833333323381, 49.31666667333166], [-74.75833332776907, 49.32500000099084], [-74.75000000212249, 49.325000005522234], [-74.74999999645053, 49.31666666806913], [-74.75833333323381, 49.31666667333166]]]}, "properties": {"company_id": "major-drilling-group-international", "jurisdiction": "Quebec", "claim_id": "", "claim_name": null, "holder": "Major Gold Corporation", "status": "Active", "recorded_date": null, "anniversary_or_expiry": null, "area_ha": null, "tenure_type": null, "source": "GESTIM active titles (MRNF digital data dump). Not legal title.", "as_of": "2026-09-20", "role": "focus", "color": "#e8b040"}}, {"type": "Feature", "geometry": {"type": "Polygon", "coordinates": [[[-74.70833333901963, 49.27500000436345], [-74.70833333544549, 49.28333333434974], [-74.70000000206622, 49.283333336158975], [-74.69999999359143, 49.27500000521789], [-74.70833333901963, 49.27500000436345]]]}, "properties": {"company_id": "major-drilling-group-international", "jurisdiction": "Quebec", "claim_id": "", "claim_name": null, "holder": "Major Gold Corporation", "status": "Active", "recorded_date": null, "anniversary_or_expiry": null, "area_ha": null, "tenure_type": null, "source": "GESTIM active titles (MRNF digital data dump). Not legal title.", "as_of": "2026-09-20", "role": "focus", "color": "#e8b040"}}, {"type": "Feature", "geometry": {"type": "Polygon", "coordinates": [[[-74.74999999657831, 49.300000001993574], [-74.74999999917388, 49.308333336568005], [-74.7416666639986, 49.308333332306724], [-74.74166666358104, 49.300000005933846], [-74.74999999657831, 49.300000001993574]]]}, "properties": {"company_id": "major-drilling-group-international", "jurisdiction": "Quebec", "claim_id": "", "claim_name": null, "holder": "Major Gold Corporation", "status": "Active", "recorded_date": null, "anniversary_or_expiry": null, "area_ha": null, "tenure_type": null, "source": "GESTIM active titles (MRNF digital data dump). Not legal title.", "as_of": "2026-09-20", "role": "focus", "color": "#e8b040"}}, {"type": "Feature", "geometry": {"type": "Polygon", "coordinates": [[[-74.74166666358104, 49.300000005933846], [-74.7416666639986, 49.308333332306724], [-74.73333332795451, 49.30833333880931], [-74.733333329811, 49.30000000262208], [-74.74166666358104, 49.300000005933846]]]}, "properties": {"company_id": "major-drilling-group-international", "jurisdiction": "Quebec", "claim_id": "", "claim_name": null, "holder": "Major Gold Corporation", "status": "Active", "recorded_date": null, "anniversary_or_expiry": null, "area_ha": null, "tenure_type": null, "source": "GESTIM active titles (MRNF digital data dump). Not legal title.", "as_of": "2026-09-20", "role": "focus", "color": "#e8b040"}}, {"type": "Feature", "geometry": {"type": "Polygon", "coordinates": [[[-74.733333329811, 49.30000000262208], [-74.73333332795451, 49.30833333880931], [-74.725000004867, 49.308333338117514], [-74.72499999519566, 49.3000000010523], [-74.733333329811, 49.30000000262208]]]}, "properties": {"company_id": "major-drilling-group-international", "jurisdiction": "Quebec", "claim_id": "", "claim_name": null, "holder": "Major Gold Corporation", "status": "Active", "recorded_date": null, "anniversary_or_expiry": null, "area_ha": null, "tenure_type": null, "source": "GESTIM active titles (MRNF digital data dump). Not legal title.", "as_of": "2026-09-20", "role": "focus", "color": "#e8b040"}}, {"type": "Feature", "geometry": {"type": "Polygon", "coordinates": [[[-74.72499999519566, 49.3000000010523], [-74.725000004867, 49.308333338117514], [-74.71666666714812, 49.308333339160995], [-74.71666667346254, 49.30000000125747], [-74.72499999519566, 49.3000000010523]]]}, "properties": {"company_id": "major-drilling-group-international", "jurisdiction": "Quebec", "claim_id": "", "claim_name": null, "holder": "Major Gold Corporation", "status": "Active", "recorded_date": null, "anniversary_or_expiry": null, "area_ha": null, "tenure_type": null, "source": "GESTIM active titles (MRNF digital data dump). Not legal title.", "as_of": "2026-09-20", "role": "focus", "color": "#e8b040"}}, {"type": "Feature", "geometry": {"type": "Polygon", "coordinates": [[[-74.71666667346254, 49.30000000125747], [-74.71666666714812, 49.308333339160995], [-74.70833332858079, 49.30833333297559], [-74.70833333707546, 49.3000000031702], [-74.71666667346254, 49.30000000125747]]]}, "properties": {"company_id": "major-drilling-group-international", "jurisdiction": "Quebec", "claim_id": "", "claim_name": null, "holder": "Major Gold Corporation", "status": "Active", "recorded_date": null, "anniversary_or_expiry": null, "area_ha": null, "tenure_type": null, "source": "GESTIM active titles (MRNF digital data dump). Not legal title.", "as_of": "2026-09-20", "role": "focus", "color": "#e8b040"}}, {"type": "Feature", "geometry": {"type": "Polygon", "coordinates": [[[-74.699999999762, 49.30000000682225], [-74.70000000279012, 49.30833333758609], [-74.69166666234298, 49.30833333493106], [-74.69166666155127, 49.30000000321761], [-74.699999999762, 49.30000000682225]]]}, "properties": {"company_id": "major-drilling-group-international", "jurisdiction": "Quebec", "claim_id": "", "claim_name": null, "holder": "Major Gold Corporation", "status": "Active", "recorded_date": null, "anniversary_or_expiry": null, "area_ha": null, "tenure_type": null, "source": "GESTIM active titles (MRNF digital data dump). Not legal title.", "as_of": "2026-09-20", "role": "focus", "color": "#e8b040"}}, {"type": "Feature", "geometry": {"type": "Polygon", "coordinates": [[[-74.69166666155127, 49.30000000321761], [-74.69166666234298, 49.30833333493106], [-74.68333333467291, 49.30833333407692], [-74.68333333611761, 49.300000001388014], [-74.69166666155127, 49.30000000321761]]]}, "properties": {"company_id": "major-drilling-group-international", "jurisdiction": "Quebec", "claim_id": "", "claim_name": null, "holder": "Major Gold Corporation", "status": "Active", "recorded_date": null, "anniversary_or_expiry": null, "area_ha": null, "tenure_type": null, "source": "GESTIM active titles (MRNF digital data dump). Not legal title.", "as_of": "2026-09-20", "role": "focus", "color": "#e8b040"}}, {"type": "Feature", "geometry": {"type": "Polygon", "coordinates": [[[-74.68333333611761, 49.300000001388014], [-74.68333333467291, 49.30833333407692], [-74.67500000599594, 49.30833333498695], [-74.67499999592498, 49.30000000125806], [-74.68333333611761, 49.300000001388014]]]}, "properties": {"company_id": "major-drilling-group-international", "jurisdiction": "Quebec", "claim_id": "", "claim_name": null, "holder": "Major Gold Corporation", "status": "Active", "recorded_date": null, "anniversary_or_expiry": null, "area_ha": null, "tenure_type": null, "source": "GESTIM active titles (MRNF digital data dump). Not legal title.", "as_of": "2026-09-20", "role": "focus", "color": "#e8b040"}}, {"type": "Feature", "geometry": {"type": "Polygon", "coordinates": [[[-74.67499999592498, 49.30000000125806], [-74.67500000599594, 49.30833333498695], [-74.66666666252816, 49.3083333376204], [-74.6666666684554, 49.30000000290303], [-74.67499999592498, 49.30000000125806]]]}, "properties": {"company_id": "major-drilling-group-international", "jurisdiction": "Quebec", "claim_id": "", "claim_name": null, "holder": "Major Gold Corporation", "status": "Active", "recorded_date": null, "anniversary_or_expiry": null, "area_ha": null, "tenure_type": null, "source": "GESTIM active titles (MRNF digital data dump). Not legal title.", "as_of": "2026-09-20", "role": "focus", "color": "#e8b040"}}, {"type": "Feature", "geometry": {"type": "Polygon", "coordinates": [[[-74.6666666684554, 49.30000000290303], [-74.66666666252816, 49.3083333376204], [-74.65833333181833, 49.30833333305953], [-74.6583333399273, 49.30000000628414], [-74.6666666684554, 49.30000000290303]]]}, "properties": {"company_id": "major-drilling-group-international", "jurisdiction": "Quebec", "claim_id": "", "claim_name": null, "holder": "Major Gold Corporation", "status": "Active", "recorded_date": null, "anniversary_or_expiry": null, "area_ha": null, "tenure_type": null, "source": "GESTIM active titles (MRNF digital data dump). Not legal title.", "as_of": "2026-09-20", "role": "focus", "color": "#e8b040"}}, {"type": "Feature", "geometry": {"type": "Polygon", "coordinates": [[[-74.74999999917388, 49.308333336568005], [-74.74999999645053, 49.31666666806913], [-74.74166667258436, 49.31666667362792], [-74.7416666639986, 49.308333332306724], [-74.74999999917388, 49.308333336568005]]]}, "properties": {"company_id": "major-drilling-group-international", "jurisdiction": "Quebec", "claim_id": "", "claim_name": null, "holder": "Major Gold Corporation", "status": "Active", "recorded_date": null, "anniversary_or_expiry": null, "area_ha": null, "tenure_type": null, "source": "GESTIM active titles (MRNF digital data dump). Not legal title.", "as_of": "2026-09-20", "role": "focus", "color": "#e8b040"}}, {"type": "Feature", "geometry": {"type": "Polygon", "coordinates": [[[-74.73333332795451, 49.30833333880931], [-74.73333333418219, 49.316666671956575], [-74.72499999493064, 49.31666667207905], [-74.725000004867, 49.308333338117514], [-74.73333332795451, 49.30833333880931]]]}, "properties": {"company_id": "major-drilling-group-international", "jurisdiction": "Quebec", "claim_id": "", "claim_name": null, "holder": "Major Gold Corporation", "status": "Active", "recorded_date": null, "anniversary_or_expiry": null, "area_ha": null, "tenure_type": null, "source": "GESTIM active titles (MRNF digital data dump). Not legal title.", "as_of": "2026-09-20", "role": "focus", "color": "#e8b040"}}, {"type": "Feature", "geometry": {"type": "Polygon", "coordinates": [[[-74.725000004867, 49.308333338117514], [-74.72499999493064, 49.31666667207905], [-74.7166666685617, 49.31666667402814], [-74.71666666714812, 49.308333339160995], [-74.725000004867, 49.308333338117514]]]}, "properties": {"company_id": "major-drilling-group-international", "jurisdiction": "Quebec", "claim_id": "", "claim_name": null, "holder": "Major Gold Corporation", "status": "Active", "recorded_date": null, "anniversary_or_expiry": null, "area_ha": null, "tenure_type": null, "source": "GESTIM active titles (MRNF digital data dump). Not legal title.", "as_of": "2026-09-20", "role": "focus", "color": "#e8b040"}}, {"type": "Feature", "geometry": {"type": "Polygon", "coordinates": [[[-74.71666666714812, 49.308333339160995], [-74.7166666685617, 49.31666667402814], [-74.70833332758295, 49.31666666874151], [-74.70833332858079, 49.30833333297559], [-74.71666666714812, 49.308333339160995]]]}, "properties": {"company_id": "major-drilling-group-international", "jurisdiction": "Quebec", "claim_id": "", "claim_name": null, "holder": "Major Gold Corporation", "status": "Active", "recorded_date": null, "anniversary_or_expiry": null, "area_ha": null, "tenure_type": null, "source": "GESTIM active titles (MRNF digital data dump). Not legal title.", "as_of": "2026-09-20", "role": "focus", "color": "#e8b040"}}, {"type": "Feature", "geometry": {"type": "Polygon", "coordinates": [[[-74.70833332858079, 49.30833333297559], [-74.70833332758295, 49.31666666874151], [-74.69999999938092, 49.31666667427663], [-74.70000000279012, 49.30833333758609], [-74.70833332858079, 49.30833333297559]]]}, "properties": {"company_id": "major-drilling-group-international", "jurisdiction": "Quebec", "claim_id": "", "claim_name": null, "holder": "Major Gold Corporation", "status": "Active", "recorded_date": null, "anniversary_or_expiry": null, "area_ha": null, "tenure_type": null, "source": "GESTIM active titles (MRNF digital data dump). Not legal title.", "as_of": "2026-09-20", "role": "focus", "color": "#e8b040"}}, {"type": "Feature", "geometry": {"type": "Polygon", "coordinates": [[[-74.70000000279012, 49.30833333758609], [-74.69999999938092, 49.31666667427663], [-74.69166667027699, 49.31666667260883], [-74.69166666234298, 49.30833333493106], [-74.70000000279012, 49.30833333758609]]]}, "properties": {"company_id": "major-drilling-group-international", "jurisdiction": "Quebec", "claim_id": "", "claim_name": null, "holder": "Major Gold Corporation", "status": "Active", "recorded_date": null, "anniversary_or_expiry": null, "area_ha": null, "tenure_type": null, "source": "GESTIM active titles (MRNF digital data dump). Not legal title.", "as_of": "2026-09-20", "role": "focus", "color": "#e8b040"}}, {"type": "Feature", "geometry": {"type": "Polygon", "coordinates": [[[-74.68333333467291, 49.30833333407692], [-74.68333332643171, 49.316666672694396], [-74.67499999539545, 49.3166666656117], [-74.67500000599594, 49.30833333498695], [-74.68333333467291, 49.30833333407692]]]}, "properties": {"company_id": "major-drilling-group-international", "jurisdiction": "Quebec", "claim_id": "", "claim_name": null, "holder": "Major Gold Corporation", "status": "Active", "recorded_date": null, "anniversary_or_expiry": null, "area_ha": null, "tenure_type": null, "source": "GESTIM active titles (MRNF digital data dump). Not legal title.", "as_of": "2026-09-20", "role": "focus", "color": "#e8b040"}}, {"type": "Feature", "geometry": {"type": "Polygon", "coordinates": [[[-74.67500000599594, 49.30833333498695], [-74.67499999539545, 49.3166666656117], [-74.66666666326503, 49.31666666931295], [-74.66666666252816, 49.3083333376204], [-74.67500000599594, 49.30833333498695]]]}, "properties": {"company_id": "major-drilling-group-international", "jurisdiction": "Quebec", "claim_id": "", "claim_name": null, "holder": "Major Gold Corporation", "status": "Active", "recorded_date": null, "anniversary_or_expiry": null, "area_ha": null, "tenure_type": null, "source": "GESTIM active titles (MRNF digital data dump). Not legal title.", "as_of": "2026-09-20", "role": "focus", "color": "#e8b040"}}, {"type": "Feature", "geometry": {"type": "Polygon", "coordinates": [[[-74.74999999645053, 49.31666666806913], [-74.75000000212249, 49.325000005522234], [-74.74166666196135, 49.32500000285124], [-74.74166667258436, 49.31666667362792], [-74.74999999645053, 49.31666666806913]]]}, "properties": {"company_id": "major-drilling-group-international", "jurisdiction": "Quebec", "claim_id": "", "claim_name": null, "holder": "Major Gold Corporation", "status": "Active", "recorded_date": null, "anniversary_or_expiry": null, "area_ha": null, "tenure_type": null, "source": "GESTIM active titles (MRNF digital data dump). Not legal title.", "as_of": "2026-09-20", "role": "focus", "color": "#e8b040"}}, {"type": "Feature", "geometry": {"type": "Polygon", "coordinates": [[[-74.74166667258436, 49.31666667362792], [-74.74166666196135, 49.32500000285124], [-74.73333333473755, 49.325000002032596], [-74.73333333418219, 49.316666671956575], [-74.74166667258436, 49.31666667362792]]]}, "properties": {"company_id": "major-drilling-group-international", "jurisdiction": "Quebec", "claim_id": "", "claim_name": null, "holder": "Major Gold Corporation", "status": "Active", "recorded_date": null, "anniversary_or_expiry": null, "area_ha": null, "tenure_type": null, "source": "GESTIM active titles (MRNF digital data dump). Not legal title.", "as_of": "2026-09-20", "role": "focus", "color": "#e8b040"}}, {"type": "Feature", "geometry": {"type": "Polygon", "coordinates": [[[-74.73333333418219, 49.316666671956575], [-74.73333333473755, 49.325000002032596], [-74.72500000666221, 49.32500000303562], [-74.72499999493064, 49.31666667207905], [-74.73333333418219, 49.316666671956575]]]}, "properties": {"company_id": "major-drilling-group-international", "jurisdiction": "Quebec", "claim_id": "", "claim_name": null, "holder": "Major Gold Corporation", "status": "Active", "recorded_date": null, "anniversary_or_expiry": null, "area_ha": null, "tenure_type": null, "source": "GESTIM active titles (MRNF digital data dump). Not legal title.", "as_of": "2026-09-20", "role": "focus", "color": "#e8b040"}}, {"type": "Feature", "geometry": {"type": "Polygon", "coordinates": [[[-74.72499999493064, 49.31666667207905], [-74.72500000666221, 49.32500000303562], [-74.71666666394667, 49.32500000582572], [-74.7166666685617, 49.31666667402814], [-74.72499999493064, 49.31666667207905]]]}, "properties": {"company_id": "major-drilling-group-international", "jurisdiction": "Quebec", "claim_id": "", "claim_name": null, "holder": "Major Gold Corporation", "status": "Active", "recorded_date": null, "anniversary_or_expiry": null, "area_ha": null, "tenure_type": null, "source": "GESTIM active titles (MRNF digital data dump). Not legal title.", "as_of": "2026-09-20", "role": "focus", "color": "#e8b040"}}, {"type": "Feature", "geometry": {"type": "Polygon", "coordinates": [[[-74.7166666685617, 49.31666667402814], [-74.71666666394667, 49.32500000582572], [-74.7083333341399, 49.325000001473455], [-74.70833332758295, 49.31666666874151], [-74.7166666685617, 49.31666667402814]]]}, "properties": {"company_id": "major-drilling-group-international", "jurisdiction": "Quebec", "claim_id": "", "claim_name": null, "holder": "Major Gold Corporation", "status": "Active", "recorded_date": null, "anniversary_or_expiry": null, "area_ha": null, "tenure_type": null, "source": "GESTIM active titles (MRNF digital data dump). Not legal title.", "as_of": "2026-09-20", "role": "focus", "color": "#e8b040"}}, {"type": "Feature", "geometry": {"type": "Polygon", "coordinates": [[[-74.69999999938092, 49.31666667427663], [-74.70000000340299, 49.32499999894013], [-74.69166667165258, 49.325000007219714], [-74.69166667027699, 49.31666667260883], [-74.69999999938092, 49.31666667427663]]]}, "properties": {"company_id": "major-drilling-group-international", "jurisdiction": "Quebec", "claim_id": "", "claim_name": null, "holder": "Major Gold Corporation", "status": "Active", "recorded_date": null, "anniversary_or_expiry": null, "area_ha": null, "tenure_type": null, "source": "GESTIM active titles (MRNF digital data dump). Not legal title.", "as_of": "2026-09-20", "role": "focus", "color": "#e8b040"}}, {"type": "Feature", "geometry": {"type": "Polygon", "coordinates": [[[-74.69166667027699, 49.31666667260883], [-74.69166667165258, 49.325000007219714], [-74.68333333902999, 49.32499999932634], [-74.68333332643171, 49.316666672694396], [-74.69166667027699, 49.31666667260883]]]}, "properties": {"company_id": "major-drilling-group-international", "jurisdiction": "Quebec", "claim_id": "", "claim_name": null, "holder": "Major Gold Corporation", "status": "Active", "recorded_date": null, "anniversary_or_expiry": null, "area_ha": null, "tenure_type": null, "source": "GESTIM active titles (MRNF digital data dump). Not legal title.", "as_of": "2026-09-20", "role": "focus", "color": "#e8b040"}}, {"type": "Feature", "geometry": {"type": "Polygon", "coordinates": [[[-74.68333332643171, 49.316666672694396], [-74.68333333902999, 49.32499999932634], [-74.67500000533943, 49.325000002243854], [-74.67499999539545, 49.3166666656117], [-74.68333332643171, 49.316666672694396]]]}, "properties": {"company_id": "major-drilling-group-international", "jurisdiction": "Quebec", "claim_id": "", "claim_name": null, "holder": "Major Gold Corporation", "status": "Active", "recorded_date": null, "anniversary_or_expiry": null, "area_ha": null, "tenure_type": null, "source": "GESTIM active titles (MRNF digital data dump). Not legal title.", "as_of": "2026-09-20", "role": "focus", "color": "#e8b040"}}, {"type": "Feature", "geometry": {"type": "Polygon", "coordinates": [[[-74.67499999539545, 49.3166666656117], [-74.67500000533943, 49.325000002243854], [-74.66666667060989, 49.32500000697623], [-74.66666666326503, 49.31666666931295], [-74.67499999539545, 49.3166666656117]]]}, "properties": {"company_id": "major-drilling-group-international", "jurisdiction": "Quebec", "claim_id": "", "claim_name": null, "holder": "Major Gold Corporation", "status": "Active", "recorded_date": null, "anniversary_or_expiry": null, "area_ha": null, "tenure_type": null, "source": "GESTIM active titles (MRNF digital data dump). Not legal title.", "as_of": "2026-09-20", "role": "focus", "color": "#e8b040"}}, {"type": "Feature", "geometry": {"type": "Polygon", "coordinates": [[[-74.66666666326503, 49.31666666931295], [-74.66666667060989, 49.32500000697623], [-74.65833333487637, 49.32500000452746], [-74.65833333013322, 49.316666665807155], [-74.66666666326503, 49.31666666931295]]]}, "properties": {"company_id": "major-drilling-group-international", "jurisdiction": "Quebec", "claim_id": "", "claim_name": null, "holder": "Major Gold Corporation", "status": "Active", "recorded_date": null, "anniversary_or_expiry": null, "area_ha": null, "tenure_type": null, "source": "GESTIM active titles (MRNF digital data dump). Not legal title.", "as_of": "2026-09-20", "role": "focus", "color": "#e8b040"}}, {"type": "Feature", "geometry": {"type": "Polygon", "coordinates": [[[-74.75000000212249, 49.325000005522234], [-74.75000000247657, 49.333333339903014], [-74.74166667331833, 49.333333338059575], [-74.74166666196135, 49.32500000285124], [-74.75000000212249, 49.325000005522234]]]}, "properties": {"company_id": "major-drilling-group-international", "jurisdiction": "Quebec", "claim_id": "", "claim_name": null, "holder": "Major Gold Corporation", "status": "Active", "recorded_date": null, "anniversary_or_expiry": null, "area_ha": null, "tenure_type": null, "source": "GESTIM active titles (MRNF digital data dump). Not legal title.", "as_of": "2026-09-20", "role": "focus", "color": "#e8b040"}}, {"type": "Feature", "geometry": {"type": "Polygon", "coordinates": [[[-74.73333333473755, 49.325000002032596], [-74.73333332957002, 49.33333333803288], [-74.72499999873202, 49.33333333988455], [-74.72500000666221, 49.32500000303562], [-74.73333333473755, 49.325000002032596]]]}, "properties": {"company_id": "major-drilling-group-international", "jurisdiction": "Quebec", "claim_id": "", "claim_name": null, "holder": "Major Gold Corporation", "status": "Active", "recorded_date": null, "anniversary_or_expiry": null, "area_ha": null, "tenure_type": null, "source": "GESTIM active titles (MRNF digital data dump). Not legal title.", "as_of": "2026-09-20", "role": "focus", "color": "#e8b040"}}, {"type": "Feature", "geometry": {"type": "Polygon", "coordinates": [[[-74.72500000666221, 49.32500000303562], [-74.72499999873202, 49.33333333988455], [-74.71666666706484, 49.33333333458797], [-74.71666666394667, 49.32500000582572], [-74.72500000666221, 49.32500000303562]]]}, "properties": {"company_id": "major-drilling-group-international", "jurisdiction": "Quebec", "claim_id": "", "claim_name": null, "holder": "Major Gold Corporation", "status": "Active", "recorded_date": null, "anniversary_or_expiry": null, "area_ha": null, "tenure_type": null, "source": "GESTIM active titles (MRNF digital data dump). Not legal title.", "as_of": "2026-09-20", "role": "focus", "color": "#e8b040"}}, {"type": "Feature", "geometry": {"type": "Polygon", "coordinates": [[[-74.71666666394667, 49.32500000582572], [-74.71666666706484, 49.33333333458797], [-74.70833333443944, 49.33333334013218], [-74.7083333341399, 49.325000001473455], [-74.71666666394667, 49.32500000582572]]]}, "properties": {"company_id": "major-drilling-group-international", "jurisdiction": "Quebec", "claim_id": "", "claim_name": null, "holder": "Major Gold Corporation", "status": "Active", "recorded_date": null, "anniversary_or_expiry": null, "area_ha": null, "tenure_type": null, "source": "GESTIM active titles (MRNF digital data dump). Not legal title.", "as_of": "2026-09-20", "role": "focus", "color": "#e8b040"}}, {"type": "Feature", "geometry": {"type": "Polygon", "coordinates": [[[-74.7083333341399, 49.325000001473455], [-74.70833333443944, 49.33333334013218], [-74.70000000093333, 49.33333333852628], [-74.70000000340299, 49.32499999894013], [-74.7083333341399, 49.325000001473455]]]}, "properties": {"company_id": "major-drilling-group-international", "jurisdiction": "Quebec", "claim_id": "", "claim_name": null, "holder": "Major Gold Corporation", "status": "Active", "recorded_date": null, "anniversary_or_expiry": null, "area_ha": null, "tenure_type": null, "source": "GESTIM active titles (MRNF digital data dump). Not legal title.", "as_of": "2026-09-20", "role": "focus", "color": "#e8b040"}}, {"type": "Feature", "geometry": {"type": "Polygon", "coordinates": [[[-74.70000000340299, 49.32499999894013], [-74.70000000093333, 49.33333333852628], [-74.69166666646755, 49.33333333876423], [-74.69166667165258, 49.325000007219714], [-74.70000000340299, 49.32499999894013]]]}, "properties": {"company_id": "major-drilling-group-international", "jurisdiction": "Quebec", "claim_id": "", "claim_name": null, "holder": "Major Gold Corporation", "status": "Active", "recorded_date": null, "anniversary_or_expiry": null, "area_ha": null, "tenure_type": null, "source": "GESTIM active titles (MRNF digital data dump). Not legal title.", "as_of": "2026-09-20", "role": "focus", "color": "#e8b040"}}, {"type": "Feature", "geometry": {"type": "Polygon", "coordinates": [[[-74.68333333902999, 49.32499999932634], [-74.6833333310149, 49.33333334084508], [-74.67499999460725, 49.33333333577287], [-74.67500000533943, 49.325000002243854], [-74.68333333902999, 49.32499999932634]]]}, "properties": {"company_id": "major-drilling-group-international", "jurisdiction": "Quebec", "claim_id": "", "claim_name": null, "holder": "Major Gold Corporation", "status": "Active", "recorded_date": null, "anniversary_or_expiry": null, "area_ha": null, "tenure_type": null, "source": "GESTIM active titles (MRNF digital data dump). Not legal title.", "as_of": "2026-09-20", "role": "focus", "color": "#e8b040"}}, {"type": "Feature", "geometry": {"type": "Polygon", "coordinates": [[[-74.67500000533943, 49.325000002243854], [-74.67499999460725, 49.33333333577287], [-74.66666667092488, 49.333333332581105], [-74.66666667060989, 49.32500000697623], [-74.67500000533943, 49.325000002243854]]]}, "properties": {"company_id": "major-drilling-group-international", "jurisdiction": "Quebec", "claim_id": "", "claim_name": null, "holder": "Major Gold Corporation", "status": "Active", "recorded_date": null, "anniversary_or_expiry": null, "area_ha": null, "tenure_type": null, "source": "GESTIM active titles (MRNF digital data dump). Not legal title.", "as_of": "2026-09-20", "role": "focus", "color": "#e8b040"}}, {"type": "Feature", "geometry": {"type": "Polygon", "coordinates": [[[-74.66666667060989, 49.32500000697623], [-74.66666667092488, 49.333333332581105], [-74.65833333235078, 49.333333340185305], [-74.65833333487637, 49.32500000452746], [-74.66666667060989, 49.32500000697623]]]}, "properties": {"company_id": "major-drilling-group-international", "jurisdiction": "Quebec", "claim_id": "", "claim_name": null, "holder": "Major Gold Corporation", "status": "Active", "recorded_date": null, "anniversary_or_expiry": null, "area_ha": null, "tenure_type": null, "source": "GESTIM active titles (MRNF digital data dump). Not legal title.", "as_of": "2026-09-20", "role": "focus", "color": "#e8b040"}}, {"type": "Feature", "geometry": {"type": "Polygon", "coordinates": [[[-74.64999999662288, 49.300000002363696], [-74.64999999995966, 49.30833333925459], [-74.64166666705094, 49.30833333821438], [-74.64166666596341, 49.30000000021783], [-74.64999999662288, 49.300000002363696]]]}, "properties": {"company_id": "major-drilling-group-international", "jurisdiction": "Quebec", "claim_id": "", "claim_name": null, "holder": "Major Gold Corporation", "status": "Active", "recorded_date": null, "anniversary_or_expiry": null, "area_ha": null, "tenure_type": null, "source": "GESTIM active titles (MRNF digital data dump). Not legal title.", "as_of": "2026-09-20", "role": "focus", "color": "#e8b040"}}, {"type": "Feature", "geometry": {"type": "Polygon", "coordinates": [[[-74.64166666596341, 49.30000000021783], [-74.64166666705094, 49.30833333821438], [-74.63333333300292, 49.30833333893281], [-74.6333333341674, 49.29999999980468], [-74.64166666596341, 49.30000000021783]]]}, "properties": {"company_id": "major-drilling-group-international", "jurisdiction": "Quebec", "claim_id": "", "claim_name": null, "holder": "Major Gold Corporation", "status": "Active", "recorded_date": null, "anniversary_or_expiry": null, "area_ha": null, "tenure_type": null, "source": "GESTIM active titles (MRNF digital data dump). Not legal title.", "as_of": "2026-09-20", "role": "focus", "color": "#e8b040"}}, {"type": "Feature", "geometry": {"type": "Polygon", "coordinates": [[[-74.6333333341674, 49.29999999980468], [-74.63333333300292, 49.30833333893281], [-74.62499999785678, 49.308333332413696], [-74.6250000012078, 49.30000000112312], [-74.6333333341674, 49.29999999980468]]]}, "properties": {"company_id": "major-drilling-group-international", "jurisdiction": "Quebec", "claim_id": "", "claim_name": null, "holder": "Major Gold Corporation", "status": "Active", "recorded_date": null, "anniversary_or_expiry": null, "area_ha": null, "tenure_type": null, "source": "GESTIM active titles (MRNF digital data dump). Not legal title.", "as_of": "2026-09-20", "role": "focus", "color": "#e8b040"}}, {"type": "Feature", "geometry": {"type": "Polygon", "coordinates": [[[-74.6250000012078, 49.30000000112312], [-74.62499999785678, 49.308333332413696], [-74.61666666145037, 49.30833333664568], [-74.61666666705759, 49.30000000417187], [-74.6250000012078, 49.30000000112312]]]}, "properties": {"company_id": "major-drilling-group-international", "jurisdiction": "Quebec", "claim_id": "", "claim_name": null, "holder": "Major Gold Corporation", "status": "Active", "recorded_date": null, "anniversary_or_expiry": null, "area_ha": null, "tenure_type": null, "source": "GESTIM active titles (MRNF digital data dump). Not legal title.", "as_of": "2026-09-20", "role": "focus", "color": "#e8b040"}}, {"type": "Feature", "geometry": {"type": "Polygon", "coordinates": [[[-74.61666666705759, 49.30000000417187], [-74.61666666145037, 49.30833333664568], [-74.60833333765143, 49.308333333684324], [-74.60833333176103, 49.29999999995476], [-74.61666666705759, 49.30000000417187]]]}, "properties": {"company_id": "major-drilling-group-international", "jurisdiction": "Quebec", "claim_id": "", "claim_name": null, "holder": "Major Gold Corporation", "status": "Active", "recorded_date": null, "anniversary_or_expiry": null, "area_ha": null, "tenure_type": null, "source": "GESTIM active titles (MRNF digital data dump). Not legal title.", "as_of": "2026-09-20", "role": "focus", "color": "#e8b040"}}, {"type": "Feature", "geometry": {"type": "Polygon", "coordinates": [[[-74.60833333176103, 49.29999999995476], [-74.60833333765143, 49.308333333684324], [-74.59999999885112, 49.30833333243098], [-74.59999999515003, 49.3000000064604], [-74.60833333176103, 49.29999999995476]]]}, "properties": {"company_id": "major-drilling-group-international", "jurisdiction": "Quebec", "claim_id": "", "claim_name": null, "holder": "Major Gold Corporation", "status": "Active", "recorded_date": null, "anniversary_or_expiry": null, "area_ha": null, "tenure_type": null, "source": "GESTIM active titles (MRNF digital data dump). Not legal title.", "as_of": "2026-09-20", "role": "focus", "color": "#e8b040"}}, {"type": "Feature", "geometry": {"type": "Polygon", "coordinates": [[[-74.59999999515003, 49.3000000064604], [-74.59999999885112, 49.30833333243098], [-74.59166667253577, 49.308333332978606], [-74.59166667109608, 49.30000000574621], [-74.59999999515003, 49.3000000064604]]]}, "properties": {"company_id": "major-drilling-group-international", "jurisdiction": "Quebec", "claim_id": "", "claim_name": null, "holder": "Major Gold Corporation", "status": "Active", "recorded_date": null, "anniversary_or_expiry": null, "area_ha": null, "tenure_type": null, "source": "GESTIM active titles (MRNF digital data dump). Not legal title.", "as_of": "2026-09-20", "role": "focus", "color": "#e8b040"}}, {"type": "Feature", "geometry": {"type": "Polygon", "coordinates": [[[-74.59166667109608, 49.30000000574621], [-74.59166667253577, 49.308333332978606], [-74.58333333116492, 49.308333335229605], [-74.58333333199204, 49.30000000670957], [-74.59166667109608, 49.30000000574621]]]}, "properties": {"company_id": "major-drilling-group-international", "jurisdiction": "Quebec", "claim_id": "", "claim_name": null, "holder": "Major Gold Corporation", "status": "Active", "recorded_date": null, "anniversary_or_expiry": null, "area_ha": null, "tenure_type": null, "source": "GESTIM active titles (MRNF digital data dump). Not legal title.", "as_of": "2026-09-20", "role": "focus", "color": "#e8b040"}}, {"type": "Feature", "geometry": {"type": "Polygon", "coordinates": [[[-74.65833333181833, 49.30833333305953], [-74.65833333013322, 49.316666665807155], [-74.64999999584987, 49.31666667308306], [-74.64999999995966, 49.30833333925459], [-74.65833333181833, 49.30833333305953]]]}, "properties": {"company_id": "major-drilling-group-international", "jurisdiction": "Quebec", "claim_id": "", "claim_name": null, "holder": "Major Gold Corporation", "status": "Active", "recorded_date": null, "anniversary_or_expiry": null, "area_ha": null, "tenure_type": null, "source": "GESTIM active titles (MRNF digital data dump). Not legal title.", "as_of": "2026-09-20", "role": "focus", "color": "#e8b040"}}, {"type": "Feature", "geometry": {"type": "Polygon", "coordinates": [[[-74.64999999995966, 49.30833333925459], [-74.64999999584987, 49.31666667308306], [-74.64166666051385, 49.31666667314964], [-74.64166666705094, 49.30833333821438], [-74.64999999995966, 49.30833333925459]]]}, "properties": {"company_id": "major-drilling-group-international", "jurisdiction": "Quebec", "claim_id": "", "claim_name": null, "holder": "Major Gold Corporation", "status": "Active", "recorded_date": null, "anniversary_or_expiry": null, "area_ha": null, "tenure_type": null, "source": "GESTIM active titles (MRNF digital data dump). Not legal title.", "as_of": "2026-09-20", "role": "focus", "color": "#e8b040"}}, {"type": "Feature", "geometry": {"type": "Polygon", "coordinates": [[[-74.64166666705094, 49.30833333821438], [-74.64166666051385, 49.31666667314964], [-74.63333333786163, 49.31666666604943], [-74.63333333300292, 49.30833333893281], [-74.64166666705094, 49.30833333821438]]]}, "properties": {"company_id": "major-drilling-group-international", "jurisdiction": "Quebec", "claim_id": "", "claim_name": null, "holder": "Major Gold Corporation", "status": "Active", "recorded_date": null, "anniversary_or_expiry": null, "area_ha": null, "tenure_type": null, "source": "GESTIM active titles (MRNF digital data dump). Not legal title.", "as_of": "2026-09-20", "role": "focus", "color": "#e8b040"}}, {"type": "Feature", "geometry": {"type": "Polygon", "coordinates": [[[-74.63333333300292, 49.30833333893281], [-74.63333333786163, 49.31666666604943], [-74.62500000021578, 49.31666666968477], [-74.62499999785678, 49.308333332413696], [-74.63333333300292, 49.30833333893281]]]}, "properties": {"company_id": "major-drilling-group-international", "jurisdiction": "Quebec", "claim_id": "", "claim_name": null, "holder": "Major Gold Corporation", "status": "Active", "recorded_date": null, "anniversary_or_expiry": null, "area_ha": null, "tenure_type": null, "source": "GESTIM active titles (MRNF digital data dump). Not legal title.", "as_of": "2026-09-20", "role": "focus", "color": "#e8b040"}}, {"type": "Feature", "geometry": {"type": "Polygon", "coordinates": [[[-74.62499999785678, 49.308333332413696], [-74.62500000021578, 49.31666666968477], [-74.61666666144339, 49.31666666610725], [-74.61666666145037, 49.30833333664568], [-74.62499999785678, 49.308333332413696]]]}, "properties": {"company_id": "major-drilling-group-international", "jurisdiction": "Quebec", "claim_id": "", "claim_name": null, "holder": "Major Gold Corporation", "status": "Active", "recorded_date": null, "anniversary_or_expiry": null, "area_ha": null, "tenure_type": null, "source": "GESTIM active titles (MRNF digital data dump). Not legal title.", "as_of": "2026-09-20", "role": "focus", "color": "#e8b040"}}, {"type": "Feature", "geometry": {"type": "Polygon", "coordinates": [[[-74.61666666145037, 49.30833333664568], [-74.61666666144339, 49.31666666610725], [-74.60833333513824, 49.316666673352046], [-74.60833333765143, 49.308333333684324], [-74.61666666145037, 49.30833333664568]]]}, "properties": {"company_id": "major-drilling-group-international", "jurisdiction": "Quebec", "claim_id": "", "claim_name": null, "holder": "Major Gold Corporation", "status": "Active", "recorded_date": null, "anniversary_or_expiry": null, "area_ha": null, "tenure_type": null, "source": "GESTIM active titles (MRNF digital data dump). Not legal title.", "as_of": "2026-09-20", "role": "focus", "color": "#e8b040"}}, {"type": "Feature", "geometry": {"type": "Polygon", "coordinates": [[[-74.59999999885112, 49.30833333243098], [-74.59999999389618, 49.316666673335845], [-74.59166666521271, 49.31666666615156], [-74.59166667253577, 49.308333332978606], [-74.59999999885112, 49.30833333243098]]]}, "properties": {"company_id": "major-drilling-group-international", "jurisdiction": "Quebec", "claim_id": "", "claim_name": null, "holder": "Major Gold Corporation", "status": "Active", "recorded_date": null, "anniversary_or_expiry": null, "area_ha": null, "tenure_type": null, "source": "GESTIM active titles (MRNF digital data dump). Not legal title.", "as_of": "2026-09-20", "role": "focus", "color": "#e8b040"}}, {"type": "Feature", "geometry": {"type": "Polygon", "coordinates": [[[-74.59166667253577, 49.308333332978606], [-74.59166666521271, 49.31666666615156], [-74.58333333515442, 49.31666666974111], [-74.58333333116492, 49.308333335229605], [-74.59166667253577, 49.308333332978606]]]}, "properties": {"company_id": "major-drilling-group-international", "jurisdiction": "Quebec", "claim_id": "", "claim_name": null, "holder": "Major Gold Corporation", "status": "Active", "recorded_date": null, "anniversary_or_expiry": null, "area_ha": null, "tenure_type": null, "source": "GESTIM active titles (MRNF digital data dump). Not legal title.", "as_of": "2026-09-20", "role": "focus", "color": "#e8b040"}}, {"type": "Feature", "geometry": {"type": "Polygon", "coordinates": [[[-74.58333333116492, 49.308333335229605], [-74.58333333515442, 49.31666666974111], [-74.5750000038444, 49.316666666113235], [-74.5750000022248, 49.30833333928089], [-74.58333333116492, 49.308333335229605]]]}, "properties": {"company_id": "major-drilling-group-international", "jurisdiction": "Quebec", "claim_id": "", "claim_name": null, "holder": "Major Gold Corporation", "status": "Active", "recorded_date": null, "anniversary_or_expiry": null, "area_ha": null, "tenure_type": null, "source": "GESTIM active titles (MRNF digital data dump). Not legal title.", "as_of": "2026-09-20", "role": "focus", "color": "#e8b040"}}, {"type": "Feature", "geometry": {"type": "Polygon", "coordinates": [[[-74.65833333013322, 49.316666665807155], [-74.65833333487637, 49.32500000452746], [-74.64999999805251, 49.32500000389134], [-74.64999999584987, 49.31666667308306], [-74.65833333013322, 49.316666665807155]]]}, "properties": {"company_id": "major-drilling-group-international", "jurisdiction": "Quebec", "claim_id": "", "claim_name": null, "holder": "Major Gold Corporation", "status": "Active", "recorded_date": null, "anniversary_or_expiry": null, "area_ha": null, "tenure_type": null, "source": "GESTIM active titles (MRNF digital data dump). Not legal title.", "as_of": "2026-09-20", "role": "focus", "color": "#e8b040"}}, {"type": "Feature", "geometry": {"type": "Polygon", "coordinates": [[[-74.64999999584987, 49.31666667308306], [-74.64999999805251, 49.32500000389134], [-74.64166666011097, 49.32500000506675], [-74.64166666051385, 49.31666667314964], [-74.64999999584987, 49.31666667308306]]]}, "properties": {"company_id": "major-drilling-group-international", "jurisdiction": "Quebec", "claim_id": "", "claim_name": null, "holder": "Major Gold Corporation", "status": "Active", "recorded_date": null, "anniversary_or_expiry": null, "area_ha": null, "tenure_type": null, "source": "GESTIM active titles (MRNF digital data dump). Not legal title.", "as_of": "2026-09-20", "role": "focus", "color": "#e8b040"}}, {"type": "Feature", "geometry": {"type": "Polygon", "coordinates": [[[-74.64166666051385, 49.31666667314964], [-74.64166666011097, 49.32500000506675], [-74.63333333485285, 49.32499999910129], [-74.63333333786163, 49.31666666604943], [-74.64166666051385, 49.31666667314964]]]}, "properties": {"company_id": "major-drilling-group-international", "jurisdiction": "Quebec", "claim_id": "", "claim_name": null, "holder": "Major Gold Corporation", "status": "Active", "recorded_date": null, "anniversary_or_expiry": null, "area_ha": null, "tenure_type": null, "source": "GESTIM active titles (MRNF digital data dump). Not legal title.", "as_of": "2026-09-20", "role": "focus", "color": "#e8b040"}}, {"type": "Feature", "geometry": {"type": "Polygon", "coordinates": [[[-74.61666666144339, 49.31666666610725], [-74.61666666697103, 49.325000001551885], [-74.60833333812263, 49.32500000101521], [-74.60833333513824, 49.316666673352046], [-74.61666666144339, 49.31666666610725]]]}, "properties": {"company_id": "major-drilling-group-international", "jurisdiction": "Quebec", "claim_id": "", "claim_name": null, "holder": "Major Gold Corporation", "status": "Active", "recorded_date": null, "anniversary_or_expiry": null, "area_ha": null, "tenure_type": null, "source": "GESTIM active titles (MRNF digital data dump). Not legal title.", "as_of": "2026-09-20", "role": "focus", "color": "#e8b040"}}, {"type": "Feature", "geometry": {"type": "Polygon", "coordinates": [[[-74.60833333513824, 49.316666673352046], [-74.60833333812263, 49.32500000101521], [-74.59999999426218, 49.32500000223832], [-74.59999999389618, 49.316666673335845], [-74.60833333513824, 49.316666673352046]]]}, "properties": {"company_id": "major-drilling-group-international", "jurisdiction": "Quebec", "claim_id": "", "claim_name": null, "holder": "Major Gold Corporation", "status": "Active", "recorded_date": null, "anniversary_or_expiry": null, "area_ha": null, "tenure_type": null, "source": "GESTIM active titles (MRNF digital data dump). Not legal title.", "as_of": "2026-09-20", "role": "focus", "color": "#e8b040"}}, {"type": "Feature", "geometry": {"type": "Polygon", "coordinates": [[[-74.59999999389618, 49.316666673335845], [-74.59999999426218, 49.32500000223832], [-74.5916666628852, 49.32500000531421], [-74.59166666521271, 49.31666666615156], [-74.59999999389618, 49.316666673335845]]]}, "properties": {"company_id": "major-drilling-group-international", "jurisdiction": "Quebec", "claim_id": "", "claim_name": null, "holder": "Major Gold Corporation", "status": "Active", "recorded_date": null, "anniversary_or_expiry": null, "area_ha": null, "tenure_type": null, "source": "GESTIM active titles (MRNF digital data dump). Not legal title.", "as_of": "2026-09-20", "role": "focus", "color": "#e8b040"}}, {"type": "Feature", "geometry": {"type": "Polygon", "coordinates": [[[-74.59166666521271, 49.31666666615156], [-74.5916666628852, 49.32500000531421], [-74.583333330279, 49.32500000119996], [-74.58333333515442, 49.31666666974111], [-74.59166666521271, 49.31666666615156]]]}, "properties": {"company_id": "major-drilling-group-international", "jurisdiction": "Quebec", "claim_id": "", "claim_name": null, "holder": "Major Gold Corporation", "status": "Active", "recorded_date": null, "anniversary_or_expiry": null, "area_ha": null, "tenure_type": null, "source": "GESTIM active titles (MRNF digital data dump). Not legal title.", "as_of": "2026-09-20", "role": "focus", "color": "#e8b040"}}, {"type": "Feature", "geometry": {"type": "Polygon", "coordinates": [[[-74.64999999805251, 49.32500000389134], [-74.65000000650811, 49.333333340674855], [-74.6416666658467, 49.33333333396623], [-74.64166666011097, 49.32500000506675], [-74.64999999805251, 49.32500000389134]]]}, "properties": {"company_id": "major-drilling-group-international", "jurisdiction": "Quebec", "claim_id": "", "claim_name": null, "holder": "Major Gold Corporation", "status": "Active", "recorded_date": null, "anniversary_or_expiry": null, "area_ha": null, "tenure_type": null, "source": "GESTIM active titles (MRNF digital data dump). Not legal title.", "as_of": "2026-09-20", "role": "focus", "color": "#e8b040"}}, {"type": "Feature", "geometry": {"type": "Polygon", "coordinates": [[[-74.64166666011097, 49.32500000506675], [-74.6416666658467, 49.33333333396623], [-74.63333333773764, 49.33333333813251], [-74.63333333485285, 49.32499999910129], [-74.64166666011097, 49.32500000506675]]]}, "properties": {"company_id": "major-drilling-group-international", "jurisdiction": "Quebec", "claim_id": "", "claim_name": null, "holder": "Major Gold Corporation", "status": "Active", "recorded_date": null, "anniversary_or_expiry": null, "area_ha": null, "tenure_type": null, "source": "GESTIM active titles (MRNF digital data dump). Not legal title.", "as_of": "2026-09-20", "role": "focus", "color": "#e8b040"}}, {"type": "Feature", "geometry": {"type": "Polygon", "coordinates": [[[-74.63333333485285, 49.32499999910129], [-74.63333333773764, 49.33333333813251], [-74.62499999475828, 49.3333333350963], [-74.62499999459595, 49.32500000389725], [-74.63333333485285, 49.32499999910129]]]}, "properties": {"company_id": "major-drilling-group-international", "jurisdiction": "Quebec", "claim_id": "", "claim_name": null, "holder": "Major Gold Corporation", "status": "Active", "recorded_date": null, "anniversary_or_expiry": null, "area_ha": null, "tenure_type": null, "source": "GESTIM active titles (MRNF digital data dump). Not legal title.", "as_of": "2026-09-20", "role": "focus", "color": "#e8b040"}}, {"type": "Feature", "geometry": {"type": "Polygon", "coordinates": [[[-74.62499999459595, 49.32500000389725], [-74.62499999475828, 49.3333333350963], [-74.61666666434354, 49.33333333393961], [-74.61666666697103, 49.325000001551885], [-74.62499999459595, 49.32500000389725]]]}, "properties": {"company_id": "major-drilling-group-international", "jurisdiction": "Quebec", "claim_id": "", "claim_name": null, "holder": "Major Gold Corporation", "status": "Active", "recorded_date": null, "anniversary_or_expiry": null, "area_ha": null, "tenure_type": null, "source": "GESTIM active titles (MRNF digital data dump). Not legal title.", "as_of": "2026-09-20", "role": "focus", "color": "#e8b040"}}, {"type": "Feature", "geometry": {"type": "Polygon", "coordinates": [[[-74.61666666697103, 49.325000001551885], [-74.61666666434354, 49.33333333393961], [-74.60833333270237, 49.33333333461756], [-74.60833333812263, 49.32500000101521], [-74.61666666697103, 49.325000001551885]]]}, "properties": {"company_id": "major-drilling-group-international", "jurisdiction": "Quebec", "claim_id": "", "claim_name": null, "holder": "Major Gold Corporation", "status": "Active", "recorded_date": null, "anniversary_or_expiry": null, "area_ha": null, "tenure_type": null, "source": "GESTIM active titles (MRNF digital data dump). Not legal title.", "as_of": "2026-09-20", "role": "focus", "color": "#e8b040"}}, {"type": "Feature", "geometry": {"type": "Polygon", "coordinates": [[[-74.59999999426218, 49.32500000223832], [-74.5999999998075, 49.33333333712883], [-74.59166666570604, 49.33333333247727], [-74.5916666628852, 49.32500000531421], [-74.59999999426218, 49.32500000223832]]]}, "properties": {"company_id": "major-drilling-group-international", "jurisdiction": "Quebec", "claim_id": "", "claim_name": null, "holder": "Major Gold Corporation", "status": "Active", "recorded_date": null, "anniversary_or_expiry": null, "area_ha": null, "tenure_type": null, "source": "GESTIM active titles (MRNF digital data dump). Not legal title.", "as_of": "2026-09-20", "role": "focus", "color": "#e8b040"}}, {"type": "Feature", "geometry": {"type": "Polygon", "coordinates": [[[-74.5500000016862, 49.31666666588084], [-74.55000000005033, 49.325000002816864], [-74.54166666052548, 49.325000007706564], [-74.54166666480029, 49.31666666934897], [-74.5500000016862, 49.31666666588084]]]}, "properties": {"company_id": "major-drilling-group-international", "jurisdiction": "Quebec", "claim_id": "", "claim_name": null, "holder": "Major Gold Corporation", "status": "Active", "recorded_date": null, "anniversary_or_expiry": null, "area_ha": null, "tenure_type": null, "source": "GESTIM active titles (MRNF digital data dump). Not legal title.", "as_of": "2026-09-20", "role": "focus", "color": "#e8b040"}}, {"type": "Feature", "geometry": {"type": "Polygon", "coordinates": [[[-74.54166666052548, 49.325000007706564], [-74.54166666034342, 49.3333333340785], [-74.5333333303826, 49.3333333332751], [-74.53333333338149, 49.32500000545324], [-74.54166666052548, 49.325000007706564]]]}, "properties": {"company_id": "major-drilling-group-international", "jurisdiction": "Quebec", "claim_id": "", "claim_name": null, "holder": "Major Gold Corporation", "status": "Active", "recorded_date": null, "anniversary_or_expiry": null, "area_ha": null, "tenure_type": null, "source": "GESTIM active titles (MRNF digital data dump). Not legal title.", "as_of": "2026-09-20", "role": "focus", "color": "#e8b040"}}, {"type": "Feature", "geometry": {"type": "Polygon", "coordinates": [[[-74.80000000637375, 49.300000006051214], [-74.79999999477211, 49.308333336359986], [-74.7916666638842, 49.308333339459416], [-74.79166666398359, 49.2999999994944], [-74.80000000637375, 49.300000006051214]]]}, "properties": {"company_id": "major-drilling-group-international", "jurisdiction": "Quebec", "claim_id": "", "claim_name": null, "holder": "Major Gold Corporation", "status": "Active", "recorded_date": null, "anniversary_or_expiry": null, "area_ha": null, "tenure_type": null, "source": "GESTIM active titles (MRNF digital data dump). Not legal title.", "as_of": "2026-09-20", "role": "focus", "color": "#e8b040"}}, {"type": "Feature", "geometry": {"type": "Polygon", "coordinates": [[[-74.70833333707546, 49.3000000031702], [-74.70833332858079, 49.30833333297559], [-74.70000000279012, 49.30833333758609], [-74.699999999762, 49.30000000682225], [-74.70833333707546, 49.3000000031702]]]}, "properties": {"company_id": "major-drilling-group-international", "jurisdiction": "Quebec", "claim_id": "", "claim_name": null, "holder": "Major Gold Corporation", "status": "Active", "recorded_date": null, "anniversary_or_expiry": null, "area_ha": null, "tenure_type": null, "source": "GESTIM active titles (MRNF digital data dump). Not legal title.", "as_of": "2026-09-20", "role": "focus", "color": "#e8b040"}}, {"type": "Feature", "geometry": {"type": "Polygon", "coordinates": [[[-74.6583333399273, 49.30000000628414], [-74.65833333181833, 49.30833333305953], [-74.64999999995966, 49.30833333925459], [-74.64999999662288, 49.300000002363696], [-74.6583333399273, 49.30000000628414]]]}, "properties": {"company_id": "major-drilling-group-international", "jurisdiction": "Quebec", "claim_id": "", "claim_name": null, "holder": "Major Gold Corporation", "status": "Active", "recorded_date": null, "anniversary_or_expiry": null, "area_ha": null, "tenure_type": null, "source": "GESTIM active titles (MRNF digital data dump). Not legal title.", "as_of": "2026-09-20", "role": "focus", "color": "#e8b040"}}, {"type": "Feature", "geometry": {"type": "Polygon", "coordinates": [[[-74.7416666639986, 49.308333332306724], [-74.74166667258436, 49.31666667362792], [-74.73333333418219, 49.316666671956575], [-74.73333332795451, 49.30833333880931], [-74.7416666639986, 49.308333332306724]]]}, "properties": {"company_id": "major-drilling-group-international", "jurisdiction": "Quebec", "claim_id": "", "claim_name": null, "holder": "Major Gold Corporation", "status": "Active", "recorded_date": null, "anniversary_or_expiry": null, "area_ha": null, "tenure_type": null, "source": "GESTIM active titles (MRNF digital data dump). Not legal title.", "as_of": "2026-09-20", "role": "focus", "color": "#e8b040"}}, {"type": "Feature", "geometry": {"type": "Polygon", "coordinates": [[[-74.69166666234298, 49.30833333493106], [-74.69166667027699, 49.31666667260883], [-74.68333332643171, 49.316666672694396], [-74.68333333467291, 49.30833333407692], [-74.69166666234298, 49.30833333493106]]]}, "properties": {"company_id": "major-drilling-group-international", "jurisdiction": "Quebec", "claim_id": "", "claim_name": null, "holder": "Major Gold Corporation", "status": "Active", "recorded_date": null, "anniversary_or_expiry": null, "area_ha": null, "tenure_type": null, "source": "GESTIM active titles (MRNF digital data dump). Not legal title.", "as_of": "2026-09-20", "role": "focus", "color": "#e8b040"}}, {"type": "Feature", "geometry": {"type": "Polygon", "coordinates": [[[-74.66666666252816, 49.3083333376204], [-74.66666666326503, 49.31666666931295], [-74.65833333013322, 49.316666665807155], [-74.65833333181833, 49.30833333305953], [-74.66666666252816, 49.3083333376204]]]}, "properties": {"company_id": "major-drilling-group-international", "jurisdiction": "Quebec", "claim_id": "", "claim_name": null, "holder": "Major Gold Corporation", "status": "Active", "recorded_date": null, "anniversary_or_expiry": null, "area_ha": null, "tenure_type": null, "source": "GESTIM active titles (MRNF digital data dump). Not legal title.", "as_of": "2026-09-20", "role": "focus", "color": "#e8b040"}}, {"type": "Feature", "geometry": {"type": "Polygon", "coordinates": [[[-74.60833333765143, 49.308333333684324], [-74.60833333513824, 49.316666673352046], [-74.59999999389618, 49.316666673335845], [-74.59999999885112, 49.30833333243098], [-74.60833333765143, 49.308333333684324]]]}, "properties": {"company_id": "major-drilling-group-international", "jurisdiction": "Quebec", "claim_id": "", "claim_name": null, "holder": "Major Gold Corporation", "status": "Active", "recorded_date": null, "anniversary_or_expiry": null, "area_ha": null, "tenure_type": null, "source": "GESTIM active titles (MRNF digital data dump). Not legal title.", "as_of": "2026-09-20", "role": "focus", "color": "#e8b040"}}, {"type": "Feature", "geometry": {"type": "Polygon", "coordinates": [[[-74.78333333920304, 49.31666667291511], [-74.78333332766434, 49.32500000739156], [-74.77500000425307, 49.32500000645002], [-74.77500000460567, 49.31666667125635], [-74.78333333920304, 49.31666667291511]]]}, "properties": {"company_id": "major-drilling-group-international", "jurisdiction": "Quebec", "claim_id": "", "claim_name": null, "holder": "Major Gold Corporation", "status": "Active", "recorded_date": null, "anniversary_or_expiry": null, "area_ha": null, "tenure_type": null, "source": "GESTIM active titles (MRNF digital data dump). Not legal title.", "as_of": "2026-09-20", "role": "focus", "color": "#e8b040"}}, {"type": "Feature", "geometry": {"type": "Polygon", "coordinates": [[[-74.70833332758295, 49.31666666874151], [-74.7083333341399, 49.325000001473455], [-74.70000000340299, 49.32499999894013], [-74.69999999938092, 49.31666667427663], [-74.70833332758295, 49.31666666874151]]]}, "properties": {"company_id": "major-drilling-group-international", "jurisdiction": "Quebec", "claim_id": "", "claim_name": null, "holder": "Major Gold Corporation", "status": "Active", "recorded_date": null, "anniversary_or_expiry": null, "area_ha": null, "tenure_type": null, "source": "GESTIM active titles (MRNF digital data dump). Not legal title.", "as_of": "2026-09-20", "role": "focus", "color": "#e8b040"}}, {"type": "Feature", "geometry": {"type": "Polygon", "coordinates": [[[-74.74166666196135, 49.32500000285124], [-74.74166667331833, 49.333333338059575], [-74.73333332957002, 49.33333333803288], [-74.73333333473755, 49.325000002032596], [-74.74166666196135, 49.32500000285124]]]}, "properties": {"company_id": "major-drilling-group-international", "jurisdiction": "Quebec", "claim_id": "", "claim_name": null, "holder": "Major Gold Corporation", "status": "Active", "recorded_date": null, "anniversary_or_expiry": null, "area_ha": null, "tenure_type": null, "source": "GESTIM active titles (MRNF digital data dump). Not legal title.", "as_of": "2026-09-20", "role": "focus", "color": "#e8b040"}}, {"type": "Feature", "geometry": {"type": "Polygon", "coordinates": [[[-74.69166667165258, 49.325000007219714], [-74.69166666646755, 49.33333333876423], [-74.6833333310149, 49.33333334084508], [-74.68333333902999, 49.32499999932634], [-74.69166667165258, 49.325000007219714]]]}, "properties": {"company_id": "major-drilling-group-international", "jurisdiction": "Quebec", "claim_id": "", "claim_name": null, "holder": "Major Gold Corporation", "status": "Active", "recorded_date": null, "anniversary_or_expiry": null, "area_ha": null, "tenure_type": null, "source": "GESTIM active titles (MRNF digital data dump). Not legal title.", "as_of": "2026-09-20", "role": "focus", "color": "#e8b040"}}, {"type": "Feature", "geometry": {"type": "Polygon", "coordinates": [[[-74.65833333487637, 49.32500000452746], [-74.65833333235078, 49.333333340185305], [-74.65000000650811, 49.333333340674855], [-74.64999999805251, 49.32500000389134], [-74.65833333487637, 49.32500000452746]]]}, "properties": {"company_id": "major-drilling-group-international", "jurisdiction": "Quebec", "claim_id": "", "claim_name": null, "holder": "Major Gold Corporation", "status": "Active", "recorded_date": null, "anniversary_or_expiry": null, "area_ha": null, "tenure_type": null, "source": "GESTIM active titles (MRNF digital data dump). Not legal title.", "as_of": "2026-09-20", "role": "focus", "color": "#e8b040"}}, {"type": "Feature", "geometry": {"type": "Polygon", "coordinates": [[[-74.60833333812263, 49.32500000101521], [-74.60833333270237, 49.33333333461756], [-74.5999999998075, 49.33333333712883], [-74.59999999426218, 49.32500000223832], [-74.60833333812263, 49.32500000101521]]]}, "properties": {"company_id": "major-drilling-group-international", "jurisdiction": "Quebec", "claim_id": "", "claim_name": null, "holder": "Major Gold Corporation", "status": "Active", "recorded_date": null, "anniversary_or_expiry": null, "area_ha": null, "tenure_type": null, "source": "GESTIM active titles (MRNF digital data dump). Not legal title.", "as_of": "2026-09-20", "role": "focus", "color": "#e8b040"}}, {"type": "Feature", "geometry": {"type": "Polygon", "coordinates": [[[-74.55833333813705, 49.32499999972482], [-74.55833332973876, 49.333333332216945], [-74.55000000260195, 49.3333333367596], [-74.55000000005033, 49.325000002816864], [-74.55833333813705, 49.32499999972482]]]}, "properties": {"company_id": "major-drilling-group-international", "jurisdiction": "Quebec", "claim_id": "", "claim_name": null, "holder": "Major Gold Corporation", "status": "Active", "recorded_date": null, "anniversary_or_expiry": null, "area_ha": null, "tenure_type": null, "source": "GESTIM active titles (MRNF digital data dump). Not legal title.", "as_of": "2026-09-20", "role": "focus", "color": "#e8b040"}}]}