{"type": "FeatureCollection", "features": [{"type": "Feature", "geometry": {"type": "Polygon", "coordinates": [[[-130.6583, 56.4665], [-130.6583, 56.4623], [-130.6208, 56.4623], [-130.6208, 56.5123], [-130.6583, 56.5123], [-130.6583, 56.4665]]]}, "properties": {"company_id": "metallis-resources", "jurisdiction": "British Columbia", "claim_id": 501297, "claim_name": null, "holder": "METALLIS RESOURCES INC.", "status": "Mineral", "recorded_date": "2005-01-12", "anniversary_or_expiry": "2034-02-28", "area_ha": 1286.2920000000001, "tenure_type": "Mineral", "source": "BC MTA Mineral, Placer and Coal Tenure Spatial View (BCGW). Open Government Licence - British Columbia. Not legal title.", "as_of": "2026-09-20", "role": "focus", "color": "#e8b040"}}, {"type": "Feature", "geometry": {"type": "Polygon", "coordinates": [[[-130.6583, 56.4456], [-130.6583, 56.4415], [-130.6208, 56.4415], [-130.6208, 56.4623], [-130.6583, 56.4623], [-130.6583, 56.4456]]]}, "properties": {"company_id": "metallis-resources", "jurisdiction": "British Columbia", "claim_id": 501315, "claim_name": null, "holder": "METALLIS RESOURCES INC.", "status": "Mineral", "recorded_date": "2005-01-12", "anniversary_or_expiry": "2034-02-28", "area_ha": 536.447, "tenure_type": "Mineral", "source": "BC MTA Mineral, Placer and Coal Tenure Spatial View (BCGW). Open Government Licence - British Columbia. Not legal title.", "as_of": "2026-09-20", "role": "focus", "color": "#e8b040"}}]}