{"type": "FeatureCollection", "features": [{"type": "Feature", "geometry": {"type": "Polygon", "coordinates": [[[-81.3188, 48.175], [-81.3188, 48.1792], [-81.325, 48.1792], [-81.325, 48.175], [-81.3188, 48.175]]]}, "properties": {"company_id": "mundoro-capital", "jurisdiction": "Ontario", "claim_id": "966218", "claim_name": null, "holder": "(100) Red Feather Capital Partners Ltd.", "status": "Active", "recorded_date": "2025-10-10", "anniversary_or_expiry": "2027-10-10", "area_ha": null, "tenure_type": "Single Cell Mining Claim", "source": "Ontario MLAS operational claims (OGSEarth / LIO MapServer). Unofficial viewing data, not legal title.", "as_of": "2026-09-20", "role": "focus", "color": "#e8b040"}}, {"type": "Feature", "geometry": {"type": "Polygon", "coordinates": [[[-84.5813, 46.975], [-84.5, 46.975], [-84.5, 46.9833], [-84.5125, 46.9833], [-84.5125, 46.9792], [-84.5188, 46.9792], [-84.5188, 46.9833], [-84.5375, 46.9833], [-84.5375, 46.9792], [-84.5875, 46.9792], [-84.5875, 46.975], [-84.5813, 46.975]]]}, "properties": {"company_id": "mundoro-capital", "jurisdiction": "Ontario", "claim_id": "981112", "claim_name": null, "holder": "(100) Bay Capital Markets Inc.", "status": "Active", "recorded_date": "2025-11-05", "anniversary_or_expiry": "2026-11-30", "area_ha": null, "tenure_type": "Multi-cell Mining Claim", "source": "Ontario MLAS operational claims (OGSEarth / LIO MapServer). Unofficial viewing data, not legal title.", "as_of": "2026-09-20", "role": "focus", "color": "#e8b040"}}, {"type": "Feature", "geometry": {"type": "Polygon", "coordinates": [[[-84.5125, 47.0], [-84.5063, 47.0], [-84.5063, 47.0042], [-84.5188, 47.0042], [-84.5188, 47.0], [-84.5125, 47.0]]]}, "properties": {"company_id": "mundoro-capital", "jurisdiction": "Ontario", "claim_id": "981113", "claim_name": null, "holder": "(100) Bay Capital Markets Inc.", "status": "Active", "recorded_date": "2025-11-05", "anniversary_or_expiry": "2026-11-30", "area_ha": null, "tenure_type": "Multi-cell Mining Claim", "source": "Ontario MLAS operational claims (OGSEarth / LIO MapServer). Unofficial viewing data, not legal title.", "as_of": "2026-09-20", "role": "focus", "color": "#e8b040"}}, {"type": "Feature", "geometry": {"type": "Polygon", "coordinates": [[[-84.5063, 47.0125], [-84.5063, 47.0083], [-84.5, 47.0083], [-84.5, 47.0167], [-84.4813, 47.0167], [-84.4813, 47.025], [-84.5063, 47.025], [-84.5063, 47.0125]]]}, "properties": {"company_id": "mundoro-capital", "jurisdiction": "Ontario", "claim_id": "981114", "claim_name": null, "holder": "(100) Bay Capital Markets Inc.", "status": "Active", "recorded_date": "2025-11-05", "anniversary_or_expiry": "2026-11-30", "area_ha": null, "tenure_type": "Multi-cell Mining Claim", "source": "Ontario MLAS operational claims (OGSEarth / LIO MapServer). Unofficial viewing data, not legal title.", "as_of": "2026-09-20", "role": "focus", "color": "#e8b040"}}, {"type": "Feature", "geometry": {"type": "Polygon", "coordinates": [[[-84.4438, 47.0292], [-84.4063, 47.0292], [-84.4063, 47.0333], [-84.4375, 47.0333], [-84.4375, 47.0375], [-84.4438, 47.0375], [-84.4438, 47.0333], [-84.45, 47.0333], [-84.45, 47.0292], [-84.4438, 47.0292]]]}, "properties": {"company_id": "mundoro-capital", "jurisdiction": "Ontario", "claim_id": "981115", "claim_name": null, "holder": "(100) Bay Capital Markets Inc.", "status": "Active", "recorded_date": "2025-11-05", "anniversary_or_expiry": "2026-11-30", "area_ha": null, "tenure_type": "Multi-cell Mining Claim", "source": "Ontario MLAS operational claims (OGSEarth / LIO MapServer). Unofficial viewing data, not legal title.", "as_of": "2026-09-20", "role": "focus", "color": "#e8b040"}}, {"type": "Feature", "geometry": {"type": "Polygon", "coordinates": [[[-84.3875, 47.0375], [-84.3875, 47.0333], [-84.3813, 47.0333], [-84.3813, 47.0375], [-84.375, 47.0375], [-84.375, 47.0417], [-84.3438, 47.0417], [-84.3438, 47.0583], [-84.3563, 47.0583], [-84.3563, 47.0542], [-84.3875, 47.0542], [-84.3875, 47.0458], [-84.3813, 47.0458], [-84.3813, 47.0417], [-84.3875, 47.0417], [-84.3875, 47.0375]]]}, "properties": {"company_id": "mundoro-capital", "jurisdiction": "Ontario", "claim_id": "981116", "claim_name": null, "holder": "(100) Bay Capital Markets Inc.", "status": "Active", "recorded_date": "2025-11-05", "anniversary_or_expiry": "2026-11-30", "area_ha": null, "tenure_type": "Multi-cell Mining Claim", "source": "Ontario MLAS operational claims (OGSEarth / LIO MapServer). Unofficial viewing data, not legal title.", "as_of": "2026-09-20", "role": "focus", "color": "#e8b040"}}, {"type": "Feature", "geometry": {"type": "Polygon", "coordinates": [[[-84.3313, 47.0708], [-84.3313, 47.0667], [-84.3, 47.0667], [-84.3, 47.0708], [-84.2938, 47.0708], [-84.275, 47.0708], [-84.275, 47.0667], [-84.2625, 47.0667], [-84.2625, 47.0708], [-84.2563, 47.0708], [-84.2563, 47.075], [-84.2875, 47.075], [-84.2875, 47.0792], [-84.325, 47.0792], [-84.325, 47.075], [-84.3313, 47.075], [-84.3313, 47.0708]]]}, "properties": {"company_id": "mundoro-capital", "jurisdiction": "Ontario", "claim_id": "981117", "claim_name": null, "holder": "(100) Bay Capital Markets Inc.", "status": "Active", "recorded_date": "2025-11-05", "anniversary_or_expiry": "2026-11-30", "area_ha": null, "tenure_type": "Multi-cell Mining Claim", "source": "Ontario MLAS operational claims (OGSEarth / LIO MapServer). Unofficial viewing data, not legal title.", "as_of": "2026-09-20", "role": "focus", "color": "#e8b040"}}, {"type": "Feature", "geometry": {"type": "Polygon", "coordinates": [[[-84.3813, 47.0708], [-84.3438, 47.0708], [-84.3438, 47.0667], [-84.3313, 47.0667], [-84.3313, 47.075], [-84.325, 47.075], [-84.325, 47.0792], [-84.3625, 47.0792], [-84.3625, 47.0958], [-84.3563, 47.0958], [-84.3563, 47.1], [-84.3688, 47.1], [-84.3688, 47.0792], [-84.375, 47.0792], [-84.375, 47.075], [-84.3875, 47.075], [-84.3875, 47.0708], [-84.3813, 47.0708]]]}, "properties": {"company_id": "mundoro-capital", "jurisdiction": "Ontario", "claim_id": "981118", "claim_name": null, "holder": "(100) Bay Capital Markets Inc.", "status": "Active", "recorded_date": "2025-11-05", "anniversary_or_expiry": "2026-11-30", "area_ha": null, "tenure_type": "Multi-cell Mining Claim", "source": "Ontario MLAS operational claims (OGSEarth / LIO MapServer). Unofficial viewing data, not legal title.", "as_of": "2026-09-20", "role": "focus", "color": "#e8b040"}}, {"type": "Feature", "geometry": {"type": "Polygon", "coordinates": [[[-84.375, 47.1083], [-84.375, 47.1042], [-84.3688, 47.1042], [-84.3688, 47.1], [-84.3563, 47.1], [-84.3563, 47.0958], [-84.325, 47.0958], [-84.325, 47.1083], [-84.35, 47.1083], [-84.35, 47.1125], [-84.3813, 47.1125], [-84.3813, 47.1083], [-84.375, 47.1083]]]}, "properties": {"company_id": "mundoro-capital", "jurisdiction": "Ontario", "claim_id": "981119", "claim_name": null, "holder": "(100) Bay Capital Markets Inc.", "status": "Active", "recorded_date": "2025-11-05", "anniversary_or_expiry": "2026-11-30", "area_ha": null, "tenure_type": "Multi-cell Mining Claim", "source": "Ontario MLAS operational claims (OGSEarth / LIO MapServer). Unofficial viewing data, not legal title.", "as_of": "2026-09-20", "role": "focus", "color": "#e8b040"}}, {"type": "Feature", "geometry": {"type": "Polygon", "coordinates": [[[-84.325, 47.1], [-84.325, 47.0958], [-84.2813, 47.0958], [-84.2813, 47.1042], [-84.2625, 47.1042], [-84.2625, 47.1083], [-84.3, 47.1083], [-84.3, 47.1125], [-84.3063, 47.1125], [-84.3063, 47.1083], [-84.325, 47.1083], [-84.325, 47.1]]]}, "properties": {"company_id": "mundoro-capital", "jurisdiction": "Ontario", "claim_id": "981120", "claim_name": null, "holder": "(100) Bay Capital Markets Inc.", "status": "Active", "recorded_date": "2025-11-05", "anniversary_or_expiry": "2026-11-30", "area_ha": null, "tenure_type": "Multi-cell Mining Claim", "source": "Ontario MLAS operational claims (OGSEarth / LIO MapServer). Unofficial viewing data, not legal title.", "as_of": "2026-09-20", "role": "focus", "color": "#e8b040"}}, {"type": "Feature", "geometry": {"type": "Polygon", "coordinates": [[[-84.3563, 47.1167], [-84.3563, 47.1125], [-84.35, 47.1125], [-84.35, 47.1083], [-84.3063, 47.1083], [-84.3063, 47.1167], [-84.3188, 47.1167], [-84.3188, 47.1208], [-84.325, 47.1208], [-84.325, 47.125], [-84.35, 47.125], [-84.35, 47.1208], [-84.3563, 47.1208], [-84.3563, 47.1167]]]}, "properties": {"company_id": "mundoro-capital", "jurisdiction": "Ontario", "claim_id": "981121", "claim_name": null, "holder": "(100) Bay Capital Markets Inc.", "status": "Active", "recorded_date": "2025-11-05", "anniversary_or_expiry": "2026-11-30", "area_ha": null, "tenure_type": "Multi-cell Mining Claim", "source": "Ontario MLAS operational claims (OGSEarth / LIO MapServer). Unofficial viewing data, not legal title.", "as_of": "2026-09-20", "role": "focus", "color": "#e8b040"}}, {"type": "Feature", "geometry": {"type": "Polygon", "coordinates": [[[-84.3688, 47.1167], [-84.3688, 47.1125], [-84.3563, 47.1125], [-84.3563, 47.1208], [-84.35, 47.1208], [-84.35, 47.125], [-84.325, 47.125], [-84.325, 47.1292], [-84.3313, 47.1292], [-84.3313, 47.1375], [-84.3625, 47.1375], [-84.3625, 47.1333], [-84.3688, 47.1333], [-84.3688, 47.1167]]]}, "properties": {"company_id": "mundoro-capital", "jurisdiction": "Ontario", "claim_id": "981122", "claim_name": null, "holder": "(100) Bay Capital Markets Inc.", "status": "Active", "recorded_date": "2025-11-05", "anniversary_or_expiry": "2026-11-30", "area_ha": null, "tenure_type": "Multi-cell Mining Claim", "source": "Ontario MLAS operational claims (OGSEarth / LIO MapServer). Unofficial viewing data, not legal title.", "as_of": "2026-09-20", "role": "focus", "color": "#e8b040"}}, {"type": "Feature", "geometry": {"type": "Polygon", "coordinates": [[[-84.3938, 47.1167], [-84.3938, 47.1125], [-84.3688, 47.1125], [-84.3688, 47.1333], [-84.3625, 47.1333], [-84.3625, 47.1375], [-84.3938, 47.1375], [-84.3938, 47.1167]]]}, "properties": {"company_id": "mundoro-capital", "jurisdiction": "Ontario", "claim_id": "981123", "claim_name": null, "holder": "(100) Bay Capital Markets Inc.", "status": "Active", "recorded_date": "2025-11-05", "anniversary_or_expiry": "2026-11-30", "area_ha": null, "tenure_type": "Multi-cell Mining Claim", "source": "Ontario MLAS operational claims (OGSEarth / LIO MapServer). Unofficial viewing data, not legal title.", "as_of": "2026-09-20", "role": "focus", "color": "#e8b040"}}, {"type": "Feature", "geometry": {"type": "Polygon", "coordinates": [[[-84.4563, 47.0958], [-84.4563, 47.0917], [-84.4375, 47.0917], [-84.4375, 47.1042], [-84.4188, 47.1042], [-84.4188, 47.1125], [-84.3938, 47.1125], [-84.3938, 47.1208], [-84.4, 47.1208], [-84.4, 47.1167], [-84.425, 47.1167], [-84.425, 47.1083], [-84.4438, 47.1083], [-84.4438, 47.1], [-84.4563, 47.1], [-84.4563, 47.0958]]]}, "properties": {"company_id": "mundoro-capital", "jurisdiction": "Ontario", "claim_id": "981124", "claim_name": null, "holder": "(100) Bay Capital Markets Inc.", "status": "Active", "recorded_date": "2025-11-05", "anniversary_or_expiry": "2026-11-30", "area_ha": null, "tenure_type": "Multi-cell Mining Claim", "source": "Ontario MLAS operational claims (OGSEarth / LIO MapServer). Unofficial viewing data, not legal title.", "as_of": "2026-09-20", "role": "focus", "color": "#e8b040"}}, {"type": "Feature", "geometry": {"type": "Polygon", "coordinates": [[[-84.4563, 47.0833], [-84.4563, 47.0792], [-84.4438, 47.0792], [-84.4438, 47.0708], [-84.4375, 47.0708], [-84.4375, 47.0917], [-84.4563, 47.0917], [-84.4563, 47.0833]]]}, "properties": {"company_id": "mundoro-capital", "jurisdiction": "Ontario", "claim_id": "981125", "claim_name": null, "holder": "(100) Bay Capital Markets Inc.", "status": "Active", "recorded_date": "2025-11-05", "anniversary_or_expiry": "2026-11-30", "area_ha": null, "tenure_type": "Multi-cell Mining Claim", "source": "Ontario MLAS operational claims (OGSEarth / LIO MapServer). Unofficial viewing data, not legal title.", "as_of": "2026-09-20", "role": "focus", "color": "#e8b040"}}, {"type": "Feature", "geometry": {"type": "Polygon", "coordinates": [[[-84.4438, 47.1292], [-84.4438, 47.125], [-84.4375, 47.125], [-84.4375, 47.1292], [-84.4188, 47.1292], [-84.4125, 47.1292], [-84.4125, 47.125], [-84.3938, 47.125], [-84.3938, 47.1375], [-84.4063, 47.1375], [-84.4063, 47.1333], [-84.4438, 47.1333], [-84.4438, 47.1292]]]}, "properties": {"company_id": "mundoro-capital", "jurisdiction": "Ontario", "claim_id": "981126", "claim_name": null, "holder": "(100) Bay Capital Markets Inc.", "status": "Active", "recorded_date": "2025-11-05", "anniversary_or_expiry": "2026-11-30", "area_ha": null, "tenure_type": "Multi-cell Mining Claim", "source": "Ontario MLAS operational claims (OGSEarth / LIO MapServer). Unofficial viewing data, not legal title.", "as_of": "2026-09-20", "role": "focus", "color": "#e8b040"}}, {"type": "Feature", "geometry": {"type": "Polygon", "coordinates": [[[-84.4875, 47.1167], [-84.4875, 47.1125], [-84.475, 47.1125], [-84.475, 47.125], [-84.4625, 47.125], [-84.4625, 47.1208], [-84.4563, 47.1208], [-84.4563, 47.1167], [-84.45, 47.1167], [-84.45, 47.1208], [-84.4438, 47.1208], [-84.4438, 47.1292], [-84.4813, 47.1292], [-84.4813, 47.125], [-84.4875, 47.125], [-84.4875, 47.1167]]]}, "properties": {"company_id": "mundoro-capital", "jurisdiction": "Ontario", "claim_id": "981128", "claim_name": null, "holder": "(100) Bay Capital Markets Inc.", "status": "Active", "recorded_date": "2025-11-05", "anniversary_or_expiry": "2026-11-30", "area_ha": null, "tenure_type": "Multi-cell Mining Claim", "source": "Ontario MLAS operational claims (OGSEarth / LIO MapServer). Unofficial viewing data, not legal title.", "as_of": "2026-09-20", "role": "focus", "color": "#e8b040"}}, {"type": "Feature", "geometry": {"type": "Polygon", "coordinates": [[[-84.3875, 47.0625], [-84.3875, 47.0583], [-84.375, 47.0583], [-84.375, 47.0542], [-84.3563, 47.0542], [-84.3563, 47.0583], [-84.3438, 47.0583], [-84.3438, 47.0625], [-84.3375, 47.0625], [-84.3375, 47.0667], [-84.3438, 47.0667], [-84.3438, 47.0708], [-84.3875, 47.0708], [-84.3875, 47.0625]]]}, "properties": {"company_id": "mundoro-capital", "jurisdiction": "Ontario", "claim_id": "981247", "claim_name": null, "holder": "(100) Bay Capital Markets Inc.", "status": "Active", "recorded_date": "2025-11-07", "anniversary_or_expiry": "2026-11-30", "area_ha": null, "tenure_type": "Multi-cell Mining Claim", "source": "Ontario MLAS operational claims (OGSEarth / LIO MapServer). Unofficial viewing data, not legal title.", "as_of": "2026-09-20", "role": "focus", "color": "#e8b040"}}, {"type": "Feature", "geometry": {"type": "Polygon", "coordinates": [[[-86.0938, 49.7458], [-86.0938, 49.75], [-86.1, 49.75], [-86.1, 49.7458], [-86.0938, 49.7458]]]}, "properties": {"company_id": "mundoro-capital", "jurisdiction": "Ontario", "claim_id": "1035249", "claim_name": null, "holder": "(100) JADEITE CAPITAL CORP.", "status": "Active", "recorded_date": "2026-03-17", "anniversary_or_expiry": "2028-03-17", "area_ha": null, "tenure_type": "Single Cell Mining Claim", "source": "Ontario MLAS operational claims (OGSEarth / LIO MapServer). Unofficial viewing data, not legal title.", "as_of": "2026-09-20", "role": "focus", "color": "#e8b040"}}, {"type": "Feature", "geometry": {"type": "Polygon", "coordinates": [[[-86.0875, 49.7458], [-86.0875, 49.75], [-86.0938, 49.75], [-86.0938, 49.7458], [-86.0875, 49.7458]]]}, "properties": {"company_id": "mundoro-capital", "jurisdiction": "Ontario", "claim_id": "1035250", "claim_name": null, "holder": "(100) JADEITE CAPITAL CORP.", "status": "Active", "recorded_date": "2026-03-17", "anniversary_or_expiry": "2028-03-17", "area_ha": null, "tenure_type": "Single Cell Mining Claim", "source": "Ontario MLAS operational claims (OGSEarth / LIO MapServer). Unofficial viewing data, not legal title.", "as_of": "2026-09-20", "role": "focus", "color": "#e8b040"}}, {"type": "Feature", "geometry": {"type": "Polygon", "coordinates": [[[-86.0813, 49.7458], [-86.0813, 49.75], [-86.0875, 49.75], [-86.0875, 49.7458], [-86.0813, 49.7458]]]}, "properties": {"company_id": "mundoro-capital", "jurisdiction": "Ontario", "claim_id": "1035251", "claim_name": null, "holder": "(100) JADEITE CAPITAL CORP.", "status": "Active", "recorded_date": "2026-03-17", "anniversary_or_expiry": "2028-03-17", "area_ha": null, "tenure_type": "Single Cell Mining Claim", "source": "Ontario MLAS operational claims (OGSEarth / LIO MapServer). Unofficial viewing data, not legal title.", "as_of": "2026-09-20", "role": "focus", "color": "#e8b040"}}, {"type": "Feature", "geometry": {"type": "Polygon", "coordinates": [[[-86.1, 49.7417], [-86.1, 49.7458], [-86.1063, 49.7458], [-86.1063, 49.7417], [-86.1, 49.7417]]]}, "properties": {"company_id": "mundoro-capital", "jurisdiction": "Ontario", "claim_id": "1035252", "claim_name": null, "holder": "(100) JADEITE CAPITAL CORP.", "status": "Active", "recorded_date": "2026-03-17", "anniversary_or_expiry": "2028-03-17", "area_ha": null, "tenure_type": "Single Cell Mining Claim", "source": "Ontario MLAS operational claims (OGSEarth / LIO MapServer). Unofficial viewing data, not legal title.", "as_of": "2026-09-20", "role": "focus", "color": "#e8b040"}}, {"type": "Feature", "geometry": {"type": "Polygon", "coordinates": [[[-86.0938, 49.7417], [-86.0938, 49.7458], [-86.1, 49.7458], [-86.1, 49.7417], [-86.0938, 49.7417]]]}, "properties": {"company_id": "mundoro-capital", "jurisdiction": "Ontario", "claim_id": "1035253", "claim_name": null, "holder": "(100) JADEITE CAPITAL CORP.", "status": "Active", "recorded_date": "2026-03-17", "anniversary_or_expiry": "2028-03-17", "area_ha": null, "tenure_type": "Single Cell Mining Claim", "source": "Ontario MLAS operational claims (OGSEarth / LIO MapServer). Unofficial viewing data, not legal title.", "as_of": "2026-09-20", "role": "focus", "color": "#e8b040"}}, {"type": "Feature", "geometry": {"type": "Polygon", "coordinates": [[[-86.0875, 49.7417], [-86.0875, 49.7458], [-86.0938, 49.7458], [-86.0938, 49.7417], [-86.0875, 49.7417]]]}, "properties": {"company_id": "mundoro-capital", "jurisdiction": "Ontario", "claim_id": "1035254", "claim_name": null, "holder": "(100) JADEITE CAPITAL CORP.", "status": "Active", "recorded_date": "2026-03-17", "anniversary_or_expiry": "2028-03-17", "area_ha": null, "tenure_type": "Single Cell Mining Claim", "source": "Ontario MLAS operational claims (OGSEarth / LIO MapServer). Unofficial viewing data, not legal title.", "as_of": "2026-09-20", "role": "focus", "color": "#e8b040"}}, {"type": "Feature", "geometry": {"type": "Polygon", "coordinates": [[[-86.0813, 49.7417], [-86.0813, 49.7458], [-86.0875, 49.7458], [-86.0875, 49.7417], [-86.0813, 49.7417]]]}, "properties": {"company_id": "mundoro-capital", "jurisdiction": "Ontario", "claim_id": "1035255", "claim_name": null, "holder": "(100) JADEITE CAPITAL CORP.", "status": "Active", "recorded_date": "2026-03-17", "anniversary_or_expiry": "2028-03-17", "area_ha": null, "tenure_type": "Single Cell Mining Claim", "source": "Ontario MLAS operational claims (OGSEarth / LIO MapServer). Unofficial viewing data, not legal title.", "as_of": "2026-09-20", "role": "focus", "color": "#e8b040"}}, {"type": "Feature", "geometry": {"type": "Polygon", "coordinates": [[[-86.1, 49.7375], [-86.1, 49.7417], [-86.1063, 49.7417], [-86.1063, 49.7375], [-86.1, 49.7375]]]}, "properties": {"company_id": "mundoro-capital", "jurisdiction": "Ontario", "claim_id": "1035256", "claim_name": null, "holder": "(100) JADEITE CAPITAL CORP.", "status": "Active", "recorded_date": "2026-03-17", "anniversary_or_expiry": "2028-03-17", "area_ha": null, "tenure_type": "Single Cell Mining Claim", "source": "Ontario MLAS operational claims (OGSEarth / LIO MapServer). Unofficial viewing data, not legal title.", "as_of": "2026-09-20", "role": "focus", "color": "#e8b040"}}, {"type": "Feature", "geometry": {"type": "Polygon", "coordinates": [[[-86.0938, 49.7375], [-86.0938, 49.7417], [-86.1, 49.7417], [-86.1, 49.7375], [-86.0938, 49.7375]]]}, "properties": {"company_id": "mundoro-capital", "jurisdiction": "Ontario", "claim_id": "1035257", "claim_name": null, "holder": "(100) JADEITE CAPITAL CORP.", "status": "Active", "recorded_date": "2026-03-17", "anniversary_or_expiry": "2028-03-17", "area_ha": null, "tenure_type": "Single Cell Mining Claim", "source": "Ontario MLAS operational claims (OGSEarth / LIO MapServer). Unofficial viewing data, not legal title.", "as_of": "2026-09-20", "role": "focus", "color": "#e8b040"}}, {"type": "Feature", "geometry": {"type": "Polygon", "coordinates": [[[-86.1, 49.7583], [-86.1, 49.7625], [-86.1063, 49.7625], [-86.1063, 49.7583], [-86.1, 49.7583]]]}, "properties": {"company_id": "mundoro-capital", "jurisdiction": "Ontario", "claim_id": "1035258", "claim_name": null, "holder": "(100) JADEITE CAPITAL CORP.", "status": "Active", "recorded_date": "2026-03-17", "anniversary_or_expiry": "2028-03-17", "area_ha": null, "tenure_type": "Single Cell Mining Claim", "source": "Ontario MLAS operational claims (OGSEarth / LIO MapServer). Unofficial viewing data, not legal title.", "as_of": "2026-09-20", "role": "focus", "color": "#e8b040"}}, {"type": "Feature", "geometry": {"type": "Polygon", "coordinates": [[[-86.0938, 49.7583], [-86.0938, 49.7625], [-86.1, 49.7625], [-86.1, 49.7583], [-86.0938, 49.7583]]]}, "properties": {"company_id": "mundoro-capital", "jurisdiction": "Ontario", "claim_id": "1035259", "claim_name": null, "holder": "(100) JADEITE CAPITAL CORP.", "status": "Active", "recorded_date": "2026-03-17", "anniversary_or_expiry": "2028-03-17", "area_ha": null, "tenure_type": "Single Cell Mining Claim", "source": "Ontario MLAS operational claims (OGSEarth / LIO MapServer). Unofficial viewing data, not legal title.", "as_of": "2026-09-20", "role": "focus", "color": "#e8b040"}}, {"type": "Feature", "geometry": {"type": "Polygon", "coordinates": [[[-86.0875, 49.7583], [-86.0875, 49.7625], [-86.0938, 49.7625], [-86.0938, 49.7583], [-86.0875, 49.7583]]]}, "properties": {"company_id": "mundoro-capital", "jurisdiction": "Ontario", "claim_id": "1035260", "claim_name": null, "holder": "(100) JADEITE CAPITAL CORP.", "status": "Active", "recorded_date": "2026-03-17", "anniversary_or_expiry": "2028-03-17", "area_ha": null, "tenure_type": "Single Cell Mining Claim", "source": "Ontario MLAS operational claims (OGSEarth / LIO MapServer). Unofficial viewing data, not legal title.", "as_of": "2026-09-20", "role": "focus", "color": "#e8b040"}}, {"type": "Feature", "geometry": {"type": "Polygon", "coordinates": [[[-86.0813, 49.7583], [-86.0813, 49.7625], [-86.0875, 49.7625], [-86.0875, 49.7583], [-86.0813, 49.7583]]]}, "properties": {"company_id": "mundoro-capital", "jurisdiction": "Ontario", "claim_id": "1035261", "claim_name": null, "holder": "(100) JADEITE CAPITAL CORP.", "status": "Active", "recorded_date": "2026-03-17", "anniversary_or_expiry": "2028-03-17", "area_ha": null, "tenure_type": "Single Cell Mining Claim", "source": "Ontario MLAS operational claims (OGSEarth / LIO MapServer). Unofficial viewing data, not legal title.", "as_of": "2026-09-20", "role": "focus", "color": "#e8b040"}}, {"type": "Feature", "geometry": {"type": "Polygon", "coordinates": [[[-86.1, 49.7542], [-86.1, 49.7583], [-86.1063, 49.7583], [-86.1063, 49.7542], [-86.1, 49.7542]]]}, "properties": {"company_id": "mundoro-capital", "jurisdiction": "Ontario", "claim_id": "1035262", "claim_name": null, "holder": "(100) JADEITE CAPITAL CORP.", "status": "Active", "recorded_date": "2026-03-17", "anniversary_or_expiry": "2028-03-17", "area_ha": null, "tenure_type": "Single Cell Mining Claim", "source": "Ontario MLAS operational claims (OGSEarth / LIO MapServer). Unofficial viewing data, not legal title.", "as_of": "2026-09-20", "role": "focus", "color": "#e8b040"}}, {"type": "Feature", "geometry": {"type": "Polygon", "coordinates": [[[-86.0938, 49.7542], [-86.0938, 49.7583], [-86.1, 49.7583], [-86.1, 49.7542], [-86.0938, 49.7542]]]}, "properties": {"company_id": "mundoro-capital", "jurisdiction": "Ontario", "claim_id": "1035263", "claim_name": null, "holder": "(100) JADEITE CAPITAL CORP.", "status": "Active", "recorded_date": "2026-03-17", "anniversary_or_expiry": "2028-03-17", "area_ha": null, "tenure_type": "Single Cell Mining Claim", "source": "Ontario MLAS operational claims (OGSEarth / LIO MapServer). Unofficial viewing data, not legal title.", "as_of": "2026-09-20", "role": "focus", "color": "#e8b040"}}, {"type": "Feature", "geometry": {"type": "Polygon", "coordinates": [[[-86.0875, 49.7542], [-86.0875, 49.7583], [-86.0938, 49.7583], [-86.0938, 49.7542], [-86.0875, 49.7542]]]}, "properties": {"company_id": "mundoro-capital", "jurisdiction": "Ontario", "claim_id": "1035264", "claim_name": null, "holder": "(100) JADEITE CAPITAL CORP.", "status": "Active", "recorded_date": "2026-03-17", "anniversary_or_expiry": "2028-03-17", "area_ha": null, "tenure_type": "Single Cell Mining Claim", "source": "Ontario MLAS operational claims (OGSEarth / LIO MapServer). Unofficial viewing data, not legal title.", "as_of": "2026-09-20", "role": "focus", "color": "#e8b040"}}, {"type": "Feature", "geometry": {"type": "Polygon", "coordinates": [[[-86.0813, 49.7542], [-86.0813, 49.7583], [-86.0875, 49.7583], [-86.0875, 49.7542], [-86.0813, 49.7542]]]}, "properties": {"company_id": "mundoro-capital", "jurisdiction": "Ontario", "claim_id": "1035265", "claim_name": null, "holder": "(100) JADEITE CAPITAL CORP.", "status": "Active", "recorded_date": "2026-03-17", "anniversary_or_expiry": "2028-03-17", "area_ha": null, "tenure_type": "Single Cell Mining Claim", "source": "Ontario MLAS operational claims (OGSEarth / LIO MapServer). Unofficial viewing data, not legal title.", "as_of": "2026-09-20", "role": "focus", "color": "#e8b040"}}, {"type": "Feature", "geometry": {"type": "Polygon", "coordinates": [[[-86.1, 49.75], [-86.1, 49.7542], [-86.1063, 49.7542], [-86.1063, 49.75], [-86.1, 49.75]]]}, "properties": {"company_id": "mundoro-capital", "jurisdiction": "Ontario", "claim_id": "1035266", "claim_name": null, "holder": "(100) JADEITE CAPITAL CORP.", "status": "Active", "recorded_date": "2026-03-17", "anniversary_or_expiry": "2028-03-17", "area_ha": null, "tenure_type": "Single Cell Mining Claim", "source": "Ontario MLAS operational claims (OGSEarth / LIO MapServer). Unofficial viewing data, not legal title.", "as_of": "2026-09-20", "role": "focus", "color": "#e8b040"}}, {"type": "Feature", "geometry": {"type": "Polygon", "coordinates": [[[-86.0938, 49.75], [-86.0938, 49.7542], [-86.1, 49.7542], [-86.1, 49.75], [-86.0938, 49.75]]]}, "properties": {"company_id": "mundoro-capital", "jurisdiction": "Ontario", "claim_id": "1035267", "claim_name": null, "holder": "(100) JADEITE CAPITAL CORP.", "status": "Active", "recorded_date": "2026-03-17", "anniversary_or_expiry": "2028-03-17", "area_ha": null, "tenure_type": "Single Cell Mining Claim", "source": "Ontario MLAS operational claims (OGSEarth / LIO MapServer). Unofficial viewing data, not legal title.", "as_of": "2026-09-20", "role": "focus", "color": "#e8b040"}}, {"type": "Feature", "geometry": {"type": "Polygon", "coordinates": [[[-86.0875, 49.75], [-86.0875, 49.7542], [-86.0938, 49.7542], [-86.0938, 49.75], [-86.0875, 49.75]]]}, "properties": {"company_id": "mundoro-capital", "jurisdiction": "Ontario", "claim_id": "1035268", "claim_name": null, "holder": "(100) JADEITE CAPITAL CORP.", "status": "Active", "recorded_date": "2026-03-17", "anniversary_or_expiry": "2028-03-17", "area_ha": null, "tenure_type": "Single Cell Mining Claim", "source": "Ontario MLAS operational claims (OGSEarth / LIO MapServer). Unofficial viewing data, not legal title.", "as_of": "2026-09-20", "role": "focus", "color": "#e8b040"}}, {"type": "Feature", "geometry": {"type": "Polygon", "coordinates": [[[-86.0813, 49.75], [-86.0813, 49.7542], [-86.0875, 49.7542], [-86.0875, 49.75], [-86.0813, 49.75]]]}, "properties": {"company_id": "mundoro-capital", "jurisdiction": "Ontario", "claim_id": "1035269", "claim_name": null, "holder": "(100) JADEITE CAPITAL CORP.", "status": "Active", "recorded_date": "2026-03-17", "anniversary_or_expiry": "2028-03-17", "area_ha": null, "tenure_type": "Single Cell Mining Claim", "source": "Ontario MLAS operational claims (OGSEarth / LIO MapServer). Unofficial viewing data, not legal title.", "as_of": "2026-09-20", "role": "focus", "color": "#e8b040"}}, {"type": "Feature", "geometry": {"type": "Polygon", "coordinates": [[[-86.075, 49.7417], [-86.075, 49.7458], [-86.0813, 49.7458], [-86.0813, 49.7417], [-86.075, 49.7417]]]}, "properties": {"company_id": "mundoro-capital", "jurisdiction": "Ontario", "claim_id": "1035270", "claim_name": null, "holder": "(100) JADEITE CAPITAL CORP.", "status": "Active", "recorded_date": "2026-03-17", "anniversary_or_expiry": "2028-03-17", "area_ha": null, "tenure_type": "Single Cell Mining Claim", "source": "Ontario MLAS operational claims (OGSEarth / LIO MapServer). Unofficial viewing data, not legal title.", "as_of": "2026-09-20", "role": "focus", "color": "#e8b040"}}, {"type": "Feature", "geometry": {"type": "Polygon", "coordinates": [[[-86.0688, 49.7417], [-86.0688, 49.7458], [-86.075, 49.7458], [-86.075, 49.7417], [-86.0688, 49.7417]]]}, "properties": {"company_id": "mundoro-capital", "jurisdiction": "Ontario", "claim_id": "1035271", "claim_name": null, "holder": "(100) JADEITE CAPITAL CORP.", "status": "Active", "recorded_date": "2026-03-17", "anniversary_or_expiry": "2028-03-17", "area_ha": null, "tenure_type": "Single Cell Mining Claim", "source": "Ontario MLAS operational claims (OGSEarth / LIO MapServer). Unofficial viewing data, not legal title.", "as_of": "2026-09-20", "role": "focus", "color": "#e8b040"}}, {"type": "Feature", "geometry": {"type": "Polygon", "coordinates": [[[-86.0688, 49.7458], [-86.0688, 49.75], [-86.075, 49.75], [-86.075, 49.7458], [-86.0688, 49.7458]]]}, "properties": {"company_id": "mundoro-capital", "jurisdiction": "Ontario", "claim_id": "1035272", "claim_name": null, "holder": "(100) JADEITE CAPITAL CORP.", "status": "Active", "recorded_date": "2026-03-17", "anniversary_or_expiry": "2028-03-17", "area_ha": null, "tenure_type": "Single Cell Mining Claim", "source": "Ontario MLAS operational claims (OGSEarth / LIO MapServer). Unofficial viewing data, not legal title.", "as_of": "2026-09-20", "role": "focus", "color": "#e8b040"}}, {"type": "Feature", "geometry": {"type": "Polygon", "coordinates": [[[-86.075, 49.7458], [-86.075, 49.75], [-86.0813, 49.75], [-86.0813, 49.7458], [-86.075, 49.7458]]]}, "properties": {"company_id": "mundoro-capital", "jurisdiction": "Ontario", "claim_id": "1035273", "claim_name": null, "holder": "(100) JADEITE CAPITAL CORP.", "status": "Active", "recorded_date": "2026-03-17", "anniversary_or_expiry": "2028-03-17", "area_ha": null, "tenure_type": "Single Cell Mining Claim", "source": "Ontario MLAS operational claims (OGSEarth / LIO MapServer). Unofficial viewing data, not legal title.", "as_of": "2026-09-20", "role": "focus", "color": "#e8b040"}}, {"type": "Feature", "geometry": {"type": "Polygon", "coordinates": [[[-86.0688, 49.75], [-86.0688, 49.7542], [-86.075, 49.7542], [-86.075, 49.75], [-86.0688, 49.75]]]}, "properties": {"company_id": "mundoro-capital", "jurisdiction": "Ontario", "claim_id": "1035274", "claim_name": null, "holder": "(100) JADEITE CAPITAL CORP.", "status": "Active", "recorded_date": "2026-03-17", "anniversary_or_expiry": "2028-03-17", "area_ha": null, "tenure_type": "Single Cell Mining Claim", "source": "Ontario MLAS operational claims (OGSEarth / LIO MapServer). Unofficial viewing data, not legal title.", "as_of": "2026-09-20", "role": "focus", "color": "#e8b040"}}, {"type": "Feature", "geometry": {"type": "Polygon", "coordinates": [[[-86.0688, 49.7542], [-86.0688, 49.7583], [-86.075, 49.7583], [-86.075, 49.7542], [-86.0688, 49.7542]]]}, "properties": {"company_id": "mundoro-capital", "jurisdiction": "Ontario", "claim_id": "1035275", "claim_name": null, "holder": "(100) JADEITE CAPITAL CORP.", "status": "Active", "recorded_date": "2026-03-17", "anniversary_or_expiry": "2028-03-17", "area_ha": null, "tenure_type": "Single Cell Mining Claim", "source": "Ontario MLAS operational claims (OGSEarth / LIO MapServer). Unofficial viewing data, not legal title.", "as_of": "2026-09-20", "role": "focus", "color": "#e8b040"}}, {"type": "Feature", "geometry": {"type": "Polygon", "coordinates": [[[-86.075, 49.75], [-86.075, 49.7542], [-86.0813, 49.7542], [-86.0813, 49.75], [-86.075, 49.75]]]}, "properties": {"company_id": "mundoro-capital", "jurisdiction": "Ontario", "claim_id": "1035276", "claim_name": null, "holder": "(100) JADEITE CAPITAL CORP.", "status": "Active", "recorded_date": "2026-03-17", "anniversary_or_expiry": "2028-03-17", "area_ha": null, "tenure_type": "Single Cell Mining Claim", "source": "Ontario MLAS operational claims (OGSEarth / LIO MapServer). Unofficial viewing data, not legal title.", "as_of": "2026-09-20", "role": "focus", "color": "#e8b040"}}, {"type": "Feature", "geometry": {"type": "Polygon", "coordinates": [[[-86.075, 49.7542], [-86.075, 49.7583], [-86.0813, 49.7583], [-86.0813, 49.7542], [-86.075, 49.7542]]]}, "properties": {"company_id": "mundoro-capital", "jurisdiction": "Ontario", "claim_id": "1035277", "claim_name": null, "holder": "(100) JADEITE CAPITAL CORP.", "status": "Active", "recorded_date": "2026-03-17", "anniversary_or_expiry": "2028-03-17", "area_ha": null, "tenure_type": "Single Cell Mining Claim", "source": "Ontario MLAS operational claims (OGSEarth / LIO MapServer). Unofficial viewing data, not legal title.", "as_of": "2026-09-20", "role": "focus", "color": "#e8b040"}}, {"type": "Feature", "geometry": {"type": "Polygon", "coordinates": [[[-86.0688, 49.7583], [-86.0688, 49.7625], [-86.075, 49.7625], [-86.075, 49.7583], [-86.0688, 49.7583]]]}, "properties": {"company_id": "mundoro-capital", "jurisdiction": "Ontario", "claim_id": "1035278", "claim_name": null, "holder": "(100) JADEITE CAPITAL CORP.", "status": "Active", "recorded_date": "2026-03-17", "anniversary_or_expiry": "2028-03-17", "area_ha": null, "tenure_type": "Single Cell Mining Claim", "source": "Ontario MLAS operational claims (OGSEarth / LIO MapServer). Unofficial viewing data, not legal title.", "as_of": "2026-09-20", "role": "focus", "color": "#e8b040"}}, {"type": "Feature", "geometry": {"type": "Polygon", "coordinates": [[[-86.075, 49.7583], [-86.075, 49.7625], [-86.0813, 49.7625], [-86.0813, 49.7583], [-86.075, 49.7583]]]}, "properties": {"company_id": "mundoro-capital", "jurisdiction": "Ontario", "claim_id": "1035279", "claim_name": null, "holder": "(100) JADEITE CAPITAL CORP.", "status": "Active", "recorded_date": "2026-03-17", "anniversary_or_expiry": "2028-03-17", "area_ha": null, "tenure_type": "Single Cell Mining Claim", "source": "Ontario MLAS operational claims (OGSEarth / LIO MapServer). Unofficial viewing data, not legal title.", "as_of": "2026-09-20", "role": "focus", "color": "#e8b040"}}, {"type": "Feature", "geometry": {"type": "Polygon", "coordinates": [[[-86.05, 49.7667], [-86.05, 49.7708], [-86.0563, 49.7708], [-86.0563, 49.7667], [-86.05, 49.7667]]]}, "properties": {"company_id": "mundoro-capital", "jurisdiction": "Ontario", "claim_id": "1035280", "claim_name": null, "holder": "(100) JADEITE CAPITAL CORP.", "status": "Active", "recorded_date": "2026-03-17", "anniversary_or_expiry": "2028-03-17", "area_ha": null, "tenure_type": "Single Cell Mining Claim", "source": "Ontario MLAS operational claims (OGSEarth / LIO MapServer). Unofficial viewing data, not legal title.", "as_of": "2026-09-20", "role": "focus", "color": "#e8b040"}}, {"type": "Feature", "geometry": {"type": "Polygon", "coordinates": [[[-86.0625, 49.7458], [-86.0625, 49.75], [-86.0688, 49.75], [-86.0688, 49.7458], [-86.0625, 49.7458]]]}, "properties": {"company_id": "mundoro-capital", "jurisdiction": "Ontario", "claim_id": "1035281", "claim_name": null, "holder": "(100) JADEITE CAPITAL CORP.", "status": "Active", "recorded_date": "2026-03-17", "anniversary_or_expiry": "2028-03-17", "area_ha": null, "tenure_type": "Single Cell Mining Claim", "source": "Ontario MLAS operational claims (OGSEarth / LIO MapServer). Unofficial viewing data, not legal title.", "as_of": "2026-09-20", "role": "focus", "color": "#e8b040"}}, {"type": "Feature", "geometry": {"type": "Polygon", "coordinates": [[[-86.0625, 49.7625], [-86.0625, 49.7667], [-86.0688, 49.7667], [-86.0688, 49.7625], [-86.0625, 49.7625]]]}, "properties": {"company_id": "mundoro-capital", "jurisdiction": "Ontario", "claim_id": "1035282", "claim_name": null, "holder": "(100) JADEITE CAPITAL CORP.", "status": "Active", "recorded_date": "2026-03-17", "anniversary_or_expiry": "2028-03-17", "area_ha": null, "tenure_type": "Single Cell Mining Claim", "source": "Ontario MLAS operational claims (OGSEarth / LIO MapServer). Unofficial viewing data, not legal title.", "as_of": "2026-09-20", "role": "focus", "color": "#e8b040"}}, {"type": "Feature", "geometry": {"type": "Polygon", "coordinates": [[[-86.0563, 49.7583], [-86.0563, 49.7625], [-86.0625, 49.7625], [-86.0625, 49.7583], [-86.0563, 49.7583]]]}, "properties": {"company_id": "mundoro-capital", "jurisdiction": "Ontario", "claim_id": "1035283", "claim_name": null, "holder": "(100) JADEITE CAPITAL CORP.", "status": "Active", "recorded_date": "2026-03-17", "anniversary_or_expiry": "2028-03-17", "area_ha": null, "tenure_type": "Single Cell Mining Claim", "source": "Ontario MLAS operational claims (OGSEarth / LIO MapServer). Unofficial viewing data, not legal title.", "as_of": "2026-09-20", "role": "focus", "color": "#e8b040"}}, {"type": "Feature", "geometry": {"type": "Polygon", "coordinates": [[[-86.0563, 49.7667], [-86.0563, 49.7708], [-86.0625, 49.7708], [-86.0625, 49.7667], [-86.0563, 49.7667]]]}, "properties": {"company_id": "mundoro-capital", "jurisdiction": "Ontario", "claim_id": "1035284", "claim_name": null, "holder": "(100) JADEITE CAPITAL CORP.", "status": "Active", "recorded_date": "2026-03-17", "anniversary_or_expiry": "2028-03-17", "area_ha": null, "tenure_type": "Single Cell Mining Claim", "source": "Ontario MLAS operational claims (OGSEarth / LIO MapServer). Unofficial viewing data, not legal title.", "as_of": "2026-09-20", "role": "focus", "color": "#e8b040"}}, {"type": "Feature", "geometry": {"type": "Polygon", "coordinates": [[[-86.0563, 49.75], [-86.0563, 49.7542], [-86.0625, 49.7542], [-86.0625, 49.75], [-86.0563, 49.75]]]}, "properties": {"company_id": "mundoro-capital", "jurisdiction": "Ontario", "claim_id": "1035285", "claim_name": null, "holder": "(100) JADEITE CAPITAL CORP.", "status": "Active", "recorded_date": "2026-03-17", "anniversary_or_expiry": "2028-03-17", "area_ha": null, "tenure_type": "Single Cell Mining Claim", "source": "Ontario MLAS operational claims (OGSEarth / LIO MapServer). Unofficial viewing data, not legal title.", "as_of": "2026-09-20", "role": "focus", "color": "#e8b040"}}, {"type": "Feature", "geometry": {"type": "Polygon", "coordinates": [[[-86.0563, 49.7542], [-86.0563, 49.7583], [-86.0625, 49.7583], [-86.0625, 49.7542], [-86.0563, 49.7542]]]}, "properties": {"company_id": "mundoro-capital", "jurisdiction": "Ontario", "claim_id": "1035286", "claim_name": null, "holder": "(100) JADEITE CAPITAL CORP.", "status": "Active", "recorded_date": "2026-03-17", "anniversary_or_expiry": "2028-03-17", "area_ha": null, "tenure_type": "Single Cell Mining Claim", "source": "Ontario MLAS operational claims (OGSEarth / LIO MapServer). Unofficial viewing data, not legal title.", "as_of": "2026-09-20", "role": "focus", "color": "#e8b040"}}, {"type": "Feature", "geometry": {"type": "Polygon", "coordinates": [[[-86.0625, 49.7667], [-86.0625, 49.7708], [-86.0688, 49.7708], [-86.0688, 49.7667], [-86.0625, 49.7667]]]}, "properties": {"company_id": "mundoro-capital", "jurisdiction": "Ontario", "claim_id": "1035287", "claim_name": null, "holder": "(100) JADEITE CAPITAL CORP.", "status": "Active", "recorded_date": "2026-03-17", "anniversary_or_expiry": "2028-03-17", "area_ha": null, "tenure_type": "Single Cell Mining Claim", "source": "Ontario MLAS operational claims (OGSEarth / LIO MapServer). Unofficial viewing data, not legal title.", "as_of": "2026-09-20", "role": "focus", "color": "#e8b040"}}, {"type": "Feature", "geometry": {"type": "Polygon", "coordinates": [[[-86.0625, 49.7417], [-86.0625, 49.7458], [-86.0688, 49.7458], [-86.0688, 49.7417], [-86.0625, 49.7417]]]}, "properties": {"company_id": "mundoro-capital", "jurisdiction": "Ontario", "claim_id": "1035288", "claim_name": null, "holder": "(100) JADEITE CAPITAL CORP.", "status": "Active", "recorded_date": "2026-03-17", "anniversary_or_expiry": "2028-03-17", "area_ha": null, "tenure_type": "Single Cell Mining Claim", "source": "Ontario MLAS operational claims (OGSEarth / LIO MapServer). Unofficial viewing data, not legal title.", "as_of": "2026-09-20", "role": "focus", "color": "#e8b040"}}, {"type": "Feature", "geometry": {"type": "Polygon", "coordinates": [[[-86.0625, 49.75], [-86.0625, 49.7542], [-86.0688, 49.7542], [-86.0688, 49.75], [-86.0625, 49.75]]]}, "properties": {"company_id": "mundoro-capital", "jurisdiction": "Ontario", "claim_id": "1035289", "claim_name": null, "holder": "(100) JADEITE CAPITAL CORP.", "status": "Active", "recorded_date": "2026-03-17", "anniversary_or_expiry": "2028-03-17", "area_ha": null, "tenure_type": "Single Cell Mining Claim", "source": "Ontario MLAS operational claims (OGSEarth / LIO MapServer). Unofficial viewing data, not legal title.", "as_of": "2026-09-20", "role": "focus", "color": "#e8b040"}}, {"type": "Feature", "geometry": {"type": "Polygon", "coordinates": [[[-86.0563, 49.7458], [-86.0563, 49.75], [-86.0625, 49.75], [-86.0625, 49.7458], [-86.0563, 49.7458]]]}, "properties": {"company_id": "mundoro-capital", "jurisdiction": "Ontario", "claim_id": "1035290", "claim_name": null, "holder": "(100) JADEITE CAPITAL CORP.", "status": "Active", "recorded_date": "2026-03-17", "anniversary_or_expiry": "2028-03-17", "area_ha": null, "tenure_type": "Single Cell Mining Claim", "source": "Ontario MLAS operational claims (OGSEarth / LIO MapServer). Unofficial viewing data, not legal title.", "as_of": "2026-09-20", "role": "focus", "color": "#e8b040"}}, {"type": "Feature", "geometry": {"type": "Polygon", "coordinates": [[[-86.0563, 49.7625], [-86.0563, 49.7667], [-86.0625, 49.7667], [-86.0625, 49.7625], [-86.0563, 49.7625]]]}, "properties": {"company_id": "mundoro-capital", "jurisdiction": "Ontario", "claim_id": "1035291", "claim_name": null, "holder": "(100) JADEITE CAPITAL CORP.", "status": "Active", "recorded_date": "2026-03-17", "anniversary_or_expiry": "2028-03-17", "area_ha": null, "tenure_type": "Single Cell Mining Claim", "source": "Ontario MLAS operational claims (OGSEarth / LIO MapServer). Unofficial viewing data, not legal title.", "as_of": "2026-09-20", "role": "focus", "color": "#e8b040"}}, {"type": "Feature", "geometry": {"type": "Polygon", "coordinates": [[[-86.0625, 49.7542], [-86.0625, 49.7583], [-86.0688, 49.7583], [-86.0688, 49.7542], [-86.0625, 49.7542]]]}, "properties": {"company_id": "mundoro-capital", "jurisdiction": "Ontario", "claim_id": "1035292", "claim_name": null, "holder": "(100) JADEITE CAPITAL CORP.", "status": "Active", "recorded_date": "2026-03-17", "anniversary_or_expiry": "2028-03-17", "area_ha": null, "tenure_type": "Single Cell Mining Claim", "source": "Ontario MLAS operational claims (OGSEarth / LIO MapServer). Unofficial viewing data, not legal title.", "as_of": "2026-09-20", "role": "focus", "color": "#e8b040"}}, {"type": "Feature", "geometry": {"type": "Polygon", "coordinates": [[[-86.0625, 49.7583], [-86.0625, 49.7625], [-86.0688, 49.7625], [-86.0688, 49.7583], [-86.0625, 49.7583]]]}, "properties": {"company_id": "mundoro-capital", "jurisdiction": "Ontario", "claim_id": "1035293", "claim_name": null, "holder": "(100) JADEITE CAPITAL CORP.", "status": "Active", "recorded_date": "2026-03-17", "anniversary_or_expiry": "2028-03-17", "area_ha": null, "tenure_type": "Single Cell Mining Claim", "source": "Ontario MLAS operational claims (OGSEarth / LIO MapServer). Unofficial viewing data, not legal title.", "as_of": "2026-09-20", "role": "focus", "color": "#e8b040"}}, {"type": "Feature", "geometry": {"type": "Polygon", "coordinates": [[[-86.0438, 49.7625], [-86.0438, 49.7667], [-86.05, 49.7667], [-86.05, 49.7625], [-86.0438, 49.7625]]]}, "properties": {"company_id": "mundoro-capital", "jurisdiction": "Ontario", "claim_id": "1035294", "claim_name": null, "holder": "(100) JADEITE CAPITAL CORP.", "status": "Active", "recorded_date": "2026-03-17", "anniversary_or_expiry": "2028-03-17", "area_ha": null, "tenure_type": "Single Cell Mining Claim", "source": "Ontario MLAS operational claims (OGSEarth / LIO MapServer). Unofficial viewing data, not legal title.", "as_of": "2026-09-20", "role": "focus", "color": "#e8b040"}}, {"type": "Feature", "geometry": {"type": "Polygon", "coordinates": [[[-86.05, 49.7542], [-86.05, 49.7583], [-86.0563, 49.7583], [-86.0563, 49.7542], [-86.05, 49.7542]]]}, "properties": {"company_id": "mundoro-capital", "jurisdiction": "Ontario", "claim_id": "1035295", "claim_name": null, "holder": "(100) JADEITE CAPITAL CORP.", "status": "Active", "recorded_date": "2026-03-17", "anniversary_or_expiry": "2028-03-17", "area_ha": null, "tenure_type": "Single Cell Mining Claim", "source": "Ontario MLAS operational claims (OGSEarth / LIO MapServer). Unofficial viewing data, not legal title.", "as_of": "2026-09-20", "role": "focus", "color": "#e8b040"}}, {"type": "Feature", "geometry": {"type": "Polygon", "coordinates": [[[-86.0438, 49.7583], [-86.0438, 49.7625], [-86.05, 49.7625], [-86.05, 49.7583], [-86.0438, 49.7583]]]}, "properties": {"company_id": "mundoro-capital", "jurisdiction": "Ontario", "claim_id": "1035296", "claim_name": null, "holder": "(100) JADEITE CAPITAL CORP.", "status": "Active", "recorded_date": "2026-03-17", "anniversary_or_expiry": "2028-03-17", "area_ha": null, "tenure_type": "Single Cell Mining Claim", "source": "Ontario MLAS operational claims (OGSEarth / LIO MapServer). Unofficial viewing data, not legal title.", "as_of": "2026-09-20", "role": "focus", "color": "#e8b040"}}, {"type": "Feature", "geometry": {"type": "Polygon", "coordinates": [[[-86.0438, 49.7667], [-86.0438, 49.7708], [-86.05, 49.7708], [-86.05, 49.7667], [-86.0438, 49.7667]]]}, "properties": {"company_id": "mundoro-capital", "jurisdiction": "Ontario", "claim_id": "1035297", "claim_name": null, "holder": "(100) JADEITE CAPITAL CORP.", "status": "Active", "recorded_date": "2026-03-17", "anniversary_or_expiry": "2028-03-17", "area_ha": null, "tenure_type": "Single Cell Mining Claim", "source": "Ontario MLAS operational claims (OGSEarth / LIO MapServer). Unofficial viewing data, not legal title.", "as_of": "2026-09-20", "role": "focus", "color": "#e8b040"}}, {"type": "Feature", "geometry": {"type": "Polygon", "coordinates": [[[-86.05, 49.7583], [-86.05, 49.7625], [-86.0563, 49.7625], [-86.0563, 49.7583], [-86.05, 49.7583]]]}, "properties": {"company_id": "mundoro-capital", "jurisdiction": "Ontario", "claim_id": "1035298", "claim_name": null, "holder": "(100) JADEITE CAPITAL CORP.", "status": "Active", "recorded_date": "2026-03-17", "anniversary_or_expiry": "2028-03-17", "area_ha": null, "tenure_type": "Single Cell Mining Claim", "source": "Ontario MLAS operational claims (OGSEarth / LIO MapServer). Unofficial viewing data, not legal title.", "as_of": "2026-09-20", "role": "focus", "color": "#e8b040"}}, {"type": "Feature", "geometry": {"type": "Polygon", "coordinates": [[[-86.0313, 49.7583], [-86.0313, 49.7625], [-86.0375, 49.7625], [-86.0375, 49.7583], [-86.0313, 49.7583]]]}, "properties": {"company_id": "mundoro-capital", "jurisdiction": "Ontario", "claim_id": "1035299", "claim_name": null, "holder": "(100) JADEITE CAPITAL CORP.", "status": "Active", "recorded_date": "2026-03-17", "anniversary_or_expiry": "2028-03-17", "area_ha": null, "tenure_type": "Single Cell Mining Claim", "source": "Ontario MLAS operational claims (OGSEarth / LIO MapServer). Unofficial viewing data, not legal title.", "as_of": "2026-09-20", "role": "focus", "color": "#e8b040"}}, {"type": "Feature", "geometry": {"type": "Polygon", "coordinates": [[[-86.0313, 49.7625], [-86.0313, 49.7667], [-86.0375, 49.7667], [-86.0375, 49.7625], [-86.0313, 49.7625]]]}, "properties": {"company_id": "mundoro-capital", "jurisdiction": "Ontario", "claim_id": "1035300", "claim_name": null, "holder": "(100) JADEITE CAPITAL CORP.", "status": "Active", "recorded_date": "2026-03-17", "anniversary_or_expiry": "2028-03-17", "area_ha": null, "tenure_type": "Single Cell Mining Claim", "source": "Ontario MLAS operational claims (OGSEarth / LIO MapServer). Unofficial viewing data, not legal title.", "as_of": "2026-09-20", "role": "focus", "color": "#e8b040"}}, {"type": "Feature", "geometry": {"type": "Polygon", "coordinates": [[[-86.025, 49.7625], [-86.025, 49.7667], [-86.0313, 49.7667], [-86.0313, 49.7625], [-86.025, 49.7625]]]}, "properties": {"company_id": "mundoro-capital", "jurisdiction": "Ontario", "claim_id": "1035301", "claim_name": null, "holder": "(100) JADEITE CAPITAL CORP.", "status": "Active", "recorded_date": "2026-03-17", "anniversary_or_expiry": "2028-03-17", "area_ha": null, "tenure_type": "Single Cell Mining Claim", "source": "Ontario MLAS operational claims (OGSEarth / LIO MapServer). Unofficial viewing data, not legal title.", "as_of": "2026-09-20", "role": "focus", "color": "#e8b040"}}, {"type": "Feature", "geometry": {"type": "Polygon", "coordinates": [[[-86.0125, 49.7542], [-86.0125, 49.7583], [-86.0188, 49.7583], [-86.0188, 49.7542], [-86.0125, 49.7542]]]}, "properties": {"company_id": "mundoro-capital", "jurisdiction": "Ontario", "claim_id": "1035302", "claim_name": null, "holder": "(100) JADEITE CAPITAL CORP.", "status": "Active", "recorded_date": "2026-03-17", "anniversary_or_expiry": "2028-03-17", "area_ha": null, "tenure_type": "Single Cell Mining Claim", "source": "Ontario MLAS operational claims (OGSEarth / LIO MapServer). Unofficial viewing data, not legal title.", "as_of": "2026-09-20", "role": "focus", "color": "#e8b040"}}, {"type": "Feature", "geometry": {"type": "Polygon", "coordinates": [[[-86.0063, 49.7583], [-86.0063, 49.7625], [-86.0125, 49.7625], [-86.0125, 49.7583], [-86.0063, 49.7583]]]}, "properties": {"company_id": "mundoro-capital", "jurisdiction": "Ontario", "claim_id": "1035303", "claim_name": null, "holder": "(100) JADEITE CAPITAL CORP.", "status": "Active", "recorded_date": "2026-03-17", "anniversary_or_expiry": "2028-03-17", "area_ha": null, "tenure_type": "Single Cell Mining Claim", "source": "Ontario MLAS operational claims (OGSEarth / LIO MapServer). Unofficial viewing data, not legal title.", "as_of": "2026-09-20", "role": "focus", "color": "#e8b040"}}, {"type": "Feature", "geometry": {"type": "Polygon", "coordinates": [[[-86.0, 49.7542], [-86.0, 49.7583], [-86.0063, 49.7583], [-86.0063, 49.7542], [-86.0, 49.7542]]]}, "properties": {"company_id": "mundoro-capital", "jurisdiction": "Ontario", "claim_id": "1035304", "claim_name": null, "holder": "(100) JADEITE CAPITAL CORP.", "status": "Active", "recorded_date": "2026-03-17", "anniversary_or_expiry": "2028-03-17", "area_ha": null, "tenure_type": "Single Cell Mining Claim", "source": "Ontario MLAS operational claims (OGSEarth / LIO MapServer). Unofficial viewing data, not legal title.", "as_of": "2026-09-20", "role": "focus", "color": "#e8b040"}}, {"type": "Feature", "geometry": {"type": "Polygon", "coordinates": [[[-86.0188, 49.7542], [-86.0188, 49.7583], [-86.025, 49.7583], [-86.025, 49.7542], [-86.0188, 49.7542]]]}, "properties": {"company_id": "mundoro-capital", "jurisdiction": "Ontario", "claim_id": "1035305", "claim_name": null, "holder": "(100) JADEITE CAPITAL CORP.", "status": "Active", "recorded_date": "2026-03-17", "anniversary_or_expiry": "2028-03-17", "area_ha": null, "tenure_type": "Single Cell Mining Claim", "source": "Ontario MLAS operational claims (OGSEarth / LIO MapServer). Unofficial viewing data, not legal title.", "as_of": "2026-09-20", "role": "focus", "color": "#e8b040"}}, {"type": "Feature", "geometry": {"type": "Polygon", "coordinates": [[[-86.0188, 49.7583], [-86.0188, 49.7625], [-86.025, 49.7625], [-86.025, 49.7583], [-86.0188, 49.7583]]]}, "properties": {"company_id": "mundoro-capital", "jurisdiction": "Ontario", "claim_id": "1035306", "claim_name": null, "holder": "(100) JADEITE CAPITAL CORP.", "status": "Active", "recorded_date": "2026-03-17", "anniversary_or_expiry": "2028-03-17", "area_ha": null, "tenure_type": "Single Cell Mining Claim", "source": "Ontario MLAS operational claims (OGSEarth / LIO MapServer). Unofficial viewing data, not legal title.", "as_of": "2026-09-20", "role": "focus", "color": "#e8b040"}}, {"type": "Feature", "geometry": {"type": "Polygon", "coordinates": [[[-86.0188, 49.7625], [-86.0188, 49.7667], [-86.025, 49.7667], [-86.025, 49.7625], [-86.0188, 49.7625]]]}, "properties": {"company_id": "mundoro-capital", "jurisdiction": "Ontario", "claim_id": "1035307", "claim_name": null, "holder": "(100) JADEITE CAPITAL CORP.", "status": "Active", "recorded_date": "2026-03-17", "anniversary_or_expiry": "2028-03-17", "area_ha": null, "tenure_type": "Single Cell Mining Claim", "source": "Ontario MLAS operational claims (OGSEarth / LIO MapServer). Unofficial viewing data, not legal title.", "as_of": "2026-09-20", "role": "focus", "color": "#e8b040"}}, {"type": "Feature", "geometry": {"type": "Polygon", "coordinates": [[[-86.0375, 49.7667], [-86.0375, 49.7708], [-86.0438, 49.7708], [-86.0438, 49.7667], [-86.0375, 49.7667]]]}, "properties": {"company_id": "mundoro-capital", "jurisdiction": "Ontario", "claim_id": "1035308", "claim_name": null, "holder": "(100) JADEITE CAPITAL CORP.", "status": "Active", "recorded_date": "2026-03-17", "anniversary_or_expiry": "2028-03-17", "area_ha": null, "tenure_type": "Single Cell Mining Claim", "source": "Ontario MLAS operational claims (OGSEarth / LIO MapServer). Unofficial viewing data, not legal title.", "as_of": "2026-09-20", "role": "focus", "color": "#e8b040"}}, {"type": "Feature", "geometry": {"type": "Polygon", "coordinates": [[[-86.025, 49.7667], [-86.025, 49.7708], [-86.0313, 49.7708], [-86.0313, 49.7667], [-86.025, 49.7667]]]}, "properties": {"company_id": "mundoro-capital", "jurisdiction": "Ontario", "claim_id": "1035309", "claim_name": null, "holder": "(100) JADEITE CAPITAL CORP.", "status": "Active", "recorded_date": "2026-03-17", "anniversary_or_expiry": "2028-03-17", "area_ha": null, "tenure_type": "Single Cell Mining Claim", "source": "Ontario MLAS operational claims (OGSEarth / LIO MapServer). Unofficial viewing data, not legal title.", "as_of": "2026-09-20", "role": "focus", "color": "#e8b040"}}, {"type": "Feature", "geometry": {"type": "Polygon", "coordinates": [[[-86.0125, 49.7625], [-86.0125, 49.7667], [-86.0188, 49.7667], [-86.0188, 49.7625], [-86.0125, 49.7625]]]}, "properties": {"company_id": "mundoro-capital", "jurisdiction": "Ontario", "claim_id": "1035310", "claim_name": null, "holder": "(100) JADEITE CAPITAL CORP.", "status": "Active", "recorded_date": "2026-03-17", "anniversary_or_expiry": "2028-03-17", "area_ha": null, "tenure_type": "Single Cell Mining Claim", "source": "Ontario MLAS operational claims (OGSEarth / LIO MapServer). Unofficial viewing data, not legal title.", "as_of": "2026-09-20", "role": "focus", "color": "#e8b040"}}, {"type": "Feature", "geometry": {"type": "Polygon", "coordinates": [[[-86.0313, 49.7667], [-86.0313, 49.7708], [-86.0375, 49.7708], [-86.0375, 49.7667], [-86.0313, 49.7667]]]}, "properties": {"company_id": "mundoro-capital", "jurisdiction": "Ontario", "claim_id": "1035311", "claim_name": null, "holder": "(100) JADEITE CAPITAL CORP.", "status": "Active", "recorded_date": "2026-03-17", "anniversary_or_expiry": "2028-03-17", "area_ha": null, "tenure_type": "Single Cell Mining Claim", "source": "Ontario MLAS operational claims (OGSEarth / LIO MapServer). Unofficial viewing data, not legal title.", "as_of": "2026-09-20", "role": "focus", "color": "#e8b040"}}, {"type": "Feature", "geometry": {"type": "Polygon", "coordinates": [[[-86.0188, 49.7667], [-86.0188, 49.7708], [-86.025, 49.7708], [-86.025, 49.7667], [-86.0188, 49.7667]]]}, "properties": {"company_id": "mundoro-capital", "jurisdiction": "Ontario", "claim_id": "1035312", "claim_name": null, "holder": "(100) JADEITE CAPITAL CORP.", "status": "Active", "recorded_date": "2026-03-17", "anniversary_or_expiry": "2028-03-17", "area_ha": null, "tenure_type": "Single Cell Mining Claim", "source": "Ontario MLAS operational claims (OGSEarth / LIO MapServer). Unofficial viewing data, not legal title.", "as_of": "2026-09-20", "role": "focus", "color": "#e8b040"}}, {"type": "Feature", "geometry": {"type": "Polygon", "coordinates": [[[-86.0125, 49.7667], [-86.0125, 49.7708], [-86.0188, 49.7708], [-86.0188, 49.7667], [-86.0125, 49.7667]]]}, "properties": {"company_id": "mundoro-capital", "jurisdiction": "Ontario", "claim_id": "1035313", "claim_name": null, "holder": "(100) JADEITE CAPITAL CORP.", "status": "Active", "recorded_date": "2026-03-17", "anniversary_or_expiry": "2028-03-17", "area_ha": null, "tenure_type": "Single Cell Mining Claim", "source": "Ontario MLAS operational claims (OGSEarth / LIO MapServer). Unofficial viewing data, not legal title.", "as_of": "2026-09-20", "role": "focus", "color": "#e8b040"}}, {"type": "Feature", "geometry": {"type": "Polygon", "coordinates": [[[-86.0063, 49.7542], [-86.0063, 49.7583], [-86.0125, 49.7583], [-86.0125, 49.7542], [-86.0063, 49.7542]]]}, "properties": {"company_id": "mundoro-capital", "jurisdiction": "Ontario", "claim_id": "1035314", "claim_name": null, "holder": "(100) JADEITE CAPITAL CORP.", "status": "Active", "recorded_date": "2026-03-17", "anniversary_or_expiry": "2028-03-17", "area_ha": null, "tenure_type": "Single Cell Mining Claim", "source": "Ontario MLAS operational claims (OGSEarth / LIO MapServer). Unofficial viewing data, not legal title.", "as_of": "2026-09-20", "role": "focus", "color": "#e8b040"}}, {"type": "Feature", "geometry": {"type": "Polygon", "coordinates": [[[-86.0375, 49.7583], [-86.0375, 49.7625], [-86.0438, 49.7625], [-86.0438, 49.7583], [-86.0375, 49.7583]]]}, "properties": {"company_id": "mundoro-capital", "jurisdiction": "Ontario", "claim_id": "1035315", "claim_name": null, "holder": "(100) JADEITE CAPITAL CORP.", "status": "Active", "recorded_date": "2026-03-17", "anniversary_or_expiry": "2028-03-17", "area_ha": null, "tenure_type": "Single Cell Mining Claim", "source": "Ontario MLAS operational claims (OGSEarth / LIO MapServer). Unofficial viewing data, not legal title.", "as_of": "2026-09-20", "role": "focus", "color": "#e8b040"}}, {"type": "Feature", "geometry": {"type": "Polygon", "coordinates": [[[-86.0375, 49.7625], [-86.0375, 49.7667], [-86.0438, 49.7667], [-86.0438, 49.7625], [-86.0375, 49.7625]]]}, "properties": {"company_id": "mundoro-capital", "jurisdiction": "Ontario", "claim_id": "1035316", "claim_name": null, "holder": "(100) JADEITE CAPITAL CORP.", "status": "Active", "recorded_date": "2026-03-17", "anniversary_or_expiry": "2028-03-17", "area_ha": null, "tenure_type": "Single Cell Mining Claim", "source": "Ontario MLAS operational claims (OGSEarth / LIO MapServer). Unofficial viewing data, not legal title.", "as_of": "2026-09-20", "role": "focus", "color": "#e8b040"}}, {"type": "Feature", "geometry": {"type": "Polygon", "coordinates": [[[-86.025, 49.7583], [-86.025, 49.7625], [-86.0313, 49.7625], [-86.0313, 49.7583], [-86.025, 49.7583]]]}, "properties": {"company_id": "mundoro-capital", "jurisdiction": "Ontario", "claim_id": "1035317", "claim_name": null, "holder": "(100) JADEITE CAPITAL CORP.", "status": "Active", "recorded_date": "2026-03-17", "anniversary_or_expiry": "2028-03-17", "area_ha": null, "tenure_type": "Single Cell Mining Claim", "source": "Ontario MLAS operational claims (OGSEarth / LIO MapServer). Unofficial viewing data, not legal title.", "as_of": "2026-09-20", "role": "focus", "color": "#e8b040"}}, {"type": "Feature", "geometry": {"type": "Polygon", "coordinates": [[[-86.0125, 49.7583], [-86.0125, 49.7625], [-86.0188, 49.7625], [-86.0188, 49.7583], [-86.0125, 49.7583]]]}, "properties": {"company_id": "mundoro-capital", "jurisdiction": "Ontario", "claim_id": "1035318", "claim_name": null, "holder": "(100) JADEITE CAPITAL CORP.", "status": "Active", "recorded_date": "2026-03-17", "anniversary_or_expiry": "2028-03-17", "area_ha": null, "tenure_type": "Single Cell Mining Claim", "source": "Ontario MLAS operational claims (OGSEarth / LIO MapServer). Unofficial viewing data, not legal title.", "as_of": "2026-09-20", "role": "focus", "color": "#e8b040"}}, {"type": "Feature", "geometry": {"type": "Polygon", "coordinates": [[[-86.0, 49.7583], [-86.0, 49.7625], [-86.0063, 49.7625], [-86.0063, 49.7583], [-86.0, 49.7583]]]}, "properties": {"company_id": "mundoro-capital", "jurisdiction": "Ontario", "claim_id": "1035319", "claim_name": null, "holder": "(100) JADEITE CAPITAL CORP.", "status": "Active", "recorded_date": "2026-03-17", "anniversary_or_expiry": "2028-03-17", "area_ha": null, "tenure_type": "Single Cell Mining Claim", "source": "Ontario MLAS operational claims (OGSEarth / LIO MapServer). Unofficial viewing data, not legal title.", "as_of": "2026-09-20", "role": "focus", "color": "#e8b040"}}, {"type": "Feature", "geometry": {"type": "Polygon", "coordinates": [[[-86.05, 49.7458], [-86.05, 49.75], [-86.0563, 49.75], [-86.0563, 49.7458], [-86.05, 49.7458]]]}, "properties": {"company_id": "mundoro-capital", "jurisdiction": "Ontario", "claim_id": "1035320", "claim_name": null, "holder": "(100) JADEITE CAPITAL CORP.", "status": "Active", "recorded_date": "2026-03-17", "anniversary_or_expiry": "2028-03-17", "area_ha": null, "tenure_type": "Single Cell Mining Claim", "source": "Ontario MLAS operational claims (OGSEarth / LIO MapServer). Unofficial viewing data, not legal title.", "as_of": "2026-09-20", "role": "focus", "color": "#e8b040"}}, {"type": "Feature", "geometry": {"type": "Polygon", "coordinates": [[[-86.0438, 49.75], [-86.0438, 49.7542], [-86.05, 49.7542], [-86.05, 49.75], [-86.0438, 49.75]]]}, "properties": {"company_id": "mundoro-capital", "jurisdiction": "Ontario", "claim_id": "1035321", "claim_name": null, "holder": "(100) JADEITE CAPITAL CORP.", "status": "Active", "recorded_date": "2026-03-17", "anniversary_or_expiry": "2028-03-17", "area_ha": null, "tenure_type": "Single Cell Mining Claim", "source": "Ontario MLAS operational claims (OGSEarth / LIO MapServer). Unofficial viewing data, not legal title.", "as_of": "2026-09-20", "role": "focus", "color": "#e8b040"}}, {"type": "Feature", "geometry": {"type": "Polygon", "coordinates": [[[-86.0563, 49.7417], [-86.0563, 49.7458], [-86.0625, 49.7458], [-86.0625, 49.7417], [-86.0563, 49.7417]]]}, "properties": {"company_id": "mundoro-capital", "jurisdiction": "Ontario", "claim_id": "1035322", "claim_name": null, "holder": "(100) JADEITE CAPITAL CORP.", "status": "Active", "recorded_date": "2026-03-17", "anniversary_or_expiry": "2028-03-17", "area_ha": null, "tenure_type": "Single Cell Mining Claim", "source": "Ontario MLAS operational claims (OGSEarth / LIO MapServer). Unofficial viewing data, not legal title.", "as_of": "2026-09-20", "role": "focus", "color": "#e8b040"}}, {"type": "Feature", "geometry": {"type": "Polygon", "coordinates": [[[-86.05, 49.75], [-86.05, 49.7542], [-86.0563, 49.7542], [-86.0563, 49.75], [-86.05, 49.75]]]}, "properties": {"company_id": "mundoro-capital", "jurisdiction": "Ontario", "claim_id": "1035323", "claim_name": null, "holder": "(100) JADEITE CAPITAL CORP.", "status": "Active", "recorded_date": "2026-03-17", "anniversary_or_expiry": "2028-03-17", "area_ha": null, "tenure_type": "Single Cell Mining Claim", "source": "Ontario MLAS operational claims (OGSEarth / LIO MapServer). Unofficial viewing data, not legal title.", "as_of": "2026-09-20", "role": "focus", "color": "#e8b040"}}, {"type": "Feature", "geometry": {"type": "Polygon", "coordinates": [[[-86.0438, 49.7417], [-86.0438, 49.7458], [-86.05, 49.7458], [-86.05, 49.7417], [-86.0438, 49.7417]]]}, "properties": {"company_id": "mundoro-capital", "jurisdiction": "Ontario", "claim_id": "1035324", "claim_name": null, "holder": "(100) JADEITE CAPITAL CORP.", "status": "Active", "recorded_date": "2026-03-17", "anniversary_or_expiry": "2028-03-17", "area_ha": null, "tenure_type": "Single Cell Mining Claim", "source": "Ontario MLAS operational claims (OGSEarth / LIO MapServer). Unofficial viewing data, not legal title.", "as_of": "2026-09-20", "role": "focus", "color": "#e8b040"}}, {"type": "Feature", "geometry": {"type": "Polygon", "coordinates": [[[-86.0438, 49.7458], [-86.0438, 49.75], [-86.05, 49.75], [-86.05, 49.7458], [-86.0438, 49.7458]]]}, "properties": {"company_id": "mundoro-capital", "jurisdiction": "Ontario", "claim_id": "1035325", "claim_name": null, "holder": "(100) JADEITE CAPITAL CORP.", "status": "Active", "recorded_date": "2026-03-17", "anniversary_or_expiry": "2028-03-17", "area_ha": null, "tenure_type": "Single Cell Mining Claim", "source": "Ontario MLAS operational claims (OGSEarth / LIO MapServer). Unofficial viewing data, not legal title.", "as_of": "2026-09-20", "role": "focus", "color": "#e8b040"}}, {"type": "Feature", "geometry": {"type": "Polygon", "coordinates": [[[-86.0313, 49.7542], [-86.0313, 49.7583], [-86.0375, 49.7583], [-86.0375, 49.7542], [-86.0313, 49.7542]]]}, "properties": {"company_id": "mundoro-capital", "jurisdiction": "Ontario", "claim_id": "1035326", "claim_name": null, "holder": "(100) JADEITE CAPITAL CORP.", "status": "Active", "recorded_date": "2026-03-17", "anniversary_or_expiry": "2028-03-17", "area_ha": null, "tenure_type": "Single Cell Mining Claim", "source": "Ontario MLAS operational claims (OGSEarth / LIO MapServer). Unofficial viewing data, not legal title.", "as_of": "2026-09-20", "role": "focus", "color": "#e8b040"}}, {"type": "Feature", "geometry": {"type": "Polygon", "coordinates": [[[-86.0438, 49.7542], [-86.0438, 49.7583], [-86.05, 49.7583], [-86.05, 49.7542], [-86.0438, 49.7542]]]}, "properties": {"company_id": "mundoro-capital", "jurisdiction": "Ontario", "claim_id": "1035327", "claim_name": null, "holder": "(100) JADEITE CAPITAL CORP.", "status": "Active", "recorded_date": "2026-03-17", "anniversary_or_expiry": "2028-03-17", "area_ha": null, "tenure_type": "Single Cell Mining Claim", "source": "Ontario MLAS operational claims (OGSEarth / LIO MapServer). Unofficial viewing data, not legal title.", "as_of": "2026-09-20", "role": "focus", "color": "#e8b040"}}, {"type": "Feature", "geometry": {"type": "Polygon", "coordinates": [[[-86.0313, 49.75], [-86.0313, 49.7542], [-86.0375, 49.7542], [-86.0375, 49.75], [-86.0313, 49.75]]]}, "properties": {"company_id": "mundoro-capital", "jurisdiction": "Ontario", "claim_id": "1035328", "claim_name": null, "holder": "(100) JADEITE CAPITAL CORP.", "status": "Active", "recorded_date": "2026-03-17", "anniversary_or_expiry": "2028-03-17", "area_ha": null, "tenure_type": "Single Cell Mining Claim", "source": "Ontario MLAS operational claims (OGSEarth / LIO MapServer). Unofficial viewing data, not legal title.", "as_of": "2026-09-20", "role": "focus", "color": "#e8b040"}}, {"type": "Feature", "geometry": {"type": "Polygon", "coordinates": [[[-86.05, 49.7417], [-86.05, 49.7458], [-86.0563, 49.7458], [-86.0563, 49.7417], [-86.05, 49.7417]]]}, "properties": {"company_id": "mundoro-capital", "jurisdiction": "Ontario", "claim_id": "1035329", "claim_name": null, "holder": "(100) JADEITE CAPITAL CORP.", "status": "Active", "recorded_date": "2026-03-17", "anniversary_or_expiry": "2028-03-17", "area_ha": null, "tenure_type": "Single Cell Mining Claim", "source": "Ontario MLAS operational claims (OGSEarth / LIO MapServer). Unofficial viewing data, not legal title.", "as_of": "2026-09-20", "role": "focus", "color": "#e8b040"}}, {"type": "Feature", "geometry": {"type": "Polygon", "coordinates": [[[-86.0375, 49.75], [-86.0375, 49.7542], [-86.0438, 49.7542], [-86.0438, 49.75], [-86.0375, 49.75]]]}, "properties": {"company_id": "mundoro-capital", "jurisdiction": "Ontario", "claim_id": "1035330", "claim_name": null, "holder": "(100) JADEITE CAPITAL CORP.", "status": "Active", "recorded_date": "2026-03-17", "anniversary_or_expiry": "2028-03-17", "area_ha": null, "tenure_type": "Single Cell Mining Claim", "source": "Ontario MLAS operational claims (OGSEarth / LIO MapServer). Unofficial viewing data, not legal title.", "as_of": "2026-09-20", "role": "focus", "color": "#e8b040"}}, {"type": "Feature", "geometry": {"type": "Polygon", "coordinates": [[[-86.0375, 49.7542], [-86.0375, 49.7583], [-86.0438, 49.7583], [-86.0438, 49.7542], [-86.0375, 49.7542]]]}, "properties": {"company_id": "mundoro-capital", "jurisdiction": "Ontario", "claim_id": "1035331", "claim_name": null, "holder": "(100) JADEITE CAPITAL CORP.", "status": "Active", "recorded_date": "2026-03-17", "anniversary_or_expiry": "2028-03-17", "area_ha": null, "tenure_type": "Single Cell Mining Claim", "source": "Ontario MLAS operational claims (OGSEarth / LIO MapServer). Unofficial viewing data, not legal title.", "as_of": "2026-09-20", "role": "focus", "color": "#e8b040"}}, {"type": "Feature", "geometry": {"type": "Polygon", "coordinates": [[[-86.025, 49.75], [-86.025, 49.7542], [-86.0313, 49.7542], [-86.0313, 49.75], [-86.025, 49.75]]]}, "properties": {"company_id": "mundoro-capital", "jurisdiction": "Ontario", "claim_id": "1035332", "claim_name": null, "holder": "(100) JADEITE CAPITAL CORP.", "status": "Active", "recorded_date": "2026-03-17", "anniversary_or_expiry": "2028-03-17", "area_ha": null, "tenure_type": "Single Cell Mining Claim", "source": "Ontario MLAS operational claims (OGSEarth / LIO MapServer). Unofficial viewing data, not legal title.", "as_of": "2026-09-20", "role": "focus", "color": "#e8b040"}}, {"type": "Feature", "geometry": {"type": "Polygon", "coordinates": [[[-86.025, 49.7542], [-86.025, 49.7583], [-86.0313, 49.7583], [-86.0313, 49.7542], [-86.025, 49.7542]]]}, "properties": {"company_id": "mundoro-capital", "jurisdiction": "Ontario", "claim_id": "1035333", "claim_name": null, "holder": "(100) JADEITE CAPITAL CORP.", "status": "Active", "recorded_date": "2026-03-17", "anniversary_or_expiry": "2028-03-17", "area_ha": null, "tenure_type": "Single Cell Mining Claim", "source": "Ontario MLAS operational claims (OGSEarth / LIO MapServer). Unofficial viewing data, not legal title.", "as_of": "2026-09-20", "role": "focus", "color": "#e8b040"}}, {"type": "Feature", "geometry": {"type": "Polygon", "coordinates": [[[-86.025, 49.7458], [-86.025, 49.75], [-86.0313, 49.75], [-86.0313, 49.7458], [-86.025, 49.7458]]]}, "properties": {"company_id": "mundoro-capital", "jurisdiction": "Ontario", "claim_id": "1035334", "claim_name": null, "holder": "(100) JADEITE CAPITAL CORP.", "status": "Active", "recorded_date": "2026-03-17", "anniversary_or_expiry": "2028-03-17", "area_ha": null, "tenure_type": "Single Cell Mining Claim", "source": "Ontario MLAS operational claims (OGSEarth / LIO MapServer). Unofficial viewing data, not legal title.", "as_of": "2026-09-20", "role": "focus", "color": "#e8b040"}}, {"type": "Feature", "geometry": {"type": "Polygon", "coordinates": [[[-86.0313, 49.7458], [-86.0313, 49.75], [-86.0375, 49.75], [-86.0375, 49.7458], [-86.0313, 49.7458]]]}, "properties": {"company_id": "mundoro-capital", "jurisdiction": "Ontario", "claim_id": "1035335", "claim_name": null, "holder": "(100) JADEITE CAPITAL CORP.", "status": "Active", "recorded_date": "2026-03-17", "anniversary_or_expiry": "2028-03-17", "area_ha": null, "tenure_type": "Single Cell Mining Claim", "source": "Ontario MLAS operational claims (OGSEarth / LIO MapServer). Unofficial viewing data, not legal title.", "as_of": "2026-09-20", "role": "focus", "color": "#e8b040"}}, {"type": "Feature", "geometry": {"type": "Polygon", "coordinates": [[[-86.0375, 49.7458], [-86.0375, 49.75], [-86.0438, 49.75], [-86.0438, 49.7458], [-86.0375, 49.7458]]]}, "properties": {"company_id": "mundoro-capital", "jurisdiction": "Ontario", "claim_id": "1035336", "claim_name": null, "holder": "(100) JADEITE CAPITAL CORP.", "status": "Active", "recorded_date": "2026-03-17", "anniversary_or_expiry": "2028-03-17", "area_ha": null, "tenure_type": "Single Cell Mining Claim", "source": "Ontario MLAS operational claims (OGSEarth / LIO MapServer). Unofficial viewing data, not legal title.", "as_of": "2026-09-20", "role": "focus", "color": "#e8b040"}}, {"type": "Feature", "geometry": {"type": "Polygon", "coordinates": [[[-86.0125, 49.75], [-86.0125, 49.7542], [-86.0188, 49.7542], [-86.0188, 49.75], [-86.0125, 49.75]]]}, "properties": {"company_id": "mundoro-capital", "jurisdiction": "Ontario", "claim_id": "1035337", "claim_name": null, "holder": "(100) JADEITE CAPITAL CORP.", "status": "Active", "recorded_date": "2026-03-17", "anniversary_or_expiry": "2028-03-17", "area_ha": null, "tenure_type": "Single Cell Mining Claim", "source": "Ontario MLAS operational claims (OGSEarth / LIO MapServer). Unofficial viewing data, not legal title.", "as_of": "2026-09-20", "role": "focus", "color": "#e8b040"}}, {"type": "Feature", "geometry": {"type": "Polygon", "coordinates": [[[-86.0188, 49.75], [-86.0188, 49.7542], [-86.025, 49.7542], [-86.025, 49.75], [-86.0188, 49.75]]]}, "properties": {"company_id": "mundoro-capital", "jurisdiction": "Ontario", "claim_id": "1035338", "claim_name": null, "holder": "(100) JADEITE CAPITAL CORP.", "status": "Active", "recorded_date": "2026-03-17", "anniversary_or_expiry": "2028-03-17", "area_ha": null, "tenure_type": "Single Cell Mining Claim", "source": "Ontario MLAS operational claims (OGSEarth / LIO MapServer). Unofficial viewing data, not legal title.", "as_of": "2026-09-20", "role": "focus", "color": "#e8b040"}}, {"type": "Feature", "geometry": {"type": "Polygon", "coordinates": [[[-86.0, 49.75], [-86.0, 49.7542], [-86.0063, 49.7542], [-86.0063, 49.75], [-86.0, 49.75]]]}, "properties": {"company_id": "mundoro-capital", "jurisdiction": "Ontario", "claim_id": "1035339", "claim_name": null, "holder": "(100) JADEITE CAPITAL CORP.", "status": "Active", "recorded_date": "2026-03-17", "anniversary_or_expiry": "2028-03-17", "area_ha": null, "tenure_type": "Single Cell Mining Claim", "source": "Ontario MLAS operational claims (OGSEarth / LIO MapServer). Unofficial viewing data, not legal title.", "as_of": "2026-09-20", "role": "focus", "color": "#e8b040"}}, {"type": "Feature", "geometry": {"type": "Polygon", "coordinates": [[[-86.0063, 49.75], [-86.0063, 49.7542], [-86.0125, 49.7542], [-86.0125, 49.75], [-86.0063, 49.75]]]}, "properties": {"company_id": "mundoro-capital", "jurisdiction": "Ontario", "claim_id": "1035340", "claim_name": null, "holder": "(100) JADEITE CAPITAL CORP.", "status": "Active", "recorded_date": "2026-03-17", "anniversary_or_expiry": "2028-03-17", "area_ha": null, "tenure_type": "Single Cell Mining Claim", "source": "Ontario MLAS operational claims (OGSEarth / LIO MapServer). Unofficial viewing data, not legal title.", "as_of": "2026-09-20", "role": "focus", "color": "#e8b040"}}]}