{"type": "FeatureCollection", "features": [{"type": "Feature", "geometry": {"type": "Polygon", "coordinates": [[[-117.7619, 49.7681], [-117.7756, 49.7693], [-117.7737, 49.7782], [-117.76, 49.777], [-117.7619, 49.7681], [-117.7418, 49.7681], [-117.7418, 49.7861], [-117.7765, 49.7861], [-117.7765, 49.7681], [-117.7619, 49.7681]]]}, "properties": {"company_id": "mundoro-capital", "jurisdiction": "British Columbia", "claim_id": 318625, "claim_name": "PB #1", "holder": "WEAVER CAPITAL CORP", "status": "Mineral", "recorded_date": "7412256000", "anniversary_or_expiry": "2027-06-28", "area_ha": 500, "tenure_type": "Mineral", "source": "BC MTA Mineral, Placer and Coal Tenure Spatial View (BCGW). Open Government Licence - British Columbia. Not legal title.", "as_of": "2026-09-20", "role": "focus", "color": "#e8b040"}}, {"type": "Feature", "geometry": {"type": "Polygon", "coordinates": [[[-117.7619, 49.7681], [-117.7765, 49.7681], [-117.7765, 49.7501], [-117.7418, 49.7501], [-117.7418, 49.7681], [-117.7619, 49.7681]]]}, "properties": {"company_id": "mundoro-capital", "jurisdiction": "British Columbia", "claim_id": 318627, "claim_name": "PB #3", "holder": "WEAVER CAPITAL CORP", "status": "Mineral", "recorded_date": "7412256000", "anniversary_or_expiry": "2027-06-28", "area_ha": 500, "tenure_type": "Mineral", "source": "BC MTA Mineral, Placer and Coal Tenure Spatial View (BCGW). Open Government Licence - British Columbia. Not legal title.", "as_of": "2026-09-20", "role": "focus", "color": "#e8b040"}}, {"type": "Feature", "geometry": {"type": "Polygon", "coordinates": [[[-117.7756, 49.7693], [-117.7619, 49.7681], [-117.76, 49.777], [-117.7737, 49.7782], [-117.7756, 49.7693]]]}, "properties": {"company_id": "mundoro-capital", "jurisdiction": "British Columbia", "claim_id": 390937, "claim_name": null, "holder": "WEAVER CAPITAL CORP", "status": "Mineral", "recorded_date": "2002-06-25", "anniversary_or_expiry": "2025-06-25", "area_ha": 100, "tenure_type": "Mineral", "source": "BC MTA Mineral, Placer and Coal Tenure Spatial View (BCGW). Open Government Licence - British Columbia. Not legal title.", "as_of": "2026-09-20", "role": "focus", "color": "#e8b040"}}, {"type": "Feature", "geometry": {"type": "Polygon", "coordinates": [[[-117.7661, 49.5987], [-117.7387, 49.5987], [-117.7387, 49.6077], [-117.7661, 49.6077], [-117.7661, 49.5987]]]}, "properties": {"company_id": "mundoro-capital", "jurisdiction": "British Columbia", "claim_id": 392322, "claim_name": null, "holder": "WEAVER CAPITAL CORP", "status": "Mineral", "recorded_date": "2002-06-25", "anniversary_or_expiry": "2025-06-25", "area_ha": 200, "tenure_type": "Mineral", "source": "BC MTA Mineral, Placer and Coal Tenure Spatial View (BCGW). Open Government Licence - British Columbia. Not legal title.", "as_of": "2026-09-20", "role": "focus", "color": "#e8b040"}}, {"type": "Feature", "geometry": {"type": "Polygon", "coordinates": [[[-124.9141, 53.9749], [-124.9141, 53.9583], [-124.8329, 53.9583], [-124.8329, 53.9666], [-124.7954, 53.9666], [-124.7954, 53.9999], [-124.8766, 53.9999], [-124.8766, 53.9833], [-124.8891, 53.9833], [-124.8891, 53.9791], [-124.9141, 53.9791], [-124.9141, 53.9749]]]}, "properties": {"company_id": "mundoro-capital", "jurisdiction": "British Columbia", "claim_id": 515427, "claim_name": null, "holder": "LEEWARD CAPITAL CORP", "status": "Mineral", "recorded_date": "2005-06-28", "anniversary_or_expiry": "2025-09-10", "area_ha": 2852.7290000000003, "tenure_type": "Mineral", "source": "BC MTA Mineral, Placer and Coal Tenure Spatial View (BCGW). Open Government Licence - British Columbia. Not legal title.", "as_of": "2026-09-20", "role": "focus", "color": "#e8b040"}}]}