{"type": "FeatureCollection", "features": [{"type": "Feature", "geometry": {"type": "Polygon", "coordinates": [[[-120.4049, 50.6412], [-120.4099, 50.6444], [-120.4138, 50.6418], [-120.4086, 50.6387], [-120.4049, 50.6412]]]}, "properties": {"company_id": "new-gold", "jurisdiction": "British Columbia", "claim_id": 220275, "claim_name": "LINE NO.3", "holder": "NEW GOLD INC.", "status": "Mineral", "recorded_date": "-294710400", "anniversary_or_expiry": "2025-07-15", "area_ha": 25, "tenure_type": "Mineral", "source": "BC MTA Mineral, Placer and Coal Tenure Spatial View (BCGW). Open Government Licence - British Columbia. Not legal title.", "as_of": "2026-09-20", "role": "focus", "color": "#e8b040"}}, {"type": "Feature", "geometry": {"type": "Polygon", "coordinates": [[[-120.3989, 50.6446], [-120.3995, 50.6448], [-120.3991, 50.6453], [-120.4043, 50.6418], [-120.398, 50.6357], [-120.3955, 50.6396], [-120.4008, 50.6406], [-120.3989, 50.6446]]]}, "properties": {"company_id": "new-gold", "jurisdiction": "British Columbia", "claim_id": 220090, "claim_name": "PYTHON NO.16 FR.", "holder": "NEW GOLD INC.", "status": "Mineral", "recorded_date": "-485049600", "anniversary_or_expiry": "2025-07-15", "area_ha": 25, "tenure_type": "Mineral", "source": "BC MTA Mineral, Placer and Coal Tenure Spatial View (BCGW). Open Government Licence - British Columbia. Not legal title.", "as_of": "2026-09-20", "role": "focus", "color": "#e8b040"}}, {"type": "Feature", "geometry": {"type": "Polygon", "coordinates": [[[-120.4024, 50.6399], [-120.4043, 50.6418], [-120.4117, 50.6464], [-120.4125, 50.646], [-120.4016, 50.6391], [-120.4024, 50.6399]]]}, "properties": {"company_id": "new-gold", "jurisdiction": "British Columbia", "claim_id": 221488, "claim_name": "FAY 1 FR", "holder": "NEW GOLD INC.", "status": "Mineral", "recorded_date": "8873280000", "anniversary_or_expiry": "2025-07-15", "area_ha": 25, "tenure_type": "Mineral", "source": "BC MTA Mineral, Placer and Coal Tenure Spatial View (BCGW). Open Government Licence - British Columbia. Not legal title.", "as_of": "2026-09-20", "role": "focus", "color": "#e8b040"}}, {"type": "Feature", "geometry": {"type": "Polygon", "coordinates": [[[-120.4844, 50.6551], [-120.4838, 50.6575], [-120.4899, 50.6573], [-120.4899, 50.656], [-120.4844, 50.6551]]]}, "properties": {"company_id": "new-gold", "jurisdiction": "British Columbia", "claim_id": 372644, "claim_name": "AFTON 8", "holder": "NEW GOLD INC.", "status": "Mineral", "recorded_date": "9389088000", "anniversary_or_expiry": "2029-03-08", "area_ha": 25, "tenure_type": "Mineral", "source": "BC MTA Mineral, Placer and Coal Tenure Spatial View (BCGW). Open Government Licence - British Columbia. Not legal title.", "as_of": "2026-09-20", "role": "focus", "color": "#e8b040"}}, {"type": "Feature", "geometry": {"type": "Polygon", "coordinates": [[[-120.4899, 50.6573], [-120.4913, 50.6575], [-120.4912, 50.6567], [-120.4899, 50.656], [-120.4899, 50.6573]]]}, "properties": {"company_id": "new-gold", "jurisdiction": "British Columbia", "claim_id": 372645, "claim_name": "AFTON 9", "holder": "NEW GOLD INC.", "status": "Mineral", "recorded_date": "9389088000", "anniversary_or_expiry": "2029-03-08", "area_ha": 25, "tenure_type": "Mineral", "source": "BC MTA Mineral, Placer and Coal Tenure Spatial View (BCGW). Open Government Licence - British Columbia. Not legal title.", "as_of": "2026-09-20", "role": "focus", "color": "#e8b040"}}, {"type": "Feature", "geometry": {"type": "Polygon", "coordinates": [[[-120.4828, 50.6599], [-120.4838, 50.6602], [-120.4846, 50.6588], [-120.4899, 50.6588], [-120.4892, 50.6575], [-120.4828, 50.6575], [-120.4828, 50.6599]]]}, "properties": {"company_id": "new-gold", "jurisdiction": "British Columbia", "claim_id": 372646, "claim_name": "AFTON 10", "holder": "NEW GOLD INC.", "status": "Mineral", "recorded_date": "9389088000", "anniversary_or_expiry": "2029-03-08", "area_ha": 25, "tenure_type": "Mineral", "source": "BC MTA Mineral, Placer and Coal Tenure Spatial View (BCGW). Open Government Licence - British Columbia. Not legal title.", "as_of": "2026-09-20", "role": "focus", "color": "#e8b040"}}, {"type": "Feature", "geometry": {"type": "Polygon", "coordinates": [[[-120.4924, 50.6608], [-120.4949, 50.661], [-120.4949, 50.6589], [-120.4915, 50.6591], [-120.4913, 50.6575], [-120.4905, 50.6575], [-120.4924, 50.6608]]]}, "properties": {"company_id": "new-gold", "jurisdiction": "British Columbia", "claim_id": 372647, "claim_name": "AFTON 11", "holder": "NEW GOLD INC.", "status": "Mineral", "recorded_date": "9389088000", "anniversary_or_expiry": "2029-03-08", "area_ha": 25, "tenure_type": "Mineral", "source": "BC MTA Mineral, Placer and Coal Tenure Spatial View (BCGW). Open Government Licence - British Columbia. Not legal title.", "as_of": "2026-09-20", "role": "focus", "color": "#e8b040"}}, {"type": "Feature", "geometry": {"type": "Polygon", "coordinates": [[[-120.3401, 51.5322], [-120.3401, 51.5367], [-120.3457, 51.5367], [-120.3457, 51.5322], [-120.3401, 51.5322]]]}, "properties": {"company_id": "new-gold", "jurisdiction": "British Columbia", "claim_id": 373517, "claim_name": "HOOK 4", "holder": "NEW GOLD INC.", "status": "Mineral", "recorded_date": "9432288000", "anniversary_or_expiry": "2025-01-10", "area_ha": 25, "tenure_type": "Mineral", "source": "BC MTA Mineral, Placer and Coal Tenure Spatial View (BCGW). Open Government Licence - British Columbia. Not legal title.", "as_of": "2026-09-20", "role": "focus", "color": "#e8b040"}}, {"type": "Feature", "geometry": {"type": "Polygon", "coordinates": [[[-120.3401, 51.528], [-120.3401, 51.5322], [-120.3451, 51.5322], [-120.3451, 51.529], [-120.3444, 51.5291], [-120.3444, 51.5277], [-120.3401, 51.528]]]}, "properties": {"company_id": "new-gold", "jurisdiction": "British Columbia", "claim_id": 373518, "claim_name": "HOOK 5", "holder": "NEW GOLD INC.", "status": "Mineral", "recorded_date": "9432288000", "anniversary_or_expiry": "2025-01-10", "area_ha": 25, "tenure_type": "Mineral", "source": "BC MTA Mineral, Placer and Coal Tenure Spatial View (BCGW). Open Government Licence - British Columbia. Not legal title.", "as_of": "2026-09-20", "role": "focus", "color": "#e8b040"}}, {"type": "Feature", "geometry": {"type": "Polygon", "coordinates": [[[-120.3401, 51.5277], [-120.3451, 51.5277], [-120.3451, 51.5232], [-120.3385, 51.5232], [-120.3385, 51.5239], [-120.3401, 51.5239], [-120.3401, 51.5277]]]}, "properties": {"company_id": "new-gold", "jurisdiction": "British Columbia", "claim_id": 373519, "claim_name": "HOOK 6", "holder": "NEW GOLD INC.", "status": "Mineral", "recorded_date": "9432288000", "anniversary_or_expiry": "2025-01-10", "area_ha": 25, "tenure_type": "Mineral", "source": "BC MTA Mineral, Placer and Coal Tenure Spatial View (BCGW). Open Government Licence - British Columbia. Not legal title.", "as_of": "2026-09-20", "role": "focus", "color": "#e8b040"}}, {"type": "Feature", "geometry": {"type": "Polygon", "coordinates": [[[-120.3752, 51.5411], [-120.3752, 51.5426], [-120.3822, 51.5426], [-120.3822, 51.5411], [-120.3752, 51.5411]]]}, "properties": {"company_id": "new-gold", "jurisdiction": "British Columbia", "claim_id": 375008, "claim_name": "HOOK 11", "holder": "NEW GOLD INC.", "status": "Mineral", "recorded_date": "9540288000", "anniversary_or_expiry": "2025-01-10", "area_ha": 25, "tenure_type": "Mineral", "source": "BC MTA Mineral, Placer and Coal Tenure Spatial View (BCGW). Open Government Licence - British Columbia. Not legal title.", "as_of": "2026-09-20", "role": "focus", "color": "#e8b040"}}, {"type": "Feature", "geometry": {"type": "Polygon", "coordinates": [[[-120.5423, 50.6451], [-120.5423, 50.6438], [-120.5352, 50.6437], [-120.5376, 50.6466], [-120.5423, 50.6451]]]}, "properties": {"company_id": "new-gold", "jurisdiction": "British Columbia", "claim_id": 378918, "claim_name": "HUGH 1", "holder": "NEW GOLD INC.", "status": "Mineral", "recorded_date": "9633600000", "anniversary_or_expiry": "2032-06-08", "area_ha": 25, "tenure_type": "Mineral", "source": "BC MTA Mineral, Placer and Coal Tenure Spatial View (BCGW). Open Government Licence - British Columbia. Not legal title.", "as_of": "2026-09-20", "role": "focus", "color": "#e8b040"}}, {"type": "Feature", "geometry": {"type": "Polygon", "coordinates": [[[-120.5352, 50.6442], [-120.5352, 50.6437], [-120.5281, 50.6435], [-120.5279, 50.648], [-120.5348, 50.6473], [-120.5336, 50.6442], [-120.5352, 50.6442]]]}, "properties": {"company_id": "new-gold", "jurisdiction": "British Columbia", "claim_id": 378919, "claim_name": "HUGH 2", "holder": "NEW GOLD INC.", "status": "Mineral", "recorded_date": "9633600000", "anniversary_or_expiry": "2032-06-08", "area_ha": 25, "tenure_type": "Mineral", "source": "BC MTA Mineral, Placer and Coal Tenure Spatial View (BCGW). Open Government Licence - British Columbia. Not legal title.", "as_of": "2026-09-20", "role": "focus", "color": "#e8b040"}}, {"type": "Feature", "geometry": {"type": "Polygon", "coordinates": [[[-120.5352, 50.6437], [-120.5355, 50.6392], [-120.5284, 50.6391], [-120.5281, 50.6435], [-120.5352, 50.6437]]]}, "properties": {"company_id": "new-gold", "jurisdiction": "British Columbia", "claim_id": 378920, "claim_name": "HUGH 3", "holder": "NEW GOLD INC.", "status": "Mineral", "recorded_date": "9633600000", "anniversary_or_expiry": "2032-06-08", "area_ha": 25, "tenure_type": "Mineral", "source": "BC MTA Mineral, Placer and Coal Tenure Spatial View (BCGW). Open Government Licence - British Columbia. Not legal title.", "as_of": "2026-09-20", "role": "focus", "color": "#e8b040"}}, {"type": "Feature", "geometry": {"type": "Polygon", "coordinates": [[[-120.5277, 50.6476], [-120.528, 50.6435], [-120.5241, 50.6434], [-120.5241, 50.6442], [-120.5232, 50.6442], [-120.5232, 50.6479], [-120.5261, 50.648], [-120.5261, 50.6442], [-120.5277, 50.6476]]]}, "properties": {"company_id": "new-gold", "jurisdiction": "British Columbia", "claim_id": 378921, "claim_name": "HUGH 4", "holder": "NEW GOLD INC.", "status": "Mineral", "recorded_date": "9633600000", "anniversary_or_expiry": "2032-06-08", "area_ha": 25, "tenure_type": "Mineral", "source": "BC MTA Mineral, Placer and Coal Tenure Spatial View (BCGW). Open Government Licence - British Columbia. Not legal title.", "as_of": "2026-09-20", "role": "focus", "color": "#e8b040"}}, {"type": "Feature", "geometry": {"type": "Polygon", "coordinates": [[[-120.5264, 50.639], [-120.5263, 50.6404], [-120.5241, 50.6404], [-120.5241, 50.6434], [-120.528, 50.6435], [-120.5283, 50.639], [-120.5264, 50.639]]]}, "properties": {"company_id": "new-gold", "jurisdiction": "British Columbia", "claim_id": 378922, "claim_name": "HUGH 5", "holder": "NEW GOLD INC.", "status": "Mineral", "recorded_date": "9633600000", "anniversary_or_expiry": "2032-06-08", "area_ha": 25, "tenure_type": "Mineral", "source": "BC MTA Mineral, Placer and Coal Tenure Spatial View (BCGW). Open Government Licence - British Columbia. Not legal title.", "as_of": "2026-09-20", "role": "focus", "color": "#e8b040"}}, {"type": "Feature", "geometry": {"type": "Polygon", "coordinates": [[[-120.523, 50.6711], [-120.4949, 50.6711], [-120.4947, 50.6698], [-120.4947, 50.6747], [-120.4958, 50.6747], [-120.4965, 50.6833], [-120.4928, 50.6833], [-120.4928, 50.6839], [-120.494, 50.6839], [-120.494, 50.6878], [-120.5282, 50.6878], [-120.5282, 50.6714], [-120.523, 50.6711]]]}, "properties": {"company_id": "new-gold", "jurisdiction": "British Columbia", "claim_id": 378688, "claim_name": "AFTON 8", "holder": "NEW GOLD INC.", "status": "Mineral", "recorded_date": "9623232000", "anniversary_or_expiry": "2032-03-08", "area_ha": 500, "tenure_type": "Mineral", "source": "BC MTA Mineral, Placer and Coal Tenure Spatial View (BCGW). Open Government Licence - British Columbia. Not legal title.", "as_of": "2026-09-20", "role": "focus", "color": "#e8b040"}}, {"type": "Feature", "geometry": {"type": "Polygon", "coordinates": [[[-120.4947, 50.6698], [-120.4949, 50.6665], [-120.4947, 50.6665], [-120.4947, 50.6698]]]}, "properties": {"company_id": "new-gold", "jurisdiction": "British Columbia", "claim_id": 379304, "claim_name": "AFTON 19", "holder": "NEW GOLD INC.", "status": "Mineral", "recorded_date": "9634464000", "anniversary_or_expiry": "2032-03-08", "area_ha": 25, "tenure_type": "Mineral", "source": "BC MTA Mineral, Placer and Coal Tenure Spatial View (BCGW). Open Government Licence - British Columbia. Not legal title.", "as_of": "2026-09-20", "role": "focus", "color": "#e8b040"}}, {"type": "Feature", "geometry": {"type": "Polygon", "coordinates": [[[-120.321, 51.4961], [-120.321, 51.4993], [-120.3237, 51.4993], [-120.3233, 51.4961], [-120.321, 51.4961]]]}, "properties": {"company_id": "new-gold", "jurisdiction": "British Columbia", "claim_id": 393865, "claim_name": "DL 1", "holder": "NEW GOLD INC.", "status": "Mineral", "recorded_date": "2002-06-06", "anniversary_or_expiry": "2024-12-14", "area_ha": 25, "tenure_type": "Mineral", "source": "BC MTA Mineral, Placer and Coal Tenure Spatial View (BCGW). Open Government Licence - British Columbia. Not legal title.", "as_of": "2026-09-20", "role": "focus", "color": "#e8b040"}}, {"type": "Feature", "geometry": {"type": "MultiPolygon", "coordinates": [[[[-120.4641, 50.6276], [-120.4808, 50.6272], [-120.4773, 50.6268], [-120.4773, 50.6235], [-120.4722, 50.6235], [-120.4724, 50.6224], [-120.4773, 50.6223], [-120.4768, 50.6191], [-120.4721, 50.619], [-120.4722, 50.6105], [-120.4457, 50.6105], [-120.4454, 50.6118], [-120.4523, 50.613], [-120.4501, 50.6191], [-120.4585, 50.619], [-120.4587, 50.623], [-120.4641, 50.623], [-120.4641, 50.6276]]], [[[-120.4454, 50.6247], [-120.4454, 50.6251], [-120.4491, 50.6251], [-120.4491, 50.6244], [-120.4454, 50.6247]]], [[[-120.477, 50.6191], [-120.4773, 50.6213], [-120.4773, 50.6191], [-120.477, 50.6191]]], [[[-120.4794, 50.626], [-120.4794, 50.6237], [-120.4807, 50.6237], [-120.4794, 50.6237], [-120.4792, 50.6227], [-120.4793, 50.6237], [-120.4782, 50.6237], [-120.4793, 50.6237], [-120.4794, 50.626]]]]}, "properties": {"company_id": "new-gold", "jurisdiction": "British Columbia", "claim_id": 406650, "claim_name": "GM 69", "holder": "NEW GOLD INC.", "status": "Mineral", "recorded_date": "2003-11-20", "anniversary_or_expiry": "2029-02-01", "area_ha": 500, "tenure_type": "Mineral", "source": "BC MTA Mineral, Placer and Coal Tenure Spatial View (BCGW). Open Government Licence - British Columbia. Not legal title.", "as_of": "2026-09-20", "role": "focus", "color": "#e8b040"}}, {"type": "Feature", "geometry": {"type": "Polygon", "coordinates": [[[-120.445, 50.5624], [-120.445, 50.5416], [-120.4138, 50.5416], [-120.4138, 50.5541], [-120.4263, 50.5541], [-120.4263, 50.5582], [-120.4325, 50.5582], [-120.4325, 50.5666], [-120.445, 50.5666], [-120.445, 50.5624]]]}, "properties": {"company_id": "new-gold", "jurisdiction": "British Columbia", "claim_id": 521727, "claim_name": "AJAX", "holder": "NEW GOLD INC.", "status": "Mineral", "recorded_date": "2005-11-01", "anniversary_or_expiry": "2025-04-30", "area_ha": 451.696, "tenure_type": "Mineral", "source": "BC MTA Mineral, Placer and Coal Tenure Spatial View (BCGW). Open Government Licence - British Columbia. Not legal title.", "as_of": "2026-09-20", "role": "focus", "color": "#e8b040"}}, {"type": "Feature", "geometry": {"type": "Polygon", "coordinates": [[[-120.4575, 50.5749], [-120.4575, 50.5374], [-120.4138, 50.5374], [-120.4138, 50.5416], [-120.445, 50.5416], [-120.445, 50.5791], [-120.4575, 50.5791], [-120.4575, 50.5749]]]}, "properties": {"company_id": "new-gold", "jurisdiction": "British Columbia", "claim_id": 521728, "claim_name": null, "holder": "NEW GOLD INC.", "status": "Mineral", "recorded_date": "2005-11-01", "anniversary_or_expiry": "2025-04-30", "area_ha": 513.26, "tenure_type": "Mineral", "source": "BC MTA Mineral, Placer and Coal Tenure Spatial View (BCGW). Open Government Licence - British Columbia. Not legal title.", "as_of": "2026-09-20", "role": "focus", "color": "#e8b040"}}, {"type": "Feature", "geometry": {"type": "Polygon", "coordinates": [[[-120.4825, 50.5707], [-120.4825, 50.5582], [-120.4575, 50.5582], [-120.4575, 50.5791], [-120.4763, 50.5791], [-120.4763, 50.5749], [-120.4825, 50.5749], [-120.4825, 50.5707]]]}, "properties": {"company_id": "new-gold", "jurisdiction": "British Columbia", "claim_id": 521729, "claim_name": "AJAX", "holder": "NEW GOLD INC.", "status": "Mineral", "recorded_date": "2005-11-01", "anniversary_or_expiry": "2025-04-30", "area_ha": 389.96500000000003, "tenure_type": "Mineral", "source": "BC MTA Mineral, Placer and Coal Tenure Spatial View (BCGW). Open Government Licence - British Columbia. Not legal title.", "as_of": "2026-09-20", "role": "focus", "color": "#e8b040"}}, {"type": "Feature", "geometry": {"type": "Polygon", "coordinates": [[[-120.3825, 51.5374], [-120.3825, 51.5291], [-120.37, 51.5291], [-120.37, 51.5374], [-120.3763, 51.5374], [-120.3763, 51.5416], [-120.3825, 51.5416], [-120.3825, 51.5374]]]}, "properties": {"company_id": "new-gold", "jurisdiction": "British Columbia", "claim_id": 517674, "claim_name": null, "holder": "NEW GOLD INC.", "status": "Mineral", "recorded_date": "2005-07-14", "anniversary_or_expiry": "2025-01-10", "area_ha": 100.533, "tenure_type": "Mineral", "source": "BC MTA Mineral, Placer and Coal Tenure Spatial View (BCGW). Open Government Licence - British Columbia. Not legal title.", "as_of": "2026-09-20", "role": "focus", "color": "#e8b040"}}, {"type": "Feature", "geometry": {"type": "Polygon", "coordinates": [[[-120.3888, 51.5416], [-120.395, 51.5416], [-120.395, 51.5374], [-120.3825, 51.5374], [-120.3825, 51.5416], [-120.3888, 51.5416]]]}, "properties": {"company_id": "new-gold", "jurisdiction": "British Columbia", "claim_id": 517675, "claim_name": null, "holder": "NEW GOLD INC.", "status": "Mineral", "recorded_date": "2005-07-14", "anniversary_or_expiry": "2025-01-10", "area_ha": 40.209, "tenure_type": "Mineral", "source": "BC MTA Mineral, Placer and Coal Tenure Spatial View (BCGW). Open Government Licence - British Columbia. Not legal title.", "as_of": "2026-09-20", "role": "focus", "color": "#e8b040"}}, {"type": "Feature", "geometry": {"type": "Polygon", "coordinates": [[[-120.4013, 51.5374], [-120.4013, 51.5291], [-120.3825, 51.5291], [-120.3825, 51.5374], [-120.395, 51.5374], [-120.395, 51.5416], [-120.4013, 51.5416], [-120.4013, 51.5374]]]}, "properties": {"company_id": "new-gold", "jurisdiction": "British Columbia", "claim_id": 517676, "claim_name": null, "holder": "NEW GOLD INC.", "status": "Mineral", "recorded_date": "2005-07-14", "anniversary_or_expiry": "2025-02-10", "area_ha": 140.747, "tenure_type": "Mineral", "source": "BC MTA Mineral, Placer and Coal Tenure Spatial View (BCGW). Open Government Licence - British Columbia. Not legal title.", "as_of": "2026-09-20", "role": "focus", "color": "#e8b040"}}, {"type": "Feature", "geometry": {"type": "Polygon", "coordinates": [[[-120.4325, 51.5374], [-120.4388, 51.5374], [-120.4388, 51.5333], [-120.4138, 51.5333], [-120.4138, 51.5291], [-120.4013, 51.5291], [-120.4013, 51.5374], [-120.4325, 51.5374]]]}, "properties": {"company_id": "new-gold", "jurisdiction": "British Columbia", "claim_id": 517678, "claim_name": null, "holder": "NEW GOLD INC.", "status": "Mineral", "recorded_date": "2005-07-14", "anniversary_or_expiry": "2025-01-10", "area_ha": 160.851, "tenure_type": "Mineral", "source": "BC MTA Mineral, Placer and Coal Tenure Spatial View (BCGW). Open Government Licence - British Columbia. Not legal title.", "as_of": "2026-09-20", "role": "focus", "color": "#e8b040"}}, {"type": "Feature", "geometry": {"type": "Polygon", "coordinates": [[[-120.4263, 51.5416], [-120.4263, 51.5374], [-120.4013, 51.5374], [-120.4013, 51.5416], [-120.395, 51.5416], [-120.395, 51.5458], [-120.4263, 51.5458], [-120.4263, 51.5416]]]}, "properties": {"company_id": "new-gold", "jurisdiction": "British Columbia", "claim_id": 517680, "claim_name": null, "holder": "NEW GOLD INC.", "status": "Mineral", "recorded_date": "2005-07-14", "anniversary_or_expiry": "2025-01-10", "area_ha": 180.929, "tenure_type": "Mineral", "source": "BC MTA Mineral, Placer and Coal Tenure Spatial View (BCGW). Open Government Licence - British Columbia. Not legal title.", "as_of": "2026-09-20", "role": "focus", "color": "#e8b040"}}, {"type": "Feature", "geometry": {"type": "Polygon", "coordinates": [[[-120.4825, 51.5999], [-120.4888, 51.5999], [-120.4888, 51.5958], [-120.47, 51.5958], [-120.47, 51.6041], [-120.4763, 51.6041], [-120.4763, 51.5999], [-120.4825, 51.5999]]]}, "properties": {"company_id": "new-gold", "jurisdiction": "British Columbia", "claim_id": 517697, "claim_name": null, "holder": "NEW GOLD INC.", "status": "Mineral", "recorded_date": "2005-07-14", "anniversary_or_expiry": "2025-01-10", "area_ha": 80.3125, "tenure_type": "Mineral", "source": "BC MTA Mineral, Placer and Coal Tenure Spatial View (BCGW). Open Government Licence - British Columbia. Not legal title.", "as_of": "2026-09-20", "role": "focus", "color": "#e8b040"}}, {"type": "Feature", "geometry": {"type": "Polygon", "coordinates": [[[-120.47, 51.5916], [-120.47, 51.5874], [-120.4575, 51.5874], [-120.4575, 51.5958], [-120.47, 51.5958], [-120.47, 51.5916]]]}, "properties": {"company_id": "new-gold", "jurisdiction": "British Columbia", "claim_id": 517704, "claim_name": null, "holder": "NEW GOLD INC.", "status": "Mineral", "recorded_date": "2005-07-14", "anniversary_or_expiry": "2025-01-10", "area_ha": 80.32520000000001, "tenure_type": "Mineral", "source": "BC MTA Mineral, Placer and Coal Tenure Spatial View (BCGW). Open Government Licence - British Columbia. Not legal title.", "as_of": "2026-09-20", "role": "focus", "color": "#e8b040"}}, {"type": "Feature", "geometry": {"type": "Polygon", "coordinates": [[[-120.4638, 51.5999], [-120.47, 51.5999], [-120.47, 51.5958], [-120.4575, 51.5958], [-120.4575, 51.5999], [-120.4638, 51.5999]]]}, "properties": {"company_id": "new-gold", "jurisdiction": "British Columbia", "claim_id": 517705, "claim_name": null, "holder": "NEW GOLD INC.", "status": "Mineral", "recorded_date": "2005-07-14", "anniversary_or_expiry": "2025-01-10", "area_ha": 40.1571, "tenure_type": "Mineral", "source": "BC MTA Mineral, Placer and Coal Tenure Spatial View (BCGW). Open Government Licence - British Columbia. Not legal title.", "as_of": "2026-09-20", "role": "focus", "color": "#e8b040"}}, {"type": "Feature", "geometry": {"type": "Polygon", "coordinates": [[[-120.4513, 51.5958], [-120.4513, 51.5916], [-120.4388, 51.5916], [-120.4388, 51.5958], [-120.445, 51.5958], [-120.445, 51.5999], [-120.4513, 51.5999], [-120.4513, 51.5958]]]}, "properties": {"company_id": "new-gold", "jurisdiction": "British Columbia", "claim_id": 517706, "claim_name": null, "holder": "NEW GOLD INC.", "status": "Mineral", "recorded_date": "2005-07-14", "anniversary_or_expiry": "2025-01-10", "area_ha": 60.2394, "tenure_type": "Mineral", "source": "BC MTA Mineral, Placer and Coal Tenure Spatial View (BCGW). Open Government Licence - British Columbia. Not legal title.", "as_of": "2026-09-20", "role": "focus", "color": "#e8b040"}}, {"type": "Feature", "geometry": {"type": "Polygon", "coordinates": [[[-120.4388, 51.5833], [-120.445, 51.5833], [-120.445, 51.5791], [-120.4263, 51.5791], [-120.4263, 51.5833], [-120.4388, 51.5833]]]}, "properties": {"company_id": "new-gold", "jurisdiction": "British Columbia", "claim_id": 517707, "claim_name": null, "holder": "NEW GOLD INC.", "status": "Mineral", "recorded_date": "2005-07-14", "anniversary_or_expiry": "2025-01-11", "area_ha": 60.2575, "tenure_type": "Mineral", "source": "BC MTA Mineral, Placer and Coal Tenure Spatial View (BCGW). Open Government Licence - British Columbia. Not legal title.", "as_of": "2026-09-20", "role": "focus", "color": "#e8b040"}}, {"type": "Feature", "geometry": {"type": "Polygon", "coordinates": [[[-120.4325, 50.6624], [-120.4325, 50.6457], [-120.4263, 50.6457], [-120.4263, 50.6416], [-120.395, 50.6416], [-120.395, 50.6541], [-120.4013, 50.6541], [-120.4013, 50.6582], [-120.4075, 50.6582], [-120.4075, 50.6624], [-120.4263, 50.6624], [-120.4263, 50.6666], [-120.4325, 50.6666], [-120.4325, 50.6624]]]}, "properties": {"company_id": "new-gold", "jurisdiction": "British Columbia", "claim_id": 513980, "claim_name": null, "holder": "NEW GOLD INC.", "status": "Mineral", "recorded_date": "2005-06-06", "anniversary_or_expiry": "2025-07-15", "area_ha": 553.205, "tenure_type": "Mineral", "source": "BC MTA Mineral, Placer and Coal Tenure Spatial View (BCGW). Open Government Licence - British Columbia. Not legal title.", "as_of": "2026-09-20", "role": "focus", "color": "#e8b040"}}, {"type": "Feature", "geometry": {"type": "Polygon", "coordinates": [[[-120.4138, 51.5083], [-120.4138, 51.4916], [-120.4075, 51.4916], [-120.4075, 51.4958], [-120.3825, 51.4958], [-120.3825, 51.5124], [-120.4138, 51.5124], [-120.4138, 51.5083]]]}, "properties": {"company_id": "new-gold", "jurisdiction": "British Columbia", "claim_id": 517955, "claim_name": null, "holder": "NEW GOLD INC.", "status": "Mineral", "recorded_date": "2005-07-18", "anniversary_or_expiry": "2025-06-10", "area_ha": 422.52500000000003, "tenure_type": "Mineral", "source": "BC MTA Mineral, Placer and Coal Tenure Spatial View (BCGW). Open Government Licence - British Columbia. Not legal title.", "as_of": "2026-09-20", "role": "focus", "color": "#e8b040"}}, {"type": "Feature", "geometry": {"type": "Polygon", "coordinates": [[[-120.5638, 50.7082], [-120.5638, 50.6916], [-120.5513, 50.6916], [-120.5513, 50.7082], [-120.545, 50.7082], [-120.545, 50.7124], [-120.5638, 50.7124], [-120.5638, 50.7082]]]}, "properties": {"company_id": "new-gold", "jurisdiction": "British Columbia", "claim_id": 514167, "claim_name": "AFTON", "holder": "NEW GOLD INC.", "status": "Mineral", "recorded_date": "2005-06-08", "anniversary_or_expiry": "2032-03-08", "area_ha": 225.139, "tenure_type": "Mineral", "source": "BC MTA Mineral, Placer and Coal Tenure Spatial View (BCGW). Open Government Licence - British Columbia. Not legal title.", "as_of": "2026-09-20", "role": "focus", "color": "#e8b040"}}, {"type": "Feature", "geometry": {"type": "Polygon", "coordinates": [[[-120.5513, 50.7041], [-120.5513, 50.6707], [-120.545, 50.6707], [-120.545, 50.6666], [-120.52, 50.6666], [-120.52, 50.6707], [-120.5075, 50.6707], [-120.5075, 50.6749], [-120.5263, 50.6749], [-120.5263, 50.6874], [-120.4763, 50.6874], [-120.4763, 50.6999], [-120.4825, 50.6999], [-120.4825, 50.7041], [-120.4888, 50.7041], [-120.4888, 50.7082], [-120.5513, 50.7082], [-120.5513, 50.7041]]]}, "properties": {"company_id": "new-gold", "jurisdiction": "British Columbia", "claim_id": 514194, "claim_name": null, "holder": "NEW GOLD INC.", "status": "Mineral", "recorded_date": "2005-06-09", "anniversary_or_expiry": "2032-03-08", "area_ha": 1637.761, "tenure_type": "Mineral", "source": "BC MTA Mineral, Placer and Coal Tenure Spatial View (BCGW). Open Government Licence - British Columbia. Not legal title.", "as_of": "2026-09-20", "role": "focus", "color": "#e8b040"}}, {"type": "Feature", "geometry": {"type": "Polygon", "coordinates": [[[-120.5638, 50.6874], [-120.5638, 50.6707], [-120.5513, 50.6707], [-120.5513, 50.6916], [-120.5638, 50.6916], [-120.5638, 50.6874]]]}, "properties": {"company_id": "new-gold", "jurisdiction": "British Columbia", "claim_id": 517157, "claim_name": "AFTON", "holder": "NEW GOLD INC.", "status": "Mineral", "recorded_date": "2005-07-12", "anniversary_or_expiry": "2032-03-08", "area_ha": 204.764, "tenure_type": "Mineral", "source": "BC MTA Mineral, Placer and Coal Tenure Spatial View (BCGW). Open Government Licence - British Columbia. Not legal title.", "as_of": "2026-09-20", "role": "focus", "color": "#e8b040"}}, {"type": "Feature", "geometry": {"type": "Polygon", "coordinates": [[[-120.395, 50.6457], [-120.395, 50.6416], [-120.3825, 50.6416], [-120.3825, 50.6499], [-120.395, 50.6499], [-120.395, 50.6457]]]}, "properties": {"company_id": "new-gold", "jurisdiction": "British Columbia", "claim_id": 517259, "claim_name": "AJAX", "holder": "NEW GOLD INC.", "status": "Mineral", "recorded_date": "2005-07-12", "anniversary_or_expiry": "2025-07-15", "area_ha": 81.967, "tenure_type": "Mineral", "source": "BC MTA Mineral, Placer and Coal Tenure Spatial View (BCGW). Open Government Licence - British Columbia. Not legal title.", "as_of": "2026-09-20", "role": "focus", "color": "#e8b040"}}, {"type": "Feature", "geometry": {"type": "Polygon", "coordinates": [[[-120.52, 50.6457], [-120.5263, 50.6457], [-120.5263, 50.6416], [-120.52, 50.6416], [-120.52, 50.6457]]]}, "properties": {"company_id": "new-gold", "jurisdiction": "British Columbia", "claim_id": 517360, "claim_name": "NEW AFTON", "holder": "NEW GOLD INC.", "status": "Mineral", "recorded_date": "2005-07-12", "anniversary_or_expiry": "2032-03-08", "area_ha": 20.492, "tenure_type": "Mineral", "source": "BC MTA Mineral, Placer and Coal Tenure Spatial View (BCGW). Open Government Licence - British Columbia. Not legal title.", "as_of": "2026-09-20", "role": "focus", "color": "#e8b040"}}, {"type": "Feature", "geometry": {"type": "Polygon", "coordinates": [[[-120.57, 50.6624], [-120.5763, 50.6624], [-120.5763, 50.6582], [-120.57, 50.6582], [-120.57, 50.6624]]]}, "properties": {"company_id": "new-gold", "jurisdiction": "British Columbia", "claim_id": 529020, "claim_name": "COPPER LOAD", "holder": "NEW GOLD INC.", "status": "Mineral", "recorded_date": "2006-02-27", "anniversary_or_expiry": "2032-01-31", "area_ha": 20.485, "tenure_type": "Mineral", "source": "BC MTA Mineral, Placer and Coal Tenure Spatial View (BCGW). Open Government Licence - British Columbia. Not legal title.", "as_of": "2026-09-20", "role": "focus", "color": "#e8b040"}}, {"type": "Feature", "geometry": {"type": "Polygon", "coordinates": [[[-120.5263, 50.6457], [-120.5325, 50.6457], [-120.5325, 50.6416], [-120.5263, 50.6416], [-120.5263, 50.6457]]]}, "properties": {"company_id": "new-gold", "jurisdiction": "British Columbia", "claim_id": 525508, "claim_name": "AFTON DAM 3", "holder": "NEW GOLD INC.", "status": "Mineral", "recorded_date": "2006-01-14", "anniversary_or_expiry": "2032-03-08", "area_ha": 20.492, "tenure_type": "Mineral", "source": "BC MTA Mineral, Placer and Coal Tenure Spatial View (BCGW). Open Government Licence - British Columbia. Not legal title.", "as_of": "2026-09-20", "role": "focus", "color": "#e8b040"}}, {"type": "Feature", "geometry": {"type": "Polygon", "coordinates": [[[-120.5325, 50.6457], [-120.5388, 50.6457], [-120.5388, 50.6416], [-120.5325, 50.6416], [-120.5325, 50.6457]]]}, "properties": {"company_id": "new-gold", "jurisdiction": "British Columbia", "claim_id": 524303, "claim_name": "AFTON DAM", "holder": "NEW GOLD INC.", "status": "Mineral", "recorded_date": "2005-12-23", "anniversary_or_expiry": "2032-03-08", "area_ha": 20.492, "tenure_type": "Mineral", "source": "BC MTA Mineral, Placer and Coal Tenure Spatial View (BCGW). Open Government Licence - British Columbia. Not legal title.", "as_of": "2026-09-20", "role": "focus", "color": "#e8b040"}}, {"type": "Feature", "geometry": {"type": "Polygon", "coordinates": [[[-120.52, 50.6499], [-120.5263, 50.6499], [-120.5263, 50.6457], [-120.52, 50.6457], [-120.52, 50.6499]]]}, "properties": {"company_id": "new-gold", "jurisdiction": "British Columbia", "claim_id": 524304, "claim_name": "AFTON DAM 1", "holder": "NEW GOLD INC.", "status": "Mineral", "recorded_date": "2005-12-23", "anniversary_or_expiry": "2032-03-08", "area_ha": 20.491, "tenure_type": "Mineral", "source": "BC MTA Mineral, Placer and Coal Tenure Spatial View (BCGW). Open Government Licence - British Columbia. Not legal title.", "as_of": "2026-09-20", "role": "focus", "color": "#e8b040"}}, {"type": "Feature", "geometry": {"type": "Polygon", "coordinates": [[[-120.5263, 50.6499], [-120.5325, 50.6499], [-120.5325, 50.6457], [-120.5263, 50.6457], [-120.5263, 50.6499]]]}, "properties": {"company_id": "new-gold", "jurisdiction": "British Columbia", "claim_id": 524305, "claim_name": "AFTON DAM 2", "holder": "NEW GOLD INC.", "status": "Mineral", "recorded_date": "2005-12-23", "anniversary_or_expiry": "2032-03-08", "area_ha": 20.491, "tenure_type": "Mineral", "source": "BC MTA Mineral, Placer and Coal Tenure Spatial View (BCGW). Open Government Licence - British Columbia. Not legal title.", "as_of": "2026-09-20", "role": "focus", "color": "#e8b040"}}, {"type": "Feature", "geometry": {"type": "Polygon", "coordinates": [[[-120.5013, 50.6624], [-120.5075, 50.6624], [-120.5075, 50.6582], [-120.5013, 50.6582], [-120.5013, 50.6624]]]}, "properties": {"company_id": "new-gold", "jurisdiction": "British Columbia", "claim_id": 528243, "claim_name": "SMELTER", "holder": "NEW GOLD INC.", "status": "Mineral", "recorded_date": "2006-02-14", "anniversary_or_expiry": "2025-03-08", "area_ha": 20.485, "tenure_type": "Mineral", "source": "BC MTA Mineral, Placer and Coal Tenure Spatial View (BCGW). Open Government Licence - British Columbia. Not legal title.", "as_of": "2026-09-20", "role": "focus", "color": "#e8b040"}}, {"type": "Feature", "geometry": {"type": "Polygon", "coordinates": [[[-120.5013, 50.6582], [-120.5075, 50.6582], [-120.5075, 50.6541], [-120.495, 50.6541], [-120.495, 50.6582], [-120.5013, 50.6582]]]}, "properties": {"company_id": "new-gold", "jurisdiction": "British Columbia", "claim_id": 517047, "claim_name": "AFTON", "holder": "NEW GOLD INC.", "status": "Mineral", "recorded_date": "2005-07-12", "anniversary_or_expiry": "2025-03-08", "area_ha": 40.974000000000004, "tenure_type": "Mineral", "source": "BC MTA Mineral, Placer and Coal Tenure Spatial View (BCGW). Open Government Licence - British Columbia. Not legal title.", "as_of": "2026-09-20", "role": "focus", "color": "#e8b040"}}, {"type": "Feature", "geometry": {"type": "Polygon", "coordinates": [[[-120.395, 50.6416], [-120.4013, 50.6416], [-120.4013, 50.6374], [-120.395, 50.6374], [-120.395, 50.6416]]]}, "properties": {"company_id": "new-gold", "jurisdiction": "British Columbia", "claim_id": 517263, "claim_name": null, "holder": "NEW GOLD INC.", "status": "Mineral", "recorded_date": "2005-07-12", "anniversary_or_expiry": "2025-07-15", "area_ha": 20.495, "tenure_type": "Mineral", "source": "BC MTA Mineral, Placer and Coal Tenure Spatial View (BCGW). Open Government Licence - British Columbia. Not legal title.", "as_of": "2026-09-20", "role": "focus", "color": "#e8b040"}}, {"type": "Feature", "geometry": {"type": "Polygon", "coordinates": [[[-120.4513, 51.5083], [-120.4513, 51.4958], [-120.4138, 51.4958], [-120.4138, 51.5124], [-120.4513, 51.5124], [-120.4513, 51.5083]]]}, "properties": {"company_id": "new-gold", "jurisdiction": "British Columbia", "claim_id": 517689, "claim_name": null, "holder": "NEW GOLD INC.", "status": "Mineral", "recorded_date": "2005-07-14", "anniversary_or_expiry": "2025-06-10", "area_ha": 482.867, "tenure_type": "Mineral", "source": "BC MTA Mineral, Placer and Coal Tenure Spatial View (BCGW). Open Government Licence - British Columbia. Not legal title.", "as_of": "2026-09-20", "role": "focus", "color": "#e8b040"}}, {"type": "Feature", "geometry": {"type": "Polygon", "coordinates": [[[-120.5263, 51.6166], [-120.5263, 51.6124], [-120.5138, 51.6124], [-120.5138, 51.6208], [-120.5263, 51.6208], [-120.5263, 51.6166]]]}, "properties": {"company_id": "new-gold", "jurisdiction": "British Columbia", "claim_id": 517695, "claim_name": null, "holder": "NEW GOLD INC.", "status": "Mineral", "recorded_date": "2005-07-14", "anniversary_or_expiry": "2025-02-10", "area_ha": 80.2805, "tenure_type": "Mineral", "source": "BC MTA Mineral, Placer and Coal Tenure Spatial View (BCGW). Open Government Licence - British Columbia. Not legal title.", "as_of": "2026-09-20", "role": "focus", "color": "#e8b040"}}, {"type": "Feature", "geometry": {"type": "Polygon", "coordinates": [[[-120.4763, 51.5916], [-120.4763, 51.5833], [-120.47, 51.5833], [-120.47, 51.5958], [-120.4763, 51.5958], [-120.4763, 51.5916]]]}, "properties": {"company_id": "new-gold", "jurisdiction": "British Columbia", "claim_id": 517702, "claim_name": null, "holder": "NEW GOLD INC.", "status": "Mineral", "recorded_date": "2005-07-14", "anniversary_or_expiry": "2025-01-10", "area_ha": 60.246700000000004, "tenure_type": "Mineral", "source": "BC MTA Mineral, Placer and Coal Tenure Spatial View (BCGW). Open Government Licence - British Columbia. Not legal title.", "as_of": "2026-09-20", "role": "focus", "color": "#e8b040"}}, {"type": "Feature", "geometry": {"type": "Polygon", "coordinates": [[[-120.4575, 51.5958], [-120.4575, 51.5874], [-120.4513, 51.5874], [-120.4513, 51.5999], [-120.4575, 51.5999], [-120.4575, 51.5958]]]}, "properties": {"company_id": "new-gold", "jurisdiction": "British Columbia", "claim_id": 517708, "claim_name": null, "holder": "NEW GOLD INC.", "status": "Mineral", "recorded_date": "2005-07-14", "anniversary_or_expiry": "2025-08-15", "area_ha": 60.241, "tenure_type": "Mineral", "source": "BC MTA Mineral, Placer and Coal Tenure Spatial View (BCGW). Open Government Licence - British Columbia. Not legal title.", "as_of": "2026-09-20", "role": "focus", "color": "#e8b040"}}, {"type": "Feature", "geometry": {"type": "Polygon", "coordinates": [[[-120.52, 50.6457], [-120.52, 50.6416], [-120.5138, 50.6416], [-120.5138, 50.6499], [-120.52, 50.6499], [-120.52, 50.6457]]]}, "properties": {"company_id": "new-gold", "jurisdiction": "British Columbia", "claim_id": 537230, "claim_name": "AFTON DAM 3", "holder": "NEW GOLD INC.", "status": "Mineral", "recorded_date": "2006-07-14", "anniversary_or_expiry": "2032-03-08", "area_ha": 40.983000000000004, "tenure_type": "Mineral", "source": "BC MTA Mineral, Placer and Coal Tenure Spatial View (BCGW). Open Government Licence - British Columbia. Not legal title.", "as_of": "2026-09-20", "role": "focus", "color": "#e8b040"}}, {"type": "Feature", "geometry": {"type": "Polygon", "coordinates": [[[-120.5263, 50.6541], [-120.5325, 50.6541], [-120.5325, 50.6499], [-120.52, 50.6499], [-120.52, 50.6541], [-120.5263, 50.6541]]]}, "properties": {"company_id": "new-gold", "jurisdiction": "British Columbia", "claim_id": 537231, "claim_name": "AFTON DAM 2", "holder": "NEW GOLD INC.", "status": "Mineral", "recorded_date": "2006-07-14", "anniversary_or_expiry": "2032-03-08", "area_ha": 40.978, "tenure_type": "Mineral", "source": "BC MTA Mineral, Placer and Coal Tenure Spatial View (BCGW). Open Government Licence - British Columbia. Not legal title.", "as_of": "2026-09-20", "role": "focus", "color": "#e8b040"}}, {"type": "Feature", "geometry": {"type": "Polygon", "coordinates": [[[-120.545, 50.6707], [-120.5513, 50.6707], [-120.5513, 50.6666], [-120.545, 50.6666], [-120.545, 50.6707]]]}, "properties": {"company_id": "new-gold", "jurisdiction": "British Columbia", "claim_id": 534787, "claim_name": "AF EXT 11", "holder": "NEW GOLD INC.", "status": "Mineral", "recorded_date": "2006-06-02", "anniversary_or_expiry": "2032-03-08", "area_ha": 20.482, "tenure_type": "Mineral", "source": "BC MTA Mineral, Placer and Coal Tenure Spatial View (BCGW). Open Government Licence - British Columbia. Not legal title.", "as_of": "2026-09-20", "role": "focus", "color": "#e8b040"}}, {"type": "Feature", "geometry": {"type": "Polygon", "coordinates": [[[-120.5638, 50.6832], [-120.57, 50.6832], [-120.57, 50.6791], [-120.5638, 50.6791], [-120.5638, 50.6832]]]}, "properties": {"company_id": "new-gold", "jurisdiction": "British Columbia", "claim_id": 534788, "claim_name": "AF EXT12", "holder": "NEW GOLD INC.", "status": "Mineral", "recorded_date": "2006-06-02", "anniversary_or_expiry": "2032-03-08", "area_ha": 20.476000000000003, "tenure_type": "Mineral", "source": "BC MTA Mineral, Placer and Coal Tenure Spatial View (BCGW). Open Government Licence - British Columbia. Not legal title.", "as_of": "2026-09-20", "role": "focus", "color": "#e8b040"}}]}