{"type":"FeatureCollection","name":"newmont-bc","features":[{"type":"Feature","geometry":{"type":"Polygon","coordinates":[[[-130.1115,56.2948],[-130.1051,56.2927],[-130.1014,56.2963],[-130.1079,56.2983],[-130.1115,56.2948]]]},"properties":{"jurisdiction":"British Columbia","claim_id":255168,"claim_name":"HAIDA #1","holder":"PRETIUM RESOURCES INC.","status":"Mineral","recorded_date":"-787104000","anniversary_or_expiry":"2031-01-31","area_ha":25,"tenure_type":"Mineral","source":"BC MTA Mineral, Placer and Coal Tenure Spatial View (BCGW). Open Government Licence – British Columbia. Not legal title.","as_of":"2026-09-17","role":"focus","color":"#e8b040"}},{"type":"Feature","geometry":{"type":"Polygon","coordinates":[[[-129.8661,57.7771],[-129.8997,57.7771],[-129.8997,57.7681],[-129.8325,57.7681],[-129.8325,57.7771],[-129.8661,57.7771]]]},"properties":{"jurisdiction":"British Columbia","claim_id":392226,"claim_name":"ROK 1","holder":"NEWMONT SADDLE MINERALS LTD","status":"Mineral","recorded_date":"2002-03-06","anniversary_or_expiry":"2028-05-16","area_ha":400,"tenure_type":"Mineral","source":"BC MTA Mineral, Placer and Coal Tenure Spatial View (BCGW). Open Government Licence – British Columbia. Not legal title.","as_of":"2026-09-17","role":"focus","color":"#e8b040"}},{"type":"Feature","geometry":{"type":"Polygon","coordinates":[[[-129.9549,56.213],[-129.9572,56.213],[-129.9571,56.1906],[-129.9249,56.1906],[-129.9249,56.213],[-129.9549,56.213]]]},"properties":{"jurisdiction":"British Columbia","claim_id":396555,"claim_name":"DAVE","holder":"PRETIUM RESOURCES INC.","status":"Mineral","recorded_date":"2002-09-20","anniversary_or_expiry":"2034-01-31","area_ha":500,"tenure_type":"Mineral","source":"BC MTA Mineral, Placer and Coal Tenure Spatial View (BCGW). Open Government Licence – British Columbia. Not legal title.","as_of":"2026-09-17","role":"focus","color":"#e8b040"}},{"type":"Feature","geometry":{"type":"Polygon","coordinates":[[[-129.8644,56.3077],[-129.871,56.3077],[-129.871,56.2942],[-129.8752,56.2942],[-129.8752,56.2802],[-129.8722,56.2802],[-129.8722,56.2763],[-129.8629,56.2763],[-129.8629,56.3077],[-129.8644,56.3077]]]},"properties":{"jurisdiction":"British Columbia","claim_id":396853,"claim_name":"FR 7","holder":"PRETIUM RESOURCES INC.","status":"Mineral","recorded_date":"2002-09-29","anniversary_or_expiry":"2034-01-31","area_ha":350,"tenure_type":"Mineral","source":"BC MTA Mineral, Placer and Coal Tenure Spatial View (BCGW). Open Government Licence – British Columbia. Not legal title.","as_of":"2026-09-17","role":"focus","color":"#e8b040"}},{"type":"Feature","geometry":{"type":"Polygon","coordinates":[[[-129.8998,57.766],[-129.909,57.766],[-129.909,57.7579],[-129.9074,57.7579],[-129.9075,57.7526],[-129.8838,57.7527],[-129.8838,57.766],[-129.8998,57.766]]]},"properties":{"jurisdiction":"British Columbia","claim_id":405280,"claim_name":"COYOTE","holder":"NEWMONT SADDLE MINERALS LTD","status":"Mineral","recorded_date":"2003-09-05","anniversary_or_expiry":"2028-05-16","area_ha":225,"tenure_type":"Mineral","source":"BC MTA Mineral, Placer and Coal Tenure Spatial View (BCGW). Open Government Licence – British Columbia. Not legal title.","as_of":"2026-09-17","role":"focus","color":"#e8b040"}},{"type":"Feature","geometry":{"type":"Polygon","coordinates":[[[-129.9572,56.2119],[-129.9791,56.2119],[-129.9791,56.1894],[-129.9549,56.1894],[-129.9549,56.1906],[-129.9571,56.1906],[-129.9572,56.2119]]]},"properties":{"jurisdiction":"British Columbia","claim_id":405009,"claim_name":"DAVE 4","holder":"PRETIUM RESOURCES INC.","status":"Mineral","recorded_date":"2003-09-09","anniversary_or_expiry":"2034-01-31","area_ha":375,"tenure_type":"Mineral","source":"BC MTA Mineral, Placer and Coal Tenure Spatial View (BCGW). Open Government Licence – British Columbia. Not legal title.","as_of":"2026-09-17","role":"focus","color":"#e8b040"}},{"type":"Feature","geometry":{"type":"Polygon","coordinates":[[[-129.8629,56.2924],[-129.8159,56.2924],[-129.8159,56.3013],[-129.8629,56.3014],[-129.8629,56.2924]]]},"properties":{"jurisdiction":"British Columbia","claim_id":407579,"claim_name":"FR 19","holder":"PRETIUM RESOURCES INC.","status":"Mineral","recorded_date":"2004-01-10","anniversary_or_expiry":"2034-01-31","area_ha":300,"tenure_type":"Mineral","source":"BC MTA Mineral, Placer and Coal Tenure Spatial View (BCGW). Open Government Licence – British Columbia. Not legal title.","as_of":"2026-09-17","role":"focus","color":"#e8b040"}},{"type":"Feature","geometry":{"type":"Polygon","coordinates":[[[-129.8421,56.289],[-129.8629,56.289],[-129.8629,56.2763],[-129.8647,56.2763],[-129.8622,56.2763],[-129.8622,56.271],[-129.8421,56.271],[-129.8421,56.289]]]},"properties":{"jurisdiction":"British Columbia","claim_id":407581,"claim_name":"FR 20","holder":"PRETIUM RESOURCES INC.","status":"Mineral","recorded_date":"2004-01-10","anniversary_or_expiry":"2034-01-31","area_ha":300,"tenure_type":"Mineral","source":"BC MTA Mineral, Placer and Coal Tenure Spatial View (BCGW). Open Government Licence – British Columbia. Not legal title.","as_of":"2026-09-17","role":"focus","color":"#e8b040"}},{"type":"Feature","geometry":{"type":"Polygon","coordinates":[[[-129.8455,56.226],[-129.8455,56.2249],[-129.8847,56.2249],[-129.8847,56.2081],[-129.8444,56.2081],[-129.8443,56.226],[-129.8455,56.226]]]},"properties":{"jurisdiction":"British Columbia","claim_id":408309,"claim_name":"DAVE 13","holder":"PRETIUM RESOURCES INC.","status":"Mineral","recorded_date":"2004-02-23","anniversary_or_expiry":"2034-01-31","area_ha":500,"tenure_type":"Mineral","source":"BC MTA Mineral, Placer and Coal Tenure Spatial View (BCGW). Open Government Licence – British Columbia. Not legal title.","as_of":"2026-09-17","role":"focus","color":"#e8b040"}},{"type":"Feature","geometry":{"type":"Polygon","coordinates":[[[-129.8847,56.2081],[-129.9249,56.2081],[-129.9249,56.1901],[-129.8847,56.1901],[-129.8847,56.2081]]]},"properties":{"jurisdiction":"British Columbia","claim_id":408310,"claim_name":"DAVE 14","holder":"PRETIUM RESOURCES INC.","status":"Mineral","recorded_date":"2004-02-23","anniversary_or_expiry":"2034-01-31","area_ha":500,"tenure_type":"Mineral","source":"BC MTA Mineral, Placer and Coal Tenure Spatial View (BCGW). Open Government Licence – British Columbia. Not legal title.","as_of":"2026-09-17","role":"focus","color":"#e8b040"}},{"type":"Feature","geometry":{"type":"Polygon","coordinates":[[[-129.8444,56.2081],[-129.8847,56.2081],[-129.8847,56.1901],[-129.8444,56.1901],[-129.8444,56.2081]]]},"properties":{"jurisdiction":"British Columbia","claim_id":408311,"claim_name":"DAVE 15","holder":"PRETIUM RESOURCES INC.","status":"Mineral","recorded_date":"2004-02-23","anniversary_or_expiry":"2034-01-31","area_ha":500,"tenure_type":"Mineral","source":"BC MTA Mineral, Placer and Coal Tenure Spatial View (BCGW). Open Government Licence – British Columbia. Not legal title.","as_of":"2026-09-17","role":"focus","color":"#e8b040"}},{"type":"Feature","geometry":{"type":"Polygon","coordinates":[[[-130.227,57.8082],[-130.227,57.804],[-130.1895,57.804],[-130.1895,57.8207],[-130.227,57.8207],[-130.227,57.8082]]]},"properties":{"jurisdiction":"British Columbia","claim_id":512840,"claim_name":null,"holder":"NEWMONT SADDLE MINERALS LTD","status":"Mineral","recorded_date":"2005-05-17","anniversary_or_expiry":"2030-06-25","area_ha":413.646,"tenure_type":"Mineral","source":"BC MTA Mineral, Placer and Coal Tenure Spatial View (BCGW). Open Government Licence – British Columbia. Not legal title.","as_of":"2026-09-17","role":"focus","color":"#e8b040"}},{"type":"Feature","geometry":{"type":"Polygon","coordinates":[[[-130.1958,56.4248],[-130.1958,56.4206],[-130.1583,56.4206],[-130.1583,56.4373],[-130.1958,56.4373],[-130.1958,56.4248]]]},"properties":{"jurisdiction":"British Columbia","claim_id":508913,"claim_name":"High NE","holder":"PRETIUM RESOURCES INC.","status":"Mineral","recorded_date":"2005-03-14","anniversary_or_expiry":"2034-01-31","area_ha":429.41700000000003,"tenure_type":"Mineral","source":"BC MTA Mineral, Placer and Coal Tenure Spatial View (BCGW). Open Government Licence – British Columbia. Not legal title.","as_of":"2026-09-17","role":"focus","color":"#e8b040"}},{"type":"Feature","geometry":{"type":"Polygon","coordinates":[[[-130.2458,56.4998],[-130.2458,56.4956],[-130.1708,56.4956],[-130.1708,56.504],[-130.2458,56.504],[-130.2458,56.4998]]]},"properties":{"jurisdiction":"British Columbia","claim_id":509223,"claim_name":null,"holder":"PRETIUM RESOURCES INC.","status":"Mineral","recorded_date":"2005-03-18","anniversary_or_expiry":"2034-01-31","area_ha":428.62300000000005,"tenure_type":"Mineral","source":"BC MTA Mineral, Placer and Coal Tenure Spatial View (BCGW). Open Government Licence – British Columbia. Not legal title.","as_of":"2026-09-17","role":"focus","color":"#e8b040"}},{"type":"Feature","geometry":{"type":"Polygon","coordinates":[[[-130.2458,56.4873],[-130.2458,56.4831],[-130.202,56.4831],[-130.202,56.4956],[-130.2458,56.4956],[-130.2458,56.4873]]]},"properties":{"jurisdiction":"British Columbia","claim_id":509397,"claim_name":null,"holder":"PRETIUM RESOURCES INC.","status":"Mineral","recorded_date":"2005-03-22","anniversary_or_expiry":"2034-01-31","area_ha":375.147,"tenure_type":"Mineral","source":"BC MTA Mineral, Placer and Coal Tenure Spatial View (BCGW). Open Government Licence – British Columbia. Not legal title.","as_of":"2026-09-17","role":"focus","color":"#e8b040"}},{"type":"Feature","geometry":{"type":"Polygon","coordinates":[[[-130.202,56.4915],[-130.202,56.4873],[-130.1708,56.4873],[-130.1708,56.4956],[-130.202,56.4956],[-130.202,56.4915]]]},"properties":{"jurisdiction":"British Columbia","claim_id":509400,"claim_name":null,"holder":"PRETIUM RESOURCES INC.","status":"Mineral","recorded_date":"2005-03-22","anniversary_or_expiry":"2034-01-31","area_ha":178.632,"tenure_type":"Mineral","source":"BC MTA Mineral, Placer and Coal Tenure Spatial View (BCGW). Open Government Licence – British Columbia. Not legal title.","as_of":"2026-09-17","role":"focus","color":"#e8b040"}},{"type":"Feature","geometry":{"type":"Polygon","coordinates":[[[-130.2333,56.429],[-130.2333,56.4248],[-130.227,56.4248],[-130.227,56.4165],[-130.2145,56.4165],[-130.2145,56.4123],[-130.2083,56.4123],[-130.2083,56.4206],[-130.1958,56.4206],[-130.1958,56.4373],[-130.2208,56.4373],[-130.2208,56.4331],[-130.2333,56.4331],[-130.2333,56.429]]]},"properties":{"jurisdiction":"British Columbia","claim_id":509565,"claim_name":"High C1","holder":"PRETIUM RESOURCES INC.","status":"Mineral","recorded_date":"2005-03-23","anniversary_or_expiry":"2034-01-31","area_ha":447.33500000000004,"tenure_type":"Mineral","source":"BC MTA Mineral, Placer and Coal Tenure Spatial View (BCGW). Open Government Licence – British Columbia. Not legal title.","as_of":"2026-09-17","role":"focus","color":"#e8b040"}},{"type":"Feature","geometry":{"type":"Polygon","coordinates":[[[-129.9832,57.7207],[-129.9457,57.7207],[-129.9457,57.7373],[-129.9082,57.7373],[-129.9082,57.7415],[-129.952,57.7415],[-129.952,57.7248],[-129.9895,57.7248],[-129.9895,57.7207],[-129.9832,57.7207]]]},"properties":{"jurisdiction":"British Columbia","claim_id":521519,"claim_name":"COYOTE GAP","holder":"NEWMONT SADDLE MINERALS LTD","status":"Mineral","recorded_date":"2005-10-26","anniversary_or_expiry":"2028-05-16","area_ha":293.742,"tenure_type":"Mineral","source":"BC MTA Mineral, Placer and Coal Tenure Spatial View (BCGW). Open Government Licence – British Columbia. Not legal title.","as_of":"2026-09-17","role":"focus","color":"#e8b040"}},{"type":"Feature","geometry":{"type":"Polygon","coordinates":[[[-129.9457,57.7248],[-129.9457,57.7207],[-129.9082,57.7207],[-129.9082,57.7373],[-129.9457,57.7373],[-129.9457,57.7248]]]},"properties":{"jurisdiction":"British Columbia","claim_id":519707,"claim_name":"MC 2","holder":"NEWMONT SADDLE MINERALS LTD","status":"Mineral","recorded_date":"2005-09-06","anniversary_or_expiry":"2028-05-16","area_ha":414.72200000000004,"tenure_type":"Mineral","source":"BC MTA Mineral, Placer and Coal Tenure Spatial View (BCGW). Open Government Licence – British Columbia. Not legal title.","as_of":"2026-09-17","role":"focus","color":"#e8b040"}},{"type":"Feature","geometry":{"type":"Polygon","coordinates":[[[-129.9082,57.7248],[-129.9082,57.7207],[-129.902,57.7207],[-129.902,57.7415],[-129.9082,57.7415],[-129.9082,57.7248]]]},"properties":{"jurisdiction":"British Columbia","claim_id":519708,"claim_name":"MC 3","holder":"NEWMONT SADDLE MINERALS LTD","status":"Mineral","recorded_date":"2005-09-06","anniversary_or_expiry":"2028-05-16","area_ha":86.397,"tenure_type":"Mineral","source":"BC MTA Mineral, Placer and Coal Tenure Spatial View (BCGW). Open Government Licence – British Columbia. Not legal title.","as_of":"2026-09-17","role":"focus","color":"#e8b040"}},{"type":"Feature","geometry":{"type":"Polygon","coordinates":[[[-129.9332,57.7623],[-129.9332,57.7582],[-129.9082,57.7582],[-129.9082,57.7623],[-129.902,57.7623],[-129.902,57.7665],[-129.8957,57.7665],[-129.8957,57.7998],[-129.9207,57.7998],[-129.9207,57.7957],[-129.9332,57.7957],[-129.9332,57.7623]]]},"properties":{"jurisdiction":"British Columbia","claim_id":518532,"claim_name":null,"holder":"NEWMONT SADDLE MINERALS LTD","status":"Mineral","recorded_date":"2005-07-29","anniversary_or_expiry":"2028-05-16","area_ha":949.042,"tenure_type":"Mineral","source":"BC MTA Mineral, Placer and Coal Tenure Spatial View (BCGW). Open Government Licence – British Columbia. Not legal title.","as_of":"2026-09-17","role":"focus","color":"#e8b040"}},{"type":"Feature","geometry":{"type":"Polygon","coordinates":[[[-129.9582,57.7748],[-129.9582,57.7707],[-129.9332,57.7707],[-129.9332,57.7957],[-129.9582,57.7957],[-129.9582,57.7748]]]},"properties":{"jurisdiction":"British Columbia","claim_id":518538,"claim_name":"ISK1","holder":"NEWMONT SADDLE MINERALS LTD","status":"Mineral","recorded_date":"2005-07-29","anniversary_or_expiry":"2028-05-16","area_ha":414.067,"tenure_type":"Mineral","source":"BC MTA Mineral, Placer and Coal Tenure Spatial View (BCGW). Open Government Licence – British Columbia. Not legal title.","as_of":"2026-09-17","role":"focus","color":"#e8b040"}},{"type":"Feature","geometry":{"type":"Polygon","coordinates":[[[-129.9395,57.7623],[-129.9395,57.7582],[-129.9332,57.7582],[-129.9332,57.7707],[-129.9395,57.7707],[-129.9395,57.7623]]]},"properties":{"jurisdiction":"British Columbia","claim_id":518539,"claim_name":"ISK2","holder":"NEWMONT SADDLE MINERALS LTD","status":"Mineral","recorded_date":"2005-07-29","anniversary_or_expiry":"2028-05-16","area_ha":51.785000000000004,"tenure_type":"Mineral","source":"BC MTA Mineral, Placer and Coal Tenure Spatial View (BCGW). Open Government Licence – British Columbia. Not legal title.","as_of":"2026-09-17","role":"focus","color":"#e8b040"}},{"type":"Feature","geometry":{"type":"Polygon","coordinates":[[[-129.9082,57.7457],[-129.9082,57.7415],[-129.877,57.7415],[-129.877,57.7248],[-129.8707,57.7248],[-129.8707,57.7457],[-129.902,57.7457],[-129.902,57.754],[-129.9082,57.754],[-129.9082,57.7457]]]},"properties":{"jurisdiction":"British Columbia","claim_id":527052,"claim_name":"COYOTES 2","holder":"NEWMONT SADDLE MINERALS LTD","status":"Mineral","recorded_date":"2006-02-03","anniversary_or_expiry":"2028-05-16","area_ha":207.29600000000002,"tenure_type":"Mineral","source":"BC MTA Mineral, Placer and Coal Tenure Spatial View (BCGW). Open Government Licence – British Columbia. Not legal title.","as_of":"2026-09-17","role":"focus","color":"#e8b040"}},{"type":"Feature","geometry":{"type":"Polygon","coordinates":[[[-129.9957,57.7457],[-129.9957,57.7415],[-129.9082,57.7415],[-129.9082,57.7582],[-129.9957,57.7582],[-129.9957,57.7457]]]},"properties":{"jurisdiction":"British Columbia","claim_id":527053,"claim_name":null,"holder":"NEWMONT SADDLE MINERALS LTD","status":"Mineral","recorded_date":"2006-02-03","anniversary_or_expiry":"2028-05-16","area_ha":967.0600000000001,"tenure_type":"Mineral","source":"BC MTA Mineral, Placer and Coal Tenure Spatial View (BCGW). Open Government Licence – British Columbia. Not legal title.","as_of":"2026-09-17","role":"focus","color":"#e8b040"}},{"type":"Feature","geometry":{"type":"Polygon","coordinates":[[[-129.9957,57.7248],[-129.9957,57.7207],[-129.9895,57.7207],[-129.9895,57.7248],[-129.952,57.7248],[-129.952,57.7415],[-129.9957,57.7415],[-129.9957,57.7248]]]},"properties":{"jurisdiction":"British Columbia","claim_id":527054,"claim_name":null,"holder":"NEWMONT SADDLE MINERALS LTD","status":"Mineral","recorded_date":"2006-02-03","anniversary_or_expiry":"2028-05-16","area_ha":501.06,"tenure_type":"Mineral","source":"BC MTA Mineral, Placer and Coal Tenure Spatial View (BCGW). Open Government Licence – British Columbia. Not legal title.","as_of":"2026-09-17","role":"focus","color":"#e8b040"}},{"type":"Feature","geometry":{"type":"Polygon","coordinates":[[[-130.377,57.7332],[-130.377,57.729],[-130.3457,57.729],[-130.3457,57.7498],[-130.377,57.7498],[-130.377,57.7332]]]},"properties":{"jurisdiction":"British Columbia","claim_id":532832,"claim_name":"KITTOV-01","holder":"NEWMONT SADDLE MINERALS LTD","status":"Mineral","recorded_date":"2006-04-21","anniversary_or_expiry":"2030-06-25","area_ha":431.91900000000004,"tenure_type":"Mineral","source":"BC MTA Mineral, Placer and Coal Tenure Spatial View (BCGW). Open Government Licence – British Columbia. Not legal title.","as_of":"2026-09-17","role":"focus","color":"#e8b040"}},{"type":"Feature","geometry":{"type":"Polygon","coordinates":[[[-130.4082,57.7332],[-130.4082,57.729],[-130.377,57.729],[-130.377,57.7498],[-130.4082,57.7498],[-130.4082,57.7332]]]},"properties":{"jurisdiction":"British Columbia","claim_id":532836,"claim_name":"KITTOV-02","holder":"NEWMONT SADDLE MINERALS LTD","status":"Mineral","recorded_date":"2006-04-21","anniversary_or_expiry":"2030-06-25","area_ha":431.918,"tenure_type":"Mineral","source":"BC MTA Mineral, Placer and Coal Tenure Spatial View (BCGW). Open Government Licence – British Columbia. Not legal title.","as_of":"2026-09-17","role":"focus","color":"#e8b040"}},{"type":"Feature","geometry":{"type":"Polygon","coordinates":[[[-129.9958,56.1415],[-129.9958,56.1373],[-129.9895,56.1373],[-129.9895,56.1415],[-129.9833,56.1415],[-129.9833,56.1373],[-129.977,56.1373],[-129.977,56.179],[-129.9895,56.179],[-129.9895,56.154],[-129.9958,56.154],[-129.9958,56.1415]]]},"properties":{"jurisdiction":"British Columbia","claim_id":530419,"claim_name":"SILVER TIARA","holder":"PRETIUM RESOURCES INC.","status":"Mineral","recorded_date":"2006-03-22","anniversary_or_expiry":"2034-01-31","area_ha":414.44,"tenure_type":"Mineral","source":"BC MTA Mineral, Placer and Coal Tenure Spatial View (BCGW). Open Government Licence – British Columbia. Not legal title.","as_of":"2026-09-17","role":"focus","color":"#e8b040"}},{"type":"Feature","geometry":{"type":"Polygon","coordinates":[[[-130.027,56.1123],[-130.027,56.1081],[-130.0145,56.1081],[-130.0145,56.1165],[-130.027,56.1165],[-130.027,56.1123]]]},"properties":{"jurisdiction":"British Columbia","claim_id":539880,"claim_name":"CELL32","holder":"PRETIUM RESOURCES INC.","status":"Mineral","recorded_date":"2006-08-25","anniversary_or_expiry":"2034-01-31","area_ha":72.16120000000001,"tenure_type":"Mineral","source":"BC MTA Mineral, Placer and Coal Tenure Spatial View (BCGW). Open Government Licence – British Columbia. Not legal title.","as_of":"2026-09-17","role":"focus","color":"#e8b040"}},{"type":"Feature","geometry":{"type":"Polygon","coordinates":[[[-130.0208,56.1165],[-130.0208,56.1206],[-130.027,56.1206],[-130.027,56.1165],[-130.0208,56.1165]]]},"properties":{"jurisdiction":"British Columbia","claim_id":539887,"claim_name":null,"holder":"PRETIUM RESOURCES INC.","status":"Mineral","recorded_date":"2006-08-25","anniversary_or_expiry":"2034-01-31","area_ha":18.0374,"tenure_type":"Mineral","source":"BC MTA Mineral, Placer and Coal Tenure Spatial View (BCGW). Open Government Licence – British Columbia. Not legal title.","as_of":"2026-09-17","role":"focus","color":"#e8b040"}},{"type":"Feature","geometry":{"type":"Polygon","coordinates":[[[-130.1583,56.404],[-130.1583,56.3998],[-130.1208,56.3998],[-130.1208,56.4123],[-130.1145,56.4123],[-130.1145,56.4165],[-130.1583,56.4165],[-130.1583,56.404]]]},"properties":{"jurisdiction":"British Columbia","claim_id":535942,"claim_name":"JOBURG 1","holder":"PRETIUM RESOURCES INC.","status":"Mineral","recorded_date":"2006-06-19","anniversary_or_expiry":"2034-01-31","area_ha":447.555,"tenure_type":"Mineral","source":"BC MTA Mineral, Placer and Coal Tenure Spatial View (BCGW). Open Government Licence – British Columbia. Not legal title.","as_of":"2026-09-17","role":"focus","color":"#e8b040"}},{"type":"Feature","geometry":{"type":"Polygon","coordinates":[[[-130.1208,56.3998],[-130.1208,56.3956],[-130.102,56.3956],[-130.102,56.404],[-130.1083,56.404],[-130.1083,56.4081],[-130.102,56.4081],[-130.102,56.4123],[-130.1208,56.4123],[-130.1208,56.3998]]]},"properties":{"jurisdiction":"British Columbia","claim_id":535943,"claim_name":"JOBURG 2","holder":"PRETIUM RESOURCES INC.","status":"Mineral","recorded_date":"2006-06-19","anniversary_or_expiry":"2034-01-31","area_ha":196.948,"tenure_type":"Mineral","source":"BC MTA Mineral, Placer and Coal Tenure Spatial View (BCGW). Open Government Licence – British Columbia. Not legal title.","as_of":"2026-09-17","role":"focus","color":"#e8b040"}},{"type":"Feature","geometry":{"type":"Polygon","coordinates":[[[-130.0958,56.3956],[-130.0833,56.3956],[-130.0833,56.4123],[-130.102,56.4123],[-130.102,56.4081],[-130.0958,56.4081],[-130.0958,56.3998],[-130.102,56.3998],[-130.102,56.3956],[-130.0958,56.3956]]]},"properties":{"jurisdiction":"British Columbia","claim_id":535944,"claim_name":"JOBURG 3","holder":"PRETIUM RESOURCES INC.","status":"Mineral","recorded_date":"2006-06-19","anniversary_or_expiry":"2034-01-31","area_ha":179.042,"tenure_type":"Mineral","source":"BC MTA Mineral, Placer and Coal Tenure Spatial View (BCGW). Open Government Licence – British Columbia. Not legal title.","as_of":"2026-09-17","role":"focus","color":"#e8b040"}}]}