{"type": "FeatureCollection", "features": [{"type": "Feature", "geometry": {"type": "Polygon", "coordinates": [[[-80.875, 46.7875], [-80.875, 46.7917], [-80.8813, 46.7917], [-80.8813, 46.7875], [-80.875, 46.7875]]]}, "properties": {"company_id": "nexmetals-mining", "jurisdiction": "Ontario", "claim_id": "102308", "claim_name": null, "holder": "(100) NEXMETALS MINING CORP.", "status": "Active", "recorded_date": "2018-04-10", "anniversary_or_expiry": "2030-08-19", "area_ha": null, "tenure_type": "Single Cell Mining Claim", "source": "Ontario MLAS operational claims (OGSEarth / LIO MapServer). Unofficial viewing data, not legal title.", "as_of": "2026-09-20", "role": "focus", "color": "#e8b040"}}, {"type": "Feature", "geometry": {"type": "Polygon", "coordinates": [[[-80.875, 46.7833], [-80.875, 46.7875], [-80.8813, 46.7875], [-80.8813, 46.7833], [-80.875, 46.7833]]]}, "properties": {"company_id": "nexmetals-mining", "jurisdiction": "Ontario", "claim_id": "102309", "claim_name": null, "holder": "(100) NEXMETALS MINING CORP.", "status": "Active", "recorded_date": "2018-04-10", "anniversary_or_expiry": "2030-08-19", "area_ha": null, "tenure_type": "Single Cell Mining Claim", "source": "Ontario MLAS operational claims (OGSEarth / LIO MapServer). Unofficial viewing data, not legal title.", "as_of": "2026-09-20", "role": "focus", "color": "#e8b040"}}, {"type": "Feature", "geometry": {"type": "Polygon", "coordinates": [[[-80.825, 46.7958], [-80.825, 46.8], [-80.8313, 46.8], [-80.8313, 46.7958], [-80.825, 46.7958]]]}, "properties": {"company_id": "nexmetals-mining", "jurisdiction": "Ontario", "claim_id": "106115", "claim_name": null, "holder": "(100) NEXMETALS MINING CORP.", "status": "Active", "recorded_date": "2018-04-10", "anniversary_or_expiry": "2030-01-25", "area_ha": null, "tenure_type": "Boundary Cell Mining Claim", "source": "Ontario MLAS operational claims (OGSEarth / LIO MapServer). Unofficial viewing data, not legal title.", "as_of": "2026-09-20", "role": "focus", "color": "#e8b040"}}, {"type": "Feature", "geometry": {"type": "Polygon", "coordinates": [[[-80.8188, 46.7833], [-80.8188, 46.7875], [-80.825, 46.7875], [-80.825, 46.7833], [-80.8188, 46.7833]]]}, "properties": {"company_id": "nexmetals-mining", "jurisdiction": "Ontario", "claim_id": "106797", "claim_name": null, "holder": "(100) NEXMETALS MINING CORP.", "status": "Active", "recorded_date": "2018-04-10", "anniversary_or_expiry": "2030-03-13", "area_ha": null, "tenure_type": "Single Cell Mining Claim", "source": "Ontario MLAS operational claims (OGSEarth / LIO MapServer). Unofficial viewing data, not legal title.", "as_of": "2026-09-20", "role": "focus", "color": "#e8b040"}}, {"type": "Feature", "geometry": {"type": "Polygon", "coordinates": [[[-80.8438, 46.825], [-80.8438, 46.8292], [-80.85, 46.8292], [-80.85, 46.825], [-80.8438, 46.825]]]}, "properties": {"company_id": "nexmetals-mining", "jurisdiction": "Ontario", "claim_id": "105051", "claim_name": null, "holder": "(100) NEXMETALS MINING CORP.", "status": "Active", "recorded_date": "2018-04-10", "anniversary_or_expiry": "2030-12-23", "area_ha": null, "tenure_type": "Single Cell Mining Claim", "source": "Ontario MLAS operational claims (OGSEarth / LIO MapServer). Unofficial viewing data, not legal title.", "as_of": "2026-09-20", "role": "focus", "color": "#e8b040"}}, {"type": "Feature", "geometry": {"type": "Polygon", "coordinates": [[[-80.8063, 46.7917], [-80.8063, 46.7958], [-80.8125, 46.7958], [-80.8125, 46.7917], [-80.8063, 46.7917]]]}, "properties": {"company_id": "nexmetals-mining", "jurisdiction": "Ontario", "claim_id": "105686", "claim_name": null, "holder": "(100) NEXMETALS MINING CORP.", "status": "Active", "recorded_date": "2018-04-10", "anniversary_or_expiry": "2030-08-18", "area_ha": null, "tenure_type": "Single Cell Mining Claim", "source": "Ontario MLAS operational claims (OGSEarth / LIO MapServer). Unofficial viewing data, not legal title.", "as_of": "2026-09-20", "role": "focus", "color": "#e8b040"}}, {"type": "Feature", "geometry": {"type": "Polygon", "coordinates": [[[-80.85, 46.7917], [-80.85, 46.7958], [-80.8563, 46.7958], [-80.8563, 46.7917], [-80.85, 46.7917]]]}, "properties": {"company_id": "nexmetals-mining", "jurisdiction": "Ontario", "claim_id": "106860", "claim_name": null, "holder": "(100) NEXMETALS MINING CORP.", "status": "Active", "recorded_date": "2018-04-10", "anniversary_or_expiry": "2030-04-24", "area_ha": null, "tenure_type": "Single Cell Mining Claim", "source": "Ontario MLAS operational claims (OGSEarth / LIO MapServer). Unofficial viewing data, not legal title.", "as_of": "2026-09-20", "role": "focus", "color": "#e8b040"}}, {"type": "Feature", "geometry": {"type": "Polygon", "coordinates": [[[-80.825, 46.8167], [-80.825, 46.8208], [-80.8313, 46.8208], [-80.8313, 46.8167], [-80.825, 46.8167]]]}, "properties": {"company_id": "nexmetals-mining", "jurisdiction": "Ontario", "claim_id": "104964", "claim_name": null, "holder": "(100) NEXMETALS MINING CORP.", "status": "Active", "recorded_date": "2018-04-10", "anniversary_or_expiry": "2030-01-26", "area_ha": null, "tenure_type": "Single Cell Mining Claim", "source": "Ontario MLAS operational claims (OGSEarth / LIO MapServer). Unofficial viewing data, not legal title.", "as_of": "2026-09-20", "role": "focus", "color": "#e8b040"}}, {"type": "Feature", "geometry": {"type": "Polygon", "coordinates": [[[-80.8438, 46.7917], [-80.8438, 46.7958], [-80.85, 46.7958], [-80.85, 46.7917], [-80.8438, 46.7917]]]}, "properties": {"company_id": "nexmetals-mining", "jurisdiction": "Ontario", "claim_id": "108466", "claim_name": null, "holder": "(100) NEXMETALS MINING CORP.", "status": "Active", "recorded_date": "2018-04-10", "anniversary_or_expiry": "2030-04-24", "area_ha": null, "tenure_type": "Single Cell Mining Claim", "source": "Ontario MLAS operational claims (OGSEarth / LIO MapServer). Unofficial viewing data, not legal title.", "as_of": "2026-09-20", "role": "focus", "color": "#e8b040"}}, {"type": "Feature", "geometry": {"type": "Polygon", "coordinates": [[[-80.85, 46.7833], [-80.85, 46.7875], [-80.8563, 46.7875], [-80.8563, 46.7833], [-80.85, 46.7833]]]}, "properties": {"company_id": "nexmetals-mining", "jurisdiction": "Ontario", "claim_id": "107941", "claim_name": null, "holder": "(100) NEXMETALS MINING CORP.", "status": "Active", "recorded_date": "2018-04-10", "anniversary_or_expiry": "2030-08-22", "area_ha": null, "tenure_type": "Single Cell Mining Claim", "source": "Ontario MLAS operational claims (OGSEarth / LIO MapServer). Unofficial viewing data, not legal title.", "as_of": "2026-09-20", "role": "focus", "color": "#e8b040"}}, {"type": "Feature", "geometry": {"type": "Polygon", "coordinates": [[[-80.825, 46.7875], [-80.825, 46.7917], [-80.8313, 46.7917], [-80.8313, 46.7875], [-80.825, 46.7875]]]}, "properties": {"company_id": "nexmetals-mining", "jurisdiction": "Ontario", "claim_id": "118190", "claim_name": null, "holder": "(100) NEXMETALS MINING CORP.", "status": "Active", "recorded_date": "2018-04-10", "anniversary_or_expiry": "2030-03-13", "area_ha": null, "tenure_type": "Single Cell Mining Claim", "source": "Ontario MLAS operational claims (OGSEarth / LIO MapServer). Unofficial viewing data, not legal title.", "as_of": "2026-09-20", "role": "focus", "color": "#e8b040"}}, {"type": "Feature", "geometry": {"type": "Polygon", "coordinates": [[[-80.8438, 46.8042], [-80.8438, 46.8083], [-80.85, 46.8083], [-80.85, 46.8042], [-80.8438, 46.8042]]]}, "properties": {"company_id": "nexmetals-mining", "jurisdiction": "Ontario", "claim_id": "119496", "claim_name": null, "holder": "(100) NEXMETALS MINING CORP.", "status": "Active", "recorded_date": "2018-04-10", "anniversary_or_expiry": "2030-03-14", "area_ha": null, "tenure_type": "Single Cell Mining Claim", "source": "Ontario MLAS operational claims (OGSEarth / LIO MapServer). Unofficial viewing data, not legal title.", "as_of": "2026-09-20", "role": "focus", "color": "#e8b040"}}, {"type": "Feature", "geometry": {"type": "Polygon", "coordinates": [[[-80.8063, 46.8], [-80.8063, 46.8042], [-80.8125, 46.8042], [-80.8125, 46.8], [-80.8063, 46.8]]]}, "properties": {"company_id": "nexmetals-mining", "jurisdiction": "Ontario", "claim_id": "120088", "claim_name": null, "holder": "(100) NEXMETALS MINING CORP.", "status": "Active", "recorded_date": "2018-04-10", "anniversary_or_expiry": "2030-08-18", "area_ha": null, "tenure_type": "Boundary Cell Mining Claim", "source": "Ontario MLAS operational claims (OGSEarth / LIO MapServer). Unofficial viewing data, not legal title.", "as_of": "2026-09-20", "role": "focus", "color": "#e8b040"}}, {"type": "Feature", "geometry": {"type": "Polygon", "coordinates": [[[-80.825, 46.825], [-80.825, 46.8292], [-80.8313, 46.8292], [-80.8313, 46.825], [-80.825, 46.825]]]}, "properties": {"company_id": "nexmetals-mining", "jurisdiction": "Ontario", "claim_id": "120134", "claim_name": null, "holder": "(100) NEXMETALS MINING CORP.", "status": "Active", "recorded_date": "2018-04-10", "anniversary_or_expiry": "2030-01-26", "area_ha": null, "tenure_type": "Boundary Cell Mining Claim", "source": "Ontario MLAS operational claims (OGSEarth / LIO MapServer). Unofficial viewing data, not legal title.", "as_of": "2026-09-20", "role": "focus", "color": "#e8b040"}}, {"type": "Feature", "geometry": {"type": "Polygon", "coordinates": [[[-80.8563, 46.7958], [-80.8563, 46.8], [-80.8625, 46.8], [-80.8625, 46.7958], [-80.8563, 46.7958]]]}, "properties": {"company_id": "nexmetals-mining", "jurisdiction": "Ontario", "claim_id": "119001", "claim_name": null, "holder": "(100) NEXMETALS MINING CORP.", "status": "Active", "recorded_date": "2018-04-10", "anniversary_or_expiry": "2030-11-25", "area_ha": null, "tenure_type": "Single Cell Mining Claim", "source": "Ontario MLAS operational claims (OGSEarth / LIO MapServer). Unofficial viewing data, not legal title.", "as_of": "2026-09-20", "role": "focus", "color": "#e8b040"}}, {"type": "Feature", "geometry": {"type": "Polygon", "coordinates": [[[-80.85, 46.7958], [-80.85, 46.8], [-80.8563, 46.8], [-80.8563, 46.7958], [-80.85, 46.7958]]]}, "properties": {"company_id": "nexmetals-mining", "jurisdiction": "Ontario", "claim_id": "119836", "claim_name": null, "holder": "(100) NEXMETALS MINING CORP.", "status": "Active", "recorded_date": "2018-04-10", "anniversary_or_expiry": "2030-07-21", "area_ha": null, "tenure_type": "Single Cell Mining Claim", "source": "Ontario MLAS operational claims (OGSEarth / LIO MapServer). Unofficial viewing data, not legal title.", "as_of": "2026-09-20", "role": "focus", "color": "#e8b040"}}, {"type": "Feature", "geometry": {"type": "Polygon", "coordinates": [[[-80.875, 46.7917], [-80.875, 46.7958], [-80.8813, 46.7958], [-80.8813, 46.7917], [-80.875, 46.7917]]]}, "properties": {"company_id": "nexmetals-mining", "jurisdiction": "Ontario", "claim_id": "120746", "claim_name": null, "holder": "(100) NEXMETALS MINING CORP.", "status": "Active", "recorded_date": "2018-04-10", "anniversary_or_expiry": "2030-08-19", "area_ha": null, "tenure_type": "Single Cell Mining Claim", "source": "Ontario MLAS operational claims (OGSEarth / LIO MapServer). Unofficial viewing data, not legal title.", "as_of": "2026-09-20", "role": "focus", "color": "#e8b040"}}, {"type": "Feature", "geometry": {"type": "Polygon", "coordinates": [[[-80.85, 46.825], [-80.85, 46.8292], [-80.8563, 46.8292], [-80.8563, 46.825], [-80.85, 46.825]]]}, "properties": {"company_id": "nexmetals-mining", "jurisdiction": "Ontario", "claim_id": "122810", "claim_name": null, "holder": "(100) NEXMETALS MINING CORP.", "status": "Active", "recorded_date": "2018-04-10", "anniversary_or_expiry": "2030-06-12", "area_ha": null, "tenure_type": "Single Cell Mining Claim", "source": "Ontario MLAS operational claims (OGSEarth / LIO MapServer). Unofficial viewing data, not legal title.", "as_of": "2026-09-20", "role": "focus", "color": "#e8b040"}}, {"type": "Feature", "geometry": {"type": "Polygon", "coordinates": [[[-80.8438, 46.8167], [-80.8438, 46.8208], [-80.85, 46.8208], [-80.85, 46.8167], [-80.8438, 46.8167]]]}, "properties": {"company_id": "nexmetals-mining", "jurisdiction": "Ontario", "claim_id": "127458", "claim_name": null, "holder": "(100) NEXMETALS MINING CORP.", "status": "Active", "recorded_date": "2018-04-10", "anniversary_or_expiry": "2030-12-12", "area_ha": null, "tenure_type": "Single Cell Mining Claim", "source": "Ontario MLAS operational claims (OGSEarth / LIO MapServer). Unofficial viewing data, not legal title.", "as_of": "2026-09-20", "role": "focus", "color": "#e8b040"}}, {"type": "Feature", "geometry": {"type": "Polygon", "coordinates": [[[-80.8625, 46.7875], [-80.8625, 46.7917], [-80.8688, 46.7917], [-80.8688, 46.7875], [-80.8625, 46.7875]]]}, "properties": {"company_id": "nexmetals-mining", "jurisdiction": "Ontario", "claim_id": "126568", "claim_name": null, "holder": "(100) NEXMETALS MINING CORP.", "status": "Active", "recorded_date": "2018-04-10", "anniversary_or_expiry": "2030-08-19", "area_ha": null, "tenure_type": "Single Cell Mining Claim", "source": "Ontario MLAS operational claims (OGSEarth / LIO MapServer). Unofficial viewing data, not legal title.", "as_of": "2026-09-20", "role": "focus", "color": "#e8b040"}}, {"type": "Feature", "geometry": {"type": "Polygon", "coordinates": [[[-80.8125, 46.7833], [-80.8125, 46.7875], [-80.8188, 46.7875], [-80.8188, 46.7833], [-80.8125, 46.7833]]]}, "properties": {"company_id": "nexmetals-mining", "jurisdiction": "Ontario", "claim_id": "126590", "claim_name": null, "holder": "(100) NEXMETALS MINING CORP.", "status": "Active", "recorded_date": "2018-04-10", "anniversary_or_expiry": "2030-03-13", "area_ha": null, "tenure_type": "Boundary Cell Mining Claim", "source": "Ontario MLAS operational claims (OGSEarth / LIO MapServer). Unofficial viewing data, not legal title.", "as_of": "2026-09-20", "role": "focus", "color": "#e8b040"}}, {"type": "Feature", "geometry": {"type": "Polygon", "coordinates": [[[-80.8188, 46.8125], [-80.8188, 46.8167], [-80.825, 46.8167], [-80.825, 46.8125], [-80.8188, 46.8125]]]}, "properties": {"company_id": "nexmetals-mining", "jurisdiction": "Ontario", "claim_id": "128028", "claim_name": null, "holder": "(100) NEXMETALS MINING CORP.", "status": "Active", "recorded_date": "2018-04-10", "anniversary_or_expiry": "2030-01-26", "area_ha": null, "tenure_type": "Single Cell Mining Claim", "source": "Ontario MLAS operational claims (OGSEarth / LIO MapServer). Unofficial viewing data, not legal title.", "as_of": "2026-09-20", "role": "focus", "color": "#e8b040"}}, {"type": "Feature", "geometry": {"type": "Polygon", "coordinates": [[[-80.8813, 46.7958], [-80.8813, 46.8], [-80.8875, 46.8], [-80.8875, 46.7958], [-80.8813, 46.7958]]]}, "properties": {"company_id": "nexmetals-mining", "jurisdiction": "Ontario", "claim_id": "128041", "claim_name": null, "holder": "(100) NEXMETALS MINING CORP.", "status": "Active", "recorded_date": "2018-04-10", "anniversary_or_expiry": "2030-05-08", "area_ha": null, "tenure_type": "Single Cell Mining Claim", "source": "Ontario MLAS operational claims (OGSEarth / LIO MapServer). Unofficial viewing data, not legal title.", "as_of": "2026-09-20", "role": "focus", "color": "#e8b040"}}, {"type": "Feature", "geometry": {"type": "Polygon", "coordinates": [[[-80.825, 46.8125], [-80.825, 46.8167], [-80.8313, 46.8167], [-80.8313, 46.8125], [-80.825, 46.8125]]]}, "properties": {"company_id": "nexmetals-mining", "jurisdiction": "Ontario", "claim_id": "132110", "claim_name": null, "holder": "(100) NEXMETALS MINING CORP.", "status": "Active", "recorded_date": "2018-04-10", "anniversary_or_expiry": "2030-01-26", "area_ha": null, "tenure_type": "Single Cell Mining Claim", "source": "Ontario MLAS operational claims (OGSEarth / LIO MapServer). Unofficial viewing data, not legal title.", "as_of": "2026-09-20", "role": "focus", "color": "#e8b040"}}, {"type": "Feature", "geometry": {"type": "Polygon", "coordinates": [[[-80.8313, 46.8083], [-80.8313, 46.8125], [-80.8375, 46.8125], [-80.8375, 46.8083], [-80.8313, 46.8083]]]}, "properties": {"company_id": "nexmetals-mining", "jurisdiction": "Ontario", "claim_id": "135462", "claim_name": null, "holder": "(100) NEXMETALS MINING CORP.", "status": "Active", "recorded_date": "2018-04-10", "anniversary_or_expiry": "2030-03-14", "area_ha": null, "tenure_type": "Single Cell Mining Claim", "source": "Ontario MLAS operational claims (OGSEarth / LIO MapServer). Unofficial viewing data, not legal title.", "as_of": "2026-09-20", "role": "focus", "color": "#e8b040"}}, {"type": "Feature", "geometry": {"type": "Polygon", "coordinates": [[[-80.8125, 46.8], [-80.8125, 46.8042], [-80.8188, 46.8042], [-80.8188, 46.8], [-80.8125, 46.8]]]}, "properties": {"company_id": "nexmetals-mining", "jurisdiction": "Ontario", "claim_id": "138710", "claim_name": null, "holder": "(100) NEXMETALS MINING CORP.", "status": "Active", "recorded_date": "2018-04-10", "anniversary_or_expiry": "2030-01-25", "area_ha": null, "tenure_type": "Boundary Cell Mining Claim", "source": "Ontario MLAS operational claims (OGSEarth / LIO MapServer). Unofficial viewing data, not legal title.", "as_of": "2026-09-20", "role": "focus", "color": "#e8b040"}}, {"type": "Feature", "geometry": {"type": "Polygon", "coordinates": [[[-80.8313, 46.8042], [-80.8313, 46.8083], [-80.8375, 46.8083], [-80.8375, 46.8042], [-80.8313, 46.8042]]]}, "properties": {"company_id": "nexmetals-mining", "jurisdiction": "Ontario", "claim_id": "140692", "claim_name": null, "holder": "(100) NEXMETALS MINING CORP.", "status": "Active", "recorded_date": "2018-04-10", "anniversary_or_expiry": "2030-03-14", "area_ha": null, "tenure_type": "Single Cell Mining Claim", "source": "Ontario MLAS operational claims (OGSEarth / LIO MapServer). Unofficial viewing data, not legal title.", "as_of": "2026-09-20", "role": "focus", "color": "#e8b040"}}, {"type": "Feature", "geometry": {"type": "Polygon", "coordinates": [[[-80.8125, 46.7958], [-80.8125, 46.8], [-80.8188, 46.8], [-80.8188, 46.7958], [-80.8125, 46.7958]]]}, "properties": {"company_id": "nexmetals-mining", "jurisdiction": "Ontario", "claim_id": "139328", "claim_name": null, "holder": "(100) NEXMETALS MINING CORP.", "status": "Active", "recorded_date": "2018-04-10", "anniversary_or_expiry": "2030-01-25", "area_ha": null, "tenure_type": "Boundary Cell Mining Claim", "source": "Ontario MLAS operational claims (OGSEarth / LIO MapServer). Unofficial viewing data, not legal title.", "as_of": "2026-09-20", "role": "focus", "color": "#e8b040"}}, {"type": "Feature", "geometry": {"type": "Polygon", "coordinates": [[[-80.8188, 46.8208], [-80.8188, 46.825], [-80.825, 46.825], [-80.825, 46.8208], [-80.8188, 46.8208]]]}, "properties": {"company_id": "nexmetals-mining", "jurisdiction": "Ontario", "claim_id": "140088", "claim_name": null, "holder": "(100) NEXMETALS MINING CORP.", "status": "Active", "recorded_date": "2018-04-10", "anniversary_or_expiry": "2030-01-30", "area_ha": null, "tenure_type": "Single Cell Mining Claim", "source": "Ontario MLAS operational claims (OGSEarth / LIO MapServer). Unofficial viewing data, not legal title.", "as_of": "2026-09-20", "role": "focus", "color": "#e8b040"}}, {"type": "Feature", "geometry": {"type": "Polygon", "coordinates": [[[-80.8375, 46.8333], [-80.8375, 46.8375], [-80.8438, 46.8375], [-80.8438, 46.8333], [-80.8375, 46.8333]]]}, "properties": {"company_id": "nexmetals-mining", "jurisdiction": "Ontario", "claim_id": "143663", "claim_name": null, "holder": "(100) NEXMETALS MINING CORP.", "status": "Active", "recorded_date": "2018-04-10", "anniversary_or_expiry": "2030-12-23", "area_ha": null, "tenure_type": "Boundary Cell Mining Claim", "source": "Ontario MLAS operational claims (OGSEarth / LIO MapServer). Unofficial viewing data, not legal title.", "as_of": "2026-09-20", "role": "focus", "color": "#e8b040"}}, {"type": "Feature", "geometry": {"type": "Polygon", "coordinates": [[[-80.8438, 46.7833], [-80.8438, 46.7875], [-80.85, 46.7875], [-80.85, 46.7833], [-80.8438, 46.7833]]]}, "properties": {"company_id": "nexmetals-mining", "jurisdiction": "Ontario", "claim_id": "141516", "claim_name": null, "holder": "(100) NEXMETALS MINING CORP.", "status": "Active", "recorded_date": "2018-04-10", "anniversary_or_expiry": "2030-08-22", "area_ha": null, "tenure_type": "Single Cell Mining Claim", "source": "Ontario MLAS operational claims (OGSEarth / LIO MapServer). Unofficial viewing data, not legal title.", "as_of": "2026-09-20", "role": "focus", "color": "#e8b040"}}, {"type": "Feature", "geometry": {"type": "Polygon", "coordinates": [[[-80.8188, 46.8167], [-80.8188, 46.8208], [-80.825, 46.8208], [-80.825, 46.8167], [-80.8188, 46.8167]]]}, "properties": {"company_id": "nexmetals-mining", "jurisdiction": "Ontario", "claim_id": "146021", "claim_name": null, "holder": "(100) NEXMETALS MINING CORP.", "status": "Active", "recorded_date": "2018-04-10", "anniversary_or_expiry": "2030-01-30", "area_ha": null, "tenure_type": "Single Cell Mining Claim", "source": "Ontario MLAS operational claims (OGSEarth / LIO MapServer). Unofficial viewing data, not legal title.", "as_of": "2026-09-20", "role": "focus", "color": "#e8b040"}}, {"type": "Feature", "geometry": {"type": "Polygon", "coordinates": [[[-80.8125, 46.8], [-80.8125, 46.8042], [-80.8188, 46.8042], [-80.8188, 46.8], [-80.8125, 46.8]]]}, "properties": {"company_id": "nexmetals-mining", "jurisdiction": "Ontario", "claim_id": "148059", "claim_name": null, "holder": "(100) NEXMETALS MINING CORP.", "status": "Active", "recorded_date": "2018-04-10", "anniversary_or_expiry": "2030-08-18", "area_ha": null, "tenure_type": "Boundary Cell Mining Claim", "source": "Ontario MLAS operational claims (OGSEarth / LIO MapServer). Unofficial viewing data, not legal title.", "as_of": "2026-09-20", "role": "focus", "color": "#e8b040"}}, {"type": "Feature", "geometry": {"type": "Polygon", "coordinates": [[[-80.8188, 46.825], [-80.8188, 46.8292], [-80.825, 46.8292], [-80.825, 46.825], [-80.8188, 46.825]]]}, "properties": {"company_id": "nexmetals-mining", "jurisdiction": "Ontario", "claim_id": "148094", "claim_name": null, "holder": "(100) NEXMETALS MINING CORP.", "status": "Active", "recorded_date": "2018-04-10", "anniversary_or_expiry": "2030-01-26", "area_ha": null, "tenure_type": "Boundary Cell Mining Claim", "source": "Ontario MLAS operational claims (OGSEarth / LIO MapServer). Unofficial viewing data, not legal title.", "as_of": "2026-09-20", "role": "focus", "color": "#e8b040"}}, {"type": "Feature", "geometry": {"type": "Polygon", "coordinates": [[[-80.8438, 46.8333], [-80.8438, 46.8375], [-80.85, 46.8375], [-80.85, 46.8333], [-80.8438, 46.8333]]]}, "properties": {"company_id": "nexmetals-mining", "jurisdiction": "Ontario", "claim_id": "153000", "claim_name": null, "holder": "(100) NEXMETALS MINING CORP.", "status": "Active", "recorded_date": "2018-04-10", "anniversary_or_expiry": "2030-12-23", "area_ha": null, "tenure_type": "Boundary Cell Mining Claim", "source": "Ontario MLAS operational claims (OGSEarth / LIO MapServer). Unofficial viewing data, not legal title.", "as_of": "2026-09-20", "role": "focus", "color": "#e8b040"}}, {"type": "Feature", "geometry": {"type": "Polygon", "coordinates": [[[-80.8188, 46.8083], [-80.8188, 46.8125], [-80.825, 46.8125], [-80.825, 46.8083], [-80.8188, 46.8083]]]}, "properties": {"company_id": "nexmetals-mining", "jurisdiction": "Ontario", "claim_id": "154535", "claim_name": null, "holder": "(100) NEXMETALS MINING CORP.", "status": "Active", "recorded_date": "2018-04-10", "anniversary_or_expiry": "2030-05-27", "area_ha": null, "tenure_type": "Single Cell Mining Claim", "source": "Ontario MLAS operational claims (OGSEarth / LIO MapServer). Unofficial viewing data, not legal title.", "as_of": "2026-09-20", "role": "focus", "color": "#e8b040"}}, {"type": "Feature", "geometry": {"type": "Polygon", "coordinates": [[[-80.8125, 46.7917], [-80.8125, 46.7958], [-80.8188, 46.7958], [-80.8188, 46.7917], [-80.8125, 46.7917]]]}, "properties": {"company_id": "nexmetals-mining", "jurisdiction": "Ontario", "claim_id": "155138", "claim_name": null, "holder": "(100) NEXMETALS MINING CORP.", "status": "Active", "recorded_date": "2018-04-10", "anniversary_or_expiry": "2030-01-25", "area_ha": null, "tenure_type": "Single Cell Mining Claim", "source": "Ontario MLAS operational claims (OGSEarth / LIO MapServer). Unofficial viewing data, not legal title.", "as_of": "2026-09-20", "role": "focus", "color": "#e8b040"}}, {"type": "Feature", "geometry": {"type": "Polygon", "coordinates": [[[-80.8313, 46.8], [-80.8313, 46.8042], [-80.8375, 46.8042], [-80.8375, 46.8], [-80.8313, 46.8]]]}, "properties": {"company_id": "nexmetals-mining", "jurisdiction": "Ontario", "claim_id": "162656", "claim_name": null, "holder": "(100) NEXMETALS MINING CORP.", "status": "Active", "recorded_date": "2018-04-10", "anniversary_or_expiry": "2030-03-14", "area_ha": null, "tenure_type": "Single Cell Mining Claim", "source": "Ontario MLAS operational claims (OGSEarth / LIO MapServer). Unofficial viewing data, not legal title.", "as_of": "2026-09-20", "role": "focus", "color": "#e8b040"}}, {"type": "Feature", "geometry": {"type": "Polygon", "coordinates": [[[-80.8813, 46.7875], [-80.8813, 46.7917], [-80.8875, 46.7917], [-80.8875, 46.7875], [-80.8813, 46.7875]]]}, "properties": {"company_id": "nexmetals-mining", "jurisdiction": "Ontario", "claim_id": "162369", "claim_name": null, "holder": "(100) NEXMETALS MINING CORP.", "status": "Active", "recorded_date": "2018-04-10", "anniversary_or_expiry": "2030-05-08", "area_ha": null, "tenure_type": "Single Cell Mining Claim", "source": "Ontario MLAS operational claims (OGSEarth / LIO MapServer). Unofficial viewing data, not legal title.", "as_of": "2026-09-20", "role": "focus", "color": "#e8b040"}}, {"type": "Feature", "geometry": {"type": "Polygon", "coordinates": [[[-80.8375, 46.8042], [-80.8375, 46.8083], [-80.8438, 46.8083], [-80.8438, 46.8042], [-80.8375, 46.8042]]]}, "properties": {"company_id": "nexmetals-mining", "jurisdiction": "Ontario", "claim_id": "162371", "claim_name": null, "holder": "(100) NEXMETALS MINING CORP.", "status": "Active", "recorded_date": "2018-04-10", "anniversary_or_expiry": "2030-03-14", "area_ha": null, "tenure_type": "Single Cell Mining Claim", "source": "Ontario MLAS operational claims (OGSEarth / LIO MapServer). Unofficial viewing data, not legal title.", "as_of": "2026-09-20", "role": "focus", "color": "#e8b040"}}, {"type": "Feature", "geometry": {"type": "Polygon", "coordinates": [[[-80.85, 46.8042], [-80.85, 46.8083], [-80.8563, 46.8083], [-80.8563, 46.8042], [-80.85, 46.8042]]]}, "properties": {"company_id": "nexmetals-mining", "jurisdiction": "Ontario", "claim_id": "164649", "claim_name": null, "holder": "(100) NEXMETALS MINING CORP.", "status": "Active", "recorded_date": "2018-04-10", "anniversary_or_expiry": "2030-03-04", "area_ha": null, "tenure_type": "Single Cell Mining Claim", "source": "Ontario MLAS operational claims (OGSEarth / LIO MapServer). Unofficial viewing data, not legal title.", "as_of": "2026-09-20", "role": "focus", "color": "#e8b040"}}, {"type": "Feature", "geometry": {"type": "Polygon", "coordinates": [[[-80.8313, 46.8167], [-80.8313, 46.8208], [-80.8375, 46.8208], [-80.8375, 46.8167], [-80.8313, 46.8167]]]}, "properties": {"company_id": "nexmetals-mining", "jurisdiction": "Ontario", "claim_id": "165836", "claim_name": null, "holder": "(100) NEXMETALS MINING CORP.", "status": "Active", "recorded_date": "2018-04-10", "anniversary_or_expiry": "2030-01-26", "area_ha": null, "tenure_type": "Single Cell Mining Claim", "source": "Ontario MLAS operational claims (OGSEarth / LIO MapServer). Unofficial viewing data, not legal title.", "as_of": "2026-09-20", "role": "focus", "color": "#e8b040"}}, {"type": "Feature", "geometry": {"type": "Polygon", "coordinates": [[[-80.8688, 46.7917], [-80.8688, 46.7958], [-80.875, 46.7958], [-80.875, 46.7917], [-80.8688, 46.7917]]]}, "properties": {"company_id": "nexmetals-mining", "jurisdiction": "Ontario", "claim_id": "165935", "claim_name": null, "holder": "(100) NEXMETALS MINING CORP.", "status": "Active", "recorded_date": "2018-04-10", "anniversary_or_expiry": "2030-08-19", "area_ha": null, "tenure_type": "Single Cell Mining Claim", "source": "Ontario MLAS operational claims (OGSEarth / LIO MapServer). Unofficial viewing data, not legal title.", "as_of": "2026-09-20", "role": "focus", "color": "#e8b040"}}, {"type": "Feature", "geometry": {"type": "Polygon", "coordinates": [[[-80.8438, 46.8292], [-80.8438, 46.8333], [-80.85, 46.8333], [-80.85, 46.8292], [-80.8438, 46.8292]]]}, "properties": {"company_id": "nexmetals-mining", "jurisdiction": "Ontario", "claim_id": "169633", "claim_name": null, "holder": "(100) NEXMETALS MINING CORP.", "status": "Active", "recorded_date": "2018-04-10", "anniversary_or_expiry": "2030-12-23", "area_ha": null, "tenure_type": "Boundary Cell Mining Claim", "source": "Ontario MLAS operational claims (OGSEarth / LIO MapServer). Unofficial viewing data, not legal title.", "as_of": "2026-09-20", "role": "focus", "color": "#e8b040"}}, {"type": "Feature", "geometry": {"type": "Polygon", "coordinates": [[[-80.8688, 46.7875], [-80.8688, 46.7917], [-80.875, 46.7917], [-80.875, 46.7875], [-80.8688, 46.7875]]]}, "properties": {"company_id": "nexmetals-mining", "jurisdiction": "Ontario", "claim_id": "171109", "claim_name": null, "holder": "(100) NEXMETALS MINING CORP.", "status": "Active", "recorded_date": "2018-04-10", "anniversary_or_expiry": "2030-08-19", "area_ha": null, "tenure_type": "Single Cell Mining Claim", "source": "Ontario MLAS operational claims (OGSEarth / LIO MapServer). Unofficial viewing data, not legal title.", "as_of": "2026-09-20", "role": "focus", "color": "#e8b040"}}, {"type": "Feature", "geometry": {"type": "Polygon", "coordinates": [[[-80.8313, 46.8208], [-80.8313, 46.825], [-80.8375, 46.825], [-80.8375, 46.8208], [-80.8313, 46.8208]]]}, "properties": {"company_id": "nexmetals-mining", "jurisdiction": "Ontario", "claim_id": "171809", "claim_name": null, "holder": "(100) NEXMETALS MINING CORP.", "status": "Active", "recorded_date": "2018-04-10", "anniversary_or_expiry": "2030-01-30", "area_ha": null, "tenure_type": "Single Cell Mining Claim", "source": "Ontario MLAS operational claims (OGSEarth / LIO MapServer). Unofficial viewing data, not legal title.", "as_of": "2026-09-20", "role": "focus", "color": "#e8b040"}}, {"type": "Feature", "geometry": {"type": "Polygon", "coordinates": [[[-80.8438, 46.7958], [-80.8438, 46.8], [-80.85, 46.8], [-80.85, 46.7958], [-80.8438, 46.7958]]]}, "properties": {"company_id": "nexmetals-mining", "jurisdiction": "Ontario", "claim_id": "175245", "claim_name": null, "holder": "(100) NEXMETALS MINING CORP.", "status": "Active", "recorded_date": "2018-04-10", "anniversary_or_expiry": "2030-03-14", "area_ha": null, "tenure_type": "Boundary Cell Mining Claim", "source": "Ontario MLAS operational claims (OGSEarth / LIO MapServer). Unofficial viewing data, not legal title.", "as_of": "2026-09-20", "role": "focus", "color": "#e8b040"}}, {"type": "Feature", "geometry": {"type": "Polygon", "coordinates": [[[-80.8375, 46.8208], [-80.8375, 46.825], [-80.8438, 46.825], [-80.8438, 46.8208], [-80.8375, 46.8208]]]}, "properties": {"company_id": "nexmetals-mining", "jurisdiction": "Ontario", "claim_id": "173981", "claim_name": null, "holder": "(100) NEXMETALS MINING CORP.", "status": "Active", "recorded_date": "2018-04-10", "anniversary_or_expiry": "2030-12-12", "area_ha": null, "tenure_type": "Single Cell Mining Claim", "source": "Ontario MLAS operational claims (OGSEarth / LIO MapServer). Unofficial viewing data, not legal title.", "as_of": "2026-09-20", "role": "focus", "color": "#e8b040"}}, {"type": "Feature", "geometry": {"type": "Polygon", "coordinates": [[[-80.8188, 46.8], [-80.8188, 46.8042], [-80.825, 46.8042], [-80.825, 46.8], [-80.8188, 46.8]]]}, "properties": {"company_id": "nexmetals-mining", "jurisdiction": "Ontario", "claim_id": "174016", "claim_name": null, "holder": "(100) NEXMETALS MINING CORP.", "status": "Active", "recorded_date": "2018-04-10", "anniversary_or_expiry": "2030-05-27", "area_ha": null, "tenure_type": "Single Cell Mining Claim", "source": "Ontario MLAS operational claims (OGSEarth / LIO MapServer). Unofficial viewing data, not legal title.", "as_of": "2026-09-20", "role": "focus", "color": "#e8b040"}}, {"type": "Feature", "geometry": {"type": "Polygon", "coordinates": [[[-80.8188, 46.7958], [-80.8188, 46.8], [-80.825, 46.8], [-80.825, 46.7958], [-80.8188, 46.7958]]]}, "properties": {"company_id": "nexmetals-mining", "jurisdiction": "Ontario", "claim_id": "174017", "claim_name": null, "holder": "(100) NEXMETALS MINING CORP.", "status": "Active", "recorded_date": "2018-04-10", "anniversary_or_expiry": "2030-01-25", "area_ha": null, "tenure_type": "Boundary Cell Mining Claim", "source": "Ontario MLAS operational claims (OGSEarth / LIO MapServer). Unofficial viewing data, not legal title.", "as_of": "2026-09-20", "role": "focus", "color": "#e8b040"}}, {"type": "Feature", "geometry": {"type": "Polygon", "coordinates": [[[-80.8313, 46.8125], [-80.8313, 46.8167], [-80.8375, 46.8167], [-80.8375, 46.8125], [-80.8313, 46.8125]]]}, "properties": {"company_id": "nexmetals-mining", "jurisdiction": "Ontario", "claim_id": "177336", "claim_name": null, "holder": "(100) NEXMETALS MINING CORP.", "status": "Active", "recorded_date": "2018-04-10", "anniversary_or_expiry": "2030-01-26", "area_ha": null, "tenure_type": "Single Cell Mining Claim", "source": "Ontario MLAS operational claims (OGSEarth / LIO MapServer). Unofficial viewing data, not legal title.", "as_of": "2026-09-20", "role": "focus", "color": "#e8b040"}}, {"type": "Feature", "geometry": {"type": "Polygon", "coordinates": [[[-80.8563, 46.7917], [-80.8563, 46.7958], [-80.8625, 46.7958], [-80.8625, 46.7917], [-80.8563, 46.7917]]]}, "properties": {"company_id": "nexmetals-mining", "jurisdiction": "Ontario", "claim_id": "179307", "claim_name": null, "holder": "(100) NEXMETALS MINING CORP.", "status": "Active", "recorded_date": "2018-04-10", "anniversary_or_expiry": "2030-11-25", "area_ha": null, "tenure_type": "Single Cell Mining Claim", "source": "Ontario MLAS operational claims (OGSEarth / LIO MapServer). Unofficial viewing data, not legal title.", "as_of": "2026-09-20", "role": "focus", "color": "#e8b040"}}, {"type": "Feature", "geometry": {"type": "Polygon", "coordinates": [[[-80.875, 46.7958], [-80.875, 46.8], [-80.8813, 46.8], [-80.8813, 46.7958], [-80.875, 46.7958]]]}, "properties": {"company_id": "nexmetals-mining", "jurisdiction": "Ontario", "claim_id": "179969", "claim_name": null, "holder": "(100) NEXMETALS MINING CORP.", "status": "Active", "recorded_date": "2018-04-10", "anniversary_or_expiry": "2030-05-08", "area_ha": null, "tenure_type": "Single Cell Mining Claim", "source": "Ontario MLAS operational claims (OGSEarth / LIO MapServer). Unofficial viewing data, not legal title.", "as_of": "2026-09-20", "role": "focus", "color": "#e8b040"}}, {"type": "Feature", "geometry": {"type": "Polygon", "coordinates": [[[-80.85, 46.8], [-80.85, 46.8042], [-80.8563, 46.8042], [-80.8563, 46.8], [-80.85, 46.8]]]}, "properties": {"company_id": "nexmetals-mining", "jurisdiction": "Ontario", "claim_id": "183892", "claim_name": null, "holder": "(100) NEXMETALS MINING CORP.", "status": "Active", "recorded_date": "2018-04-10", "anniversary_or_expiry": "2030-07-21", "area_ha": null, "tenure_type": "Boundary Cell Mining Claim", "source": "Ontario MLAS operational claims (OGSEarth / LIO MapServer). Unofficial viewing data, not legal title.", "as_of": "2026-09-20", "role": "focus", "color": "#e8b040"}}, {"type": "Feature", "geometry": {"type": "Polygon", "coordinates": [[[-80.8625, 46.8], [-80.8625, 46.8042], [-80.8688, 46.8042], [-80.8688, 46.8], [-80.8625, 46.8]]]}, "properties": {"company_id": "nexmetals-mining", "jurisdiction": "Ontario", "claim_id": "184856", "claim_name": null, "holder": "(100) NEXMETALS MINING CORP.", "status": "Active", "recorded_date": "2018-04-10", "anniversary_or_expiry": "2030-11-25", "area_ha": null, "tenure_type": "Single Cell Mining Claim", "source": "Ontario MLAS operational claims (OGSEarth / LIO MapServer). Unofficial viewing data, not legal title.", "as_of": "2026-09-20", "role": "focus", "color": "#e8b040"}}, {"type": "Feature", "geometry": {"type": "Polygon", "coordinates": [[[-80.85, 46.8], [-80.85, 46.8042], [-80.8563, 46.8042], [-80.8563, 46.8], [-80.85, 46.8]]]}, "properties": {"company_id": "nexmetals-mining", "jurisdiction": "Ontario", "claim_id": "186168", "claim_name": null, "holder": "(100) NEXMETALS MINING CORP.", "status": "Active", "recorded_date": "2018-04-10", "anniversary_or_expiry": "2030-03-04", "area_ha": null, "tenure_type": "Boundary Cell Mining Claim", "source": "Ontario MLAS operational claims (OGSEarth / LIO MapServer). Unofficial viewing data, not legal title.", "as_of": "2026-09-20", "role": "focus", "color": "#e8b040"}}, {"type": "Feature", "geometry": {"type": "Polygon", "coordinates": [[[-80.85, 46.7875], [-80.85, 46.7917], [-80.8563, 46.7917], [-80.8563, 46.7875], [-80.85, 46.7875]]]}, "properties": {"company_id": "nexmetals-mining", "jurisdiction": "Ontario", "claim_id": "186081", "claim_name": null, "holder": "(100) NEXMETALS MINING CORP.", "status": "Active", "recorded_date": "2018-04-10", "anniversary_or_expiry": "2030-04-24", "area_ha": null, "tenure_type": "Single Cell Mining Claim", "source": "Ontario MLAS operational claims (OGSEarth / LIO MapServer). Unofficial viewing data, not legal title.", "as_of": "2026-09-20", "role": "focus", "color": "#e8b040"}}, {"type": "Feature", "geometry": {"type": "Polygon", "coordinates": [[[-80.8188, 46.7875], [-80.8188, 46.7917], [-80.825, 46.7917], [-80.825, 46.7875], [-80.8188, 46.7875]]]}, "properties": {"company_id": "nexmetals-mining", "jurisdiction": "Ontario", "claim_id": "189113", "claim_name": null, "holder": "(100) NEXMETALS MINING CORP.", "status": "Active", "recorded_date": "2018-04-10", "anniversary_or_expiry": "2030-03-13", "area_ha": null, "tenure_type": "Single Cell Mining Claim", "source": "Ontario MLAS operational claims (OGSEarth / LIO MapServer). Unofficial viewing data, not legal title.", "as_of": "2026-09-20", "role": "focus", "color": "#e8b040"}}, {"type": "Feature", "geometry": {"type": "Polygon", "coordinates": [[[-80.8313, 46.7958], [-80.8313, 46.8], [-80.8375, 46.8], [-80.8375, 46.7958], [-80.8313, 46.7958]]]}, "properties": {"company_id": "nexmetals-mining", "jurisdiction": "Ontario", "claim_id": "192129", "claim_name": null, "holder": "(100) NEXMETALS MINING CORP.", "status": "Active", "recorded_date": "2018-04-10", "anniversary_or_expiry": "2030-03-14", "area_ha": null, "tenure_type": "Boundary Cell Mining Claim", "source": "Ontario MLAS operational claims (OGSEarth / LIO MapServer). Unofficial viewing data, not legal title.", "as_of": "2026-09-20", "role": "focus", "color": "#e8b040"}}, {"type": "Feature", "geometry": {"type": "Polygon", "coordinates": [[[-80.8125, 46.8125], [-80.8125, 46.8167], [-80.8188, 46.8167], [-80.8188, 46.8125], [-80.8125, 46.8125]]]}, "properties": {"company_id": "nexmetals-mining", "jurisdiction": "Ontario", "claim_id": "191286", "claim_name": null, "holder": "(100) NEXMETALS MINING CORP.", "status": "Active", "recorded_date": "2018-04-10", "anniversary_or_expiry": "2030-01-26", "area_ha": null, "tenure_type": "Single Cell Mining Claim", "source": "Ontario MLAS operational claims (OGSEarth / LIO MapServer). Unofficial viewing data, not legal title.", "as_of": "2026-09-20", "role": "focus", "color": "#e8b040"}}, {"type": "Feature", "geometry": {"type": "Polygon", "coordinates": [[[-80.8125, 46.8042], [-80.8125, 46.8083], [-80.8188, 46.8083], [-80.8188, 46.8042], [-80.8125, 46.8042]]]}, "properties": {"company_id": "nexmetals-mining", "jurisdiction": "Ontario", "claim_id": "190736", "claim_name": null, "holder": "(100) NEXMETALS MINING CORP.", "status": "Active", "recorded_date": "2018-04-10", "anniversary_or_expiry": "2030-01-16", "area_ha": null, "tenure_type": "Single Cell Mining Claim", "source": "Ontario MLAS operational claims (OGSEarth / LIO MapServer). Unofficial viewing data, not legal title.", "as_of": "2026-09-20", "role": "focus", "color": "#e8b040"}}, {"type": "Feature", "geometry": {"type": "Polygon", "coordinates": [[[-80.825, 46.8083], [-80.825, 46.8125], [-80.8313, 46.8125], [-80.8313, 46.8083], [-80.825, 46.8083]]]}, "properties": {"company_id": "nexmetals-mining", "jurisdiction": "Ontario", "claim_id": "199650", "claim_name": null, "holder": "(100) NEXMETALS MINING CORP.", "status": "Active", "recorded_date": "2018-04-10", "anniversary_or_expiry": "2030-05-27", "area_ha": null, "tenure_type": "Single Cell Mining Claim", "source": "Ontario MLAS operational claims (OGSEarth / LIO MapServer). Unofficial viewing data, not legal title.", "as_of": "2026-09-20", "role": "focus", "color": "#e8b040"}}, {"type": "Feature", "geometry": {"type": "Polygon", "coordinates": [[[-80.8563, 46.7833], [-80.8563, 46.7875], [-80.8625, 46.7875], [-80.8625, 46.7833], [-80.8563, 46.7833]]]}, "properties": {"company_id": "nexmetals-mining", "jurisdiction": "Ontario", "claim_id": "201548", "claim_name": null, "holder": "(100) NEXMETALS MINING CORP.", "status": "Active", "recorded_date": "2018-04-10", "anniversary_or_expiry": "2030-04-24", "area_ha": null, "tenure_type": "Single Cell Mining Claim", "source": "Ontario MLAS operational claims (OGSEarth / LIO MapServer). Unofficial viewing data, not legal title.", "as_of": "2026-09-20", "role": "focus", "color": "#e8b040"}}, {"type": "Feature", "geometry": {"type": "Polygon", "coordinates": [[[-80.8813, 46.7917], [-80.8813, 46.7958], [-80.8875, 46.7958], [-80.8875, 46.7917], [-80.8813, 46.7917]]]}, "properties": {"company_id": "nexmetals-mining", "jurisdiction": "Ontario", "claim_id": "210319", "claim_name": null, "holder": "(100) NEXMETALS MINING CORP.", "status": "Active", "recorded_date": "2018-04-10", "anniversary_or_expiry": "2030-05-08", "area_ha": null, "tenure_type": "Single Cell Mining Claim", "source": "Ontario MLAS operational claims (OGSEarth / LIO MapServer). Unofficial viewing data, not legal title.", "as_of": "2026-09-20", "role": "focus", "color": "#e8b040"}}, {"type": "Feature", "geometry": {"type": "Polygon", "coordinates": [[[-80.825, 46.7958], [-80.825, 46.8], [-80.8313, 46.8], [-80.8313, 46.7958], [-80.825, 46.7958]]]}, "properties": {"company_id": "nexmetals-mining", "jurisdiction": "Ontario", "claim_id": "217441", "claim_name": null, "holder": "(100) NEXMETALS MINING CORP.", "status": "Active", "recorded_date": "2018-04-10", "anniversary_or_expiry": "2030-03-14", "area_ha": null, "tenure_type": "Boundary Cell Mining Claim", "source": "Ontario MLAS operational claims (OGSEarth / LIO MapServer). Unofficial viewing data, not legal title.", "as_of": "2026-09-20", "role": "focus", "color": "#e8b040"}}, {"type": "Feature", "geometry": {"type": "Polygon", "coordinates": [[[-80.8313, 46.7958], [-80.8313, 46.8], [-80.8375, 46.8], [-80.8375, 46.7958], [-80.8313, 46.7958]]]}, "properties": {"company_id": "nexmetals-mining", "jurisdiction": "Ontario", "claim_id": "215397", "claim_name": null, "holder": "(100) NEXMETALS MINING CORP.", "status": "Active", "recorded_date": "2018-04-10", "anniversary_or_expiry": "2030-01-25", "area_ha": null, "tenure_type": "Boundary Cell Mining Claim", "source": "Ontario MLAS operational claims (OGSEarth / LIO MapServer). Unofficial viewing data, not legal title.", "as_of": "2026-09-20", "role": "focus", "color": "#e8b040"}}, {"type": "Feature", "geometry": {"type": "Polygon", "coordinates": [[[-80.8375, 46.7875], [-80.8375, 46.7917], [-80.8438, 46.7917], [-80.8438, 46.7875], [-80.8375, 46.7875]]]}, "properties": {"company_id": "nexmetals-mining", "jurisdiction": "Ontario", "claim_id": "216648", "claim_name": null, "holder": "(100) NEXMETALS MINING CORP.", "status": "Active", "recorded_date": "2018-04-10", "anniversary_or_expiry": "2030-08-22", "area_ha": null, "tenure_type": "Single Cell Mining Claim", "source": "Ontario MLAS operational claims (OGSEarth / LIO MapServer). Unofficial viewing data, not legal title.", "as_of": "2026-09-20", "role": "focus", "color": "#e8b040"}}, {"type": "Feature", "geometry": {"type": "Polygon", "coordinates": [[[-80.8125, 46.7958], [-80.8125, 46.8], [-80.8188, 46.8], [-80.8188, 46.7958], [-80.8125, 46.7958]]]}, "properties": {"company_id": "nexmetals-mining", "jurisdiction": "Ontario", "claim_id": "219915", "claim_name": null, "holder": "(100) NEXMETALS MINING CORP.", "status": "Active", "recorded_date": "2018-04-10", "anniversary_or_expiry": "2030-08-18", "area_ha": null, "tenure_type": "Boundary Cell Mining Claim", "source": "Ontario MLAS operational claims (OGSEarth / LIO MapServer). Unofficial viewing data, not legal title.", "as_of": "2026-09-20", "role": "focus", "color": "#e8b040"}}, {"type": "Feature", "geometry": {"type": "Polygon", "coordinates": [[[-80.8188, 46.7958], [-80.8188, 46.8], [-80.825, 46.8], [-80.825, 46.7958], [-80.8188, 46.7958]]]}, "properties": {"company_id": "nexmetals-mining", "jurisdiction": "Ontario", "claim_id": "220561", "claim_name": null, "holder": "(100) NEXMETALS MINING CORP.", "status": "Active", "recorded_date": "2018-04-10", "anniversary_or_expiry": "2030-01-25", "area_ha": null, "tenure_type": "Boundary Cell Mining Claim", "source": "Ontario MLAS operational claims (OGSEarth / LIO MapServer). Unofficial viewing data, not legal title.", "as_of": "2026-09-20", "role": "focus", "color": "#e8b040"}}, {"type": "Feature", "geometry": {"type": "Polygon", "coordinates": [[[-80.8813, 46.7833], [-80.8813, 46.7875], [-80.8875, 46.7875], [-80.8875, 46.7833], [-80.8813, 46.7833]]]}, "properties": {"company_id": "nexmetals-mining", "jurisdiction": "Ontario", "claim_id": "221144", "claim_name": null, "holder": "(100) NEXMETALS MINING CORP.", "status": "Active", "recorded_date": "2018-04-10", "anniversary_or_expiry": "2030-05-08", "area_ha": null, "tenure_type": "Single Cell Mining Claim", "source": "Ontario MLAS operational claims (OGSEarth / LIO MapServer). Unofficial viewing data, not legal title.", "as_of": "2026-09-20", "role": "focus", "color": "#e8b040"}}, {"type": "Feature", "geometry": {"type": "Polygon", "coordinates": [[[-80.8438, 46.8], [-80.8438, 46.8042], [-80.85, 46.8042], [-80.85, 46.8], [-80.8438, 46.8]]]}, "properties": {"company_id": "nexmetals-mining", "jurisdiction": "Ontario", "claim_id": "221171", "claim_name": null, "holder": "(100) NEXMETALS MINING CORP.", "status": "Active", "recorded_date": "2018-04-10", "anniversary_or_expiry": "2030-03-14", "area_ha": null, "tenure_type": "Boundary Cell Mining Claim", "source": "Ontario MLAS operational claims (OGSEarth / LIO MapServer). Unofficial viewing data, not legal title.", "as_of": "2026-09-20", "role": "focus", "color": "#e8b040"}}, {"type": "Feature", "geometry": {"type": "Polygon", "coordinates": [[[-80.825, 46.8208], [-80.825, 46.825], [-80.8313, 46.825], [-80.8313, 46.8208], [-80.825, 46.8208]]]}, "properties": {"company_id": "nexmetals-mining", "jurisdiction": "Ontario", "claim_id": "221861", "claim_name": null, "holder": "(100) NEXMETALS MINING CORP.", "status": "Active", "recorded_date": "2018-04-10", "anniversary_or_expiry": "2030-01-26", "area_ha": null, "tenure_type": "Single Cell Mining Claim", "source": "Ontario MLAS operational claims (OGSEarth / LIO MapServer). Unofficial viewing data, not legal title.", "as_of": "2026-09-20", "role": "focus", "color": "#e8b040"}}, {"type": "Feature", "geometry": {"type": "Polygon", "coordinates": [[[-80.8438, 46.8083], [-80.8438, 46.8125], [-80.85, 46.8125], [-80.85, 46.8083], [-80.8438, 46.8083]]]}, "properties": {"company_id": "nexmetals-mining", "jurisdiction": "Ontario", "claim_id": "226618", "claim_name": null, "holder": "(100) NEXMETALS MINING CORP.", "status": "Active", "recorded_date": "2018-04-10", "anniversary_or_expiry": "2030-03-14", "area_ha": null, "tenure_type": "Single Cell Mining Claim", "source": "Ontario MLAS operational claims (OGSEarth / LIO MapServer). Unofficial viewing data, not legal title.", "as_of": "2026-09-20", "role": "focus", "color": "#e8b040"}}, {"type": "Feature", "geometry": {"type": "Polygon", "coordinates": [[[-80.8625, 46.7958], [-80.8625, 46.8], [-80.8688, 46.8], [-80.8688, 46.7958], [-80.8625, 46.7958]]]}, "properties": {"company_id": "nexmetals-mining", "jurisdiction": "Ontario", "claim_id": "224645", "claim_name": null, "holder": "(100) NEXMETALS MINING CORP.", "status": "Active", "recorded_date": "2018-04-10", "anniversary_or_expiry": "2030-11-25", "area_ha": null, "tenure_type": "Single Cell Mining Claim", "source": "Ontario MLAS operational claims (OGSEarth / LIO MapServer). Unofficial viewing data, not legal title.", "as_of": "2026-09-20", "role": "focus", "color": "#e8b040"}}, {"type": "Feature", "geometry": {"type": "Polygon", "coordinates": [[[-80.8063, 46.7958], [-80.8063, 46.8], [-80.8125, 46.8], [-80.8125, 46.7958], [-80.8063, 46.7958]]]}, "properties": {"company_id": "nexmetals-mining", "jurisdiction": "Ontario", "claim_id": "227869", "claim_name": null, "holder": "(100) NEXMETALS MINING CORP.", "status": "Active", "recorded_date": "2018-04-10", "anniversary_or_expiry": "2030-08-18", "area_ha": null, "tenure_type": "Single Cell Mining Claim", "source": "Ontario MLAS operational claims (OGSEarth / LIO MapServer). Unofficial viewing data, not legal title.", "as_of": "2026-09-20", "role": "focus", "color": "#e8b040"}}, {"type": "Feature", "geometry": {"type": "Polygon", "coordinates": [[[-80.8063, 46.8125], [-80.8063, 46.8167], [-80.8125, 46.8167], [-80.8125, 46.8125], [-80.8063, 46.8125]]]}, "properties": {"company_id": "nexmetals-mining", "jurisdiction": "Ontario", "claim_id": "228550", "claim_name": null, "holder": "(100) NEXMETALS MINING CORP.", "status": "Active", "recorded_date": "2018-04-10", "anniversary_or_expiry": "2030-01-16", "area_ha": null, "tenure_type": "Single Cell Mining Claim", "source": "Ontario MLAS operational claims (OGSEarth / LIO MapServer). Unofficial viewing data, not legal title.", "as_of": "2026-09-20", "role": "focus", "color": "#e8b040"}}, {"type": "Feature", "geometry": {"type": "Polygon", "coordinates": [[[-80.8313, 46.825], [-80.8313, 46.8292], [-80.8375, 46.8292], [-80.8375, 46.825], [-80.8313, 46.825]]]}, "properties": {"company_id": "nexmetals-mining", "jurisdiction": "Ontario", "claim_id": "228554", "claim_name": null, "holder": "(100) NEXMETALS MINING CORP.", "status": "Active", "recorded_date": "2018-04-10", "anniversary_or_expiry": "2030-01-30", "area_ha": null, "tenure_type": "Boundary Cell Mining Claim", "source": "Ontario MLAS operational claims (OGSEarth / LIO MapServer). Unofficial viewing data, not legal title.", "as_of": "2026-09-20", "role": "focus", "color": "#e8b040"}}, {"type": "Feature", "geometry": {"type": "Polygon", "coordinates": [[[-80.8063, 46.8], [-80.8063, 46.8042], [-80.8125, 46.8042], [-80.8125, 46.8], [-80.8063, 46.8]]]}, "properties": {"company_id": "nexmetals-mining", "jurisdiction": "Ontario", "claim_id": "231300", "claim_name": null, "holder": "(100) NEXMETALS MINING CORP.", "status": "Active", "recorded_date": "2018-04-10", "anniversary_or_expiry": "2030-01-16", "area_ha": null, "tenure_type": "Boundary Cell Mining Claim", "source": "Ontario MLAS operational claims (OGSEarth / LIO MapServer). Unofficial viewing data, not legal title.", "as_of": "2026-09-20", "role": "focus", "color": "#e8b040"}}, {"type": "Feature", "geometry": {"type": "Polygon", "coordinates": [[[-80.8438, 46.8208], [-80.8438, 46.825], [-80.85, 46.825], [-80.85, 46.8208], [-80.8438, 46.8208]]]}, "properties": {"company_id": "nexmetals-mining", "jurisdiction": "Ontario", "claim_id": "235773", "claim_name": null, "holder": "(100) NEXMETALS MINING CORP.", "status": "Active", "recorded_date": "2018-04-10", "anniversary_or_expiry": "2030-12-12", "area_ha": null, "tenure_type": "Single Cell Mining Claim", "source": "Ontario MLAS operational claims (OGSEarth / LIO MapServer). Unofficial viewing data, not legal title.", "as_of": "2026-09-20", "role": "focus", "color": "#e8b040"}}, {"type": "Feature", "geometry": {"type": "Polygon", "coordinates": [[[-80.8438, 46.7875], [-80.8438, 46.7917], [-80.85, 46.7917], [-80.85, 46.7875], [-80.8438, 46.7875]]]}, "properties": {"company_id": "nexmetals-mining", "jurisdiction": "Ontario", "claim_id": "235266", "claim_name": null, "holder": "(100) NEXMETALS MINING CORP.", "status": "Active", "recorded_date": "2018-04-10", "anniversary_or_expiry": "2030-08-22", "area_ha": null, "tenure_type": "Single Cell Mining Claim", "source": "Ontario MLAS operational claims (OGSEarth / LIO MapServer). Unofficial viewing data, not legal title.", "as_of": "2026-09-20", "role": "focus", "color": "#e8b040"}}, {"type": "Feature", "geometry": {"type": "Polygon", "coordinates": [[[-80.8375, 46.8083], [-80.8375, 46.8125], [-80.8438, 46.8125], [-80.8438, 46.8083], [-80.8375, 46.8083]]]}, "properties": {"company_id": "nexmetals-mining", "jurisdiction": "Ontario", "claim_id": "238755", "claim_name": null, "holder": "(100) NEXMETALS MINING CORP.", "status": "Active", "recorded_date": "2018-04-10", "anniversary_or_expiry": "2030-03-14", "area_ha": null, "tenure_type": "Single Cell Mining Claim", "source": "Ontario MLAS operational claims (OGSEarth / LIO MapServer). Unofficial viewing data, not legal title.", "as_of": "2026-09-20", "role": "focus", "color": "#e8b040"}}, {"type": "Feature", "geometry": {"type": "Polygon", "coordinates": [[[-80.8125, 46.8208], [-80.8125, 46.825], [-80.8188, 46.825], [-80.8188, 46.8208], [-80.8125, 46.8208]]]}, "properties": {"company_id": "nexmetals-mining", "jurisdiction": "Ontario", "claim_id": "240290", "claim_name": null, "holder": "(100) NEXMETALS MINING CORP.", "status": "Active", "recorded_date": "2018-04-10", "anniversary_or_expiry": "2030-01-30", "area_ha": null, "tenure_type": "Single Cell Mining Claim", "source": "Ontario MLAS operational claims (OGSEarth / LIO MapServer). Unofficial viewing data, not legal title.", "as_of": "2026-09-20", "role": "focus", "color": "#e8b040"}}, {"type": "Feature", "geometry": {"type": "Polygon", "coordinates": [[[-80.8563, 46.7875], [-80.8563, 46.7917], [-80.8625, 46.7917], [-80.8625, 46.7875], [-80.8563, 46.7875]]]}, "properties": {"company_id": "nexmetals-mining", "jurisdiction": "Ontario", "claim_id": "246042", "claim_name": null, "holder": "(100) NEXMETALS MINING CORP.", "status": "Active", "recorded_date": "2018-04-10", "anniversary_or_expiry": "2030-05-08", "area_ha": null, "tenure_type": "Single Cell Mining Claim", "source": "Ontario MLAS operational claims (OGSEarth / LIO MapServer). Unofficial viewing data, not legal title.", "as_of": "2026-09-20", "role": "focus", "color": "#e8b040"}}, {"type": "Feature", "geometry": {"type": "Polygon", "coordinates": [[[-80.8688, 46.7958], [-80.8688, 46.8], [-80.875, 46.8], [-80.875, 46.7958], [-80.8688, 46.7958]]]}, "properties": {"company_id": "nexmetals-mining", "jurisdiction": "Ontario", "claim_id": "253548", "claim_name": null, "holder": "(100) NEXMETALS MINING CORP.", "status": "Active", "recorded_date": "2018-04-10", "anniversary_or_expiry": "2030-05-08", "area_ha": null, "tenure_type": "Single Cell Mining Claim", "source": "Ontario MLAS operational claims (OGSEarth / LIO MapServer). Unofficial viewing data, not legal title.", "as_of": "2026-09-20", "role": "focus", "color": "#e8b040"}}, {"type": "Feature", "geometry": {"type": "Polygon", "coordinates": [[[-80.8625, 46.8042], [-80.8625, 46.8083], [-80.8688, 46.8083], [-80.8688, 46.8042], [-80.8625, 46.8042]]]}, "properties": {"company_id": "nexmetals-mining", "jurisdiction": "Ontario", "claim_id": "252166", "claim_name": null, "holder": "(100) NEXMETALS MINING CORP.", "status": "Active", "recorded_date": "2018-04-10", "anniversary_or_expiry": "2030-11-25", "area_ha": null, "tenure_type": "Single Cell Mining Claim", "source": "Ontario MLAS operational claims (OGSEarth / LIO MapServer). Unofficial viewing data, not legal title.", "as_of": "2026-09-20", "role": "focus", "color": "#e8b040"}}, {"type": "Feature", "geometry": {"type": "Polygon", "coordinates": [[[-80.8688, 46.8], [-80.8688, 46.8042], [-80.875, 46.8042], [-80.875, 46.8], [-80.8688, 46.8]]]}, "properties": {"company_id": "nexmetals-mining", "jurisdiction": "Ontario", "claim_id": "252167", "claim_name": null, "holder": "(100) NEXMETALS MINING CORP.", "status": "Active", "recorded_date": "2018-04-10", "anniversary_or_expiry": "2030-11-25", "area_ha": null, "tenure_type": "Single Cell Mining Claim", "source": "Ontario MLAS operational claims (OGSEarth / LIO MapServer). Unofficial viewing data, not legal title.", "as_of": "2026-09-20", "role": "focus", "color": "#e8b040"}}, {"type": "Feature", "geometry": {"type": "Polygon", "coordinates": [[[-80.8563, 46.8], [-80.8563, 46.8042], [-80.8625, 46.8042], [-80.8625, 46.8], [-80.8563, 46.8]]]}, "properties": {"company_id": "nexmetals-mining", "jurisdiction": "Ontario", "claim_id": "254876", "claim_name": null, "holder": "(100) NEXMETALS MINING CORP.", "status": "Active", "recorded_date": "2018-04-10", "anniversary_or_expiry": "2030-03-04", "area_ha": null, "tenure_type": "Boundary Cell Mining Claim", "source": "Ontario MLAS operational claims (OGSEarth / LIO MapServer). Unofficial viewing data, not legal title.", "as_of": "2026-09-20", "role": "focus", "color": "#e8b040"}}, {"type": "Feature", "geometry": {"type": "Polygon", "coordinates": [[[-80.85, 46.7792], [-80.85, 46.7833], [-80.8563, 46.7833], [-80.8563, 46.7792], [-80.85, 46.7792]]]}, "properties": {"company_id": "nexmetals-mining", "jurisdiction": "Ontario", "claim_id": "256226", "claim_name": null, "holder": "(100) NEXMETALS MINING CORP.", "status": "Active", "recorded_date": "2018-04-10", "anniversary_or_expiry": "2030-08-22", "area_ha": null, "tenure_type": "Single Cell Mining Claim", "source": "Ontario MLAS operational claims (OGSEarth / LIO MapServer). Unofficial viewing data, not legal title.", "as_of": "2026-09-20", "role": "focus", "color": "#e8b040"}}, {"type": "Feature", "geometry": {"type": "Polygon", "coordinates": [[[-80.8438, 46.8], [-80.8438, 46.8042], [-80.85, 46.8042], [-80.85, 46.8], [-80.8438, 46.8]]]}, "properties": {"company_id": "nexmetals-mining", "jurisdiction": "Ontario", "claim_id": "254671", "claim_name": null, "holder": "(100) NEXMETALS MINING CORP.", "status": "Active", "recorded_date": "2018-04-10", "anniversary_or_expiry": "2030-07-21", "area_ha": null, "tenure_type": "Boundary Cell Mining Claim", "source": "Ontario MLAS operational claims (OGSEarth / LIO MapServer). Unofficial viewing data, not legal title.", "as_of": "2026-09-20", "role": "focus", "color": "#e8b040"}}, {"type": "Feature", "geometry": {"type": "Polygon", "coordinates": [[[-80.8375, 46.7958], [-80.8375, 46.8], [-80.8438, 46.8], [-80.8438, 46.7958], [-80.8375, 46.7958]]]}, "properties": {"company_id": "nexmetals-mining", "jurisdiction": "Ontario", "claim_id": "254672", "claim_name": null, "holder": "(100) NEXMETALS MINING CORP.", "status": "Active", "recorded_date": "2018-04-10", "anniversary_or_expiry": "2030-07-21", "area_ha": null, "tenure_type": "Boundary Cell Mining Claim", "source": "Ontario MLAS operational claims (OGSEarth / LIO MapServer). Unofficial viewing data, not legal title.", "as_of": "2026-09-20", "role": "focus", "color": "#e8b040"}}, {"type": "Feature", "geometry": {"type": "Polygon", "coordinates": [[[-80.8188, 46.7917], [-80.8188, 46.7958], [-80.825, 46.7958], [-80.825, 46.7917], [-80.8188, 46.7917]]]}, "properties": {"company_id": "nexmetals-mining", "jurisdiction": "Ontario", "claim_id": "273718", "claim_name": null, "holder": "(100) NEXMETALS MINING CORP.", "status": "Active", "recorded_date": "2018-04-10", "anniversary_or_expiry": "2030-01-25", "area_ha": null, "tenure_type": "Single Cell Mining Claim", "source": "Ontario MLAS operational claims (OGSEarth / LIO MapServer). Unofficial viewing data, not legal title.", "as_of": "2026-09-20", "role": "focus", "color": "#e8b040"}}, {"type": "Feature", "geometry": {"type": "Polygon", "coordinates": [[[-80.8563, 46.8], [-80.8563, 46.8042], [-80.8625, 46.8042], [-80.8625, 46.8], [-80.8563, 46.8]]]}, "properties": {"company_id": "nexmetals-mining", "jurisdiction": "Ontario", "claim_id": "279189", "claim_name": null, "holder": "(100) NEXMETALS MINING CORP.", "status": "Active", "recorded_date": "2018-04-10", "anniversary_or_expiry": "2030-11-25", "area_ha": null, "tenure_type": "Boundary Cell Mining Claim", "source": "Ontario MLAS operational claims (OGSEarth / LIO MapServer). Unofficial viewing data, not legal title.", "as_of": "2026-09-20", "role": "focus", "color": "#e8b040"}}, {"type": "Feature", "geometry": {"type": "Polygon", "coordinates": [[[-80.8625, 46.7917], [-80.8625, 46.7958], [-80.8688, 46.7958], [-80.8688, 46.7917], [-80.8625, 46.7917]]]}, "properties": {"company_id": "nexmetals-mining", "jurisdiction": "Ontario", "claim_id": "281289", "claim_name": null, "holder": "(100) NEXMETALS MINING CORP.", "status": "Active", "recorded_date": "2018-04-10", "anniversary_or_expiry": "2030-11-25", "area_ha": null, "tenure_type": "Single Cell Mining Claim", "source": "Ontario MLAS operational claims (OGSEarth / LIO MapServer). Unofficial viewing data, not legal title.", "as_of": "2026-09-20", "role": "focus", "color": "#e8b040"}}, {"type": "Feature", "geometry": {"type": "Polygon", "coordinates": [[[-80.85, 46.8083], [-80.85, 46.8125], [-80.8563, 46.8125], [-80.8563, 46.8083], [-80.85, 46.8083]]]}, "properties": {"company_id": "nexmetals-mining", "jurisdiction": "Ontario", "claim_id": "281291", "claim_name": null, "holder": "(100) NEXMETALS MINING CORP.", "status": "Active", "recorded_date": "2018-04-10", "anniversary_or_expiry": "2030-03-04", "area_ha": null, "tenure_type": "Single Cell Mining Claim", "source": "Ontario MLAS operational claims (OGSEarth / LIO MapServer). Unofficial viewing data, not legal title.", "as_of": "2026-09-20", "role": "focus", "color": "#e8b040"}}, {"type": "Feature", "geometry": {"type": "Polygon", "coordinates": [[[-80.8375, 46.8167], [-80.8375, 46.8208], [-80.8438, 46.8208], [-80.8438, 46.8167], [-80.8375, 46.8167]]]}, "properties": {"company_id": "nexmetals-mining", "jurisdiction": "Ontario", "claim_id": "282042", "claim_name": null, "holder": "(100) NEXMETALS MINING CORP.", "status": "Active", "recorded_date": "2018-04-10", "anniversary_or_expiry": "2030-01-26", "area_ha": null, "tenure_type": "Single Cell Mining Claim", "source": "Ontario MLAS operational claims (OGSEarth / LIO MapServer). Unofficial viewing data, not legal title.", "as_of": "2026-09-20", "role": "focus", "color": "#e8b040"}}, {"type": "Feature", "geometry": {"type": "Polygon", "coordinates": [[[-80.8375, 46.7958], [-80.8375, 46.8], [-80.8438, 46.8], [-80.8438, 46.7958], [-80.8375, 46.7958]]]}, "properties": {"company_id": "nexmetals-mining", "jurisdiction": "Ontario", "claim_id": "288425", "claim_name": null, "holder": "(100) NEXMETALS MINING CORP.", "status": "Active", "recorded_date": "2018-04-10", "anniversary_or_expiry": "2030-03-14", "area_ha": null, "tenure_type": "Boundary Cell Mining Claim", "source": "Ontario MLAS operational claims (OGSEarth / LIO MapServer). Unofficial viewing data, not legal title.", "as_of": "2026-09-20", "role": "focus", "color": "#e8b040"}}, {"type": "Feature", "geometry": {"type": "Polygon", "coordinates": [[[-80.825, 46.8], [-80.825, 46.8042], [-80.8313, 46.8042], [-80.8313, 46.8], [-80.825, 46.8]]]}, "properties": {"company_id": "nexmetals-mining", "jurisdiction": "Ontario", "claim_id": "288517", "claim_name": null, "holder": "(100) NEXMETALS MINING CORP.", "status": "Active", "recorded_date": "2018-04-10", "anniversary_or_expiry": "2030-05-27", "area_ha": null, "tenure_type": "Single Cell Mining Claim", "source": "Ontario MLAS operational claims (OGSEarth / LIO MapServer). Unofficial viewing data, not legal title.", "as_of": "2026-09-20", "role": "focus", "color": "#e8b040"}}, {"type": "Feature", "geometry": {"type": "Polygon", "coordinates": [[[-80.825, 46.7917], [-80.825, 46.7958], [-80.8313, 46.7958], [-80.8313, 46.7917], [-80.825, 46.7917]]]}, "properties": {"company_id": "nexmetals-mining", "jurisdiction": "Ontario", "claim_id": "293116", "claim_name": null, "holder": "(100) NEXMETALS MINING CORP.", "status": "Active", "recorded_date": "2018-04-10", "anniversary_or_expiry": "2030-01-25", "area_ha": null, "tenure_type": "Single Cell Mining Claim", "source": "Ontario MLAS operational claims (OGSEarth / LIO MapServer). Unofficial viewing data, not legal title.", "as_of": "2026-09-20", "role": "focus", "color": "#e8b040"}}, {"type": "Feature", "geometry": {"type": "Polygon", "coordinates": [[[-80.8375, 46.8], [-80.8375, 46.8042], [-80.8438, 46.8042], [-80.8438, 46.8], [-80.8375, 46.8]]]}, "properties": {"company_id": "nexmetals-mining", "jurisdiction": "Ontario", "claim_id": "295742", "claim_name": null, "holder": "(100) NEXMETALS MINING CORP.", "status": "Active", "recorded_date": "2018-04-10", "anniversary_or_expiry": "2030-03-14", "area_ha": null, "tenure_type": "Single Cell Mining Claim", "source": "Ontario MLAS operational claims (OGSEarth / LIO MapServer). Unofficial viewing data, not legal title.", "as_of": "2026-09-20", "role": "focus", "color": "#e8b040"}}, {"type": "Feature", "geometry": {"type": "Polygon", "coordinates": [[[-80.8688, 46.7833], [-80.8688, 46.7875], [-80.875, 46.7875], [-80.875, 46.7833], [-80.8688, 46.7833]]]}, "properties": {"company_id": "nexmetals-mining", "jurisdiction": "Ontario", "claim_id": "293999", "claim_name": null, "holder": "(100) NEXMETALS MINING CORP.", "status": "Active", "recorded_date": "2018-04-10", "anniversary_or_expiry": "2030-08-19", "area_ha": null, "tenure_type": "Single Cell Mining Claim", "source": "Ontario MLAS operational claims (OGSEarth / LIO MapServer). Unofficial viewing data, not legal title.", "as_of": "2026-09-20", "role": "focus", "color": "#e8b040"}}, {"type": "Feature", "geometry": {"type": "Polygon", "coordinates": [[[-80.825, 46.8042], [-80.825, 46.8083], [-80.8313, 46.8083], [-80.8313, 46.8042], [-80.825, 46.8042]]]}, "properties": {"company_id": "nexmetals-mining", "jurisdiction": "Ontario", "claim_id": "296612", "claim_name": null, "holder": "(100) NEXMETALS MINING CORP.", "status": "Active", "recorded_date": "2018-04-10", "anniversary_or_expiry": "2030-05-27", "area_ha": null, "tenure_type": "Single Cell Mining Claim", "source": "Ontario MLAS operational claims (OGSEarth / LIO MapServer). Unofficial viewing data, not legal title.", "as_of": "2026-09-20", "role": "focus", "color": "#e8b040"}}, {"type": "Feature", "geometry": {"type": "Polygon", "coordinates": [[[-80.8125, 46.8167], [-80.8125, 46.8208], [-80.8188, 46.8208], [-80.8188, 46.8167], [-80.8125, 46.8167]]]}, "properties": {"company_id": "nexmetals-mining", "jurisdiction": "Ontario", "claim_id": "299197", "claim_name": null, "holder": "(100) NEXMETALS MINING CORP.", "status": "Active", "recorded_date": "2018-04-10", "anniversary_or_expiry": "2030-01-30", "area_ha": null, "tenure_type": "Single Cell Mining Claim", "source": "Ontario MLAS operational claims (OGSEarth / LIO MapServer). Unofficial viewing data, not legal title.", "as_of": "2026-09-20", "role": "focus", "color": "#e8b040"}}, {"type": "Feature", "geometry": {"type": "Polygon", "coordinates": [[[-80.8688, 46.8042], [-80.8688, 46.8083], [-80.875, 46.8083], [-80.875, 46.8042], [-80.8688, 46.8042]]]}, "properties": {"company_id": "nexmetals-mining", "jurisdiction": "Ontario", "claim_id": "301409", "claim_name": null, "holder": "(100) NEXMETALS MINING CORP.", "status": "Active", "recorded_date": "2018-04-10", "anniversary_or_expiry": "2030-11-25", "area_ha": null, "tenure_type": "Single Cell Mining Claim", "source": "Ontario MLAS operational claims (OGSEarth / LIO MapServer). Unofficial viewing data, not legal title.", "as_of": "2026-09-20", "role": "focus", "color": "#e8b040"}}, {"type": "Feature", "geometry": {"type": "Polygon", "coordinates": [[[-80.8125, 46.7875], [-80.8125, 46.7917], [-80.8188, 46.7917], [-80.8188, 46.7875], [-80.8125, 46.7875]]]}, "properties": {"company_id": "nexmetals-mining", "jurisdiction": "Ontario", "claim_id": "306616", "claim_name": null, "holder": "(100) NEXMETALS MINING CORP.", "status": "Active", "recorded_date": "2018-04-10", "anniversary_or_expiry": "2030-03-13", "area_ha": null, "tenure_type": "Single Cell Mining Claim", "source": "Ontario MLAS operational claims (OGSEarth / LIO MapServer). Unofficial viewing data, not legal title.", "as_of": "2026-09-20", "role": "focus", "color": "#e8b040"}}, {"type": "Feature", "geometry": {"type": "Polygon", "coordinates": [[[-80.8063, 46.8042], [-80.8063, 46.8083], [-80.8125, 46.8083], [-80.8125, 46.8042], [-80.8063, 46.8042]]]}, "properties": {"company_id": "nexmetals-mining", "jurisdiction": "Ontario", "claim_id": "310137", "claim_name": null, "holder": "(100) NEXMETALS MINING CORP.", "status": "Active", "recorded_date": "2018-04-10", "anniversary_or_expiry": "2030-01-16", "area_ha": null, "tenure_type": "Single Cell Mining Claim", "source": "Ontario MLAS operational claims (OGSEarth / LIO MapServer). Unofficial viewing data, not legal title.", "as_of": "2026-09-20", "role": "focus", "color": "#e8b040"}}, {"type": "Feature", "geometry": {"type": "Polygon", "coordinates": [[[-80.8563, 46.8042], [-80.8563, 46.8083], [-80.8625, 46.8083], [-80.8625, 46.8042], [-80.8563, 46.8042]]]}, "properties": {"company_id": "nexmetals-mining", "jurisdiction": "Ontario", "claim_id": "318187", "claim_name": null, "holder": "(100) NEXMETALS MINING CORP.", "status": "Active", "recorded_date": "2018-04-10", "anniversary_or_expiry": "2030-03-04", "area_ha": null, "tenure_type": "Single Cell Mining Claim", "source": "Ontario MLAS operational claims (OGSEarth / LIO MapServer). Unofficial viewing data, not legal title.", "as_of": "2026-09-20", "role": "focus", "color": "#e8b040"}}, {"type": "Feature", "geometry": {"type": "Polygon", "coordinates": [[[-80.8375, 46.8125], [-80.8375, 46.8167], [-80.8438, 46.8167], [-80.8438, 46.8125], [-80.8375, 46.8125]]]}, "properties": {"company_id": "nexmetals-mining", "jurisdiction": "Ontario", "claim_id": "319429", "claim_name": null, "holder": "(100) NEXMETALS MINING CORP.", "status": "Active", "recorded_date": "2018-04-10", "anniversary_or_expiry": "2030-01-26", "area_ha": null, "tenure_type": "Single Cell Mining Claim", "source": "Ontario MLAS operational claims (OGSEarth / LIO MapServer). Unofficial viewing data, not legal title.", "as_of": "2026-09-20", "role": "focus", "color": "#e8b040"}}, {"type": "Feature", "geometry": {"type": "Polygon", "coordinates": [[[-80.85, 46.8292], [-80.85, 46.8333], [-80.8563, 46.8333], [-80.8563, 46.8292], [-80.85, 46.8292]]]}, "properties": {"company_id": "nexmetals-mining", "jurisdiction": "Ontario", "claim_id": "319503", "claim_name": null, "holder": "(100) NEXMETALS MINING CORP.", "status": "Active", "recorded_date": "2018-04-10", "anniversary_or_expiry": "2030-06-12", "area_ha": null, "tenure_type": "Boundary Cell Mining Claim", "source": "Ontario MLAS operational claims (OGSEarth / LIO MapServer). Unofficial viewing data, not legal title.", "as_of": "2026-09-20", "role": "focus", "color": "#e8b040"}}, {"type": "Feature", "geometry": {"type": "Polygon", "coordinates": [[[-80.8375, 46.825], [-80.8375, 46.8292], [-80.8438, 46.8292], [-80.8438, 46.825], [-80.8375, 46.825]]]}, "properties": {"company_id": "nexmetals-mining", "jurisdiction": "Ontario", "claim_id": "322482", "claim_name": null, "holder": "(100) NEXMETALS MINING CORP.", "status": "Active", "recorded_date": "2018-04-10", "anniversary_or_expiry": "2030-12-23", "area_ha": null, "tenure_type": "Boundary Cell Mining Claim", "source": "Ontario MLAS operational claims (OGSEarth / LIO MapServer). Unofficial viewing data, not legal title.", "as_of": "2026-09-20", "role": "focus", "color": "#e8b040"}}, {"type": "Feature", "geometry": {"type": "Polygon", "coordinates": [[[-80.8125, 46.8083], [-80.8125, 46.8125], [-80.8188, 46.8125], [-80.8188, 46.8083], [-80.8125, 46.8083]]]}, "properties": {"company_id": "nexmetals-mining", "jurisdiction": "Ontario", "claim_id": "323118", "claim_name": null, "holder": "(100) NEXMETALS MINING CORP.", "status": "Active", "recorded_date": "2018-04-10", "anniversary_or_expiry": "2030-01-26", "area_ha": null, "tenure_type": "Single Cell Mining Claim", "source": "Ontario MLAS operational claims (OGSEarth / LIO MapServer). Unofficial viewing data, not legal title.", "as_of": "2026-09-20", "role": "focus", "color": "#e8b040"}}, {"type": "Feature", "geometry": {"type": "Polygon", "coordinates": [[[-80.8063, 46.7875], [-80.8063, 46.7917], [-80.8125, 46.7917], [-80.8125, 46.7875], [-80.8063, 46.7875]]]}, "properties": {"company_id": "nexmetals-mining", "jurisdiction": "Ontario", "claim_id": "323143", "claim_name": null, "holder": "(100) NEXMETALS MINING CORP.", "status": "Active", "recorded_date": "2018-04-10", "anniversary_or_expiry": "2030-08-18", "area_ha": null, "tenure_type": "Single Cell Mining Claim", "source": "Ontario MLAS operational claims (OGSEarth / LIO MapServer). Unofficial viewing data, not legal title.", "as_of": "2026-09-20", "role": "focus", "color": "#e8b040"}}, {"type": "Feature", "geometry": {"type": "Polygon", "coordinates": [[[-80.8438, 46.7958], [-80.8438, 46.8], [-80.85, 46.8], [-80.85, 46.7958], [-80.8438, 46.7958]]]}, "properties": {"company_id": "nexmetals-mining", "jurisdiction": "Ontario", "claim_id": "331096", "claim_name": null, "holder": "(100) NEXMETALS MINING CORP.", "status": "Active", "recorded_date": "2018-04-10", "anniversary_or_expiry": "2030-07-21", "area_ha": null, "tenure_type": "Boundary Cell Mining Claim", "source": "Ontario MLAS operational claims (OGSEarth / LIO MapServer). Unofficial viewing data, not legal title.", "as_of": "2026-09-20", "role": "focus", "color": "#e8b040"}}, {"type": "Feature", "geometry": {"type": "Polygon", "coordinates": [[[-80.8063, 46.8083], [-80.8063, 46.8125], [-80.8125, 46.8125], [-80.8125, 46.8083], [-80.8063, 46.8083]]]}, "properties": {"company_id": "nexmetals-mining", "jurisdiction": "Ontario", "claim_id": "334932", "claim_name": null, "holder": "(100) NEXMETALS MINING CORP.", "status": "Active", "recorded_date": "2018-04-10", "anniversary_or_expiry": "2030-01-16", "area_ha": null, "tenure_type": "Single Cell Mining Claim", "source": "Ontario MLAS operational claims (OGSEarth / LIO MapServer). Unofficial viewing data, not legal title.", "as_of": "2026-09-20", "role": "focus", "color": "#e8b040"}}, {"type": "Feature", "geometry": {"type": "Polygon", "coordinates": [[[-80.8438, 46.8375], [-80.8438, 46.8417], [-80.85, 46.8417], [-80.85, 46.8375], [-80.8438, 46.8375]]]}, "properties": {"company_id": "nexmetals-mining", "jurisdiction": "Ontario", "claim_id": "338812", "claim_name": null, "holder": "(100) NEXMETALS MINING CORP.", "status": "Active", "recorded_date": "2018-04-10", "anniversary_or_expiry": "2030-12-23", "area_ha": null, "tenure_type": "Boundary Cell Mining Claim", "source": "Ontario MLAS operational claims (OGSEarth / LIO MapServer). Unofficial viewing data, not legal title.", "as_of": "2026-09-20", "role": "focus", "color": "#e8b040"}}, {"type": "Feature", "geometry": {"type": "Polygon", "coordinates": [[[-80.8563, 46.8083], [-80.8563, 46.8125], [-80.8625, 46.8125], [-80.8625, 46.8083], [-80.8563, 46.8083]]]}, "properties": {"company_id": "nexmetals-mining", "jurisdiction": "Ontario", "claim_id": "340264", "claim_name": null, "holder": "(100) NEXMETALS MINING CORP.", "status": "Active", "recorded_date": "2018-04-10", "anniversary_or_expiry": "2030-03-04", "area_ha": null, "tenure_type": "Single Cell Mining Claim", "source": "Ontario MLAS operational claims (OGSEarth / LIO MapServer). Unofficial viewing data, not legal title.", "as_of": "2026-09-20", "role": "focus", "color": "#e8b040"}}, {"type": "Feature", "geometry": {"type": "Polygon", "coordinates": [[[-80.8188, 46.8042], [-80.8188, 46.8083], [-80.825, 46.8083], [-80.825, 46.8042], [-80.8188, 46.8042]]]}, "properties": {"company_id": "nexmetals-mining", "jurisdiction": "Ontario", "claim_id": "342296", "claim_name": null, "holder": "(100) NEXMETALS MINING CORP.", "status": "Active", "recorded_date": "2018-04-10", "anniversary_or_expiry": "2030-05-27", "area_ha": null, "tenure_type": "Single Cell Mining Claim", "source": "Ontario MLAS operational claims (OGSEarth / LIO MapServer). Unofficial viewing data, not legal title.", "as_of": "2026-09-20", "role": "focus", "color": "#e8b040"}}, {"type": "Feature", "geometry": {"type": "Polygon", "coordinates": [[[-80.8625, 46.7833], [-80.8625, 46.7875], [-80.8688, 46.7875], [-80.8688, 46.7833], [-80.8625, 46.7833]]]}, "properties": {"company_id": "nexmetals-mining", "jurisdiction": "Ontario", "claim_id": "345548", "claim_name": null, "holder": "(100) NEXMETALS MINING CORP.", "status": "Active", "recorded_date": "2018-04-10", "anniversary_or_expiry": "2030-08-19", "area_ha": null, "tenure_type": "Single Cell Mining Claim", "source": "Ontario MLAS operational claims (OGSEarth / LIO MapServer). Unofficial viewing data, not legal title.", "as_of": "2026-09-20", "role": "focus", "color": "#e8b040"}}, {"type": "Feature", "geometry": {"type": "Polygon", "coordinates": [[[-80.8063, 46.7833], [-80.8063, 46.7875], [-80.8125, 46.7875], [-80.8125, 46.7833], [-80.8063, 46.7833]]]}, "properties": {"company_id": "nexmetals-mining", "jurisdiction": "Ontario", "claim_id": "345571", "claim_name": null, "holder": "(100) NEXMETALS MINING CORP.", "status": "Active", "recorded_date": "2018-04-10", "anniversary_or_expiry": "2030-08-18", "area_ha": null, "tenure_type": "Boundary Cell Mining Claim", "source": "Ontario MLAS operational claims (OGSEarth / LIO MapServer). Unofficial viewing data, not legal title.", "as_of": "2026-09-20", "role": "focus", "color": "#e8b040"}}, {"type": "Feature", "geometry": {"type": "Polygon", "coordinates": [[[-80.8313, 46.7917], [-80.8313, 46.7958], [-80.8375, 46.7958], [-80.8375, 46.7917], [-80.8313, 46.7917]]]}, "properties": {"company_id": "nexmetals-mining", "jurisdiction": "Ontario", "claim_id": "344731", "claim_name": null, "holder": "(100) NEXMETALS MINING CORP.", "status": "Active", "recorded_date": "2018-04-10", "anniversary_or_expiry": "2030-01-25", "area_ha": null, "tenure_type": "Single Cell Mining Claim", "source": "Ontario MLAS operational claims (OGSEarth / LIO MapServer). Unofficial viewing data, not legal title.", "as_of": "2026-09-20", "role": "focus", "color": "#e8b040"}}, {"type": "Feature", "geometry": {"type": "Polygon", "coordinates": [[[-80.8375, 46.7917], [-80.8375, 46.7958], [-80.8438, 46.7958], [-80.8438, 46.7917], [-80.8375, 46.7917]]]}, "properties": {"company_id": "nexmetals-mining", "jurisdiction": "Ontario", "claim_id": "344279", "claim_name": null, "holder": "(100) NEXMETALS MINING CORP.", "status": "Active", "recorded_date": "2018-04-10", "anniversary_or_expiry": "2030-03-13", "area_ha": null, "tenure_type": "Single Cell Mining Claim", "source": "Ontario MLAS operational claims (OGSEarth / LIO MapServer). Unofficial viewing data, not legal title.", "as_of": "2026-09-20", "role": "focus", "color": "#e8b040"}}, {"type": "Feature", "geometry": {"type": "Polygon", "coordinates": [[[-80.8375, 46.8292], [-80.8375, 46.8333], [-80.8438, 46.8333], [-80.8438, 46.8292], [-80.8375, 46.8292]]]}, "properties": {"company_id": "nexmetals-mining", "jurisdiction": "Ontario", "claim_id": "344897", "claim_name": null, "holder": "(100) NEXMETALS MINING CORP.", "status": "Active", "recorded_date": "2018-04-10", "anniversary_or_expiry": "2030-12-23", "area_ha": null, "tenure_type": "Boundary Cell Mining Claim", "source": "Ontario MLAS operational claims (OGSEarth / LIO MapServer). Unofficial viewing data, not legal title.", "as_of": "2026-09-20", "role": "focus", "color": "#e8b040"}}, {"type": "Feature", "geometry": {"type": "Polygon", "coordinates": [[[-80.8125, 46.8417], [-80.8125, 46.8458], [-80.8188, 46.8458], [-80.8188, 46.8417], [-80.8125, 46.8417]]]}, "properties": {"company_id": "nexmetals-mining", "jurisdiction": "Ontario", "claim_id": "535321", "claim_name": null, "holder": "(100) NEXMETALS MINING CORP.", "status": "Active", "recorded_date": "2018-11-22", "anniversary_or_expiry": "2030-11-22", "area_ha": null, "tenure_type": "Single Cell Mining Claim", "source": "Ontario MLAS operational claims (OGSEarth / LIO MapServer). Unofficial viewing data, not legal title.", "as_of": "2026-09-20", "role": "focus", "color": "#e8b040"}}, {"type": "Feature", "geometry": {"type": "Polygon", "coordinates": [[[-80.8125, 46.825], [-80.8125, 46.8292], [-80.8188, 46.8292], [-80.8188, 46.825], [-80.8125, 46.825]]]}, "properties": {"company_id": "nexmetals-mining", "jurisdiction": "Ontario", "claim_id": "535322", "claim_name": null, "holder": "(100) NEXMETALS MINING CORP.", "status": "Active", "recorded_date": "2018-11-22", "anniversary_or_expiry": "2030-11-22", "area_ha": null, "tenure_type": "Single Cell Mining Claim", "source": "Ontario MLAS operational claims (OGSEarth / LIO MapServer). Unofficial viewing data, not legal title.", "as_of": "2026-09-20", "role": "focus", "color": "#e8b040"}}, {"type": "Feature", "geometry": {"type": "Polygon", "coordinates": [[[-80.8125, 46.8333], [-80.8125, 46.8375], [-80.8188, 46.8375], [-80.8188, 46.8333], [-80.8125, 46.8333]]]}, "properties": {"company_id": "nexmetals-mining", "jurisdiction": "Ontario", "claim_id": "535323", "claim_name": null, "holder": "(100) NEXMETALS MINING CORP.", "status": "Active", "recorded_date": "2018-11-22", "anniversary_or_expiry": "2030-11-22", "area_ha": null, "tenure_type": "Single Cell Mining Claim", "source": "Ontario MLAS operational claims (OGSEarth / LIO MapServer). Unofficial viewing data, not legal title.", "as_of": "2026-09-20", "role": "focus", "color": "#e8b040"}}, {"type": "Feature", "geometry": {"type": "Polygon", "coordinates": [[[-80.8125, 46.8292], [-80.8125, 46.8333], [-80.8188, 46.8333], [-80.8188, 46.8292], [-80.8125, 46.8292]]]}, "properties": {"company_id": "nexmetals-mining", "jurisdiction": "Ontario", "claim_id": "535324", "claim_name": null, "holder": "(100) NEXMETALS MINING CORP.", "status": "Active", "recorded_date": "2018-11-22", "anniversary_or_expiry": "2030-11-22", "area_ha": null, "tenure_type": "Single Cell Mining Claim", "source": "Ontario MLAS operational claims (OGSEarth / LIO MapServer). Unofficial viewing data, not legal title.", "as_of": "2026-09-20", "role": "focus", "color": "#e8b040"}}, {"type": "Feature", "geometry": {"type": "Polygon", "coordinates": [[[-80.8125, 46.8375], [-80.8125, 46.8417], [-80.8188, 46.8417], [-80.8188, 46.8375], [-80.8125, 46.8375]]]}, "properties": {"company_id": "nexmetals-mining", "jurisdiction": "Ontario", "claim_id": "535325", "claim_name": null, "holder": "(100) NEXMETALS MINING CORP.", "status": "Active", "recorded_date": "2018-11-22", "anniversary_or_expiry": "2030-11-22", "area_ha": null, "tenure_type": "Single Cell Mining Claim", "source": "Ontario MLAS operational claims (OGSEarth / LIO MapServer). Unofficial viewing data, not legal title.", "as_of": "2026-09-20", "role": "focus", "color": "#e8b040"}}]}