{"type": "FeatureCollection", "features": [{"type": "Feature", "geometry": {"type": "Polygon", "coordinates": [[[-93.8438, 51.0375], [-93.8438, 51.0417], [-93.85, 51.0417], [-93.85, 51.0375], [-93.8438, 51.0375]]]}, "properties": {"company_id": "nexus-gold", "jurisdiction": "Ontario", "claim_id": "100976", "claim_name": null, "holder": "(100) Nexus Metals Corp.", "status": "Active", "recorded_date": "2018-04-10", "anniversary_or_expiry": "2027-02-25", "area_ha": null, "tenure_type": "Single Cell Mining Claim", "source": "Ontario MLAS operational claims (OGSEarth / LIO MapServer). Unofficial viewing data, not legal title.", "as_of": "2026-09-20", "role": "focus", "color": "#e8b040"}}, {"type": "Feature", "geometry": {"type": "Polygon", "coordinates": [[[-93.85, 51.0333], [-93.85, 51.0375], [-93.8563, 51.0375], [-93.8563, 51.0333], [-93.85, 51.0333]]]}, "properties": {"company_id": "nexus-gold", "jurisdiction": "Ontario", "claim_id": "101022", "claim_name": null, "holder": "(100) Nexus Metals Corp.", "status": "Active", "recorded_date": "2018-04-10", "anniversary_or_expiry": "2027-02-25", "area_ha": null, "tenure_type": "Single Cell Mining Claim", "source": "Ontario MLAS operational claims (OGSEarth / LIO MapServer). Unofficial viewing data, not legal title.", "as_of": "2026-09-20", "role": "focus", "color": "#e8b040"}}, {"type": "Feature", "geometry": {"type": "Polygon", "coordinates": [[[-93.8688, 51.0333], [-93.8688, 51.0375], [-93.875, 51.0375], [-93.875, 51.0333], [-93.8688, 51.0333]]]}, "properties": {"company_id": "nexus-gold", "jurisdiction": "Ontario", "claim_id": "100458", "claim_name": null, "holder": "(100) Nexus Metals Corp.", "status": "Active", "recorded_date": "2018-04-10", "anniversary_or_expiry": "2027-02-25", "area_ha": null, "tenure_type": "Single Cell Mining Claim", "source": "Ontario MLAS operational claims (OGSEarth / LIO MapServer). Unofficial viewing data, not legal title.", "as_of": "2026-09-20", "role": "focus", "color": "#e8b040"}}, {"type": "Feature", "geometry": {"type": "Polygon", "coordinates": [[[-93.8875, 51.0292], [-93.8875, 51.0333], [-93.8938, 51.0333], [-93.8938, 51.0292], [-93.8875, 51.0292]]]}, "properties": {"company_id": "nexus-gold", "jurisdiction": "Ontario", "claim_id": "101189", "claim_name": null, "holder": "(100) Nexus Metals Corp.", "status": "Active", "recorded_date": "2018-04-10", "anniversary_or_expiry": "2027-12-28", "area_ha": null, "tenure_type": "Single Cell Mining Claim", "source": "Ontario MLAS operational claims (OGSEarth / LIO MapServer). Unofficial viewing data, not legal title.", "as_of": "2026-09-20", "role": "focus", "color": "#e8b040"}}, {"type": "Feature", "geometry": {"type": "Polygon", "coordinates": [[[-93.825, 51.0375], [-93.825, 51.0417], [-93.8313, 51.0417], [-93.8313, 51.0375], [-93.825, 51.0375]]]}, "properties": {"company_id": "nexus-gold", "jurisdiction": "Ontario", "claim_id": "101825", "claim_name": null, "holder": "(100) Nexus Metals Corp.", "status": "Active", "recorded_date": "2018-04-10", "anniversary_or_expiry": "2027-02-25", "area_ha": null, "tenure_type": "Boundary Cell Mining Claim", "source": "Ontario MLAS operational claims (OGSEarth / LIO MapServer). Unofficial viewing data, not legal title.", "as_of": "2026-09-20", "role": "focus", "color": "#e8b040"}}, {"type": "Feature", "geometry": {"type": "Polygon", "coordinates": [[[-93.875, 51.0583], [-93.875, 51.0625], [-93.8813, 51.0625], [-93.8813, 51.0583], [-93.875, 51.0583]]]}, "properties": {"company_id": "nexus-gold", "jurisdiction": "Ontario", "claim_id": "100905", "claim_name": null, "holder": "(100) Nexus Metals Corp.", "status": "Active", "recorded_date": "2018-04-10", "anniversary_or_expiry": "2027-06-19", "area_ha": null, "tenure_type": "Single Cell Mining Claim", "source": "Ontario MLAS operational claims (OGSEarth / LIO MapServer). Unofficial viewing data, not legal title.", "as_of": "2026-09-20", "role": "focus", "color": "#e8b040"}}, {"type": "Feature", "geometry": {"type": "Polygon", "coordinates": [[[-93.875, 51.0542], [-93.875, 51.0583], [-93.8813, 51.0583], [-93.8813, 51.0542], [-93.875, 51.0542]]]}, "properties": {"company_id": "nexus-gold", "jurisdiction": "Ontario", "claim_id": "100906", "claim_name": null, "holder": "(100) Nexus Metals Corp.", "status": "Active", "recorded_date": "2018-04-10", "anniversary_or_expiry": "2027-04-13", "area_ha": null, "tenure_type": "Single Cell Mining Claim", "source": "Ontario MLAS operational claims (OGSEarth / LIO MapServer). Unofficial viewing data, not legal title.", "as_of": "2026-09-20", "role": "focus", "color": "#e8b040"}}, {"type": "Feature", "geometry": {"type": "Polygon", "coordinates": [[[-93.875, 51.05], [-93.875, 51.0542], [-93.8813, 51.0542], [-93.8813, 51.05], [-93.875, 51.05]]]}, "properties": {"company_id": "nexus-gold", "jurisdiction": "Ontario", "claim_id": "100907", "claim_name": null, "holder": "(100) Nexus Metals Corp.", "status": "Active", "recorded_date": "2018-04-10", "anniversary_or_expiry": "2027-04-13", "area_ha": null, "tenure_type": "Single Cell Mining Claim", "source": "Ontario MLAS operational claims (OGSEarth / LIO MapServer). Unofficial viewing data, not legal title.", "as_of": "2026-09-20", "role": "focus", "color": "#e8b040"}}, {"type": "Feature", "geometry": {"type": "Polygon", "coordinates": [[[-93.8813, 51.05], [-93.8813, 51.0542], [-93.8875, 51.0542], [-93.8875, 51.05], [-93.8813, 51.05]]]}, "properties": {"company_id": "nexus-gold", "jurisdiction": "Ontario", "claim_id": "100908", "claim_name": null, "holder": "(100) Nexus Metals Corp.", "status": "Active", "recorded_date": "2018-04-10", "anniversary_or_expiry": "2027-04-13", "area_ha": null, "tenure_type": "Single Cell Mining Claim", "source": "Ontario MLAS operational claims (OGSEarth / LIO MapServer). Unofficial viewing data, not legal title.", "as_of": "2026-09-20", "role": "focus", "color": "#e8b040"}}, {"type": "Feature", "geometry": {"type": "Polygon", "coordinates": [[[-93.9, 51.0458], [-93.9, 51.05], [-93.9063, 51.05], [-93.9063, 51.0458], [-93.9, 51.0458]]]}, "properties": {"company_id": "nexus-gold", "jurisdiction": "Ontario", "claim_id": "101492", "claim_name": null, "holder": "(100) Nexus Metals Corp.", "status": "Active", "recorded_date": "2018-04-10", "anniversary_or_expiry": "2027-02-25", "area_ha": null, "tenure_type": "Single Cell Mining Claim", "source": "Ontario MLAS operational claims (OGSEarth / LIO MapServer). Unofficial viewing data, not legal title.", "as_of": "2026-09-20", "role": "focus", "color": "#e8b040"}}, {"type": "Feature", "geometry": {"type": "Polygon", "coordinates": [[[-93.8438, 51.0542], [-93.8438, 51.0583], [-93.85, 51.0583], [-93.85, 51.0542], [-93.8438, 51.0542]]]}, "properties": {"company_id": "nexus-gold", "jurisdiction": "Ontario", "claim_id": "104402", "claim_name": null, "holder": "(100) Nexus Metals Corp.", "status": "Active", "recorded_date": "2018-04-10", "anniversary_or_expiry": "2028-01-18", "area_ha": null, "tenure_type": "Boundary Cell Mining Claim", "source": "Ontario MLAS operational claims (OGSEarth / LIO MapServer). Unofficial viewing data, not legal title.", "as_of": "2026-09-20", "role": "focus", "color": "#e8b040"}}, {"type": "Feature", "geometry": {"type": "Polygon", "coordinates": [[[-93.8688, 51.0625], [-93.8688, 51.0667], [-93.875, 51.0667], [-93.875, 51.0625], [-93.8688, 51.0625]]]}, "properties": {"company_id": "nexus-gold", "jurisdiction": "Ontario", "claim_id": "115077", "claim_name": null, "holder": "(100) Nexus Metals Corp.", "status": "Active", "recorded_date": "2018-04-10", "anniversary_or_expiry": "2027-07-20", "area_ha": null, "tenure_type": "Single Cell Mining Claim", "source": "Ontario MLAS operational claims (OGSEarth / LIO MapServer). Unofficial viewing data, not legal title.", "as_of": "2026-09-20", "role": "focus", "color": "#e8b040"}}, {"type": "Feature", "geometry": {"type": "Polygon", "coordinates": [[[-93.8938, 51.0333], [-93.8938, 51.0375], [-93.9, 51.0375], [-93.9, 51.0333], [-93.8938, 51.0333]]]}, "properties": {"company_id": "nexus-gold", "jurisdiction": "Ontario", "claim_id": "117658", "claim_name": null, "holder": "(100) Nexus Metals Corp.", "status": "Active", "recorded_date": "2018-04-10", "anniversary_or_expiry": "2027-12-28", "area_ha": null, "tenure_type": "Single Cell Mining Claim", "source": "Ontario MLAS operational claims (OGSEarth / LIO MapServer). Unofficial viewing data, not legal title.", "as_of": "2026-09-20", "role": "focus", "color": "#e8b040"}}, {"type": "Feature", "geometry": {"type": "Polygon", "coordinates": [[[-93.8875, 51.025], [-93.8875, 51.0292], [-93.8938, 51.0292], [-93.8938, 51.025], [-93.8875, 51.025]]]}, "properties": {"company_id": "nexus-gold", "jurisdiction": "Ontario", "claim_id": "117659", "claim_name": null, "holder": "(100) Nexus Metals Corp.", "status": "Active", "recorded_date": "2018-04-10", "anniversary_or_expiry": "2027-12-28", "area_ha": null, "tenure_type": "Boundary Cell Mining Claim", "source": "Ontario MLAS operational claims (OGSEarth / LIO MapServer). Unofficial viewing data, not legal title.", "as_of": "2026-09-20", "role": "focus", "color": "#e8b040"}}, {"type": "Feature", "geometry": {"type": "Polygon", "coordinates": [[[-93.8938, 51.0167], [-93.8938, 51.0208], [-93.9, 51.0208], [-93.9, 51.0167], [-93.8938, 51.0167]]]}, "properties": {"company_id": "nexus-gold", "jurisdiction": "Ontario", "claim_id": "117660", "claim_name": null, "holder": "(100) Nexus Metals Corp.", "status": "Active", "recorded_date": "2018-04-10", "anniversary_or_expiry": "2027-12-28", "area_ha": null, "tenure_type": "Boundary Cell Mining Claim", "source": "Ontario MLAS operational claims (OGSEarth / LIO MapServer). Unofficial viewing data, not legal title.", "as_of": "2026-09-20", "role": "focus", "color": "#e8b040"}}, {"type": "Feature", "geometry": {"type": "Polygon", "coordinates": [[[-93.825, 51.0417], [-93.825, 51.0458], [-93.8313, 51.0458], [-93.8313, 51.0417], [-93.825, 51.0417]]]}, "properties": {"company_id": "nexus-gold", "jurisdiction": "Ontario", "claim_id": "116319", "claim_name": null, "holder": "(100) Nexus Metals Corp.", "status": "Active", "recorded_date": "2018-04-10", "anniversary_or_expiry": "2027-02-25", "area_ha": null, "tenure_type": "Single Cell Mining Claim", "source": "Ontario MLAS operational claims (OGSEarth / LIO MapServer). Unofficial viewing data, not legal title.", "as_of": "2026-09-20", "role": "focus", "color": "#e8b040"}}, {"type": "Feature", "geometry": {"type": "Polygon", "coordinates": [[[-93.8875, 51.0458], [-93.8875, 51.05], [-93.8938, 51.05], [-93.8938, 51.0458], [-93.8875, 51.0458]]]}, "properties": {"company_id": "nexus-gold", "jurisdiction": "Ontario", "claim_id": "121113", "claim_name": null, "holder": "(100) Nexus Metals Corp.", "status": "Active", "recorded_date": "2018-04-10", "anniversary_or_expiry": "2027-02-25", "area_ha": null, "tenure_type": "Single Cell Mining Claim", "source": "Ontario MLAS operational claims (OGSEarth / LIO MapServer). Unofficial viewing data, not legal title.", "as_of": "2026-09-20", "role": "focus", "color": "#e8b040"}}, {"type": "Feature", "geometry": {"type": "Polygon", "coordinates": [[[-93.8438, 51.0417], [-93.8438, 51.0458], [-93.85, 51.0458], [-93.85, 51.0417], [-93.8438, 51.0417]]]}, "properties": {"company_id": "nexus-gold", "jurisdiction": "Ontario", "claim_id": "123004", "claim_name": null, "holder": "(100) Nexus Metals Corp.", "status": "Active", "recorded_date": "2018-04-10", "anniversary_or_expiry": "2027-02-25", "area_ha": null, "tenure_type": "Single Cell Mining Claim", "source": "Ontario MLAS operational claims (OGSEarth / LIO MapServer). Unofficial viewing data, not legal title.", "as_of": "2026-09-20", "role": "focus", "color": "#e8b040"}}, {"type": "Feature", "geometry": {"type": "Polygon", "coordinates": [[[-93.8938, 51.025], [-93.8938, 51.0292], [-93.9, 51.0292], [-93.9, 51.025], [-93.8938, 51.025]]]}, "properties": {"company_id": "nexus-gold", "jurisdiction": "Ontario", "claim_id": "123708", "claim_name": null, "holder": "(100) Nexus Metals Corp.", "status": "Active", "recorded_date": "2018-04-10", "anniversary_or_expiry": "2027-12-28", "area_ha": null, "tenure_type": "Single Cell Mining Claim", "source": "Ontario MLAS operational claims (OGSEarth / LIO MapServer). Unofficial viewing data, not legal title.", "as_of": "2026-09-20", "role": "focus", "color": "#e8b040"}}, {"type": "Feature", "geometry": {"type": "Polygon", "coordinates": [[[-93.8688, 51.0375], [-93.8688, 51.0417], [-93.875, 51.0417], [-93.875, 51.0375], [-93.8688, 51.0375]]]}, "properties": {"company_id": "nexus-gold", "jurisdiction": "Ontario", "claim_id": "128260", "claim_name": null, "holder": "(100) Nexus Metals Corp.", "status": "Active", "recorded_date": "2018-04-10", "anniversary_or_expiry": "2027-02-25", "area_ha": null, "tenure_type": "Single Cell Mining Claim", "source": "Ontario MLAS operational claims (OGSEarth / LIO MapServer). Unofficial viewing data, not legal title.", "as_of": "2026-09-20", "role": "focus", "color": "#e8b040"}}, {"type": "Feature", "geometry": {"type": "Polygon", "coordinates": [[[-93.85, 51.0542], [-93.85, 51.0583], [-93.8563, 51.0583], [-93.8563, 51.0542], [-93.85, 51.0542]]]}, "properties": {"company_id": "nexus-gold", "jurisdiction": "Ontario", "claim_id": "129072", "claim_name": null, "holder": "(100) Nexus Metals Corp.", "status": "Active", "recorded_date": "2018-04-10", "anniversary_or_expiry": "2028-01-18", "area_ha": null, "tenure_type": "Boundary Cell Mining Claim", "source": "Ontario MLAS operational claims (OGSEarth / LIO MapServer). Unofficial viewing data, not legal title.", "as_of": "2026-09-20", "role": "focus", "color": "#e8b040"}}, {"type": "Feature", "geometry": {"type": "Polygon", "coordinates": [[[-93.8688, 51.0708], [-93.8688, 51.075], [-93.875, 51.075], [-93.875, 51.0708], [-93.8688, 51.0708]]]}, "properties": {"company_id": "nexus-gold", "jurisdiction": "Ontario", "claim_id": "137615", "claim_name": null, "holder": "(100) Nexus Metals Corp.", "status": "Active", "recorded_date": "2018-04-10", "anniversary_or_expiry": "2027-07-20", "area_ha": null, "tenure_type": "Boundary Cell Mining Claim", "source": "Ontario MLAS operational claims (OGSEarth / LIO MapServer). Unofficial viewing data, not legal title.", "as_of": "2026-09-20", "role": "focus", "color": "#e8b040"}}, {"type": "Feature", "geometry": {"type": "Polygon", "coordinates": [[[-93.8625, 51.0708], [-93.8625, 51.075], [-93.8688, 51.075], [-93.8688, 51.0708], [-93.8625, 51.0708]]]}, "properties": {"company_id": "nexus-gold", "jurisdiction": "Ontario", "claim_id": "143161", "claim_name": null, "holder": "(100) Nexus Metals Corp.", "status": "Active", "recorded_date": "2018-04-10", "anniversary_or_expiry": "2027-07-20", "area_ha": null, "tenure_type": "Boundary Cell Mining Claim", "source": "Ontario MLAS operational claims (OGSEarth / LIO MapServer). Unofficial viewing data, not legal title.", "as_of": "2026-09-20", "role": "focus", "color": "#e8b040"}}, {"type": "Feature", "geometry": {"type": "Polygon", "coordinates": [[[-93.8813, 51.0333], [-93.8813, 51.0375], [-93.8875, 51.0375], [-93.8875, 51.0333], [-93.8813, 51.0333]]]}, "properties": {"company_id": "nexus-gold", "jurisdiction": "Ontario", "claim_id": "143455", "claim_name": null, "holder": "(100) Nexus Metals Corp.", "status": "Active", "recorded_date": "2018-04-10", "anniversary_or_expiry": "2027-02-25", "area_ha": null, "tenure_type": "Single Cell Mining Claim", "source": "Ontario MLAS operational claims (OGSEarth / LIO MapServer). Unofficial viewing data, not legal title.", "as_of": "2026-09-20", "role": "focus", "color": "#e8b040"}}, {"type": "Feature", "geometry": {"type": "Polygon", "coordinates": [[[-93.8563, 51.0583], [-93.8563, 51.0625], [-93.8625, 51.0625], [-93.8625, 51.0583], [-93.8563, 51.0583]]]}, "properties": {"company_id": "nexus-gold", "jurisdiction": "Ontario", "claim_id": "144763", "claim_name": null, "holder": "(100) Nexus Metals Corp.", "status": "Active", "recorded_date": "2018-04-10", "anniversary_or_expiry": "2027-07-20", "area_ha": null, "tenure_type": "Boundary Cell Mining Claim", "source": "Ontario MLAS operational claims (OGSEarth / LIO MapServer). Unofficial viewing data, not legal title.", "as_of": "2026-09-20", "role": "focus", "color": "#e8b040"}}, {"type": "Feature", "geometry": {"type": "Polygon", "coordinates": [[[-93.85, 51.075], [-93.85, 51.0792], [-93.8563, 51.0792], [-93.8563, 51.075], [-93.85, 51.075]]]}, "properties": {"company_id": "nexus-gold", "jurisdiction": "Ontario", "claim_id": "149918", "claim_name": null, "holder": "(100) Nexus Metals Corp.", "status": "Active", "recorded_date": "2018-04-10", "anniversary_or_expiry": "2027-07-20", "area_ha": null, "tenure_type": "Boundary Cell Mining Claim", "source": "Ontario MLAS operational claims (OGSEarth / LIO MapServer). Unofficial viewing data, not legal title.", "as_of": "2026-09-20", "role": "focus", "color": "#e8b040"}}, {"type": "Feature", "geometry": {"type": "Polygon", "coordinates": [[[-93.8813, 51.0125], [-93.8813, 51.0167], [-93.8875, 51.0167], [-93.8875, 51.0125], [-93.8813, 51.0125]]]}, "properties": {"company_id": "nexus-gold", "jurisdiction": "Ontario", "claim_id": "153910", "claim_name": null, "holder": "(100) Nexus Metals Corp.", "status": "Active", "recorded_date": "2018-04-10", "anniversary_or_expiry": "2027-11-23", "area_ha": null, "tenure_type": "Single Cell Mining Claim", "source": "Ontario MLAS operational claims (OGSEarth / LIO MapServer). Unofficial viewing data, not legal title.", "as_of": "2026-09-20", "role": "focus", "color": "#e8b040"}}, {"type": "Feature", "geometry": {"type": "Polygon", "coordinates": [[[-93.8625, 51.0417], [-93.8625, 51.0458], [-93.8688, 51.0458], [-93.8688, 51.0417], [-93.8625, 51.0417]]]}, "properties": {"company_id": "nexus-gold", "jurisdiction": "Ontario", "claim_id": "157557", "claim_name": null, "holder": "(100) Nexus Metals Corp.", "status": "Active", "recorded_date": "2018-04-10", "anniversary_or_expiry": "2027-02-25", "area_ha": null, "tenure_type": "Single Cell Mining Claim", "source": "Ontario MLAS operational claims (OGSEarth / LIO MapServer). Unofficial viewing data, not legal title.", "as_of": "2026-09-20", "role": "focus", "color": "#e8b040"}}, {"type": "Feature", "geometry": {"type": "Polygon", "coordinates": [[[-93.8875, 51.0625], [-93.8875, 51.0667], [-93.8938, 51.0667], [-93.8938, 51.0625], [-93.8875, 51.0625]]]}, "properties": {"company_id": "nexus-gold", "jurisdiction": "Ontario", "claim_id": "160142", "claim_name": null, "holder": "(100) Nexus Metals Corp.", "status": "Active", "recorded_date": "2018-04-10", "anniversary_or_expiry": "2027-07-20", "area_ha": null, "tenure_type": "Boundary Cell Mining Claim", "source": "Ontario MLAS operational claims (OGSEarth / LIO MapServer). Unofficial viewing data, not legal title.", "as_of": "2026-09-20", "role": "focus", "color": "#e8b040"}}, {"type": "Feature", "geometry": {"type": "Polygon", "coordinates": [[[-93.8563, 51.0625], [-93.8563, 51.0667], [-93.8625, 51.0667], [-93.8625, 51.0625], [-93.8563, 51.0625]]]}, "properties": {"company_id": "nexus-gold", "jurisdiction": "Ontario", "claim_id": "162879", "claim_name": null, "holder": "(100) Nexus Metals Corp.", "status": "Active", "recorded_date": "2018-04-10", "anniversary_or_expiry": "2027-07-20", "area_ha": null, "tenure_type": "Single Cell Mining Claim", "source": "Ontario MLAS operational claims (OGSEarth / LIO MapServer). Unofficial viewing data, not legal title.", "as_of": "2026-09-20", "role": "focus", "color": "#e8b040"}}, {"type": "Feature", "geometry": {"type": "Polygon", "coordinates": [[[-93.8813, 51.0667], [-93.8813, 51.0708], [-93.8875, 51.0708], [-93.8875, 51.0667], [-93.8813, 51.0667]]]}, "properties": {"company_id": "nexus-gold", "jurisdiction": "Ontario", "claim_id": "165643", "claim_name": null, "holder": "(100) Nexus Metals Corp.", "status": "Active", "recorded_date": "2018-04-10", "anniversary_or_expiry": "2027-07-20", "area_ha": null, "tenure_type": "Boundary Cell Mining Claim", "source": "Ontario MLAS operational claims (OGSEarth / LIO MapServer). Unofficial viewing data, not legal title.", "as_of": "2026-09-20", "role": "focus", "color": "#e8b040"}}, {"type": "Feature", "geometry": {"type": "Polygon", "coordinates": [[[-93.8375, 51.0417], [-93.8375, 51.0458], [-93.8438, 51.0458], [-93.8438, 51.0417], [-93.8375, 51.0417]]]}, "properties": {"company_id": "nexus-gold", "jurisdiction": "Ontario", "claim_id": "167601", "claim_name": null, "holder": "(100) Nexus Metals Corp.", "status": "Active", "recorded_date": "2018-04-10", "anniversary_or_expiry": "2027-02-25", "area_ha": null, "tenure_type": "Single Cell Mining Claim", "source": "Ontario MLAS operational claims (OGSEarth / LIO MapServer). Unofficial viewing data, not legal title.", "as_of": "2026-09-20", "role": "focus", "color": "#e8b040"}}, {"type": "Feature", "geometry": {"type": "Polygon", "coordinates": [[[-93.85, 51.0458], [-93.85, 51.05], [-93.8563, 51.05], [-93.8563, 51.0458], [-93.85, 51.0458]]]}, "properties": {"company_id": "nexus-gold", "jurisdiction": "Ontario", "claim_id": "167658", "claim_name": null, "holder": "(100) Nexus Metals Corp.", "status": "Active", "recorded_date": "2018-04-10", "anniversary_or_expiry": "2027-02-25", "area_ha": null, "tenure_type": "Single Cell Mining Claim", "source": "Ontario MLAS operational claims (OGSEarth / LIO MapServer). Unofficial viewing data, not legal title.", "as_of": "2026-09-20", "role": "focus", "color": "#e8b040"}}, {"type": "Feature", "geometry": {"type": "Polygon", "coordinates": [[[-93.8938, 51.0292], [-93.8938, 51.0333], [-93.9, 51.0333], [-93.9, 51.0292], [-93.8938, 51.0292]]]}, "properties": {"company_id": "nexus-gold", "jurisdiction": "Ontario", "claim_id": "168311", "claim_name": null, "holder": "(100) Nexus Metals Corp.", "status": "Active", "recorded_date": "2018-04-10", "anniversary_or_expiry": "2027-12-28", "area_ha": null, "tenure_type": "Single Cell Mining Claim", "source": "Ontario MLAS operational claims (OGSEarth / LIO MapServer). Unofficial viewing data, not legal title.", "as_of": "2026-09-20", "role": "focus", "color": "#e8b040"}}, {"type": "Feature", "geometry": {"type": "Polygon", "coordinates": [[[-93.8875, 51.0125], [-93.8875, 51.0167], [-93.8938, 51.0167], [-93.8938, 51.0125], [-93.8875, 51.0125]]]}, "properties": {"company_id": "nexus-gold", "jurisdiction": "Ontario", "claim_id": "172679", "claim_name": null, "holder": "(100) Nexus Metals Corp.", "status": "Active", "recorded_date": "2018-04-10", "anniversary_or_expiry": "2027-11-23", "area_ha": null, "tenure_type": "Boundary Cell Mining Claim", "source": "Ontario MLAS operational claims (OGSEarth / LIO MapServer). Unofficial viewing data, not legal title.", "as_of": "2026-09-20", "role": "focus", "color": "#e8b040"}}, {"type": "Feature", "geometry": {"type": "Polygon", "coordinates": [[[-93.8563, 51.0542], [-93.8563, 51.0583], [-93.8625, 51.0583], [-93.8625, 51.0542], [-93.8563, 51.0542]]]}, "properties": {"company_id": "nexus-gold", "jurisdiction": "Ontario", "claim_id": "176462", "claim_name": null, "holder": "(100) Nexus Metals Corp.", "status": "Active", "recorded_date": "2018-04-10", "anniversary_or_expiry": "2028-01-18", "area_ha": null, "tenure_type": "Boundary Cell Mining Claim", "source": "Ontario MLAS operational claims (OGSEarth / LIO MapServer). Unofficial viewing data, not legal title.", "as_of": "2026-09-20", "role": "focus", "color": "#e8b040"}}, {"type": "Feature", "geometry": {"type": "Polygon", "coordinates": [[[-93.8563, 51.05], [-93.8563, 51.0542], [-93.8625, 51.0542], [-93.8625, 51.05], [-93.8563, 51.05]]]}, "properties": {"company_id": "nexus-gold", "jurisdiction": "Ontario", "claim_id": "176463", "claim_name": null, "holder": "(100) Nexus Metals Corp.", "status": "Active", "recorded_date": "2018-04-10", "anniversary_or_expiry": "2027-04-16", "area_ha": null, "tenure_type": "Single Cell Mining Claim", "source": "Ontario MLAS operational claims (OGSEarth / LIO MapServer). Unofficial viewing data, not legal title.", "as_of": "2026-09-20", "role": "focus", "color": "#e8b040"}}, {"type": "Feature", "geometry": {"type": "Polygon", "coordinates": [[[-93.8375, 51.0458], [-93.8375, 51.05], [-93.8438, 51.05], [-93.8438, 51.0458], [-93.8375, 51.0458]]]}, "properties": {"company_id": "nexus-gold", "jurisdiction": "Ontario", "claim_id": "180435", "claim_name": null, "holder": "(100) Nexus Metals Corp.", "status": "Active", "recorded_date": "2018-04-10", "anniversary_or_expiry": "2027-02-25", "area_ha": null, "tenure_type": "Boundary Cell Mining Claim", "source": "Ontario MLAS operational claims (OGSEarth / LIO MapServer). Unofficial viewing data, not legal title.", "as_of": "2026-09-20", "role": "focus", "color": "#e8b040"}}, {"type": "Feature", "geometry": {"type": "Polygon", "coordinates": [[[-93.8938, 51.0208], [-93.8938, 51.025], [-93.9, 51.025], [-93.9, 51.0208], [-93.8938, 51.0208]]]}, "properties": {"company_id": "nexus-gold", "jurisdiction": "Ontario", "claim_id": "181128", "claim_name": null, "holder": "(100) Nexus Metals Corp.", "status": "Active", "recorded_date": "2018-04-10", "anniversary_or_expiry": "2027-12-28", "area_ha": null, "tenure_type": "Boundary Cell Mining Claim", "source": "Ontario MLAS operational claims (OGSEarth / LIO MapServer). Unofficial viewing data, not legal title.", "as_of": "2026-09-20", "role": "focus", "color": "#e8b040"}}, {"type": "Feature", "geometry": {"type": "Polygon", "coordinates": [[[-93.8875, 51.0667], [-93.8875, 51.0708], [-93.8938, 51.0708], [-93.8938, 51.0667], [-93.8875, 51.0667]]]}, "properties": {"company_id": "nexus-gold", "jurisdiction": "Ontario", "claim_id": "194916", "claim_name": null, "holder": "(100) Nexus Metals Corp.", "status": "Active", "recorded_date": "2018-04-10", "anniversary_or_expiry": "2027-07-20", "area_ha": null, "tenure_type": "Boundary Cell Mining Claim", "source": "Ontario MLAS operational claims (OGSEarth / LIO MapServer). Unofficial viewing data, not legal title.", "as_of": "2026-09-20", "role": "focus", "color": "#e8b040"}}, {"type": "Feature", "geometry": {"type": "Polygon", "coordinates": [[[-93.8813, 51.0292], [-93.8813, 51.0333], [-93.8875, 51.0333], [-93.8875, 51.0292], [-93.8813, 51.0292]]]}, "properties": {"company_id": "nexus-gold", "jurisdiction": "Ontario", "claim_id": "195744", "claim_name": null, "holder": "(100) Nexus Metals Corp.", "status": "Active", "recorded_date": "2018-04-10", "anniversary_or_expiry": "2027-12-28", "area_ha": null, "tenure_type": "Boundary Cell Mining Claim", "source": "Ontario MLAS operational claims (OGSEarth / LIO MapServer). Unofficial viewing data, not legal title.", "as_of": "2026-09-20", "role": "focus", "color": "#e8b040"}}, {"type": "Feature", "geometry": {"type": "Polygon", "coordinates": [[[-93.8563, 51.075], [-93.8563, 51.0792], [-93.8625, 51.0792], [-93.8625, 51.075], [-93.8563, 51.075]]]}, "properties": {"company_id": "nexus-gold", "jurisdiction": "Ontario", "claim_id": "198040", "claim_name": null, "holder": "(100) Nexus Metals Corp.", "status": "Active", "recorded_date": "2018-04-10", "anniversary_or_expiry": "2027-07-20", "area_ha": null, "tenure_type": "Boundary Cell Mining Claim", "source": "Ontario MLAS operational claims (OGSEarth / LIO MapServer). Unofficial viewing data, not legal title.", "as_of": "2026-09-20", "role": "focus", "color": "#e8b040"}}, {"type": "Feature", "geometry": {"type": "Polygon", "coordinates": [[[-93.8313, 51.0458], [-93.8313, 51.05], [-93.8375, 51.05], [-93.8375, 51.0458], [-93.8313, 51.0458]]]}, "properties": {"company_id": "nexus-gold", "jurisdiction": "Ontario", "claim_id": "197534", "claim_name": null, "holder": "(100) Nexus Metals Corp.", "status": "Active", "recorded_date": "2018-04-10", "anniversary_or_expiry": "2027-02-25", "area_ha": null, "tenure_type": "Boundary Cell Mining Claim", "source": "Ontario MLAS operational claims (OGSEarth / LIO MapServer). Unofficial viewing data, not legal title.", "as_of": "2026-09-20", "role": "focus", "color": "#e8b040"}}, {"type": "Feature", "geometry": {"type": "Polygon", "coordinates": [[[-93.8313, 51.0375], [-93.8313, 51.0417], [-93.8375, 51.0417], [-93.8375, 51.0375], [-93.8313, 51.0375]]]}, "properties": {"company_id": "nexus-gold", "jurisdiction": "Ontario", "claim_id": "197535", "claim_name": null, "holder": "(100) Nexus Metals Corp.", "status": "Active", "recorded_date": "2018-04-10", "anniversary_or_expiry": "2027-02-25", "area_ha": null, "tenure_type": "Single Cell Mining Claim", "source": "Ontario MLAS operational claims (OGSEarth / LIO MapServer). Unofficial viewing data, not legal title.", "as_of": "2026-09-20", "role": "focus", "color": "#e8b040"}}, {"type": "Feature", "geometry": {"type": "Polygon", "coordinates": [[[-93.85, 51.0375], [-93.85, 51.0417], [-93.8563, 51.0417], [-93.8563, 51.0375], [-93.85, 51.0375]]]}, "properties": {"company_id": "nexus-gold", "jurisdiction": "Ontario", "claim_id": "197574", "claim_name": null, "holder": "(100) Nexus Metals Corp.", "status": "Active", "recorded_date": "2018-04-10", "anniversary_or_expiry": "2027-02-25", "area_ha": null, "tenure_type": "Single Cell Mining Claim", "source": "Ontario MLAS operational claims (OGSEarth / LIO MapServer). Unofficial viewing data, not legal title.", "as_of": "2026-09-20", "role": "focus", "color": "#e8b040"}}, {"type": "Feature", "geometry": {"type": "Polygon", "coordinates": [[[-93.8563, 51.0375], [-93.8563, 51.0417], [-93.8625, 51.0417], [-93.8625, 51.0375], [-93.8563, 51.0375]]]}, "properties": {"company_id": "nexus-gold", "jurisdiction": "Ontario", "claim_id": "197575", "claim_name": null, "holder": "(100) Nexus Metals Corp.", "status": "Active", "recorded_date": "2018-04-10", "anniversary_or_expiry": "2027-02-25", "area_ha": null, "tenure_type": "Single Cell Mining Claim", "source": "Ontario MLAS operational claims (OGSEarth / LIO MapServer). Unofficial viewing data, not legal title.", "as_of": "2026-09-20", "role": "focus", "color": "#e8b040"}}, {"type": "Feature", "geometry": {"type": "Polygon", "coordinates": [[[-93.8813, 51.0375], [-93.8813, 51.0417], [-93.8875, 51.0417], [-93.8875, 51.0375], [-93.8813, 51.0375]]]}, "properties": {"company_id": "nexus-gold", "jurisdiction": "Ontario", "claim_id": "203361", "claim_name": null, "holder": "(100) Nexus Metals Corp.", "status": "Active", "recorded_date": "2018-04-10", "anniversary_or_expiry": "2027-02-25", "area_ha": null, "tenure_type": "Single Cell Mining Claim", "source": "Ontario MLAS operational claims (OGSEarth / LIO MapServer). Unofficial viewing data, not legal title.", "as_of": "2026-09-20", "role": "focus", "color": "#e8b040"}}, {"type": "Feature", "geometry": {"type": "Polygon", "coordinates": [[[-93.875, 51.0333], [-93.875, 51.0375], [-93.8813, 51.0375], [-93.8813, 51.0333], [-93.875, 51.0333]]]}, "properties": {"company_id": "nexus-gold", "jurisdiction": "Ontario", "claim_id": "203362", "claim_name": null, "holder": "(100) Nexus Metals Corp.", "status": "Active", "recorded_date": "2018-04-10", "anniversary_or_expiry": "2027-02-25", "area_ha": null, "tenure_type": "Single Cell Mining Claim", "source": "Ontario MLAS operational claims (OGSEarth / LIO MapServer). Unofficial viewing data, not legal title.", "as_of": "2026-09-20", "role": "focus", "color": "#e8b040"}}, {"type": "Feature", "geometry": {"type": "Polygon", "coordinates": [[[-93.825, 51.0333], [-93.825, 51.0375], [-93.8313, 51.0375], [-93.8313, 51.0333], [-93.825, 51.0333]]]}, "properties": {"company_id": "nexus-gold", "jurisdiction": "Ontario", "claim_id": "204980", "claim_name": null, "holder": "(100) Nexus Metals Corp.", "status": "Active", "recorded_date": "2018-04-10", "anniversary_or_expiry": "2027-02-25", "area_ha": null, "tenure_type": "Boundary Cell Mining Claim", "source": "Ontario MLAS operational claims (OGSEarth / LIO MapServer). Unofficial viewing data, not legal title.", "as_of": "2026-09-20", "role": "focus", "color": "#e8b040"}}, {"type": "Feature", "geometry": {"type": "Polygon", "coordinates": [[[-93.875, 51.0625], [-93.875, 51.0667], [-93.8813, 51.0667], [-93.8813, 51.0625], [-93.875, 51.0625]]]}, "properties": {"company_id": "nexus-gold", "jurisdiction": "Ontario", "claim_id": "205702", "claim_name": null, "holder": "(100) Nexus Metals Corp.", "status": "Active", "recorded_date": "2018-04-10", "anniversary_or_expiry": "2027-07-20", "area_ha": null, "tenure_type": "Single Cell Mining Claim", "source": "Ontario MLAS operational claims (OGSEarth / LIO MapServer). Unofficial viewing data, not legal title.", "as_of": "2026-09-20", "role": "focus", "color": "#e8b040"}}, {"type": "Feature", "geometry": {"type": "Polygon", "coordinates": [[[-93.8688, 51.0417], [-93.8688, 51.0458], [-93.875, 51.0458], [-93.875, 51.0417], [-93.8688, 51.0417]]]}, "properties": {"company_id": "nexus-gold", "jurisdiction": "Ontario", "claim_id": "211455", "claim_name": null, "holder": "(100) Nexus Metals Corp.", "status": "Active", "recorded_date": "2018-04-10", "anniversary_or_expiry": "2027-02-25", "area_ha": null, "tenure_type": "Single Cell Mining Claim", "source": "Ontario MLAS operational claims (OGSEarth / LIO MapServer). Unofficial viewing data, not legal title.", "as_of": "2026-09-20", "role": "focus", "color": "#e8b040"}}, {"type": "Feature", "geometry": {"type": "Polygon", "coordinates": [[[-93.8938, 51.05], [-93.8938, 51.0542], [-93.9, 51.0542], [-93.9, 51.05], [-93.8938, 51.05]]]}, "properties": {"company_id": "nexus-gold", "jurisdiction": "Ontario", "claim_id": "214967", "claim_name": null, "holder": "(100) Nexus Metals Corp.", "status": "Active", "recorded_date": "2018-04-10", "anniversary_or_expiry": "2027-02-25", "area_ha": null, "tenure_type": "Single Cell Mining Claim", "source": "Ontario MLAS operational claims (OGSEarth / LIO MapServer). Unofficial viewing data, not legal title.", "as_of": "2026-09-20", "role": "focus", "color": "#e8b040"}}, {"type": "Feature", "geometry": {"type": "Polygon", "coordinates": [[[-93.8563, 51.0417], [-93.8563, 51.0458], [-93.8625, 51.0458], [-93.8625, 51.0417], [-93.8563, 51.0417]]]}, "properties": {"company_id": "nexus-gold", "jurisdiction": "Ontario", "claim_id": "216349", "claim_name": null, "holder": "(100) Nexus Metals Corp.", "status": "Active", "recorded_date": "2018-04-10", "anniversary_or_expiry": "2027-02-25", "area_ha": null, "tenure_type": "Single Cell Mining Claim", "source": "Ontario MLAS operational claims (OGSEarth / LIO MapServer). Unofficial viewing data, not legal title.", "as_of": "2026-09-20", "role": "focus", "color": "#e8b040"}}, {"type": "Feature", "geometry": {"type": "Polygon", "coordinates": [[[-93.8875, 51.0333], [-93.8875, 51.0375], [-93.8938, 51.0375], [-93.8938, 51.0333], [-93.8875, 51.0333]]]}, "properties": {"company_id": "nexus-gold", "jurisdiction": "Ontario", "claim_id": "217008", "claim_name": null, "holder": "(100) Nexus Metals Corp.", "status": "Active", "recorded_date": "2018-04-10", "anniversary_or_expiry": "2027-12-28", "area_ha": null, "tenure_type": "Single Cell Mining Claim", "source": "Ontario MLAS operational claims (OGSEarth / LIO MapServer). Unofficial viewing data, not legal title.", "as_of": "2026-09-20", "role": "focus", "color": "#e8b040"}}, {"type": "Feature", "geometry": {"type": "Polygon", "coordinates": [[[-93.8875, 51.0167], [-93.8875, 51.0208], [-93.8938, 51.0208], [-93.8938, 51.0167], [-93.8875, 51.0167]]]}, "properties": {"company_id": "nexus-gold", "jurisdiction": "Ontario", "claim_id": "217009", "claim_name": null, "holder": "(100) Nexus Metals Corp.", "status": "Active", "recorded_date": "2018-04-10", "anniversary_or_expiry": "2027-12-28", "area_ha": null, "tenure_type": "Boundary Cell Mining Claim", "source": "Ontario MLAS operational claims (OGSEarth / LIO MapServer). Unofficial viewing data, not legal title.", "as_of": "2026-09-20", "role": "focus", "color": "#e8b040"}}, {"type": "Feature", "geometry": {"type": "Polygon", "coordinates": [[[-93.8625, 51.05], [-93.8625, 51.0542], [-93.8688, 51.0542], [-93.8688, 51.05], [-93.8625, 51.05]]]}, "properties": {"company_id": "nexus-gold", "jurisdiction": "Ontario", "claim_id": "223036", "claim_name": null, "holder": "(100) Nexus Metals Corp.", "status": "Active", "recorded_date": "2018-04-10", "anniversary_or_expiry": "2027-04-16", "area_ha": null, "tenure_type": "Single Cell Mining Claim", "source": "Ontario MLAS operational claims (OGSEarth / LIO MapServer). Unofficial viewing data, not legal title.", "as_of": "2026-09-20", "role": "focus", "color": "#e8b040"}}, {"type": "Feature", "geometry": {"type": "Polygon", "coordinates": [[[-93.8563, 51.0667], [-93.8563, 51.0708], [-93.8625, 51.0708], [-93.8625, 51.0667], [-93.8563, 51.0667]]]}, "properties": {"company_id": "nexus-gold", "jurisdiction": "Ontario", "claim_id": "222308", "claim_name": null, "holder": "(100) Nexus Metals Corp.", "status": "Active", "recorded_date": "2018-04-10", "anniversary_or_expiry": "2027-07-20", "area_ha": null, "tenure_type": "Boundary Cell Mining Claim", "source": "Ontario MLAS operational claims (OGSEarth / LIO MapServer). Unofficial viewing data, not legal title.", "as_of": "2026-09-20", "role": "focus", "color": "#e8b040"}}, {"type": "Feature", "geometry": {"type": "Polygon", "coordinates": [[[-93.8438, 51.05], [-93.8438, 51.0542], [-93.85, 51.0542], [-93.85, 51.05], [-93.8438, 51.05]]]}, "properties": {"company_id": "nexus-gold", "jurisdiction": "Ontario", "claim_id": "222387", "claim_name": null, "holder": "(100) Nexus Metals Corp.", "status": "Active", "recorded_date": "2018-04-10", "anniversary_or_expiry": "2028-01-18", "area_ha": null, "tenure_type": "Boundary Cell Mining Claim", "source": "Ontario MLAS operational claims (OGSEarth / LIO MapServer). Unofficial viewing data, not legal title.", "as_of": "2026-09-20", "role": "focus", "color": "#e8b040"}}, {"type": "Feature", "geometry": {"type": "Polygon", "coordinates": [[[-93.8625, 51.0375], [-93.8625, 51.0417], [-93.8688, 51.0417], [-93.8688, 51.0375], [-93.8625, 51.0375]]]}, "properties": {"company_id": "nexus-gold", "jurisdiction": "Ontario", "claim_id": "222991", "claim_name": null, "holder": "(100) Nexus Metals Corp.", "status": "Active", "recorded_date": "2018-04-10", "anniversary_or_expiry": "2027-02-25", "area_ha": null, "tenure_type": "Single Cell Mining Claim", "source": "Ontario MLAS operational claims (OGSEarth / LIO MapServer). Unofficial viewing data, not legal title.", "as_of": "2026-09-20", "role": "focus", "color": "#e8b040"}}, {"type": "Feature", "geometry": {"type": "Polygon", "coordinates": [[[-93.8813, 51.0583], [-93.8813, 51.0625], [-93.8875, 51.0625], [-93.8875, 51.0583], [-93.8813, 51.0583]]]}, "properties": {"company_id": "nexus-gold", "jurisdiction": "Ontario", "claim_id": "224945", "claim_name": null, "holder": "(100) Nexus Metals Corp.", "status": "Active", "recorded_date": "2018-04-10", "anniversary_or_expiry": "2027-06-19", "area_ha": null, "tenure_type": "Single Cell Mining Claim", "source": "Ontario MLAS operational claims (OGSEarth / LIO MapServer). Unofficial viewing data, not legal title.", "as_of": "2026-09-20", "role": "focus", "color": "#e8b040"}}, {"type": "Feature", "geometry": {"type": "Polygon", "coordinates": [[[-93.8625, 51.0625], [-93.8625, 51.0667], [-93.8688, 51.0667], [-93.8688, 51.0625], [-93.8625, 51.0625]]]}, "properties": {"company_id": "nexus-gold", "jurisdiction": "Ontario", "claim_id": "229569", "claim_name": null, "holder": "(100) Nexus Metals Corp.", "status": "Active", "recorded_date": "2018-04-10", "anniversary_or_expiry": "2027-07-20", "area_ha": null, "tenure_type": "Single Cell Mining Claim", "source": "Ontario MLAS operational claims (OGSEarth / LIO MapServer). Unofficial viewing data, not legal title.", "as_of": "2026-09-20", "role": "focus", "color": "#e8b040"}}, {"type": "Feature", "geometry": {"type": "Polygon", "coordinates": [[[-93.875, 51.0375], [-93.875, 51.0417], [-93.8813, 51.0417], [-93.8813, 51.0375], [-93.875, 51.0375]]]}, "properties": {"company_id": "nexus-gold", "jurisdiction": "Ontario", "claim_id": "230276", "claim_name": null, "holder": "(100) Nexus Metals Corp.", "status": "Active", "recorded_date": "2018-04-10", "anniversary_or_expiry": "2027-02-25", "area_ha": null, "tenure_type": "Single Cell Mining Claim", "source": "Ontario MLAS operational claims (OGSEarth / LIO MapServer). Unofficial viewing data, not legal title.", "as_of": "2026-09-20", "role": "focus", "color": "#e8b040"}}, {"type": "Feature", "geometry": {"type": "Polygon", "coordinates": [[[-93.8875, 51.0542], [-93.8875, 51.0583], [-93.8938, 51.0583], [-93.8938, 51.0542], [-93.8875, 51.0542]]]}, "properties": {"company_id": "nexus-gold", "jurisdiction": "Ontario", "claim_id": "232244", "claim_name": null, "holder": "(100) Nexus Metals Corp.", "status": "Active", "recorded_date": "2018-04-10", "anniversary_or_expiry": "2027-04-13", "area_ha": null, "tenure_type": "Single Cell Mining Claim", "source": "Ontario MLAS operational claims (OGSEarth / LIO MapServer). Unofficial viewing data, not legal title.", "as_of": "2026-09-20", "role": "focus", "color": "#e8b040"}}, {"type": "Feature", "geometry": {"type": "Polygon", "coordinates": [[[-93.8438, 51.0333], [-93.8438, 51.0375], [-93.85, 51.0375], [-93.85, 51.0333], [-93.8438, 51.0333]]]}, "properties": {"company_id": "nexus-gold", "jurisdiction": "Ontario", "claim_id": "234322", "claim_name": null, "holder": "(100) Nexus Metals Corp.", "status": "Active", "recorded_date": "2018-04-10", "anniversary_or_expiry": "2027-02-25", "area_ha": null, "tenure_type": "Single Cell Mining Claim", "source": "Ontario MLAS operational claims (OGSEarth / LIO MapServer). Unofficial viewing data, not legal title.", "as_of": "2026-09-20", "role": "focus", "color": "#e8b040"}}, {"type": "Feature", "geometry": {"type": "Polygon", "coordinates": [[[-93.9, 51.025], [-93.9, 51.0292], [-93.9063, 51.0292], [-93.9063, 51.025], [-93.9, 51.025]]]}, "properties": {"company_id": "nexus-gold", "jurisdiction": "Ontario", "claim_id": "235033", "claim_name": null, "holder": "(100) Nexus Metals Corp.", "status": "Active", "recorded_date": "2018-04-10", "anniversary_or_expiry": "2027-12-28", "area_ha": null, "tenure_type": "Boundary Cell Mining Claim", "source": "Ontario MLAS operational claims (OGSEarth / LIO MapServer). Unofficial viewing data, not legal title.", "as_of": "2026-09-20", "role": "focus", "color": "#e8b040"}}, {"type": "Feature", "geometry": {"type": "Polygon", "coordinates": [[[-93.8563, 51.0708], [-93.8563, 51.075], [-93.8625, 51.075], [-93.8625, 51.0708], [-93.8563, 51.0708]]]}, "properties": {"company_id": "nexus-gold", "jurisdiction": "Ontario", "claim_id": "238395", "claim_name": null, "holder": "(100) Nexus Metals Corp.", "status": "Active", "recorded_date": "2018-04-10", "anniversary_or_expiry": "2027-07-20", "area_ha": null, "tenure_type": "Boundary Cell Mining Claim", "source": "Ontario MLAS operational claims (OGSEarth / LIO MapServer). Unofficial viewing data, not legal title.", "as_of": "2026-09-20", "role": "focus", "color": "#e8b040"}}, {"type": "Feature", "geometry": {"type": "Polygon", "coordinates": [[[-93.875, 51.0708], [-93.875, 51.075], [-93.8813, 51.075], [-93.8813, 51.0708], [-93.875, 51.0708]]]}, "properties": {"company_id": "nexus-gold", "jurisdiction": "Ontario", "claim_id": "257085", "claim_name": null, "holder": "(100) Nexus Metals Corp.", "status": "Active", "recorded_date": "2018-04-10", "anniversary_or_expiry": "2027-07-20", "area_ha": null, "tenure_type": "Boundary Cell Mining Claim", "source": "Ontario MLAS operational claims (OGSEarth / LIO MapServer). Unofficial viewing data, not legal title.", "as_of": "2026-09-20", "role": "focus", "color": "#e8b040"}}, {"type": "Feature", "geometry": {"type": "Polygon", "coordinates": [[[-93.8625, 51.0333], [-93.8625, 51.0375], [-93.8688, 51.0375], [-93.8688, 51.0333], [-93.8625, 51.0333]]]}, "properties": {"company_id": "nexus-gold", "jurisdiction": "Ontario", "claim_id": "258932", "claim_name": null, "holder": "(100) Nexus Metals Corp.", "status": "Active", "recorded_date": "2018-04-10", "anniversary_or_expiry": "2027-02-25", "area_ha": null, "tenure_type": "Single Cell Mining Claim", "source": "Ontario MLAS operational claims (OGSEarth / LIO MapServer). Unofficial viewing data, not legal title.", "as_of": "2026-09-20", "role": "focus", "color": "#e8b040"}}, {"type": "Feature", "geometry": {"type": "Polygon", "coordinates": [[[-93.8875, 51.0583], [-93.8875, 51.0625], [-93.8938, 51.0625], [-93.8938, 51.0583], [-93.8875, 51.0583]]]}, "properties": {"company_id": "nexus-gold", "jurisdiction": "Ontario", "claim_id": "260911", "claim_name": null, "holder": "(100) Nexus Metals Corp.", "status": "Active", "recorded_date": "2018-04-10", "anniversary_or_expiry": "2027-06-19", "area_ha": null, "tenure_type": "Single Cell Mining Claim", "source": "Ontario MLAS operational claims (OGSEarth / LIO MapServer). Unofficial viewing data, not legal title.", "as_of": "2026-09-20", "role": "focus", "color": "#e8b040"}}, {"type": "Feature", "geometry": {"type": "Polygon", "coordinates": [[[-93.825, 51.0458], [-93.825, 51.05], [-93.8313, 51.05], [-93.8313, 51.0458], [-93.825, 51.0458]]]}, "properties": {"company_id": "nexus-gold", "jurisdiction": "Ontario", "claim_id": "263512", "claim_name": null, "holder": "(100) Nexus Metals Corp.", "status": "Active", "recorded_date": "2018-04-10", "anniversary_or_expiry": "2027-02-25", "area_ha": null, "tenure_type": "Boundary Cell Mining Claim", "source": "Ontario MLAS operational claims (OGSEarth / LIO MapServer). Unofficial viewing data, not legal title.", "as_of": "2026-09-20", "role": "focus", "color": "#e8b040"}}, {"type": "Feature", "geometry": {"type": "Polygon", "coordinates": [[[-93.8813, 51.0625], [-93.8813, 51.0667], [-93.8875, 51.0667], [-93.8875, 51.0625], [-93.8813, 51.0625]]]}, "properties": {"company_id": "nexus-gold", "jurisdiction": "Ontario", "claim_id": "261531", "claim_name": null, "holder": "(100) Nexus Metals Corp.", "status": "Active", "recorded_date": "2018-04-10", "anniversary_or_expiry": "2027-07-20", "area_ha": null, "tenure_type": "Single Cell Mining Claim", "source": "Ontario MLAS operational claims (OGSEarth / LIO MapServer). Unofficial viewing data, not legal title.", "as_of": "2026-09-20", "role": "focus", "color": "#e8b040"}}, {"type": "Feature", "geometry": {"type": "Polygon", "coordinates": [[[-93.8938, 51.0458], [-93.8938, 51.05], [-93.9, 51.05], [-93.9, 51.0458], [-93.8938, 51.0458]]]}, "properties": {"company_id": "nexus-gold", "jurisdiction": "Ontario", "claim_id": "262148", "claim_name": null, "holder": "(100) Nexus Metals Corp.", "status": "Active", "recorded_date": "2018-04-10", "anniversary_or_expiry": "2027-02-25", "area_ha": null, "tenure_type": "Single Cell Mining Claim", "source": "Ontario MLAS operational claims (OGSEarth / LIO MapServer). Unofficial viewing data, not legal title.", "as_of": "2026-09-20", "role": "focus", "color": "#e8b040"}}, {"type": "Feature", "geometry": {"type": "Polygon", "coordinates": [[[-93.9, 51.0208], [-93.9, 51.025], [-93.9063, 51.025], [-93.9063, 51.0208], [-93.9, 51.0208]]]}, "properties": {"company_id": "nexus-gold", "jurisdiction": "Ontario", "claim_id": "264211", "claim_name": null, "holder": "(100) Nexus Metals Corp.", "status": "Active", "recorded_date": "2018-04-10", "anniversary_or_expiry": "2027-12-28", "area_ha": null, "tenure_type": "Boundary Cell Mining Claim", "source": "Ontario MLAS operational claims (OGSEarth / LIO MapServer). Unofficial viewing data, not legal title.", "as_of": "2026-09-20", "role": "focus", "color": "#e8b040"}}, {"type": "Feature", "geometry": {"type": "Polygon", "coordinates": [[[-93.8563, 51.0333], [-93.8563, 51.0375], [-93.8625, 51.0375], [-93.8625, 51.0333], [-93.8563, 51.0333]]]}, "properties": {"company_id": "nexus-gold", "jurisdiction": "Ontario", "claim_id": "271014", "claim_name": null, "holder": "(100) Nexus Metals Corp.", "status": "Active", "recorded_date": "2018-04-10", "anniversary_or_expiry": "2027-02-25", "area_ha": null, "tenure_type": "Single Cell Mining Claim", "source": "Ontario MLAS operational claims (OGSEarth / LIO MapServer). Unofficial viewing data, not legal title.", "as_of": "2026-09-20", "role": "focus", "color": "#e8b040"}}, {"type": "Feature", "geometry": {"type": "Polygon", "coordinates": [[[-93.8688, 51.0458], [-93.8688, 51.05], [-93.875, 51.05], [-93.875, 51.0458], [-93.8688, 51.0458]]]}, "properties": {"company_id": "nexus-gold", "jurisdiction": "Ontario", "claim_id": "278994", "claim_name": null, "holder": "(100) Nexus Metals Corp.", "status": "Active", "recorded_date": "2018-04-10", "anniversary_or_expiry": "2027-04-16", "area_ha": null, "tenure_type": "Single Cell Mining Claim", "source": "Ontario MLAS operational claims (OGSEarth / LIO MapServer). Unofficial viewing data, not legal title.", "as_of": "2026-09-20", "role": "focus", "color": "#e8b040"}}, {"type": "Feature", "geometry": {"type": "Polygon", "coordinates": [[[-93.8625, 51.0458], [-93.8625, 51.05], [-93.8688, 51.05], [-93.8688, 51.0458], [-93.8625, 51.0458]]]}, "properties": {"company_id": "nexus-gold", "jurisdiction": "Ontario", "claim_id": "277465", "claim_name": null, "holder": "(100) Nexus Metals Corp.", "status": "Active", "recorded_date": "2018-04-10", "anniversary_or_expiry": "2027-04-16", "area_ha": null, "tenure_type": "Single Cell Mining Claim", "source": "Ontario MLAS operational claims (OGSEarth / LIO MapServer). Unofficial viewing data, not legal title.", "as_of": "2026-09-20", "role": "focus", "color": "#e8b040"}}, {"type": "Feature", "geometry": {"type": "Polygon", "coordinates": [[[-93.875, 51.0458], [-93.875, 51.05], [-93.8813, 51.05], [-93.8813, 51.0458], [-93.875, 51.0458]]]}, "properties": {"company_id": "nexus-gold", "jurisdiction": "Ontario", "claim_id": "277466", "claim_name": null, "holder": "(100) Nexus Metals Corp.", "status": "Active", "recorded_date": "2018-04-10", "anniversary_or_expiry": "2027-02-25", "area_ha": null, "tenure_type": "Single Cell Mining Claim", "source": "Ontario MLAS operational claims (OGSEarth / LIO MapServer). Unofficial viewing data, not legal title.", "as_of": "2026-09-20", "role": "focus", "color": "#e8b040"}}, {"type": "Feature", "geometry": {"type": "Polygon", "coordinates": [[[-93.85, 51.05], [-93.85, 51.0542], [-93.8563, 51.0542], [-93.8563, 51.05], [-93.85, 51.05]]]}, "properties": {"company_id": "nexus-gold", "jurisdiction": "Ontario", "claim_id": "277600", "claim_name": null, "holder": "(100) Nexus Metals Corp.", "status": "Active", "recorded_date": "2018-04-10", "anniversary_or_expiry": "2027-01-18", "area_ha": null, "tenure_type": "Single Cell Mining Claim", "source": "Ontario MLAS operational claims (OGSEarth / LIO MapServer). Unofficial viewing data, not legal title.", "as_of": "2026-09-20", "role": "focus", "color": "#e8b040"}}, {"type": "Feature", "geometry": {"type": "Polygon", "coordinates": [[[-93.8813, 51.0542], [-93.8813, 51.0583], [-93.8875, 51.0583], [-93.8875, 51.0542], [-93.8813, 51.0542]]]}, "properties": {"company_id": "nexus-gold", "jurisdiction": "Ontario", "claim_id": "280965", "claim_name": null, "holder": "(100) Nexus Metals Corp.", "status": "Active", "recorded_date": "2018-04-10", "anniversary_or_expiry": "2027-04-13", "area_ha": null, "tenure_type": "Single Cell Mining Claim", "source": "Ontario MLAS operational claims (OGSEarth / LIO MapServer). Unofficial viewing data, not legal title.", "as_of": "2026-09-20", "role": "focus", "color": "#e8b040"}}, {"type": "Feature", "geometry": {"type": "Polygon", "coordinates": [[[-93.8875, 51.05], [-93.8875, 51.0542], [-93.8938, 51.0542], [-93.8938, 51.05], [-93.8875, 51.05]]]}, "properties": {"company_id": "nexus-gold", "jurisdiction": "Ontario", "claim_id": "280966", "claim_name": null, "holder": "(100) Nexus Metals Corp.", "status": "Active", "recorded_date": "2018-04-10", "anniversary_or_expiry": "2027-04-13", "area_ha": null, "tenure_type": "Single Cell Mining Claim", "source": "Ontario MLAS operational claims (OGSEarth / LIO MapServer). Unofficial viewing data, not legal title.", "as_of": "2026-09-20", "role": "focus", "color": "#e8b040"}}, {"type": "Feature", "geometry": {"type": "Polygon", "coordinates": [[[-93.9, 51.05], [-93.9, 51.0542], [-93.9063, 51.0542], [-93.9063, 51.05], [-93.9, 51.05]]]}, "properties": {"company_id": "nexus-gold", "jurisdiction": "Ontario", "claim_id": "281716", "claim_name": null, "holder": "(100) Nexus Metals Corp.", "status": "Active", "recorded_date": "2018-04-10", "anniversary_or_expiry": "2027-02-25", "area_ha": null, "tenure_type": "Single Cell Mining Claim", "source": "Ontario MLAS operational claims (OGSEarth / LIO MapServer). Unofficial viewing data, not legal title.", "as_of": "2026-09-20", "role": "focus", "color": "#e8b040"}}, {"type": "Feature", "geometry": {"type": "Polygon", "coordinates": [[[-93.85, 51.0417], [-93.85, 51.0458], [-93.8563, 51.0458], [-93.8563, 51.0417], [-93.85, 51.0417]]]}, "properties": {"company_id": "nexus-gold", "jurisdiction": "Ontario", "claim_id": "283637", "claim_name": null, "holder": "(100) Nexus Metals Corp.", "status": "Active", "recorded_date": "2018-04-10", "anniversary_or_expiry": "2027-02-25", "area_ha": null, "tenure_type": "Single Cell Mining Claim", "source": "Ontario MLAS operational claims (OGSEarth / LIO MapServer). Unofficial viewing data, not legal title.", "as_of": "2026-09-20", "role": "focus", "color": "#e8b040"}}, {"type": "Feature", "geometry": {"type": "Polygon", "coordinates": [[[-93.8813, 51.0167], [-93.8813, 51.0208], [-93.8875, 51.0208], [-93.8875, 51.0167], [-93.8813, 51.0167]]]}, "properties": {"company_id": "nexus-gold", "jurisdiction": "Ontario", "claim_id": "284293", "claim_name": null, "holder": "(100) Nexus Metals Corp.", "status": "Active", "recorded_date": "2018-04-10", "anniversary_or_expiry": "2027-12-28", "area_ha": null, "tenure_type": "Boundary Cell Mining Claim", "source": "Ontario MLAS operational claims (OGSEarth / LIO MapServer). Unofficial viewing data, not legal title.", "as_of": "2026-09-20", "role": "focus", "color": "#e8b040"}}, {"type": "Feature", "geometry": {"type": "Polygon", "coordinates": [[[-93.8375, 51.0333], [-93.8375, 51.0375], [-93.8438, 51.0375], [-93.8438, 51.0333], [-93.8375, 51.0333]]]}, "properties": {"company_id": "nexus-gold", "jurisdiction": "Ontario", "claim_id": "290415", "claim_name": null, "holder": "(100) Nexus Metals Corp.", "status": "Active", "recorded_date": "2018-04-10", "anniversary_or_expiry": "2027-02-25", "area_ha": null, "tenure_type": "Single Cell Mining Claim", "source": "Ontario MLAS operational claims (OGSEarth / LIO MapServer). Unofficial viewing data, not legal title.", "as_of": "2026-09-20", "role": "focus", "color": "#e8b040"}}, {"type": "Feature", "geometry": {"type": "Polygon", "coordinates": [[[-93.875, 51.0667], [-93.875, 51.0708], [-93.8813, 51.0708], [-93.8813, 51.0667], [-93.875, 51.0667]]]}, "properties": {"company_id": "nexus-gold", "jurisdiction": "Ontario", "claim_id": "293608", "claim_name": null, "holder": "(100) Nexus Metals Corp.", "status": "Active", "recorded_date": "2018-04-10", "anniversary_or_expiry": "2027-07-20", "area_ha": null, "tenure_type": "Single Cell Mining Claim", "source": "Ontario MLAS operational claims (OGSEarth / LIO MapServer). Unofficial viewing data, not legal title.", "as_of": "2026-09-20", "role": "focus", "color": "#e8b040"}}, {"type": "Feature", "geometry": {"type": "Polygon", "coordinates": [[[-93.8625, 51.0792], [-93.8625, 51.0833], [-93.8688, 51.0833], [-93.8688, 51.0792], [-93.8625, 51.0792]]]}, "properties": {"company_id": "nexus-gold", "jurisdiction": "Ontario", "claim_id": "301384", "claim_name": null, "holder": "(100) Nexus Metals Corp.", "status": "Active", "recorded_date": "2018-04-10", "anniversary_or_expiry": "2027-07-20", "area_ha": null, "tenure_type": "Boundary Cell Mining Claim", "source": "Ontario MLAS operational claims (OGSEarth / LIO MapServer). Unofficial viewing data, not legal title.", "as_of": "2026-09-20", "role": "focus", "color": "#e8b040"}}, {"type": "Feature", "geometry": {"type": "Polygon", "coordinates": [[[-93.8625, 51.0667], [-93.8625, 51.0708], [-93.8688, 51.0708], [-93.8688, 51.0667], [-93.8625, 51.0667]]]}, "properties": {"company_id": "nexus-gold", "jurisdiction": "Ontario", "claim_id": "305666", "claim_name": null, "holder": "(100) Nexus Metals Corp.", "status": "Active", "recorded_date": "2018-04-10", "anniversary_or_expiry": "2027-07-20", "area_ha": null, "tenure_type": "Single Cell Mining Claim", "source": "Ontario MLAS operational claims (OGSEarth / LIO MapServer). Unofficial viewing data, not legal title.", "as_of": "2026-09-20", "role": "focus", "color": "#e8b040"}}, {"type": "Feature", "geometry": {"type": "Polygon", "coordinates": [[[-93.8625, 51.0292], [-93.8625, 51.0333], [-93.8688, 51.0333], [-93.8688, 51.0292], [-93.8625, 51.0292]]]}, "properties": {"company_id": "nexus-gold", "jurisdiction": "Ontario", "claim_id": "310201", "claim_name": null, "holder": "(100) Nexus Metals Corp.", "status": "Active", "recorded_date": "2018-04-10", "anniversary_or_expiry": "2027-12-28", "area_ha": null, "tenure_type": "Boundary Cell Mining Claim", "source": "Ontario MLAS operational claims (OGSEarth / LIO MapServer). Unofficial viewing data, not legal title.", "as_of": "2026-09-20", "role": "focus", "color": "#e8b040"}}, {"type": "Feature", "geometry": {"type": "Polygon", "coordinates": [[[-93.8688, 51.0292], [-93.8688, 51.0333], [-93.875, 51.0333], [-93.875, 51.0292], [-93.8688, 51.0292]]]}, "properties": {"company_id": "nexus-gold", "jurisdiction": "Ontario", "claim_id": "310202", "claim_name": null, "holder": "(100) Nexus Metals Corp.", "status": "Active", "recorded_date": "2018-04-10", "anniversary_or_expiry": "2027-12-28", "area_ha": null, "tenure_type": "Boundary Cell Mining Claim", "source": "Ontario MLAS operational claims (OGSEarth / LIO MapServer). Unofficial viewing data, not legal title.", "as_of": "2026-09-20", "role": "focus", "color": "#e8b040"}}, {"type": "Feature", "geometry": {"type": "Polygon", "coordinates": [[[-93.875, 51.0417], [-93.875, 51.0458], [-93.8813, 51.0458], [-93.8813, 51.0417], [-93.875, 51.0417]]]}, "properties": {"company_id": "nexus-gold", "jurisdiction": "Ontario", "claim_id": "314050", "claim_name": null, "holder": "(100) Nexus Metals Corp.", "status": "Active", "recorded_date": "2018-04-10", "anniversary_or_expiry": "2027-02-25", "area_ha": null, "tenure_type": "Single Cell Mining Claim", "source": "Ontario MLAS operational claims (OGSEarth / LIO MapServer). Unofficial viewing data, not legal title.", "as_of": "2026-09-20", "role": "focus", "color": "#e8b040"}}, {"type": "Feature", "geometry": {"type": "Polygon", "coordinates": [[[-93.8813, 51.0417], [-93.8813, 51.0458], [-93.8875, 51.0458], [-93.8875, 51.0417], [-93.8813, 51.0417]]]}, "properties": {"company_id": "nexus-gold", "jurisdiction": "Ontario", "claim_id": "314051", "claim_name": null, "holder": "(100) Nexus Metals Corp.", "status": "Active", "recorded_date": "2018-04-10", "anniversary_or_expiry": "2027-02-25", "area_ha": null, "tenure_type": "Single Cell Mining Claim", "source": "Ontario MLAS operational claims (OGSEarth / LIO MapServer). Unofficial viewing data, not legal title.", "as_of": "2026-09-20", "role": "focus", "color": "#e8b040"}}, {"type": "Feature", "geometry": {"type": "Polygon", "coordinates": [[[-93.8625, 51.0583], [-93.8625, 51.0625], [-93.8688, 51.0625], [-93.8688, 51.0583], [-93.8625, 51.0583]]]}, "properties": {"company_id": "nexus-gold", "jurisdiction": "Ontario", "claim_id": "313364", "claim_name": null, "holder": "(100) Nexus Metals Corp.", "status": "Active", "recorded_date": "2018-04-10", "anniversary_or_expiry": "2027-07-20", "area_ha": null, "tenure_type": "Single Cell Mining Claim", "source": "Ontario MLAS operational claims (OGSEarth / LIO MapServer). Unofficial viewing data, not legal title.", "as_of": "2026-09-20", "role": "focus", "color": "#e8b040"}}, {"type": "Feature", "geometry": {"type": "Polygon", "coordinates": [[[-93.8688, 51.0583], [-93.8688, 51.0625], [-93.875, 51.0625], [-93.875, 51.0583], [-93.8688, 51.0583]]]}, "properties": {"company_id": "nexus-gold", "jurisdiction": "Ontario", "claim_id": "313365", "claim_name": null, "holder": "(100) Nexus Metals Corp.", "status": "Active", "recorded_date": "2018-04-10", "anniversary_or_expiry": "2027-07-20", "area_ha": null, "tenure_type": "Single Cell Mining Claim", "source": "Ontario MLAS operational claims (OGSEarth / LIO MapServer). Unofficial viewing data, not legal title.", "as_of": "2026-09-20", "role": "focus", "color": "#e8b040"}}, {"type": "Feature", "geometry": {"type": "Polygon", "coordinates": [[[-93.875, 51.0292], [-93.875, 51.0333], [-93.8813, 51.0333], [-93.8813, 51.0292], [-93.875, 51.0292]]]}, "properties": {"company_id": "nexus-gold", "jurisdiction": "Ontario", "claim_id": "316909", "claim_name": null, "holder": "(100) Nexus Metals Corp.", "status": "Active", "recorded_date": "2018-04-10", "anniversary_or_expiry": "2027-12-28", "area_ha": null, "tenure_type": "Boundary Cell Mining Claim", "source": "Ontario MLAS operational claims (OGSEarth / LIO MapServer). Unofficial viewing data, not legal title.", "as_of": "2026-09-20", "role": "focus", "color": "#e8b040"}}, {"type": "Feature", "geometry": {"type": "Polygon", "coordinates": [[[-93.8813, 51.025], [-93.8813, 51.0292], [-93.8875, 51.0292], [-93.8875, 51.025], [-93.8813, 51.025]]]}, "properties": {"company_id": "nexus-gold", "jurisdiction": "Ontario", "claim_id": "316910", "claim_name": null, "holder": "(100) Nexus Metals Corp.", "status": "Active", "recorded_date": "2018-04-10", "anniversary_or_expiry": "2027-12-28", "area_ha": null, "tenure_type": "Boundary Cell Mining Claim", "source": "Ontario MLAS operational claims (OGSEarth / LIO MapServer). Unofficial viewing data, not legal title.", "as_of": "2026-09-20", "role": "focus", "color": "#e8b040"}}, {"type": "Feature", "geometry": {"type": "Polygon", "coordinates": [[[-93.8625, 51.075], [-93.8625, 51.0792], [-93.8688, 51.0792], [-93.8688, 51.075], [-93.8625, 51.075]]]}, "properties": {"company_id": "nexus-gold", "jurisdiction": "Ontario", "claim_id": "320771", "claim_name": null, "holder": "(100) Nexus Metals Corp.", "status": "Active", "recorded_date": "2018-04-10", "anniversary_or_expiry": "2027-07-20", "area_ha": null, "tenure_type": "Boundary Cell Mining Claim", "source": "Ontario MLAS operational claims (OGSEarth / LIO MapServer). Unofficial viewing data, not legal title.", "as_of": "2026-09-20", "role": "focus", "color": "#e8b040"}}, {"type": "Feature", "geometry": {"type": "Polygon", "coordinates": [[[-93.8813, 51.0458], [-93.8813, 51.05], [-93.8875, 51.05], [-93.8875, 51.0458], [-93.8813, 51.0458]]]}, "properties": {"company_id": "nexus-gold", "jurisdiction": "Ontario", "claim_id": "326096", "claim_name": null, "holder": "(100) Nexus Metals Corp.", "status": "Active", "recorded_date": "2018-04-10", "anniversary_or_expiry": "2027-02-25", "area_ha": null, "tenure_type": "Single Cell Mining Claim", "source": "Ontario MLAS operational claims (OGSEarth / LIO MapServer). Unofficial viewing data, not legal title.", "as_of": "2026-09-20", "role": "focus", "color": "#e8b040"}}, {"type": "Feature", "geometry": {"type": "Polygon", "coordinates": [[[-93.8438, 51.0458], [-93.8438, 51.05], [-93.85, 51.05], [-93.85, 51.0458], [-93.8438, 51.0458]]]}, "properties": {"company_id": "nexus-gold", "jurisdiction": "Ontario", "claim_id": "330176", "claim_name": null, "holder": "(100) Nexus Metals Corp.", "status": "Active", "recorded_date": "2018-04-10", "anniversary_or_expiry": "2027-02-25", "area_ha": null, "tenure_type": "Boundary Cell Mining Claim", "source": "Ontario MLAS operational claims (OGSEarth / LIO MapServer). Unofficial viewing data, not legal title.", "as_of": "2026-09-20", "role": "focus", "color": "#e8b040"}}, {"type": "Feature", "geometry": {"type": "Polygon", "coordinates": [[[-93.8563, 51.0458], [-93.8563, 51.05], [-93.8625, 51.05], [-93.8625, 51.0458], [-93.8563, 51.0458]]]}, "properties": {"company_id": "nexus-gold", "jurisdiction": "Ontario", "claim_id": "330216", "claim_name": null, "holder": "(100) Nexus Metals Corp.", "status": "Active", "recorded_date": "2018-04-10", "anniversary_or_expiry": "2027-04-16", "area_ha": null, "tenure_type": "Single Cell Mining Claim", "source": "Ontario MLAS operational claims (OGSEarth / LIO MapServer). Unofficial viewing data, not legal title.", "as_of": "2026-09-20", "role": "focus", "color": "#e8b040"}}, {"type": "Feature", "geometry": {"type": "Polygon", "coordinates": [[[-93.8563, 51.0792], [-93.8563, 51.0833], [-93.8625, 51.0833], [-93.8625, 51.0792], [-93.8563, 51.0792]]]}, "properties": {"company_id": "nexus-gold", "jurisdiction": "Ontario", "claim_id": "333270", "claim_name": null, "holder": "(100) Nexus Metals Corp.", "status": "Active", "recorded_date": "2018-04-10", "anniversary_or_expiry": "2027-07-20", "area_ha": null, "tenure_type": "Boundary Cell Mining Claim", "source": "Ontario MLAS operational claims (OGSEarth / LIO MapServer). Unofficial viewing data, not legal title.", "as_of": "2026-09-20", "role": "focus", "color": "#e8b040"}}, {"type": "Feature", "geometry": {"type": "Polygon", "coordinates": [[[-93.8688, 51.0542], [-93.8688, 51.0583], [-93.875, 51.0583], [-93.875, 51.0542], [-93.8688, 51.0542]]]}, "properties": {"company_id": "nexus-gold", "jurisdiction": "Ontario", "claim_id": "340645", "claim_name": null, "holder": "(100) Nexus Metals Corp.", "status": "Active", "recorded_date": "2018-04-10", "anniversary_or_expiry": "2027-02-25", "area_ha": null, "tenure_type": "Single Cell Mining Claim", "source": "Ontario MLAS operational claims (OGSEarth / LIO MapServer). Unofficial viewing data, not legal title.", "as_of": "2026-09-20", "role": "focus", "color": "#e8b040"}}, {"type": "Feature", "geometry": {"type": "Polygon", "coordinates": [[[-93.8688, 51.05], [-93.8688, 51.0542], [-93.875, 51.0542], [-93.875, 51.05], [-93.8688, 51.05]]]}, "properties": {"company_id": "nexus-gold", "jurisdiction": "Ontario", "claim_id": "340646", "claim_name": null, "holder": "(100) Nexus Metals Corp.", "status": "Active", "recorded_date": "2018-04-10", "anniversary_or_expiry": "2027-04-16", "area_ha": null, "tenure_type": "Single Cell Mining Claim", "source": "Ontario MLAS operational claims (OGSEarth / LIO MapServer). Unofficial viewing data, not legal title.", "as_of": "2026-09-20", "role": "focus", "color": "#e8b040"}}, {"type": "Feature", "geometry": {"type": "Polygon", "coordinates": [[[-93.8875, 51.0208], [-93.8875, 51.025], [-93.8938, 51.025], [-93.8938, 51.0208], [-93.8875, 51.0208]]]}, "properties": {"company_id": "nexus-gold", "jurisdiction": "Ontario", "claim_id": "343228", "claim_name": null, "holder": "(100) Nexus Metals Corp.", "status": "Active", "recorded_date": "2018-04-10", "anniversary_or_expiry": "2027-12-28", "area_ha": null, "tenure_type": "Boundary Cell Mining Claim", "source": "Ontario MLAS operational claims (OGSEarth / LIO MapServer). Unofficial viewing data, not legal title.", "as_of": "2026-09-20", "role": "focus", "color": "#e8b040"}}, {"type": "Feature", "geometry": {"type": "Polygon", "coordinates": [[[-93.8313, 51.0417], [-93.8313, 51.0458], [-93.8375, 51.0458], [-93.8375, 51.0417], [-93.8313, 51.0417]]]}, "properties": {"company_id": "nexus-gold", "jurisdiction": "Ontario", "claim_id": "342013", "claim_name": null, "holder": "(100) Nexus Metals Corp.", "status": "Active", "recorded_date": "2018-04-10", "anniversary_or_expiry": "2027-02-25", "area_ha": null, "tenure_type": "Single Cell Mining Claim", "source": "Ontario MLAS operational claims (OGSEarth / LIO MapServer). Unofficial viewing data, not legal title.", "as_of": "2026-09-20", "role": "focus", "color": "#e8b040"}}, {"type": "Feature", "geometry": {"type": "Polygon", "coordinates": [[[-93.8375, 51.0375], [-93.8375, 51.0417], [-93.8438, 51.0417], [-93.8438, 51.0375], [-93.8375, 51.0375]]]}, "properties": {"company_id": "nexus-gold", "jurisdiction": "Ontario", "claim_id": "342014", "claim_name": null, "holder": "(100) Nexus Metals Corp.", "status": "Active", "recorded_date": "2018-04-10", "anniversary_or_expiry": "2027-02-25", "area_ha": null, "tenure_type": "Single Cell Mining Claim", "source": "Ontario MLAS operational claims (OGSEarth / LIO MapServer). Unofficial viewing data, not legal title.", "as_of": "2026-09-20", "role": "focus", "color": "#e8b040"}}, {"type": "Feature", "geometry": {"type": "Polygon", "coordinates": [[[-93.8313, 51.0333], [-93.8313, 51.0375], [-93.8375, 51.0375], [-93.8375, 51.0333], [-93.8313, 51.0333]]]}, "properties": {"company_id": "nexus-gold", "jurisdiction": "Ontario", "claim_id": "342015", "claim_name": null, "holder": "(100) Nexus Metals Corp.", "status": "Active", "recorded_date": "2018-04-10", "anniversary_or_expiry": "2027-02-25", "area_ha": null, "tenure_type": "Single Cell Mining Claim", "source": "Ontario MLAS operational claims (OGSEarth / LIO MapServer). Unofficial viewing data, not legal title.", "as_of": "2026-09-20", "role": "focus", "color": "#e8b040"}}, {"type": "Feature", "geometry": {"type": "Polygon", "coordinates": [[[-93.8813, 51.0708], [-93.8813, 51.075], [-93.8875, 51.075], [-93.8875, 51.0708], [-93.8813, 51.0708]]]}, "properties": {"company_id": "nexus-gold", "jurisdiction": "Ontario", "claim_id": "344464", "claim_name": null, "holder": "(100) Nexus Metals Corp.", "status": "Active", "recorded_date": "2018-04-10", "anniversary_or_expiry": "2027-07-20", "area_ha": null, "tenure_type": "Boundary Cell Mining Claim", "source": "Ontario MLAS operational claims (OGSEarth / LIO MapServer). Unofficial viewing data, not legal title.", "as_of": "2026-09-20", "role": "focus", "color": "#e8b040"}}, {"type": "Feature", "geometry": {"type": "Polygon", "coordinates": [[[-93.8688, 51.0667], [-93.8688, 51.0708], [-93.875, 51.0708], [-93.875, 51.0667], [-93.8688, 51.0667]]]}, "properties": {"company_id": "nexus-gold", "jurisdiction": "Ontario", "claim_id": "344465", "claim_name": null, "holder": "(100) Nexus Metals Corp.", "status": "Active", "recorded_date": "2018-04-10", "anniversary_or_expiry": "2027-07-20", "area_ha": null, "tenure_type": "Single Cell Mining Claim", "source": "Ontario MLAS operational claims (OGSEarth / LIO MapServer). Unofficial viewing data, not legal title.", "as_of": "2026-09-20", "role": "focus", "color": "#e8b040"}}]}