{"type": "FeatureCollection", "features": [{"type": "Feature", "geometry": {"type": "Polygon", "coordinates": [[[-92.4, 49.4917], [-92.4, 49.4958], [-92.4063, 49.4958], [-92.4063, 49.4917], [-92.4, 49.4917]]]}, "properties": {"company_id": "niocorp-developments", "jurisdiction": "Ontario", "claim_id": "224894", "claim_name": null, "holder": "(100) Ursa Polaris Developments Corporation", "status": "Active", "recorded_date": "2018-04-10", "anniversary_or_expiry": "2026-02-22", "area_ha": null, "tenure_type": "Single Cell Mining Claim", "source": "Ontario MLAS operational claims (OGSEarth / LIO MapServer). Unofficial viewing data, not legal title.", "as_of": "2026-09-20", "role": "focus", "color": "#e8b040"}}]}