{"type": "FeatureCollection", "features": [{"type": "Feature", "geometry": {"type": "Polygon", "coordinates": [[[-121.472, 52.8114], [-121.4573, 52.8109], [-121.4568, 52.8154], [-121.4704, 52.8159], [-121.472, 52.8114]]]}, "properties": {"company_id": "noble-mineral-exploration", "jurisdiction": "British Columbia", "claim_id": 337015, "claim_name": "LOU 1", "holder": "NOBLE METAL GROUP INCORPORATED", "status": "Placer", "recorded_date": "8028288000", "anniversary_or_expiry": "2026-06-18", "area_ha": 50, "tenure_type": "Placer", "source": "BC MTA Mineral, Placer and Coal Tenure Spatial View (BCGW). Open Government Licence - British Columbia. Not legal title.", "as_of": "2026-09-20", "role": "focus", "color": "#e8b040"}}, {"type": "Feature", "geometry": {"type": "Polygon", "coordinates": [[[-121.4573, 52.8109], [-121.4721, 52.8114], [-121.4723, 52.8094], [-121.4716, 52.8092], [-121.4725, 52.8074], [-121.4706, 52.8088], [-121.4666, 52.8067], [-121.4577, 52.8064], [-121.4573, 52.8109]]]}, "properties": {"company_id": "noble-mineral-exploration", "jurisdiction": "British Columbia", "claim_id": 337016, "claim_name": "LOU 2", "holder": "NOBLE METAL GROUP INCORPORATED", "status": "Placer", "recorded_date": "8028288000", "anniversary_or_expiry": "2026-06-18", "area_ha": 50, "tenure_type": "Placer", "source": "BC MTA Mineral, Placer and Coal Tenure Spatial View (BCGW). Open Government Licence - British Columbia. Not legal title.", "as_of": "2026-09-20", "role": "focus", "color": "#e8b040"}}, {"type": "Feature", "geometry": {"type": "MultiPolygon", "coordinates": [[[[-121.4772, 52.8033], [-121.4827, 52.8051], [-121.4867, 52.8014], [-121.4757, 52.7971], [-121.4658, 52.791], [-121.463, 52.7929], [-121.4641, 52.7939], [-121.4622, 52.7946], [-121.4631, 52.7945], [-121.4634, 52.796], [-121.4663, 52.7977], [-121.4592, 52.803], [-121.4706, 52.8088], [-121.4772, 52.8033]]], [[[-121.4753, 52.8053], [-121.4716, 52.8092], [-121.4828, 52.813], [-121.4861, 52.8095], [-121.4856, 52.8088], [-121.4753, 52.8053]]]]}, "properties": {"company_id": "noble-mineral-exploration", "jurisdiction": "British Columbia", "claim_id": 365488, "claim_name": null, "holder": "NOBLE METAL GROUP INCORPORATED", "status": "Placer", "recorded_date": "9083232000", "anniversary_or_expiry": "2025-10-14", "area_ha": 211.34, "tenure_type": "Placer", "source": "BC MTA Mineral, Placer and Coal Tenure Spatial View (BCGW). Open Government Licence - British Columbia. Not legal title.", "as_of": "2026-09-20", "role": "focus", "color": "#e8b040"}}]}