{"type": "FeatureCollection", "features": [{"type": "Feature", "geometry": {"type": "Polygon", "coordinates": [[[-123.0675, 50.0432], [-123.0675, 50.0477], [-123.0745, 50.0477], [-123.0745, 50.0432], [-123.0675, 50.0432]]]}, "properties": {"company_id": "northwest-copper", "jurisdiction": "British Columbia", "claim_id": 324714, "claim_name": "LOK 1", "holder": "NORTHWEST LANDSCAPE SUPPLY LTD.", "status": "Mineral", "recorded_date": "7659360000", "anniversary_or_expiry": "2025-11-14", "area_ha": 25, "tenure_type": "Mineral", "source": "BC MTA Mineral, Placer and Coal Tenure Spatial View (BCGW). Open Government Licence - British Columbia. Not legal title.", "as_of": "2026-09-20", "role": "focus", "color": "#e8b040"}}, {"type": "Feature", "geometry": {"type": "Polygon", "coordinates": [[[-123.0745, 50.0477], [-123.0779, 50.0516], [-123.084, 50.0494], [-123.0815, 50.0465], [-123.0815, 50.0477], [-123.0745, 50.0477]]]}, "properties": {"company_id": "northwest-copper", "jurisdiction": "British Columbia", "claim_id": 325877, "claim_name": "JANE 1", "holder": "NORTHWEST LANDSCAPE SUPPLY LTD.", "status": "Mineral", "recorded_date": "7704288000", "anniversary_or_expiry": "2025-11-14", "area_ha": 25, "tenure_type": "Mineral", "source": "BC MTA Mineral, Placer and Coal Tenure Spatial View (BCGW). Open Government Licence - British Columbia. Not legal title.", "as_of": "2026-09-20", "role": "focus", "color": "#e8b040"}}, {"type": "Feature", "geometry": {"type": "Polygon", "coordinates": [[[-123.0745, 50.0477], [-123.0684, 50.0499], [-123.0718, 50.0538], [-123.0779, 50.0516], [-123.0745, 50.0477]]]}, "properties": {"company_id": "northwest-copper", "jurisdiction": "British Columbia", "claim_id": 325878, "claim_name": "JANE 2", "holder": "NORTHWEST LANDSCAPE SUPPLY LTD.", "status": "Mineral", "recorded_date": "7704288000", "anniversary_or_expiry": "2025-11-14", "area_ha": 25, "tenure_type": "Mineral", "source": "BC MTA Mineral, Placer and Coal Tenure Spatial View (BCGW). Open Government Licence - British Columbia. Not legal title.", "as_of": "2026-09-20", "role": "focus", "color": "#e8b040"}}, {"type": "Feature", "geometry": {"type": "Polygon", "coordinates": [[[-123.218, 49.9695], [-123.2189, 49.974], [-123.2258, 49.9734], [-123.2249, 49.9689], [-123.218, 49.9695]]]}, "properties": {"company_id": "northwest-copper", "jurisdiction": "British Columbia", "claim_id": 330314, "claim_name": "HUCKLEBERRY 1", "holder": "NORTHWEST LANDSCAPE SUPPLY LTD.", "status": "Mineral", "recorded_date": "7772544000", "anniversary_or_expiry": "2025-11-30", "area_ha": 25, "tenure_type": "Mineral", "source": "BC MTA Mineral, Placer and Coal Tenure Spatial View (BCGW). Open Government Licence - British Columbia. Not legal title.", "as_of": "2026-09-20", "role": "focus", "color": "#e8b040"}}, {"type": "Feature", "geometry": {"type": "Polygon", "coordinates": [[[-123.218, 49.969], [-123.218, 49.9695], [-123.225, 49.9693], [-123.2253, 49.9652], [-123.2183, 49.965], [-123.218, 49.969]]]}, "properties": {"company_id": "northwest-copper", "jurisdiction": "British Columbia", "claim_id": 330316, "claim_name": "HUCKLEBERRY 3", "holder": "NORTHWEST LANDSCAPE SUPPLY LTD.", "status": "Mineral", "recorded_date": "7772544000", "anniversary_or_expiry": "2025-11-30", "area_ha": 25, "tenure_type": "Mineral", "source": "BC MTA Mineral, Placer and Coal Tenure Spatial View (BCGW). Open Government Licence - British Columbia. Not legal title.", "as_of": "2026-09-20", "role": "focus", "color": "#e8b040"}}, {"type": "Feature", "geometry": {"type": "Polygon", "coordinates": [[[-123.0812, 50.0353], [-123.0834, 50.0357], [-123.0856, 50.0315], [-123.079, 50.03], [-123.0768, 50.0343], [-123.0812, 50.0353]]]}, "properties": {"company_id": "northwest-copper", "jurisdiction": "British Columbia", "claim_id": 332479, "claim_name": "LOK-5", "holder": "NORTHWEST LANDSCAPE SUPPLY LTD.", "status": "Mineral", "recorded_date": "7845120000", "anniversary_or_expiry": "2025-11-14", "area_ha": 25, "tenure_type": "Mineral", "source": "BC MTA Mineral, Placer and Coal Tenure Spatial View (BCGW). Open Government Licence - British Columbia. Not legal title.", "as_of": "2026-09-20", "role": "focus", "color": "#e8b040"}}, {"type": "Feature", "geometry": {"type": "Polygon", "coordinates": [[[-123.0812, 50.0258], [-123.0879, 50.027], [-123.0899, 50.0227], [-123.0832, 50.0215], [-123.0812, 50.0258]]]}, "properties": {"company_id": "northwest-copper", "jurisdiction": "British Columbia", "claim_id": 337488, "claim_name": "LOK 10", "holder": "NORTHWEST LANDSCAPE SUPPLY LTD.", "status": "Mineral", "recorded_date": "8042112000", "anniversary_or_expiry": "2025-11-14", "area_ha": 25, "tenure_type": "Mineral", "source": "BC MTA Mineral, Placer and Coal Tenure Spatial View (BCGW). Open Government Licence - British Columbia. Not legal title.", "as_of": "2026-09-20", "role": "focus", "color": "#e8b040"}}, {"type": "Feature", "geometry": {"type": "Polygon", "coordinates": [[[-123.0832, 50.0215], [-123.0899, 50.0227], [-123.0918, 50.0184], [-123.0851, 50.0172], [-123.0832, 50.0215]]]}, "properties": {"company_id": "northwest-copper", "jurisdiction": "British Columbia", "claim_id": 337489, "claim_name": "LOK 11", "holder": "NORTHWEST LANDSCAPE SUPPLY LTD.", "status": "Mineral", "recorded_date": "8042976000", "anniversary_or_expiry": "2025-11-14", "area_ha": 25, "tenure_type": "Mineral", "source": "BC MTA Mineral, Placer and Coal Tenure Spatial View (BCGW). Open Government Licence - British Columbia. Not legal title.", "as_of": "2026-09-20", "role": "focus", "color": "#e8b040"}}, {"type": "Feature", "geometry": {"type": "Polygon", "coordinates": [[[-123.0851, 50.0172], [-123.0918, 50.0184], [-123.0929, 50.0161], [-123.0929, 50.0139], [-123.0871, 50.0128], [-123.0851, 50.0172]]]}, "properties": {"company_id": "northwest-copper", "jurisdiction": "British Columbia", "claim_id": 337490, "claim_name": "LOK 12", "holder": "NORTHWEST LANDSCAPE SUPPLY LTD.", "status": "Mineral", "recorded_date": "8042976000", "anniversary_or_expiry": "2025-11-14", "area_ha": 25, "tenure_type": "Mineral", "source": "BC MTA Mineral, Placer and Coal Tenure Spatial View (BCGW). Open Government Licence - British Columbia. Not legal title.", "as_of": "2026-09-20", "role": "focus", "color": "#e8b040"}}, {"type": "Feature", "geometry": {"type": "Polygon", "coordinates": [[[-123.0871, 50.0128], [-123.0929, 50.0139], [-123.0929, 50.0124], [-123.0946, 50.0124], [-123.0958, 50.0098], [-123.0891, 50.0085], [-123.0871, 50.0128]]]}, "properties": {"company_id": "northwest-copper", "jurisdiction": "British Columbia", "claim_id": 337491, "claim_name": "LOK 13", "holder": "NORTHWEST LANDSCAPE SUPPLY LTD.", "status": "Mineral", "recorded_date": "8042976000", "anniversary_or_expiry": "2025-11-14", "area_ha": 25, "tenure_type": "Mineral", "source": "BC MTA Mineral, Placer and Coal Tenure Spatial View (BCGW). Open Government Licence - British Columbia. Not legal title.", "as_of": "2026-09-20", "role": "focus", "color": "#e8b040"}}, {"type": "Feature", "geometry": {"type": "Polygon", "coordinates": [[[-123.079, 50.03], [-123.0856, 50.0315], [-123.0878, 50.0272], [-123.0812, 50.0258], [-123.079, 50.03]]]}, "properties": {"company_id": "northwest-copper", "jurisdiction": "British Columbia", "claim_id": 338964, "claim_name": "LOK 6", "holder": "NORTHWEST LANDSCAPE SUPPLY LTD.", "status": "Mineral", "recorded_date": "8077536000", "anniversary_or_expiry": "2025-11-14", "area_ha": 25, "tenure_type": "Mineral", "source": "BC MTA Mineral, Placer and Coal Tenure Spatial View (BCGW). Open Government Licence - British Columbia. Not legal title.", "as_of": "2026-09-20", "role": "focus", "color": "#e8b040"}}, {"type": "Feature", "geometry": {"type": "Polygon", "coordinates": [[[-123.1147, 49.8576], [-123.1083, 49.8565], [-123.1066, 49.8609], [-123.113, 49.8624], [-123.1161, 49.8584], [-123.1147, 49.8576]]]}, "properties": {"company_id": "northwest-copper", "jurisdiction": "British Columbia", "claim_id": 365797, "claim_name": null, "holder": "NORTHWEST LANDSCAPE SUPPLY LTD.", "status": "Mineral", "recorded_date": "9141984000", "anniversary_or_expiry": "2025-12-21", "area_ha": 27.6, "tenure_type": "Mineral", "source": "BC MTA Mineral, Placer and Coal Tenure Spatial View (BCGW). Open Government Licence - British Columbia. Not legal title.", "as_of": "2026-09-20", "role": "focus", "color": "#e8b040"}}, {"type": "Feature", "geometry": {"type": "MultiPolygon", "coordinates": [[[[-123.1668, 49.9635], [-123.1663, 49.9645], [-123.1668, 49.9667], [-123.1664, 49.9674], [-123.173, 49.9669], [-123.1726, 49.9633], [-123.1668, 49.9635]]], [[[-123.1661, 49.9635], [-123.1661, 49.9639], [-123.1667, 49.9635], [-123.1661, 49.9635]]]]}, "properties": {"company_id": "northwest-copper", "jurisdiction": "British Columbia", "claim_id": 367220, "claim_name": "FREEMAN 5", "holder": "NORTHWEST LANDSCAPE SUPPLY LTD.", "status": "Mineral", "recorded_date": "9122112000", "anniversary_or_expiry": "2025-11-28", "area_ha": 25, "tenure_type": "Mineral", "source": "BC MTA Mineral, Placer and Coal Tenure Spatial View (BCGW). Open Government Licence - British Columbia. Not legal title.", "as_of": "2026-09-20", "role": "focus", "color": "#e8b040"}}, {"type": "Feature", "geometry": {"type": "Polygon", "coordinates": [[[-118.8649, 49.5678], [-118.8675, 49.572], [-118.8739, 49.5702], [-118.8713, 49.5661], [-118.8649, 49.5678]]]}, "properties": {"company_id": "northwest-copper", "jurisdiction": "British Columbia", "claim_id": 371009, "claim_name": "STATE #1", "holder": "NORTHWEST LANDSCAPE SUPPLY LTD.", "status": "Mineral", "recorded_date": "9348480000", "anniversary_or_expiry": "2025-08-17", "area_ha": 25, "tenure_type": "Mineral", "source": "BC MTA Mineral, Placer and Coal Tenure Spatial View (BCGW). Open Government Licence - British Columbia. Not legal title.", "as_of": "2026-09-20", "role": "focus", "color": "#e8b040"}}, {"type": "Feature", "geometry": {"type": "Polygon", "coordinates": [[[-123.0935, 50.0665], [-123.0892, 50.07], [-123.0946, 50.0729], [-123.099, 50.0694], [-123.0935, 50.0665]]]}, "properties": {"company_id": "northwest-copper", "jurisdiction": "British Columbia", "claim_id": 374271, "claim_name": "CALL#1", "holder": "NORTHWEST LANDSCAPE SUPPLY LTD.", "status": "Mineral", "recorded_date": "9491904000", "anniversary_or_expiry": "2025-03-26", "area_ha": 25, "tenure_type": "Mineral", "source": "BC MTA Mineral, Placer and Coal Tenure Spatial View (BCGW). Open Government Licence - British Columbia. Not legal title.", "as_of": "2026-09-20", "role": "focus", "color": "#e8b040"}}, {"type": "Feature", "geometry": {"type": "Polygon", "coordinates": [[[-123.1407, 49.7095], [-123.1338, 49.7096], [-123.134, 49.7141], [-123.1409, 49.714], [-123.1407, 49.7095]]]}, "properties": {"company_id": "northwest-copper", "jurisdiction": "British Columbia", "claim_id": 376196, "claim_name": null, "holder": "NORTHWEST LANDSCAPE SUPPLY LTD.", "status": "Mineral", "recorded_date": "9720000000", "anniversary_or_expiry": "2025-10-20", "area_ha": 25, "tenure_type": "Mineral", "source": "BC MTA Mineral, Placer and Coal Tenure Spatial View (BCGW). Open Government Licence - British Columbia. Not legal title.", "as_of": "2026-09-20", "role": "focus", "color": "#e8b040"}}, {"type": "Feature", "geometry": {"type": "Polygon", "coordinates": [[[-123.094, 50.0668], [-123.0995, 50.0696], [-123.1032, 50.0665], [-123.1014, 50.0665], [-123.0995, 50.0653], [-123.0977, 50.0664], [-123.094, 50.0668]]]}, "properties": {"company_id": "northwest-copper", "jurisdiction": "British Columbia", "claim_id": 379862, "claim_name": "CALL #2", "holder": "NORTHWEST LANDSCAPE SUPPLY LTD.", "status": "Mineral", "recorded_date": "9667296000", "anniversary_or_expiry": "2025-03-26", "area_ha": 25, "tenure_type": "Mineral", "source": "BC MTA Mineral, Placer and Coal Tenure Spatial View (BCGW). Open Government Licence - British Columbia. Not legal title.", "as_of": "2026-09-20", "role": "focus", "color": "#e8b040"}}, {"type": "Feature", "geometry": {"type": "Polygon", "coordinates": [[[-123.124, 49.9365], [-123.124, 49.9378], [-123.1264, 49.9395], [-123.124, 49.941], [-123.131, 49.941], [-123.131, 49.9365], [-123.124, 49.9365]]]}, "properties": {"company_id": "northwest-copper", "jurisdiction": "British Columbia", "claim_id": 391624, "claim_name": "RUBBLE 5", "holder": "NORTHWEST LANDSCAPE SUPPLY LTD.", "status": "Mineral", "recorded_date": "2002-01-18", "anniversary_or_expiry": "2025-03-26", "area_ha": 25, "tenure_type": "Mineral", "source": "BC MTA Mineral, Placer and Coal Tenure Spatial View (BCGW). Open Government Licence - British Columbia. Not legal title.", "as_of": "2026-09-20", "role": "focus", "color": "#e8b040"}}, {"type": "Feature", "geometry": {"type": "Polygon", "coordinates": [[[-123.131, 49.9388], [-123.131, 49.9404], [-123.1336, 49.943], [-123.1394, 49.9406], [-123.1357, 49.9368], [-123.131, 49.9388]]]}, "properties": {"company_id": "northwest-copper", "jurisdiction": "British Columbia", "claim_id": 391625, "claim_name": "RUBBLE 6", "holder": "NORTHWEST LANDSCAPE SUPPLY LTD.", "status": "Mineral", "recorded_date": "2002-01-18", "anniversary_or_expiry": "2025-03-26", "area_ha": 25, "tenure_type": "Mineral", "source": "BC MTA Mineral, Placer and Coal Tenure Spatial View (BCGW). Open Government Licence - British Columbia. Not legal title.", "as_of": "2026-09-20", "role": "focus", "color": "#e8b040"}}, {"type": "Feature", "geometry": {"type": "Polygon", "coordinates": [[[-123.1394, 49.9406], [-123.1336, 49.943], [-123.1374, 49.9468], [-123.1432, 49.9444], [-123.1394, 49.9406]]]}, "properties": {"company_id": "northwest-copper", "jurisdiction": "British Columbia", "claim_id": 391626, "claim_name": "RUBBLE 7", "holder": "NORTHWEST LANDSCAPE SUPPLY LTD.", "status": "Mineral", "recorded_date": "2002-01-22", "anniversary_or_expiry": "2025-03-26", "area_ha": 25, "tenure_type": "Mineral", "source": "BC MTA Mineral, Placer and Coal Tenure Spatial View (BCGW). Open Government Licence - British Columbia. Not legal title.", "as_of": "2026-09-20", "role": "focus", "color": "#e8b040"}}, {"type": "Feature", "geometry": {"type": "Polygon", "coordinates": [[[-123.1385, 49.9463], [-123.1374, 49.9468], [-123.1411, 49.9506], [-123.147, 49.9482], [-123.1432, 49.9444], [-123.1385, 49.9463]]]}, "properties": {"company_id": "northwest-copper", "jurisdiction": "British Columbia", "claim_id": 391627, "claim_name": "RUBBLE 8", "holder": "NORTHWEST LANDSCAPE SUPPLY LTD.", "status": "Mineral", "recorded_date": "2002-01-22", "anniversary_or_expiry": "2025-03-26", "area_ha": 25, "tenure_type": "Mineral", "source": "BC MTA Mineral, Placer and Coal Tenure Spatial View (BCGW). Open Government Licence - British Columbia. Not legal title.", "as_of": "2026-09-20", "role": "focus", "color": "#e8b040"}}, {"type": "Feature", "geometry": {"type": "Polygon", "coordinates": [[[-123.1411, 49.9506], [-123.1467, 49.9528], [-123.1502, 49.9514], [-123.147, 49.9482], [-123.1411, 49.9506]]]}, "properties": {"company_id": "northwest-copper", "jurisdiction": "British Columbia", "claim_id": 391628, "claim_name": "RUBBLE 9", "holder": "NORTHWEST LANDSCAPE SUPPLY LTD.", "status": "Mineral", "recorded_date": "2002-01-22", "anniversary_or_expiry": "2025-03-26", "area_ha": 25, "tenure_type": "Mineral", "source": "BC MTA Mineral, Placer and Coal Tenure Spatial View (BCGW). Open Government Licence - British Columbia. Not legal title.", "as_of": "2026-09-20", "role": "focus", "color": "#e8b040"}}, {"type": "Feature", "geometry": {"type": "Polygon", "coordinates": [[[-123.1786, 49.9679], [-123.1786, 49.9697], [-123.1796, 49.9694], [-123.1786, 49.9679]]]}, "properties": {"company_id": "northwest-copper", "jurisdiction": "British Columbia", "claim_id": 403849, "claim_name": "SPIKE 3", "holder": "NORTHWEST LANDSCAPE SUPPLY LTD.", "status": "Mineral", "recorded_date": "2003-07-21", "anniversary_or_expiry": "2025-07-21", "area_ha": 25, "tenure_type": "Mineral", "source": "BC MTA Mineral, Placer and Coal Tenure Spatial View (BCGW). Open Government Licence - British Columbia. Not legal title.", "as_of": "2026-09-20", "role": "focus", "color": "#e8b040"}}, {"type": "Feature", "geometry": {"type": "Polygon", "coordinates": [[[-124.8079, 55.1541], [-124.8079, 55.1458], [-124.7641, 55.1458], [-124.7641, 55.1499], [-124.7579, 55.1499], [-124.7579, 55.1624], [-124.7704, 55.1624], [-124.7704, 55.1583], [-124.8079, 55.1583], [-124.8079, 55.1541]]]}, "properties": {"company_id": "northwest-copper", "jurisdiction": "British Columbia", "claim_id": 501689, "claim_name": "TCHENTLO6", "holder": "NORTHWEST COPPER CORP.", "status": "Mineral", "recorded_date": "2005-01-12", "anniversary_or_expiry": "2025-11-15", "area_ha": 462.07, "tenure_type": "Mineral", "source": "BC MTA Mineral, Placer and Coal Tenure Spatial View (BCGW). Open Government Licence - British Columbia. Not legal title.", "as_of": "2026-09-20", "role": "focus", "color": "#e8b040"}}, {"type": "Feature", "geometry": {"type": "Polygon", "coordinates": [[[-124.7954, 55.1749], [-124.7954, 55.1624], [-124.8016, 55.1624], [-124.8016, 55.1583], [-124.7704, 55.1583], [-124.7704, 55.1624], [-124.7641, 55.1624], [-124.7641, 55.1791], [-124.7954, 55.1791], [-124.7954, 55.1749]]]}, "properties": {"company_id": "northwest-copper", "jurisdiction": "British Columbia", "claim_id": 501778, "claim_name": "TECHENTLO8", "holder": "NORTHWEST COPPER CORP.", "status": "Mineral", "recorded_date": "2005-01-12", "anniversary_or_expiry": "2025-11-15", "area_ha": 461.894, "tenure_type": "Mineral", "source": "BC MTA Mineral, Placer and Coal Tenure Spatial View (BCGW). Open Government Licence - British Columbia. Not legal title.", "as_of": "2026-09-20", "role": "focus", "color": "#e8b040"}}, {"type": "Feature", "geometry": {"type": "Polygon", "coordinates": [[[-124.8266, 55.1749], [-124.8266, 55.1624], [-124.8329, 55.1624], [-124.8329, 55.1583], [-124.8016, 55.1583], [-124.8016, 55.1624], [-124.7954, 55.1624], [-124.7954, 55.1791], [-124.8266, 55.1791], [-124.8266, 55.1749]]]}, "properties": {"company_id": "northwest-copper", "jurisdiction": "British Columbia", "claim_id": 501840, "claim_name": "Tchentlo 7", "holder": "NORTHWEST COPPER CORP.", "status": "Mineral", "recorded_date": "2005-01-12", "anniversary_or_expiry": "2025-11-15", "area_ha": 461.894, "tenure_type": "Mineral", "source": "BC MTA Mineral, Placer and Coal Tenure Spatial View (BCGW). Open Government Licence - British Columbia. Not legal title.", "as_of": "2026-09-20", "role": "focus", "color": "#e8b040"}}, {"type": "Feature", "geometry": {"type": "Polygon", "coordinates": [[[-124.8579, 55.1749], [-124.8579, 55.1666], [-124.8329, 55.1666], [-124.8329, 55.1624], [-124.8266, 55.1624], [-124.8266, 55.1791], [-124.8141, 55.1791], [-124.8141, 55.1916], [-124.8329, 55.1916], [-124.8329, 55.1791], [-124.8579, 55.1791], [-124.8579, 55.1749]]]}, "properties": {"company_id": "northwest-copper", "jurisdiction": "British Columbia", "claim_id": 501871, "claim_name": null, "holder": "NORTHWEST COPPER CORP.", "status": "Mineral", "recorded_date": "2005-01-12", "anniversary_or_expiry": "2025-11-15", "area_ha": 461.80100000000004, "tenure_type": "Mineral", "source": "BC MTA Mineral, Placer and Coal Tenure Spatial View (BCGW). Open Government Licence - British Columbia. Not legal title.", "as_of": "2026-09-20", "role": "focus", "color": "#e8b040"}}, {"type": "Feature", "geometry": {"type": "Polygon", "coordinates": [[[-124.7641, 55.1749], [-124.7641, 55.1624], [-124.7579, 55.1624], [-124.7579, 55.1499], [-124.7391, 55.1499], [-124.7391, 55.1791], [-124.7641, 55.1791], [-124.7641, 55.1749]]]}, "properties": {"company_id": "northwest-copper", "jurisdiction": "British Columbia", "claim_id": 501950, "claim_name": "TCHENTLO10", "holder": "NORTHWEST COPPER CORP.", "status": "Mineral", "recorded_date": "2005-01-12", "anniversary_or_expiry": "2025-11-15", "area_ha": 461.93100000000004, "tenure_type": "Mineral", "source": "BC MTA Mineral, Placer and Coal Tenure Spatial View (BCGW). Open Government Licence - British Columbia. Not legal title.", "as_of": "2026-09-20", "role": "focus", "color": "#e8b040"}}, {"type": "Feature", "geometry": {"type": "Polygon", "coordinates": [[[-123.4014, 50.129], [-123.4014, 50.1248], [-123.3951, 50.1248], [-123.3951, 50.1332], [-123.4014, 50.1332], [-123.4014, 50.129]]]}, "properties": {"company_id": "northwest-copper", "jurisdiction": "British Columbia", "claim_id": 513461, "claim_name": "MILE 40", "holder": "NORTHWEST LANDSCAPE SUPPLY LTD.", "status": "Mineral", "recorded_date": "2005-05-27", "anniversary_or_expiry": "2025-05-27", "area_ha": 41.441, "tenure_type": "Mineral", "source": "BC MTA Mineral, Placer and Coal Tenure Spatial View (BCGW). Open Government Licence - British Columbia. Not legal title.", "as_of": "2026-09-20", "role": "focus", "color": "#e8b040"}}, {"type": "Feature", "geometry": {"type": "Polygon", "coordinates": [[[-125.9518, 56.5249], [-125.9581, 56.5249], [-125.9581, 56.5207], [-125.9456, 56.5207], [-125.9456, 56.5124], [-125.9331, 56.5124], [-125.9331, 56.529], [-125.9518, 56.529], [-125.9518, 56.5249]]]}, "properties": {"company_id": "northwest-copper", "jurisdiction": "British Columbia", "claim_id": 513660, "claim_name": "BLOOM 9", "holder": "NORTHWEST COPPER CORP.", "status": "Mineral", "recorded_date": "2005-05-31", "anniversary_or_expiry": "2024-11-10", "area_ha": 196.317, "tenure_type": "Mineral", "source": "BC MTA Mineral, Placer and Coal Tenure Spatial View (BCGW). Open Government Licence - British Columbia. Not legal title.", "as_of": "2026-09-20", "role": "focus", "color": "#e8b040"}}, {"type": "Feature", "geometry": {"type": "Polygon", "coordinates": [[[-123.0826, 50.0457], [-123.0826, 50.029], [-123.0701, 50.029], [-123.0701, 50.0332], [-123.0638, 50.0332], [-123.0638, 50.0457], [-123.0701, 50.0457], [-123.0701, 50.0499], [-123.0826, 50.0499], [-123.0826, 50.0457]]]}, "properties": {"company_id": "northwest-copper", "jurisdiction": "British Columbia", "claim_id": 511363, "claim_name": null, "holder": "NORTHWEST LANDSCAPE SUPPLY LTD.", "status": "Mineral", "recorded_date": "2005-04-21", "anniversary_or_expiry": "2025-11-14", "area_ha": 269.777, "tenure_type": "Mineral", "source": "BC MTA Mineral, Placer and Coal Tenure Spatial View (BCGW). Open Government Licence - British Columbia. Not legal title.", "as_of": "2026-09-20", "role": "focus", "color": "#e8b040"}}, {"type": "Feature", "geometry": {"type": "Polygon", "coordinates": [[[-123.1647, 49.9702], [-123.165, 49.9759], [-123.1789, 49.9756], [-123.1785, 49.9669], [-123.167, 49.967], [-123.1647, 49.9702]]]}, "properties": {"company_id": "northwest-copper", "jurisdiction": "British Columbia", "claim_id": 505845, "claim_name": null, "holder": "NORTHWEST LANDSCAPE SUPPLY LTD.", "status": "Mineral", "recorded_date": "2005-02-04", "anniversary_or_expiry": "2025-02-04", "area_ha": 95, "tenure_type": "Mineral", "source": "BC MTA Mineral, Placer and Coal Tenure Spatial View (BCGW). Open Government Licence - British Columbia. Not legal title.", "as_of": "2026-09-20", "role": "focus", "color": "#e8b040"}}, {"type": "Feature", "geometry": {"type": "Polygon", "coordinates": [[[-123.2264, 49.9748], [-123.2264, 49.9707], [-123.2139, 49.9707], [-123.2139, 49.979], [-123.2264, 49.979], [-123.2264, 49.9748]]]}, "properties": {"company_id": "northwest-copper", "jurisdiction": "British Columbia", "claim_id": 511605, "claim_name": null, "holder": "NORTHWEST LANDSCAPE SUPPLY LTD.", "status": "Mineral", "recorded_date": "2005-04-25", "anniversary_or_expiry": "2025-11-30", "area_ha": 83.126, "tenure_type": "Mineral", "source": "BC MTA Mineral, Placer and Coal Tenure Spatial View (BCGW). Open Government Licence - British Columbia. Not legal title.", "as_of": "2026-09-20", "role": "focus", "color": "#e8b040"}}, {"type": "Feature", "geometry": {"type": "Polygon", "coordinates": [[[-124.8829, 55.1749], [-124.8829, 55.1666], [-124.8579, 55.1666], [-124.8579, 55.1791], [-124.8829, 55.1791], [-124.8829, 55.1749]]]}, "properties": {"company_id": "northwest-copper", "jurisdiction": "British Columbia", "claim_id": 508093, "claim_name": "tchentlo 15", "holder": "NORTHWEST COPPER CORP.", "status": "Mineral", "recorded_date": "2005-02-28", "anniversary_or_expiry": "2025-11-15", "area_ha": 221.686, "tenure_type": "Mineral", "source": "BC MTA Mineral, Placer and Coal Tenure Spatial View (BCGW). Open Government Licence - British Columbia. Not legal title.", "as_of": "2026-09-20", "role": "focus", "color": "#e8b040"}}, {"type": "Feature", "geometry": {"type": "Polygon", "coordinates": [[[-124.7391, 55.1833], [-124.7391, 55.1708], [-124.6891, 55.1708], [-124.6891, 55.1749], [-124.6954, 55.1749], [-124.6954, 55.1833], [-124.7204, 55.1833], [-124.7204, 55.1874], [-124.7329, 55.1874], [-124.7391, 55.1874], [-124.7391, 55.1833]]]}, "properties": {"company_id": "northwest-copper", "jurisdiction": "British Columbia", "claim_id": 506250, "claim_name": "Tchentlo11", "holder": "NORTHWEST COPPER CORP.", "status": "Mineral", "recorded_date": "2005-02-07", "anniversary_or_expiry": "2025-11-15", "area_ha": 461.79200000000003, "tenure_type": "Mineral", "source": "BC MTA Mineral, Placer and Coal Tenure Spatial View (BCGW). Open Government Licence - British Columbia. Not legal title.", "as_of": "2026-09-20", "role": "focus", "color": "#e8b040"}}, {"type": "Feature", "geometry": {"type": "Polygon", "coordinates": [[[-124.8141, 55.1833], [-124.8141, 55.1791], [-124.7391, 55.1791], [-124.7391, 55.1874], [-124.8141, 55.1874], [-124.8141, 55.1833]]]}, "properties": {"company_id": "northwest-copper", "jurisdiction": "British Columbia", "claim_id": 506251, "claim_name": "Tchentlo12", "holder": "NORTHWEST COPPER CORP.", "status": "Mineral", "recorded_date": "2005-02-07", "anniversary_or_expiry": "2025-11-15", "area_ha": 443.262, "tenure_type": "Mineral", "source": "BC MTA Mineral, Placer and Coal Tenure Spatial View (BCGW). Open Government Licence - British Columbia. Not legal title.", "as_of": "2026-09-20", "role": "focus", "color": "#e8b040"}}, {"type": "Feature", "geometry": {"type": "Polygon", "coordinates": [[[-126.0456, 56.4999], [-126.0456, 56.4957], [-126.0393, 56.4957], [-126.0393, 56.4999], [-126.0331, 56.4999], [-126.0331, 56.5124], [-126.0456, 56.5124], [-126.0456, 56.4999]]]}, "properties": {"company_id": "northwest-copper", "jurisdiction": "British Columbia", "claim_id": 512346, "claim_name": "BLOOM 6", "holder": "NORTHWEST COPPER CORP.", "status": "Mineral", "recorded_date": "2005-05-10", "anniversary_or_expiry": "2024-08-27", "area_ha": 124.974, "tenure_type": "Mineral", "source": "BC MTA Mineral, Placer and Coal Tenure Spatial View (BCGW). Open Government Licence - British Columbia. Not legal title.", "as_of": "2026-09-20", "role": "focus", "color": "#e8b040"}}, {"type": "Feature", "geometry": {"type": "Polygon", "coordinates": [[[-126.0456, 56.4415], [-126.0456, 56.4374], [-125.9893, 56.4374], [-125.9893, 56.4457], [-126.0456, 56.4457], [-126.0456, 56.4415]]]}, "properties": {"company_id": "northwest-copper", "jurisdiction": "British Columbia", "claim_id": 512350, "claim_name": "BLOOM 7", "holder": "NORTHWEST COPPER CORP.", "status": "Mineral", "recorded_date": "2005-05-10", "anniversary_or_expiry": "2024-08-27", "area_ha": 321.886, "tenure_type": "Mineral", "source": "BC MTA Mineral, Placer and Coal Tenure Spatial View (BCGW). Open Government Licence - British Columbia. Not legal title.", "as_of": "2026-09-20", "role": "focus", "color": "#e8b040"}}, {"type": "Feature", "geometry": {"type": "Polygon", "coordinates": [[[-126.0081, 56.4332], [-126.0081, 56.429], [-125.9831, 56.429], [-125.9831, 56.4332], [-125.9893, 56.4332], [-125.9893, 56.4374], [-126.0081, 56.4374], [-126.0081, 56.4332]]]}, "properties": {"company_id": "northwest-copper", "jurisdiction": "British Columbia", "claim_id": 522168, "claim_name": "DC 1", "holder": "NORTHWEST COPPER CORP.", "status": "Mineral", "recorded_date": "2005-11-10", "anniversary_or_expiry": "2024-11-10", "area_ha": 125.20500000000001, "tenure_type": "Mineral", "source": "BC MTA Mineral, Placer and Coal Tenure Spatial View (BCGW). Open Government Licence - British Columbia. Not legal title.", "as_of": "2026-09-20", "role": "focus", "color": "#e8b040"}}, {"type": "Feature", "geometry": {"type": "Polygon", "coordinates": [[[-126.0518, 56.4499], [-126.0518, 56.4457], [-126.0206, 56.4457], [-126.0206, 56.4707], [-126.0456, 56.4707], [-126.0456, 56.4665], [-126.0518, 56.4665], [-126.0518, 56.4499]]]}, "properties": {"company_id": "northwest-copper", "jurisdiction": "British Columbia", "claim_id": 516035, "claim_name": null, "holder": "NORTHWEST COPPER CORP.", "status": "Mineral", "recorded_date": "2005-07-05", "anniversary_or_expiry": "2024-08-27", "area_ha": 518.3770000000001, "tenure_type": "Mineral", "source": "BC MTA Mineral, Placer and Coal Tenure Spatial View (BCGW). Open Government Licence - British Columbia. Not legal title.", "as_of": "2026-09-20", "role": "focus", "color": "#e8b040"}}, {"type": "Feature", "geometry": {"type": "Polygon", "coordinates": [[[-125.9893, 56.479], [-125.9893, 56.4707], [-125.9768, 56.4707], [-125.9768, 56.4832], [-125.9893, 56.4832], [-125.9893, 56.479]]]}, "properties": {"company_id": "northwest-copper", "jurisdiction": "British Columbia", "claim_id": 514417, "claim_name": null, "holder": "NORTHWEST COPPER CORP.", "status": "Mineral", "recorded_date": "2005-06-13", "anniversary_or_expiry": "2024-11-10", "area_ha": 107.19500000000001, "tenure_type": "Mineral", "source": "BC MTA Mineral, Placer and Coal Tenure Spatial View (BCGW). Open Government Licence - British Columbia. Not legal title.", "as_of": "2026-09-20", "role": "focus", "color": "#e8b040"}}, {"type": "Feature", "geometry": {"type": "Polygon", "coordinates": [[[-125.9393, 56.4749], [-125.9393, 56.4582], [-125.9143, 56.4582], [-125.9143, 56.479], [-125.9393, 56.479], [-125.9393, 56.4749]]]}, "properties": {"company_id": "northwest-copper", "jurisdiction": "British Columbia", "claim_id": 514418, "claim_name": null, "holder": "NORTHWEST COPPER CORP.", "status": "Mineral", "recorded_date": "2005-06-13", "anniversary_or_expiry": "2024-11-10", "area_ha": 357.408, "tenure_type": "Mineral", "source": "BC MTA Mineral, Placer and Coal Tenure Spatial View (BCGW). Open Government Licence - British Columbia. Not legal title.", "as_of": "2026-09-20", "role": "focus", "color": "#e8b040"}}, {"type": "Feature", "geometry": {"type": "Polygon", "coordinates": [[[-125.9768, 56.479], [-125.9768, 56.4749], [-125.9393, 56.4749], [-125.9393, 56.479], [-125.9268, 56.479], [-125.9268, 56.4832], [-125.9768, 56.4832], [-125.9768, 56.479]]]}, "properties": {"company_id": "northwest-copper", "jurisdiction": "British Columbia", "claim_id": 514420, "claim_name": null, "holder": "NORTHWEST COPPER CORP.", "status": "Mineral", "recorded_date": "2005-06-13", "anniversary_or_expiry": "2024-11-10", "area_ha": 250.11100000000002, "tenure_type": "Mineral", "source": "BC MTA Mineral, Placer and Coal Tenure Spatial View (BCGW). Open Government Licence - British Columbia. Not legal title.", "as_of": "2026-09-20", "role": "focus", "color": "#e8b040"}}, {"type": "Feature", "geometry": {"type": "Polygon", "coordinates": [[[-125.9831, 56.4665], [-125.9831, 56.4624], [-125.9393, 56.4624], [-125.9393, 56.4749], [-125.9768, 56.4749], [-125.9768, 56.4707], [-125.9831, 56.4707], [-125.9831, 56.4665]]]}, "properties": {"company_id": "northwest-copper", "jurisdiction": "British Columbia", "claim_id": 514421, "claim_name": null, "holder": "NORTHWEST COPPER CORP.", "status": "Mineral", "recorded_date": "2005-06-13", "anniversary_or_expiry": "2024-11-10", "area_ha": 357.403, "tenure_type": "Mineral", "source": "BC MTA Mineral, Placer and Coal Tenure Spatial View (BCGW). Open Government Licence - British Columbia. Not legal title.", "as_of": "2026-09-20", "role": "focus", "color": "#e8b040"}}, {"type": "Feature", "geometry": {"type": "Polygon", "coordinates": [[[-124.7391, 55.1666], [-124.7391, 55.1499], [-124.6954, 55.1499], [-124.6954, 55.1708], [-124.7391, 55.1708], [-124.7391, 55.1666]]]}, "properties": {"company_id": "northwest-copper", "jurisdiction": "British Columbia", "claim_id": 514435, "claim_name": null, "holder": "NORTHWEST COPPER CORP.", "status": "Mineral", "recorded_date": "2005-06-13", "anniversary_or_expiry": "2025-11-15", "area_ha": 646.783, "tenure_type": "Mineral", "source": "BC MTA Mineral, Placer and Coal Tenure Spatial View (BCGW). Open Government Licence - British Columbia. Not legal title.", "as_of": "2026-09-20", "role": "focus", "color": "#e8b040"}}, {"type": "Feature", "geometry": {"type": "Polygon", "coordinates": [[[-124.6954, 55.1666], [-124.6954, 55.1499], [-124.6579, 55.1499], [-124.6579, 55.1708], [-124.6954, 55.1708], [-124.6954, 55.1666]]]}, "properties": {"company_id": "northwest-copper", "jurisdiction": "British Columbia", "claim_id": 514436, "claim_name": null, "holder": "NORTHWEST COPPER CORP.", "status": "Mineral", "recorded_date": "2005-06-13", "anniversary_or_expiry": "2025-11-15", "area_ha": 554.385, "tenure_type": "Mineral", "source": "BC MTA Mineral, Placer and Coal Tenure Spatial View (BCGW). Open Government Licence - British Columbia. Not legal title.", "as_of": "2026-09-20", "role": "focus", "color": "#e8b040"}}, {"type": "Feature", "geometry": {"type": "Polygon", "coordinates": [[[-124.7204, 55.1458], [-124.7204, 55.1374], [-124.6954, 55.1374], [-124.6954, 55.1499], [-124.7204, 55.1499], [-124.7204, 55.1458]]]}, "properties": {"company_id": "northwest-copper", "jurisdiction": "British Columbia", "claim_id": 514438, "claim_name": null, "holder": "NORTHWEST COPPER CORP.", "status": "Mineral", "recorded_date": "2005-06-13", "anniversary_or_expiry": "2025-11-15", "area_ha": 221.845, "tenure_type": "Mineral", "source": "BC MTA Mineral, Placer and Coal Tenure Spatial View (BCGW). Open Government Licence - British Columbia. Not legal title.", "as_of": "2026-09-20", "role": "focus", "color": "#e8b040"}}, {"type": "Feature", "geometry": {"type": "Polygon", "coordinates": [[[-124.6954, 55.1458], [-124.6954, 55.1374], [-124.6579, 55.1374], [-124.6579, 55.1499], [-124.6954, 55.1499], [-124.6954, 55.1458]]]}, "properties": {"company_id": "northwest-copper", "jurisdiction": "British Columbia", "claim_id": 514439, "claim_name": null, "holder": "NORTHWEST COPPER CORP.", "status": "Mineral", "recorded_date": "2005-06-13", "anniversary_or_expiry": "2025-11-15", "area_ha": 332.767, "tenure_type": "Mineral", "source": "BC MTA Mineral, Placer and Coal Tenure Spatial View (BCGW). Open Government Licence - British Columbia. Not legal title.", "as_of": "2026-09-20", "role": "focus", "color": "#e8b040"}}, {"type": "Feature", "geometry": {"type": "Polygon", "coordinates": [[[-125.9893, 56.4665], [-125.9893, 56.4457], [-125.9768, 56.4457], [-125.9768, 56.4624], [-125.9831, 56.4624], [-125.9831, 56.4707], [-125.9893, 56.4707], [-125.9893, 56.4665]]]}, "properties": {"company_id": "northwest-copper", "jurisdiction": "British Columbia", "claim_id": 514953, "claim_name": null, "holder": "NORTHWEST COPPER CORP.", "status": "Mineral", "recorded_date": "2005-06-22", "anniversary_or_expiry": "2024-10-06", "area_ha": 178.75400000000002, "tenure_type": "Mineral", "source": "BC MTA Mineral, Placer and Coal Tenure Spatial View (BCGW). Open Government Licence - British Columbia. Not legal title.", "as_of": "2026-09-20", "role": "focus", "color": "#e8b040"}}, {"type": "Feature", "geometry": {"type": "Polygon", "coordinates": [[[-126.0206, 56.4749], [-126.0206, 56.4707], [-125.9893, 56.4707], [-125.9893, 56.4832], [-125.9831, 56.4832], [-125.9831, 56.4957], [-126.0206, 56.4957], [-126.0206, 56.4749]]]}, "properties": {"company_id": "northwest-copper", "jurisdiction": "British Columbia", "claim_id": 514954, "claim_name": null, "holder": "NORTHWEST COPPER CORP.", "status": "Mineral", "recorded_date": "2005-06-22", "anniversary_or_expiry": "2024-08-27", "area_ha": 589.464, "tenure_type": "Mineral", "source": "BC MTA Mineral, Placer and Coal Tenure Spatial View (BCGW). Open Government Licence - British Columbia. Not legal title.", "as_of": "2026-09-20", "role": "focus", "color": "#e8b040"}}, {"type": "Feature", "geometry": {"type": "Polygon", "coordinates": [[[-126.0518, 56.4874], [-126.0518, 56.4832], [-126.0456, 56.4832], [-126.0456, 56.4707], [-126.0206, 56.4707], [-126.0206, 56.4957], [-126.0518, 56.4957], [-126.0518, 56.4874]]]}, "properties": {"company_id": "northwest-copper", "jurisdiction": "British Columbia", "claim_id": 514955, "claim_name": null, "holder": "NORTHWEST COPPER CORP.", "status": "Mineral", "recorded_date": "2005-06-22", "anniversary_or_expiry": "2024-08-27", "area_ha": 482.295, "tenure_type": "Mineral", "source": "BC MTA Mineral, Placer and Coal Tenure Spatial View (BCGW). Open Government Licence - British Columbia. Not legal title.", "as_of": "2026-09-20", "role": "focus", "color": "#e8b040"}}, {"type": "Feature", "geometry": {"type": "Polygon", "coordinates": [[[-126.0206, 56.4499], [-126.0206, 56.4457], [-125.9893, 56.4457], [-125.9893, 56.4707], [-126.0206, 56.4707], [-126.0206, 56.4499]], [[-126.0018, 56.454], [-126.0018, 56.4582], [-126.0018, 56.4499], [-126.0018, 56.454]]]}, "properties": {"company_id": "northwest-copper", "jurisdiction": "British Columbia", "claim_id": 514956, "claim_name": null, "holder": "NORTHWEST COPPER CORP.", "status": "Mineral", "recorded_date": "2005-06-22", "anniversary_or_expiry": "2024-08-27", "area_ha": 536.2370000000001, "tenure_type": "Mineral", "source": "BC MTA Mineral, Placer and Coal Tenure Spatial View (BCGW). Open Government Licence - British Columbia. Not legal title.", "as_of": "2026-09-20", "role": "focus", "color": "#e8b040"}}, {"type": "Feature", "geometry": {"type": "Polygon", "coordinates": [[[-125.9893, 56.4415], [-125.9893, 56.4332], [-125.9768, 56.4332], [-125.9768, 56.4374], [-125.9518, 56.4374], [-125.9518, 56.4582], [-125.9768, 56.4582], [-125.9768, 56.4457], [-125.9893, 56.4457], [-125.9893, 56.4415]]]}, "properties": {"company_id": "northwest-copper", "jurisdiction": "British Columbia", "claim_id": 514958, "claim_name": null, "holder": "NORTHWEST COPPER CORP.", "status": "Mineral", "recorded_date": "2005-06-22", "anniversary_or_expiry": "2024-10-06", "area_ha": 464.896, "tenure_type": "Mineral", "source": "BC MTA Mineral, Placer and Coal Tenure Spatial View (BCGW). Open Government Licence - British Columbia. Not legal title.", "as_of": "2026-09-20", "role": "focus", "color": "#e8b040"}}, {"type": "Feature", "geometry": {"type": "Polygon", "coordinates": [[[-125.9831, 56.429], [-125.9831, 56.4165], [-125.9393, 56.4165], [-125.9393, 56.4415], [-125.9518, 56.4415], [-125.9518, 56.4374], [-125.9768, 56.4374], [-125.9768, 56.4332], [-125.9831, 56.4332], [-125.9831, 56.429]]]}, "properties": {"company_id": "northwest-copper", "jurisdiction": "British Columbia", "claim_id": 514959, "claim_name": null, "holder": "NORTHWEST COPPER CORP.", "status": "Mineral", "recorded_date": "2005-06-22", "anniversary_or_expiry": "2024-10-06", "area_ha": 644.017, "tenure_type": "Mineral", "source": "BC MTA Mineral, Placer and Coal Tenure Spatial View (BCGW). Open Government Licence - British Columbia. Not legal title.", "as_of": "2026-09-20", "role": "focus", "color": "#e8b040"}}, {"type": "Feature", "geometry": {"type": "Polygon", "coordinates": [[[-125.9893, 56.4999], [-125.9956, 56.4999], [-125.9956, 56.4957], [-125.9831, 56.4957], [-125.9831, 56.4832], [-125.9456, 56.4832], [-125.9456, 56.4999], [-125.9893, 56.4999]]]}, "properties": {"company_id": "northwest-copper", "jurisdiction": "British Columbia", "claim_id": 514960, "claim_name": null, "holder": "NORTHWEST COPPER CORP.", "status": "Mineral", "recorded_date": "2005-06-22", "anniversary_or_expiry": "2024-10-06", "area_ha": 464.334, "tenure_type": "Mineral", "source": "BC MTA Mineral, Placer and Coal Tenure Spatial View (BCGW). Open Government Licence - British Columbia. Not legal title.", "as_of": "2026-09-20", "role": "focus", "color": "#e8b040"}}, {"type": "Feature", "geometry": {"type": "Polygon", "coordinates": [[[-125.9518, 56.5082], [-125.9518, 56.4999], [-125.9456, 56.4999], [-125.9456, 56.4915], [-125.9081, 56.4915], [-125.9081, 56.5124], [-125.9518, 56.5124], [-125.9518, 56.5082]]]}, "properties": {"company_id": "northwest-copper", "jurisdiction": "British Columbia", "claim_id": 514961, "claim_name": null, "holder": "NORTHWEST COPPER CORP.", "status": "Mineral", "recorded_date": "2005-06-22", "anniversary_or_expiry": "2024-10-06", "area_ha": 589.2320000000001, "tenure_type": "Mineral", "source": "BC MTA Mineral, Placer and Coal Tenure Spatial View (BCGW). Open Government Licence - British Columbia. Not legal title.", "as_of": "2026-09-20", "role": "focus", "color": "#e8b040"}}, {"type": "Feature", "geometry": {"type": "Polygon", "coordinates": [[[-125.9956, 56.5165], [-125.9956, 56.4999], [-125.9518, 56.4999], [-125.9518, 56.5124], [-125.9456, 56.5124], [-125.9456, 56.5207], [-125.9956, 56.5207], [-125.9956, 56.5165]]]}, "properties": {"company_id": "northwest-copper", "jurisdiction": "British Columbia", "claim_id": 514962, "claim_name": null, "holder": "NORTHWEST COPPER CORP.", "status": "Mineral", "recorded_date": "2005-06-22", "anniversary_or_expiry": "2024-10-06", "area_ha": 660.52, "tenure_type": "Mineral", "source": "BC MTA Mineral, Placer and Coal Tenure Spatial View (BCGW). Open Government Licence - British Columbia. Not legal title.", "as_of": "2026-09-20", "role": "focus", "color": "#e8b040"}}, {"type": "Feature", "geometry": {"type": "Polygon", "coordinates": [[[-125.9393, 56.454], [-125.9393, 56.4457], [-125.9143, 56.4457], [-125.9143, 56.4332], [-125.9331, 56.4332], [-125.9331, 56.429], [-125.9018, 56.429], [-125.9018, 56.4499], [-125.9143, 56.4499], [-125.9143, 56.4582], [-125.9393, 56.4582], [-125.9393, 56.454]]]}, "properties": {"company_id": "northwest-copper", "jurisdiction": "British Columbia", "claim_id": 526106, "claim_name": "BLOOM 11", "holder": "NORTHWEST COPPER CORP.", "status": "Mineral", "recorded_date": "2006-01-23", "anniversary_or_expiry": "2024-10-06", "area_ha": 447.045, "tenure_type": "Mineral", "source": "BC MTA Mineral, Placer and Coal Tenure Spatial View (BCGW). Open Government Licence - British Columbia. Not legal title.", "as_of": "2026-09-20", "role": "focus", "color": "#e8b040"}}, {"type": "Feature", "geometry": {"type": "Polygon", "coordinates": [[[-125.9393, 56.4332], [-125.9393, 56.429], [-125.9331, 56.429], [-125.9331, 56.4374], [-125.9393, 56.4374], [-125.9393, 56.4332]]]}, "properties": {"company_id": "northwest-copper", "jurisdiction": "British Columbia", "claim_id": 526107, "claim_name": "BLOOM 12", "holder": "NORTHWEST COPPER CORP.", "status": "Mineral", "recorded_date": "2006-01-23", "anniversary_or_expiry": "2024-10-06", "area_ha": 35.774, "tenure_type": "Mineral", "source": "BC MTA Mineral, Placer and Coal Tenure Spatial View (BCGW). Open Government Licence - British Columbia. Not legal title.", "as_of": "2026-09-20", "role": "focus", "color": "#e8b040"}}, {"type": "Feature", "geometry": {"type": "Polygon", "coordinates": [[[-125.9706, 56.4624], [-125.9768, 56.4624], [-125.9768, 56.4582], [-125.9518, 56.4582], [-125.9518, 56.4415], [-125.9393, 56.4415], [-125.9393, 56.4374], [-125.9331, 56.4374], [-125.9331, 56.4332], [-125.9143, 56.4332], [-125.9143, 56.4457], [-125.9393, 56.4457], [-125.9393, 56.4624], [-125.9706, 56.4624]]]}, "properties": {"company_id": "northwest-copper", "jurisdiction": "British Columbia", "claim_id": 525275, "claim_name": "BLOOM10", "holder": "NORTHWEST COPPER CORP.", "status": "Mineral", "recorded_date": "2006-01-13", "anniversary_or_expiry": "2024-10-06", "area_ha": 446.999, "tenure_type": "Mineral", "source": "BC MTA Mineral, Placer and Coal Tenure Spatial View (BCGW). Open Government Licence - British Columbia. Not legal title.", "as_of": "2026-09-20", "role": "focus", "color": "#e8b040"}}, {"type": "Feature", "geometry": {"type": "Polygon", "coordinates": [[[-125.9456, 56.4874], [-125.9456, 56.4832], [-125.9268, 56.4832], [-125.9268, 56.479], [-125.9081, 56.479], [-125.9081, 56.4832], [-125.9018, 56.4832], [-125.9018, 56.4874], [-125.8893, 56.4874], [-125.8893, 56.4999], [-125.9081, 56.4999], [-125.9081, 56.4915], [-125.9456, 56.4915], [-125.9456, 56.4874]]]}, "properties": {"company_id": "northwest-copper", "jurisdiction": "British Columbia", "claim_id": 528210, "claim_name": null, "holder": "NORTHWEST COPPER CORP.", "status": "Mineral", "recorded_date": "2006-02-14", "anniversary_or_expiry": "2024-10-06", "area_ha": 446.528, "tenure_type": "Mineral", "source": "BC MTA Mineral, Placer and Coal Tenure Spatial View (BCGW). Open Government Licence - British Columbia. Not legal title.", "as_of": "2026-09-20", "role": "focus", "color": "#e8b040"}}, {"type": "Feature", "geometry": {"type": "Polygon", "coordinates": [[[-125.9143, 56.4749], [-125.9143, 56.4582], [-125.8893, 56.4582], [-125.8893, 56.4874], [-125.9018, 56.4874], [-125.9018, 56.4832], [-125.9081, 56.4832], [-125.9081, 56.479], [-125.9143, 56.479], [-125.9143, 56.4749]]]}, "properties": {"company_id": "northwest-copper", "jurisdiction": "British Columbia", "claim_id": 528211, "claim_name": null, "holder": "NORTHWEST COPPER CORP.", "status": "Mineral", "recorded_date": "2006-02-14", "anniversary_or_expiry": "2024-10-06", "area_ha": 446.735, "tenure_type": "Mineral", "source": "BC MTA Mineral, Placer and Coal Tenure Spatial View (BCGW). Open Government Licence - British Columbia. Not legal title.", "as_of": "2026-09-20", "role": "focus", "color": "#e8b040"}}, {"type": "Feature", "geometry": {"type": "Polygon", "coordinates": [[[-125.9143, 56.454], [-125.9143, 56.4499], [-125.8893, 56.4499], [-125.8893, 56.4582], [-125.9143, 56.4582], [-125.9143, 56.454]]]}, "properties": {"company_id": "northwest-copper", "jurisdiction": "British Columbia", "claim_id": 528212, "claim_name": null, "holder": "NORTHWEST COPPER CORP.", "status": "Mineral", "recorded_date": "2006-02-14", "anniversary_or_expiry": "2024-10-06", "area_ha": 143.02, "tenure_type": "Mineral", "source": "BC MTA Mineral, Placer and Coal Tenure Spatial View (BCGW). Open Government Licence - British Columbia. Not legal title.", "as_of": "2026-09-20", "role": "focus", "color": "#e8b040"}}, {"type": "Feature", "geometry": {"type": "Polygon", "coordinates": [[[-126.0643, 56.4707], [-126.0643, 56.4665], [-126.0456, 56.4665], [-126.0456, 56.479], [-126.0643, 56.479], [-126.0643, 56.4707]]]}, "properties": {"company_id": "northwest-copper", "jurisdiction": "British Columbia", "claim_id": 529981, "claim_name": null, "holder": "NORTHWEST COPPER CORP.", "status": "Mineral", "recorded_date": "2006-03-13", "anniversary_or_expiry": "2024-08-27", "area_ha": 160.815, "tenure_type": "Mineral", "source": "BC MTA Mineral, Placer and Coal Tenure Spatial View (BCGW). Open Government Licence - British Columbia. Not legal title.", "as_of": "2026-09-20", "role": "focus", "color": "#e8b040"}}, {"type": "Feature", "geometry": {"type": "Polygon", "coordinates": [[[-126.0706, 56.4749], [-126.0706, 56.4707], [-126.0643, 56.4707], [-126.0643, 56.479], [-126.0518, 56.479], [-126.0518, 56.4832], [-126.0581, 56.4832], [-126.0581, 56.4874], [-126.0706, 56.4874], [-126.0706, 56.4749]]]}, "properties": {"company_id": "northwest-copper", "jurisdiction": "British Columbia", "claim_id": 530022, "claim_name": null, "holder": "NORTHWEST COPPER CORP.", "status": "Mineral", "recorded_date": "2006-03-14", "anniversary_or_expiry": "2024-08-27", "area_ha": 125.05300000000001, "tenure_type": "Mineral", "source": "BC MTA Mineral, Placer and Coal Tenure Spatial View (BCGW). Open Government Licence - British Columbia. Not legal title.", "as_of": "2026-09-20", "role": "focus", "color": "#e8b040"}}, {"type": "Feature", "geometry": {"type": "Polygon", "coordinates": [[[-126.0331, 56.4957], [-125.9956, 56.4957], [-125.9956, 56.5124], [-126.0331, 56.5124], [-126.0331, 56.4999], [-126.0393, 56.4999], [-126.0393, 56.4957], [-126.0331, 56.4957]]]}, "properties": {"company_id": "northwest-copper", "jurisdiction": "British Columbia", "claim_id": 512344, "claim_name": "BLOOM 5", "holder": "NORTHWEST COPPER CORP.", "status": "Mineral", "recorded_date": "2005-05-10", "anniversary_or_expiry": "2024-08-27", "area_ha": 446.35400000000004, "tenure_type": "Mineral", "source": "BC MTA Mineral, Placer and Coal Tenure Spatial View (BCGW). Open Government Licence - British Columbia. Not legal title.", "as_of": "2026-09-20", "role": "focus", "color": "#e8b040"}}, {"type": "Feature", "geometry": {"type": "Polygon", "coordinates": [[[-125.9393, 56.4249], [-125.9393, 56.4207], [-125.8893, 56.4207], [-125.8893, 56.4165], [-125.8706, 56.4165], [-125.8706, 56.4207], [-125.8768, 56.4207], [-125.8768, 56.4249], [-125.8831, 56.4249], [-125.8831, 56.429], [-125.8893, 56.429], [-125.8893, 56.4332], [-125.8956, 56.4332], [-125.8956, 56.4374], [-125.9018, 56.4374], [-125.9018, 56.429], [-125.9393, 56.429], [-125.9393, 56.4249]]]}, "properties": {"company_id": "northwest-copper", "jurisdiction": "British Columbia", "claim_id": 532625, "claim_name": null, "holder": "NORTHWEST COPPER CORP.", "status": "Mineral", "recorded_date": "2006-04-19", "anniversary_or_expiry": "2024-08-27", "area_ha": 447.278, "tenure_type": "Mineral", "source": "BC MTA Mineral, Placer and Coal Tenure Spatial View (BCGW). Open Government Licence - British Columbia. Not legal title.", "as_of": "2026-09-20", "role": "focus", "color": "#e8b040"}}, {"type": "Feature", "geometry": {"type": "Polygon", "coordinates": [[[-125.9331, 56.4207], [-125.9393, 56.4207], [-125.9393, 56.4165], [-125.9268, 56.4165], [-125.9268, 56.4124], [-125.8956, 56.4124], [-125.8956, 56.4082], [-125.8518, 56.4082], [-125.8518, 56.4124], [-125.8643, 56.4124], [-125.8643, 56.4165], [-125.8893, 56.4165], [-125.8893, 56.4207], [-125.9331, 56.4207]]]}, "properties": {"company_id": "northwest-copper", "jurisdiction": "British Columbia", "claim_id": 532627, "claim_name": null, "holder": "NORTHWEST COPPER CORP.", "status": "Mineral", "recorded_date": "2006-04-19", "anniversary_or_expiry": "2024-08-27", "area_ha": 447.408, "tenure_type": "Mineral", "source": "BC MTA Mineral, Placer and Coal Tenure Spatial View (BCGW). Open Government Licence - British Columbia. Not legal title.", "as_of": "2026-09-20", "role": "focus", "color": "#e8b040"}}, {"type": "Feature", "geometry": {"type": "Polygon", "coordinates": [[[-125.9143, 56.4124], [-125.9206, 56.4124], [-125.9206, 56.4082], [-125.9143, 56.4082], [-125.9143, 56.404], [-125.8893, 56.404], [-125.8893, 56.3999], [-125.8331, 56.3999], [-125.8331, 56.404], [-125.8393, 56.404], [-125.8393, 56.4082], [-125.8956, 56.4082], [-125.8956, 56.4124], [-125.9143, 56.4124]]]}, "properties": {"company_id": "northwest-copper", "jurisdiction": "British Columbia", "claim_id": 532628, "claim_name": null, "holder": "NORTHWEST COPPER CORP.", "status": "Mineral", "recorded_date": "2006-04-19", "anniversary_or_expiry": "2024-08-27", "area_ha": 447.52700000000004, "tenure_type": "Mineral", "source": "BC MTA Mineral, Placer and Coal Tenure Spatial View (BCGW). Open Government Licence - British Columbia. Not legal title.", "as_of": "2026-09-20", "role": "focus", "color": "#e8b040"}}, {"type": "Feature", "geometry": {"type": "Polygon", "coordinates": [[[-126.0706, 56.4915], [-126.0706, 56.4874], [-126.0643, 56.4874], [-126.0643, 56.4915], [-126.0581, 56.4915], [-126.0581, 56.4874], [-126.0518, 56.4874], [-126.0518, 56.4957], [-126.0706, 56.4957], [-126.0706, 56.4915]]]}, "properties": {"company_id": "northwest-copper", "jurisdiction": "British Columbia", "claim_id": 530142, "claim_name": null, "holder": "NORTHWEST COPPER CORP.", "status": "Mineral", "recorded_date": "2006-03-17", "anniversary_or_expiry": "2024-08-27", "area_ha": 89.296, "tenure_type": "Mineral", "source": "BC MTA Mineral, Placer and Coal Tenure Spatial View (BCGW). Open Government Licence - British Columbia. Not legal title.", "as_of": "2026-09-20", "role": "focus", "color": "#e8b040"}}, {"type": "Feature", "geometry": {"type": "Polygon", "coordinates": [[[-126.0081, 56.5165], [-126.0081, 56.5124], [-126.0018, 56.5124], [-126.0018, 56.5207], [-126.0018, 56.5124], [-125.9956, 56.5124], [-125.9956, 56.5207], [-125.9581, 56.5207], [-125.9581, 56.5249], [-125.9518, 56.5249], [-125.9518, 56.529], [-125.9956, 56.529], [-125.9956, 56.5374], [-126.0081, 56.5374], [-126.0081, 56.5165]]]}, "properties": {"company_id": "northwest-copper", "jurisdiction": "British Columbia", "claim_id": 513659, "claim_name": "BLOOM 8", "holder": "NORTHWEST COPPER CORP.", "status": "Mineral", "recorded_date": "2005-05-31", "anniversary_or_expiry": "2024-11-10", "area_ha": 446.12800000000004, "tenure_type": "Mineral", "source": "BC MTA Mineral, Placer and Coal Tenure Spatial View (BCGW). Open Government Licence - British Columbia. Not legal title.", "as_of": "2026-09-20", "role": "focus", "color": "#e8b040"}}, {"type": "Feature", "geometry": {"type": "Polygon", "coordinates": [[[-125.9018, 56.404], [-125.9081, 56.404], [-125.9081, 56.3999], [-125.9018, 56.3999], [-125.9018, 56.3957], [-125.8768, 56.3957], [-125.8768, 56.3915], [-125.8206, 56.3915], [-125.8206, 56.3999], [-125.8893, 56.3999], [-125.8893, 56.404], [-125.9018, 56.404]]]}, "properties": {"company_id": "northwest-copper", "jurisdiction": "British Columbia", "claim_id": 532630, "claim_name": null, "holder": "NORTHWEST COPPER CORP.", "status": "Mineral", "recorded_date": "2006-04-19", "anniversary_or_expiry": "2024-08-27", "area_ha": 447.632, "tenure_type": "Mineral", "source": "BC MTA Mineral, Placer and Coal Tenure Spatial View (BCGW). Open Government Licence - British Columbia. Not legal title.", "as_of": "2026-09-20", "role": "focus", "color": "#e8b040"}}, {"type": "Feature", "geometry": {"type": "Polygon", "coordinates": [[[-125.8893, 56.3957], [-125.8956, 56.3957], [-125.8956, 56.3915], [-125.8893, 56.3915], [-125.8893, 56.3832], [-125.8831, 56.3832], [-125.8831, 56.379], [-125.8518, 56.379], [-125.8518, 56.3874], [-125.8206, 56.3874], [-125.8206, 56.3915], [-125.8768, 56.3915], [-125.8768, 56.3957], [-125.8893, 56.3957]]]}, "properties": {"company_id": "northwest-copper", "jurisdiction": "British Columbia", "claim_id": 532633, "claim_name": null, "holder": "NORTHWEST COPPER CORP.", "status": "Mineral", "recorded_date": "2006-04-19", "anniversary_or_expiry": "2024-08-27", "area_ha": 447.744, "tenure_type": "Mineral", "source": "BC MTA Mineral, Placer and Coal Tenure Spatial View (BCGW). Open Government Licence - British Columbia. Not legal title.", "as_of": "2026-09-20", "role": "focus", "color": "#e8b040"}}, {"type": "Feature", "geometry": {"type": "Polygon", "coordinates": [[[-125.8768, 56.379], [-125.8831, 56.379], [-125.8831, 56.3749], [-125.8581, 56.3749], [-125.8581, 56.379], [-125.8768, 56.379]]]}, "properties": {"company_id": "northwest-copper", "jurisdiction": "British Columbia", "claim_id": 532637, "claim_name": null, "holder": "NORTHWEST COPPER CORP.", "status": "Mineral", "recorded_date": "2006-04-19", "anniversary_or_expiry": "2024-08-27", "area_ha": 71.659, "tenure_type": "Mineral", "source": "BC MTA Mineral, Placer and Coal Tenure Spatial View (BCGW). Open Government Licence - British Columbia. Not legal title.", "as_of": "2026-09-20", "role": "focus", "color": "#e8b040"}}, {"type": "Feature", "geometry": {"type": "Polygon", "coordinates": [[[-123.2112, 49.9707], [-123.212, 49.9745], [-123.2189, 49.974], [-123.218, 49.9694], [-123.2182, 49.9662], [-123.2113, 49.966], [-123.2112, 49.9707]]]}, "properties": {"company_id": "northwest-copper", "jurisdiction": "British Columbia", "claim_id": 530399, "claim_name": null, "holder": "NORTHWEST LANDSCAPE SUPPLY LTD.", "status": "Mineral", "recorded_date": "2006-03-22", "anniversary_or_expiry": "2025-03-22", "area_ha": 45.4, "tenure_type": "Mineral", "source": "BC MTA Mineral, Placer and Coal Tenure Spatial View (BCGW). Open Government Licence - British Columbia. Not legal title.", "as_of": "2026-09-20", "role": "focus", "color": "#e8b040"}}]}