{"type": "FeatureCollection", "features": [{"type": "Feature", "geometry": {"type": "Polygon", "coordinates": [[[-121.7436, 49.3164], [-121.7436, 49.3171], [-121.7518, 49.3171], [-121.7518, 49.3183], [-121.7573, 49.3183], [-121.7573, 49.3048], [-121.7436, 49.3048], [-121.7436, 49.3164]]]}, "properties": {"company_id": "omineca-mining-and-metals", "jurisdiction": "British Columbia", "claim_id": 235557, "claim_name": "AB", "holder": "OMINECA MINING AND METALS LTD.", "status": "Mineral", "recorded_date": "4720896000", "anniversary_or_expiry": "2027-01-01", "area_ha": 150, "tenure_type": "Mineral", "source": "BC MTA Mineral, Placer and Coal Tenure Spatial View (BCGW). Open Government Licence - British Columbia. Not legal title.", "as_of": "2026-09-20", "role": "focus", "color": "#e8b040"}}, {"type": "Feature", "geometry": {"type": "Polygon", "coordinates": [[[-124.4822, 54.4444], [-124.4727, 54.4444], [-124.4727, 54.4579], [-124.4864, 54.4579], [-124.4864, 54.4444], [-124.4822, 54.4444]]]}, "properties": {"company_id": "omineca-mining-and-metals", "jurisdiction": "British Columbia", "claim_id": 238304, "claim_name": "BOARCHEA", "holder": "OMINECA GOLD LTD.", "status": "Mineral", "recorded_date": "3271968000", "anniversary_or_expiry": "2030-11-18", "area_ha": 150, "tenure_type": "Mineral", "source": "BC MTA Mineral, Placer and Coal Tenure Spatial View (BCGW). Open Government Licence - British Columbia. Not legal title.", "as_of": "2026-09-20", "role": "focus", "color": "#e8b040"}}, {"type": "Feature", "geometry": {"type": "Polygon", "coordinates": [[[-124.4864, 54.4579], [-124.5326, 54.4579], [-124.5326, 54.4444], [-124.4864, 54.4444], [-124.4864, 54.4579]], [[-124.5128, 54.4486], [-124.5139, 54.4493], [-124.5042, 54.4543], [-124.5027, 54.4538], [-124.5001, 54.4504], [-124.5048, 54.4491], [-124.5099, 54.4467], [-124.5128, 54.4486]]]}, "properties": {"company_id": "omineca-mining-and-metals", "jurisdiction": "British Columbia", "claim_id": 239107, "claim_name": "SNOWBIRD #1", "holder": "OMINECA GOLD LTD.", "status": "Mineral", "recorded_date": "5120064000", "anniversary_or_expiry": "2030-11-18", "area_ha": 450, "tenure_type": "Mineral", "source": "BC MTA Mineral, Placer and Coal Tenure Spatial View (BCGW). Open Government Licence - British Columbia. Not legal title.", "as_of": "2026-09-20", "role": "focus", "color": "#e8b040"}}, {"type": "Feature", "geometry": {"type": "Polygon", "coordinates": [[[-124.5281, 54.4579], [-124.5095, 54.4579], [-124.5095, 54.4714], [-124.5326, 54.4714], [-124.5326, 54.4579], [-124.5281, 54.4579]]]}, "properties": {"company_id": "omineca-mining-and-metals", "jurisdiction": "British Columbia", "claim_id": 239108, "claim_name": "SNOWBIRD #2", "holder": "OMINECA GOLD LTD.", "status": "Mineral", "recorded_date": "5120064000", "anniversary_or_expiry": "2030-11-18", "area_ha": 225, "tenure_type": "Mineral", "source": "BC MTA Mineral, Placer and Coal Tenure Spatial View (BCGW). Open Government Licence - British Columbia. Not legal title.", "as_of": "2026-09-20", "role": "focus", "color": "#e8b040"}}, {"type": "Feature", "geometry": {"type": "Polygon", "coordinates": [[[-124.4896, 54.4354], [-124.4685, 54.4354], [-124.4685, 54.4444], [-124.4993, 54.4444], [-124.4993, 54.4354], [-124.4896, 54.4354]]]}, "properties": {"company_id": "omineca-mining-and-metals", "jurisdiction": "British Columbia", "claim_id": 239109, "claim_name": "SNOWBIRD #3", "holder": "OMINECA GOLD LTD.", "status": "Mineral", "recorded_date": "5120064000", "anniversary_or_expiry": "2030-11-18", "area_ha": 200, "tenure_type": "Mineral", "source": "BC MTA Mineral, Placer and Coal Tenure Spatial View (BCGW). Open Government Licence - British Columbia. Not legal title.", "as_of": "2026-09-20", "role": "focus", "color": "#e8b040"}}, {"type": "Feature", "geometry": {"type": "Polygon", "coordinates": [[[-124.5089, 54.4472], [-124.5048, 54.4491], [-124.509, 54.4519], [-124.5139, 54.4493], [-124.5099, 54.4467], [-124.5089, 54.4472]]]}, "properties": {"company_id": "omineca-mining-and-metals", "jurisdiction": "British Columbia", "claim_id": 243491, "claim_name": "CAMPSITE", "holder": "OMINECA GOLD LTD.", "status": "Mineral", "recorded_date": "-101476800", "anniversary_or_expiry": "2030-11-18", "area_ha": 25, "tenure_type": "Mineral", "source": "BC MTA Mineral, Placer and Coal Tenure Spatial View (BCGW). Open Government Licence - British Columbia. Not legal title.", "as_of": "2026-09-20", "role": "focus", "color": "#e8b040"}}, {"type": "Feature", "geometry": {"type": "Polygon", "coordinates": [[[-124.5018, 54.4499], [-124.5001, 54.4504], [-124.5027, 54.4538], [-124.5075, 54.4524], [-124.5043, 54.4492], [-124.5018, 54.4499]]]}, "properties": {"company_id": "omineca-mining-and-metals", "jurisdiction": "British Columbia", "claim_id": 243492, "claim_name": "SNOWBIRD", "holder": "OMINECA GOLD LTD.", "status": "Mineral", "recorded_date": "-101476800", "anniversary_or_expiry": "2030-11-18", "area_ha": 25, "tenure_type": "Mineral", "source": "BC MTA Mineral, Placer and Coal Tenure Spatial View (BCGW). Open Government Licence - British Columbia. Not legal title.", "as_of": "2026-09-20", "role": "focus", "color": "#e8b040"}}, {"type": "Feature", "geometry": {"type": "Polygon", "coordinates": [[[-124.5043, 54.4492], [-124.5075, 54.4524], [-124.5032, 54.4536], [-124.5042, 54.4543], [-124.509, 54.4519], [-124.5043, 54.4492]]]}, "properties": {"company_id": "omineca-mining-and-metals", "jurisdiction": "British Columbia", "claim_id": 243518, "claim_name": "SHAFT FR.", "holder": "OMINECA GOLD LTD.", "status": "Mineral", "recorded_date": "-511228800", "anniversary_or_expiry": "2030-11-18", "area_ha": 25, "tenure_type": "Mineral", "source": "BC MTA Mineral, Placer and Coal Tenure Spatial View (BCGW). Open Government Licence - British Columbia. Not legal title.", "as_of": "2026-09-20", "role": "focus", "color": "#e8b040"}}, {"type": "Feature", "geometry": {"type": "Polygon", "coordinates": [[[-122.6738, 53.1493], [-122.6802, 53.1574], [-122.6869, 53.1555], [-122.6806, 53.1474], [-122.6738, 53.1493]]]}, "properties": {"company_id": "omineca-mining-and-metals", "jurisdiction": "British Columbia", "claim_id": 361417, "claim_name": "FR3", "holder": "OMINECA MINING AND METALS LTD.", "status": "Placer", "recorded_date": "8868096000", "anniversary_or_expiry": "2025-04-26", "area_ha": 50, "tenure_type": "Placer", "source": "BC MTA Mineral, Placer and Coal Tenure Spatial View (BCGW). Open Government Licence - British Columbia. Not legal title.", "as_of": "2026-09-20", "role": "focus", "color": "#e8b040"}}, {"type": "Feature", "geometry": {"type": "Polygon", "coordinates": [[[-122.6639, 53.1355], [-122.6627, 53.1356], [-122.6694, 53.1406], [-122.6763, 53.1386], [-122.6668, 53.1316], [-122.6642, 53.1329], [-122.6639, 53.1355]]]}, "properties": {"company_id": "omineca-mining-and-metals", "jurisdiction": "British Columbia", "claim_id": 360441, "claim_name": "FR 1", "holder": "OMINECA MINING AND METALS LTD.", "status": "Placer", "recorded_date": "8778240000", "anniversary_or_expiry": "2025-04-26", "area_ha": 50, "tenure_type": "Placer", "source": "BC MTA Mineral, Placer and Coal Tenure Spatial View (BCGW). Open Government Licence - British Columbia. Not legal title.", "as_of": "2026-09-20", "role": "focus", "color": "#e8b040"}}, {"type": "Feature", "geometry": {"type": "Polygon", "coordinates": [[[-122.6694, 53.1406], [-122.6675, 53.1411], [-122.6738, 53.1493], [-122.6806, 53.1474], [-122.6743, 53.1392], [-122.6694, 53.1406]]]}, "properties": {"company_id": "omineca-mining-and-metals", "jurisdiction": "British Columbia", "claim_id": 360442, "claim_name": "FR 2", "holder": "OMINECA MINING AND METALS LTD.", "status": "Placer", "recorded_date": "8778240000", "anniversary_or_expiry": "2025-04-26", "area_ha": 50, "tenure_type": "Placer", "source": "BC MTA Mineral, Placer and Coal Tenure Spatial View (BCGW). Open Government Licence - British Columbia. Not legal title.", "as_of": "2026-09-20", "role": "focus", "color": "#e8b040"}}, {"type": "Feature", "geometry": {"type": "Polygon", "coordinates": [[[-121.7383, 49.3389], [-121.7534, 49.3389], [-121.7533, 49.3183], [-121.7518, 49.3183], [-121.7518, 49.3171], [-121.7436, 49.3171], [-121.7436, 49.3164], [-121.7367, 49.3164], [-121.7367, 49.3171], [-121.7298, 49.3171], [-121.7298, 49.3164], [-121.7258, 49.3164], [-121.7258, 49.3389], [-121.7383, 49.3389]]]}, "properties": {"company_id": "omineca-mining-and-metals", "jurisdiction": "British Columbia", "claim_id": 382167, "claim_name": "ABO 1", "holder": "OMINECA MINING AND METALS LTD.", "status": "Mineral", "recorded_date": "9720864000", "anniversary_or_expiry": "2027-01-01", "area_ha": 500, "tenure_type": "Mineral", "source": "BC MTA Mineral, Placer and Coal Tenure Spatial View (BCGW). Open Government Licence - British Columbia. Not legal title.", "as_of": "2026-09-20", "role": "focus", "color": "#e8b040"}}, {"type": "Feature", "geometry": {"type": "Polygon", "coordinates": [[[-121.7298, 49.3164], [-121.7298, 49.3138], [-121.7367, 49.3138], [-121.7367, 49.3164], [-121.7436, 49.3164], [-121.7436, 49.3048], [-121.7465, 49.3048], [-121.7465, 49.3029], [-121.7258, 49.3029], [-121.7258, 49.3164], [-121.7298, 49.3164]]]}, "properties": {"company_id": "omineca-mining-and-metals", "jurisdiction": "British Columbia", "claim_id": 382168, "claim_name": "ABO 2", "holder": "OMINECA MINING AND METALS LTD.", "status": "Mineral", "recorded_date": "9720864000", "anniversary_or_expiry": "2027-01-01", "area_ha": 225, "tenure_type": "Mineral", "source": "BC MTA Mineral, Placer and Coal Tenure Spatial View (BCGW). Open Government Licence - British Columbia. Not legal title.", "as_of": "2026-09-20", "role": "focus", "color": "#e8b040"}}, {"type": "Feature", "geometry": {"type": "Polygon", "coordinates": [[[-121.7298, 49.3164], [-121.7298, 49.3171], [-121.7367, 49.3171], [-121.7367, 49.3138], [-121.7298, 49.3138], [-121.7298, 49.3164]]]}, "properties": {"company_id": "omineca-mining-and-metals", "jurisdiction": "British Columbia", "claim_id": 383387, "claim_name": "AB", "holder": "OMINECA MINING AND METALS LTD.", "status": "Mineral", "recorded_date": "9775296000", "anniversary_or_expiry": "2027-01-01", "area_ha": 25, "tenure_type": "Mineral", "source": "BC MTA Mineral, Placer and Coal Tenure Spatial View (BCGW). Open Government Licence - British Columbia. Not legal title.", "as_of": "2026-09-20", "role": "focus", "color": "#e8b040"}}, {"type": "Feature", "geometry": {"type": "Polygon", "coordinates": [[[-121.7121, 49.3119], [-121.7121, 49.3164], [-121.7258, 49.3164], [-121.7258, 49.3029], [-121.7121, 49.3029], [-121.7121, 49.3119]]]}, "properties": {"company_id": "omineca-mining-and-metals", "jurisdiction": "British Columbia", "claim_id": 384241, "claim_name": "ABO 3", "holder": "OMINECA MINING AND METALS LTD.", "status": "Mineral", "recorded_date": "9828864000", "anniversary_or_expiry": "2027-01-01", "area_ha": 150, "tenure_type": "Mineral", "source": "BC MTA Mineral, Placer and Coal Tenure Spatial View (BCGW). Open Government Licence - British Columbia. Not legal title.", "as_of": "2026-09-20", "role": "focus", "color": "#e8b040"}}, {"type": "Feature", "geometry": {"type": "Polygon", "coordinates": [[[-121.6983, 49.3318], [-121.7054, 49.3318], [-121.7054, 49.3354], [-121.7109, 49.3354], [-121.7109, 49.3389], [-121.7258, 49.3389], [-121.7258, 49.3164], [-121.6983, 49.3164], [-121.6983, 49.3318]]]}, "properties": {"company_id": "omineca-mining-and-metals", "jurisdiction": "British Columbia", "claim_id": 384242, "claim_name": "ABO 4", "holder": "OMINECA MINING AND METALS LTD.", "status": "Mineral", "recorded_date": "9828864000", "anniversary_or_expiry": "2027-01-01", "area_ha": 500, "tenure_type": "Mineral", "source": "BC MTA Mineral, Placer and Coal Tenure Spatial View (BCGW). Open Government Licence - British Columbia. Not legal title.", "as_of": "2026-09-20", "role": "focus", "color": "#e8b040"}}, {"type": "Feature", "geometry": {"type": "Polygon", "coordinates": [[[-121.7329, 49.3423], [-121.7329, 49.3389], [-121.7109, 49.3389], [-121.7109, 49.3423], [-121.7165, 49.3423], [-121.7165, 49.3495], [-121.7328, 49.3495], [-121.7329, 49.3423]]]}, "properties": {"company_id": "omineca-mining-and-metals", "jurisdiction": "British Columbia", "claim_id": 384243, "claim_name": "ABO 5", "holder": "OMINECA MINING AND METALS LTD.", "status": "Mineral", "recorded_date": "9828864000", "anniversary_or_expiry": "2027-01-01", "area_ha": 300, "tenure_type": "Mineral", "source": "BC MTA Mineral, Placer and Coal Tenure Spatial View (BCGW). Open Government Licence - British Columbia. Not legal title.", "as_of": "2026-09-20", "role": "focus", "color": "#e8b040"}}, {"type": "Feature", "geometry": {"type": "Polygon", "coordinates": [[[-121.7121, 49.3119], [-121.7052, 49.3119], [-121.7052, 49.3164], [-121.7121, 49.3164], [-121.7121, 49.3119]]]}, "properties": {"company_id": "omineca-mining-and-metals", "jurisdiction": "British Columbia", "claim_id": 384244, "claim_name": "ABO 6", "holder": "OMINECA MINING AND METALS LTD.", "status": "Mineral", "recorded_date": "9828000000", "anniversary_or_expiry": "2027-01-01", "area_ha": 25, "tenure_type": "Mineral", "source": "BC MTA Mineral, Placer and Coal Tenure Spatial View (BCGW). Open Government Licence - British Columbia. Not legal title.", "as_of": "2026-09-20", "role": "focus", "color": "#e8b040"}}, {"type": "Feature", "geometry": {"type": "Polygon", "coordinates": [[[-121.7328, 49.3389], [-121.7328, 49.3423], [-121.7383, 49.3423], [-121.7383, 49.3389], [-121.7328, 49.3389]]]}, "properties": {"company_id": "omineca-mining-and-metals", "jurisdiction": "British Columbia", "claim_id": 384245, "claim_name": "ABO 7", "holder": "OMINECA MINING AND METALS LTD.", "status": "Mineral", "recorded_date": "9827136000", "anniversary_or_expiry": "2027-01-01", "area_ha": 25, "tenure_type": "Mineral", "source": "BC MTA Mineral, Placer and Coal Tenure Spatial View (BCGW). Open Government Licence - British Columbia. Not legal title.", "as_of": "2026-09-20", "role": "focus", "color": "#e8b040"}}, {"type": "Feature", "geometry": {"type": "Polygon", "coordinates": [[[-124.5391, 54.4624], [-124.5391, 54.4333], [-124.4954, 54.4333], [-124.4954, 54.4458], [-124.5266, 54.4458], [-124.5266, 54.4666], [-124.5391, 54.4666], [-124.5391, 54.4624]]]}, "properties": {"company_id": "omineca-mining-and-metals", "jurisdiction": "British Columbia", "claim_id": 511922, "claim_name": null, "holder": "OMINECA GOLD LTD.", "status": "Mineral", "recorded_date": "2005-05-02", "anniversary_or_expiry": "2030-11-18", "area_ha": 582.9527, "tenure_type": "Mineral", "source": "BC MTA Mineral, Placer and Coal Tenure Spatial View (BCGW). Open Government Licence - British Columbia. Not legal title.", "as_of": "2026-09-20", "role": "focus", "color": "#e8b040"}}, {"type": "Feature", "geometry": {"type": "Polygon", "coordinates": [[[-122.6577, 53.1291], [-122.664, 53.1291], [-122.664, 53.1249], [-122.6452, 53.1249], [-122.6452, 53.1291], [-122.6577, 53.1291]]]}, "properties": {"company_id": "omineca-mining-and-metals", "jurisdiction": "British Columbia", "claim_id": 524017, "claim_name": "FRT", "holder": "OMINECA MINING AND METALS LTD.", "status": "Mineral", "recorded_date": "2005-12-18", "anniversary_or_expiry": "2025-03-18", "area_ha": 58.207, "tenure_type": "Mineral", "source": "BC MTA Mineral, Placer and Coal Tenure Spatial View (BCGW). Open Government Licence - British Columbia. Not legal title.", "as_of": "2026-09-20", "role": "focus", "color": "#e8b040"}}, {"type": "Feature", "geometry": {"type": "Polygon", "coordinates": [[[-121.7325, 49.2999], [-121.7325, 49.2915], [-121.7138, 49.2915], [-121.7138, 49.2957], [-121.695, 49.2957], [-121.695, 49.2999], [-121.6888, 49.2999], [-121.6888, 49.304], [-121.695, 49.304], [-121.695, 49.3082], [-121.6888, 49.3082], [-121.6888, 49.3124], [-121.7013, 49.3124], [-121.7013, 49.3165], [-121.7075, 49.3165], [-121.7075, 49.3124], [-121.7138, 49.3124], [-121.7138, 49.304], [-121.7325, 49.304], [-121.7325, 49.2999]]]}, "properties": {"company_id": "omineca-mining-and-metals", "jurisdiction": "British Columbia", "claim_id": 529139, "claim_name": "AB", "holder": "OMINECA MINING AND METALS LTD.", "status": "Mineral", "recorded_date": "2006-02-28", "anniversary_or_expiry": "2027-01-01", "area_ha": 505.541, "tenure_type": "Mineral", "source": "BC MTA Mineral, Placer and Coal Tenure Spatial View (BCGW). Open Government Licence - British Columbia. Not legal title.", "as_of": "2026-09-20", "role": "focus", "color": "#e8b040"}}, {"type": "Feature", "geometry": {"type": "Polygon", "coordinates": [[[-121.6888, 49.3082], [-121.695, 49.3082], [-121.695, 49.304], [-121.6888, 49.304], [-121.6888, 49.3082]]]}, "properties": {"company_id": "omineca-mining-and-metals", "jurisdiction": "British Columbia", "claim_id": 529146, "claim_name": "AB", "holder": "OMINECA MINING AND METALS LTD.", "status": "Mineral", "recorded_date": "2006-02-28", "anniversary_or_expiry": "2027-01-01", "area_ha": 21.062, "tenure_type": "Mineral", "source": "BC MTA Mineral, Placer and Coal Tenure Spatial View (BCGW). Open Government Licence - British Columbia. Not legal title.", "as_of": "2026-09-20", "role": "focus", "color": "#e8b040"}}, {"type": "Feature", "geometry": {"type": "Polygon", "coordinates": [[[-122.6577, 53.1291], [-122.664, 53.1291], [-122.664, 53.1249], [-122.6577, 53.1249], [-122.6577, 53.1208], [-122.6515, 53.1208], [-122.6515, 53.1291], [-122.6577, 53.1291]]]}, "properties": {"company_id": "omineca-mining-and-metals", "jurisdiction": "British Columbia", "claim_id": 534393, "claim_name": "CANYON", "holder": "OMINECA MINING AND METALS LTD.", "status": "Placer", "recorded_date": "2006-05-26", "anniversary_or_expiry": "2025-04-26", "area_ha": 58.209, "tenure_type": "Placer", "source": "BC MTA Mineral, Placer and Coal Tenure Spatial View (BCGW). Open Government Licence - British Columbia. Not legal title.", "as_of": "2026-09-20", "role": "focus", "color": "#e8b040"}}]}