{"type": "FeatureCollection", "features": [{"type": "Feature", "geometry": {"type": "Polygon", "coordinates": [[[-118.0058, 49.2795], [-118.0058, 49.2831], [-118.0127, 49.2831], [-118.0127, 49.2786], [-118.0058, 49.2786], [-118.0058, 49.2795]]]}, "properties": {"company_id": "orex-minerals", "jurisdiction": "British Columbia", "claim_id": 402972, "claim_name": "EAU 5", "holder": "OREX MINERALS INC.", "status": "Mineral", "recorded_date": "2003-05-27", "anniversary_or_expiry": "2025-04-28", "area_ha": 25, "tenure_type": "Mineral", "source": "BC MTA Mineral, Placer and Coal Tenure Spatial View (BCGW). Open Government Licence - British Columbia. Not legal title.", "as_of": "2026-09-20", "role": "focus", "color": "#e8b040"}}, {"type": "Feature", "geometry": {"type": "Polygon", "coordinates": [[[-118.0127, 49.2786], [-118.0127, 49.2741], [-118.0058, 49.2741], [-118.0058, 49.2786], [-118.0127, 49.2786]]]}, "properties": {"company_id": "orex-minerals", "jurisdiction": "British Columbia", "claim_id": 402973, "claim_name": "EAU 6", "holder": "OREX MINERALS INC.", "status": "Mineral", "recorded_date": "2003-05-27", "anniversary_or_expiry": "2025-04-28", "area_ha": 25, "tenure_type": "Mineral", "source": "BC MTA Mineral, Placer and Coal Tenure Spatial View (BCGW). Open Government Licence - British Columbia. Not legal title.", "as_of": "2026-09-20", "role": "focus", "color": "#e8b040"}}, {"type": "Feature", "geometry": {"type": "Polygon", "coordinates": [[[-118.0699, 49.1708], [-118.0699, 49.1541], [-118.0386, 49.1541], [-118.0386, 49.1749], [-118.0699, 49.1749], [-118.0699, 49.1708]]]}, "properties": {"company_id": "orex-minerals", "jurisdiction": "British Columbia", "claim_id": 502135, "claim_name": "Tag 2", "holder": "OREX MINERALS INC.", "status": "Mineral", "recorded_date": "2005-01-12", "anniversary_or_expiry": "2025-04-28", "area_ha": 528.0790000000001, "tenure_type": "Mineral", "source": "BC MTA Mineral, Placer and Coal Tenure Spatial View (BCGW). Open Government Licence - British Columbia. Not legal title.", "as_of": "2026-09-20", "role": "focus", "color": "#e8b040"}}, {"type": "Feature", "geometry": {"type": "Polygon", "coordinates": [[[-118.0949, 49.1999], [-118.0949, 49.1958], [-118.0261, 49.1958], [-118.0261, 49.2041], [-118.0949, 49.2041], [-118.0949, 49.1999]]]}, "properties": {"company_id": "orex-minerals", "jurisdiction": "British Columbia", "claim_id": 502201, "claim_name": "Tag 3", "holder": "OREX MINERALS INC.", "status": "Mineral", "recorded_date": "2005-01-12", "anniversary_or_expiry": "2025-04-28", "area_ha": 464.37100000000004, "tenure_type": "Mineral", "source": "BC MTA Mineral, Placer and Coal Tenure Spatial View (BCGW). Open Government Licence - British Columbia. Not legal title.", "as_of": "2026-09-20", "role": "focus", "color": "#e8b040"}}, {"type": "Feature", "geometry": {"type": "Polygon", "coordinates": [[[-118.0949, 49.2166], [-118.0949, 49.2041], [-118.0574, 49.2041], [-118.0574, 49.2208], [-118.0949, 49.2208], [-118.0949, 49.2166]]]}, "properties": {"company_id": "orex-minerals", "jurisdiction": "British Columbia", "claim_id": 502262, "claim_name": "Tag 4", "holder": "OREX MINERALS INC.", "status": "Mineral", "recorded_date": "2005-01-12", "anniversary_or_expiry": "2025-04-28", "area_ha": 506.46200000000005, "tenure_type": "Mineral", "source": "BC MTA Mineral, Placer and Coal Tenure Spatial View (BCGW). Open Government Licence - British Columbia. Not legal title.", "as_of": "2026-09-20", "role": "focus", "color": "#e8b040"}}, {"type": "Feature", "geometry": {"type": "Polygon", "coordinates": [[[-118.0949, 49.2291], [-118.0949, 49.2208], [-118.0574, 49.2208], [-118.0574, 49.2333], [-118.0949, 49.2333], [-118.0949, 49.2291]]]}, "properties": {"company_id": "orex-minerals", "jurisdiction": "British Columbia", "claim_id": 502293, "claim_name": "Tag 5", "holder": "OREX MINERALS INC.", "status": "Mineral", "recorded_date": "2005-01-12", "anniversary_or_expiry": "2025-04-28", "area_ha": 379.736, "tenure_type": "Mineral", "source": "BC MTA Mineral, Placer and Coal Tenure Spatial View (BCGW). Open Government Licence - British Columbia. Not legal title.", "as_of": "2026-09-20", "role": "focus", "color": "#e8b040"}}, {"type": "Feature", "geometry": {"type": "Polygon", "coordinates": [[[-118.0949, 49.2374], [-118.0949, 49.2333], [-118.0574, 49.2333], [-118.0574, 49.2291], [-118.0449, 49.2291], [-118.0449, 49.2458], [-118.0886, 49.2458], [-118.0886, 49.2416], [-118.0949, 49.2416], [-118.0949, 49.2374]]]}, "properties": {"company_id": "orex-minerals", "jurisdiction": "British Columbia", "claim_id": 502312, "claim_name": "Tag 6", "holder": "OREX MINERALS INC.", "status": "Mineral", "recorded_date": "2005-01-12", "anniversary_or_expiry": "2025-04-28", "area_ha": 527.2850000000001, "tenure_type": "Mineral", "source": "BC MTA Mineral, Placer and Coal Tenure Spatial View (BCGW). Open Government Licence - British Columbia. Not legal title.", "as_of": "2026-09-20", "role": "focus", "color": "#e8b040"}}, {"type": "Feature", "geometry": {"type": "Polygon", "coordinates": [[[-118.0636, 49.2749], [-118.0636, 49.2583], [-118.0324, 49.2583], [-118.0324, 49.2791], [-118.0636, 49.2791], [-118.0636, 49.2749]]]}, "properties": {"company_id": "orex-minerals", "jurisdiction": "British Columbia", "claim_id": 502334, "claim_name": "Tag 7", "holder": "OREX MINERALS INC.", "status": "Mineral", "recorded_date": "2005-01-12", "anniversary_or_expiry": "2025-04-28", "area_ha": 526.977, "tenure_type": "Mineral", "source": "BC MTA Mineral, Placer and Coal Tenure Spatial View (BCGW). Open Government Licence - British Columbia. Not legal title.", "as_of": "2026-09-20", "role": "focus", "color": "#e8b040"}}, {"type": "Feature", "geometry": {"type": "Polygon", "coordinates": [[[-118.0637, 49.2958], [-118.0636, 49.2791], [-118.0324, 49.2791], [-118.0324, 49.2999], [-118.0637, 49.2999], [-118.0637, 49.2958]]]}, "properties": {"company_id": "orex-minerals", "jurisdiction": "British Columbia", "claim_id": 502350, "claim_name": "Tag 8", "holder": "OREX MINERALS INC.", "status": "Mineral", "recorded_date": "2005-01-12", "anniversary_or_expiry": "2025-04-28", "area_ha": 526.765, "tenure_type": "Mineral", "source": "BC MTA Mineral, Placer and Coal Tenure Spatial View (BCGW). Open Government Licence - British Columbia. Not legal title.", "as_of": "2026-09-20", "role": "focus", "color": "#e8b040"}}, {"type": "Feature", "geometry": {"type": "Polygon", "coordinates": [[[-118.0699, 49.1916], [-118.0699, 49.1749], [-118.0386, 49.1749], [-118.0386, 49.1958], [-118.0699, 49.1958], [-118.0699, 49.1916]]]}, "properties": {"company_id": "orex-minerals", "jurisdiction": "British Columbia", "claim_id": 502361, "claim_name": "Tag 9", "holder": "OREX MINERALS INC.", "status": "Mineral", "recorded_date": "2005-01-12", "anniversary_or_expiry": "2025-04-28", "area_ha": 527.846, "tenure_type": "Mineral", "source": "BC MTA Mineral, Placer and Coal Tenure Spatial View (BCGW). Open Government Licence - British Columbia. Not legal title.", "as_of": "2026-09-20", "role": "focus", "color": "#e8b040"}}, {"type": "Feature", "geometry": {"type": "Polygon", "coordinates": [[[-118.0886, 49.2541], [-118.0886, 49.2458], [-118.0449, 49.2458], [-118.0449, 49.2583], [-118.0886, 49.2583], [-118.0886, 49.2541]]]}, "properties": {"company_id": "orex-minerals", "jurisdiction": "British Columbia", "claim_id": 502378, "claim_name": "Tag 10", "holder": "OREX MINERALS INC.", "status": "Mineral", "recorded_date": "2005-01-12", "anniversary_or_expiry": "2025-04-28", "area_ha": 442.802, "tenure_type": "Mineral", "source": "BC MTA Mineral, Placer and Coal Tenure Spatial View (BCGW). Open Government Licence - British Columbia. Not legal title.", "as_of": "2026-09-20", "role": "focus", "color": "#e8b040"}}, {"type": "Feature", "geometry": {"type": "Polygon", "coordinates": [[[-118.0886, 49.1708], [-118.0886, 49.1624], [-118.0699, 49.1624], [-118.0699, 49.1749], [-118.0886, 49.1749], [-118.0886, 49.1708]]]}, "properties": {"company_id": "orex-minerals", "jurisdiction": "British Columbia", "claim_id": 513692, "claim_name": "SARAH JEAN", "holder": "OREX MINERALS INC.", "status": "Mineral", "recorded_date": "2005-05-31", "anniversary_or_expiry": "2025-04-28", "area_ha": 190.092, "tenure_type": "Mineral", "source": "BC MTA Mineral, Placer and Coal Tenure Spatial View (BCGW). Open Government Licence - British Columbia. Not legal title.", "as_of": "2026-09-20", "role": "focus", "color": "#e8b040"}}, {"type": "Feature", "geometry": {"type": "Polygon", "coordinates": [[[-118.1074, 49.1916], [-118.1074, 49.1499], [-118.1011, 49.1499], [-118.1011, 49.1457], [-118.0886, 49.1457], [-118.0886, 49.1749], [-118.1011, 49.1749], [-118.1011, 49.1957], [-118.1074, 49.1957], [-118.1074, 49.1916]]]}, "properties": {"company_id": "orex-minerals", "jurisdiction": "British Columbia", "claim_id": 514532, "claim_name": "BIG TIME", "holder": "OREX MINERALS INC.", "status": "Mineral", "recorded_date": "2005-06-15", "anniversary_or_expiry": "2025-04-28", "area_ha": 528.082, "tenure_type": "Mineral", "source": "BC MTA Mineral, Placer and Coal Tenure Spatial View (BCGW). Open Government Licence - British Columbia. Not legal title.", "as_of": "2026-09-20", "role": "focus", "color": "#e8b040"}}, {"type": "Feature", "geometry": {"type": "Polygon", "coordinates": [[[-118.0886, 49.1582], [-118.0886, 49.1457], [-118.0386, 49.1458], [-118.0386, 49.1541], [-118.0699, 49.1541], [-118.0699, 49.1624], [-118.0886, 49.1624], [-118.0886, 49.1582]]]}, "properties": {"company_id": "orex-minerals", "jurisdiction": "British Columbia", "claim_id": 514533, "claim_name": "BONANZO", "holder": "OREX MINERALS INC.", "status": "Mineral", "recorded_date": "2005-06-15", "anniversary_or_expiry": "2025-04-28", "area_ha": 464.83500000000004, "tenure_type": "Mineral", "source": "BC MTA Mineral, Placer and Coal Tenure Spatial View (BCGW). Open Government Licence - British Columbia. Not legal title.", "as_of": "2026-09-20", "role": "focus", "color": "#e8b040"}}, {"type": "Feature", "geometry": {"type": "Polygon", "coordinates": [[[-118.0074, 49.2833], [-118.0074, 49.2708], [-117.9949, 49.2708], [-117.9949, 49.2416], [-117.9636, 49.2416], [-117.9636, 49.2499], [-117.9574, 49.2499], [-117.9574, 49.2541], [-117.9449, 49.2541], [-117.9449, 49.2874], [-118.0074, 49.2874], [-118.0074, 49.2833]]]}, "properties": {"company_id": "orex-minerals", "jurisdiction": "British Columbia", "claim_id": 516885, "claim_name": null, "holder": "OREX MINERALS INC.", "status": "Mineral", "recorded_date": "2005-07-11", "anniversary_or_expiry": "2025-04-28", "area_ha": 1849.4070000000002, "tenure_type": "Mineral", "source": "BC MTA Mineral, Placer and Coal Tenure Spatial View (BCGW). Open Government Licence - British Columbia. Not legal title.", "as_of": "2026-09-20", "role": "focus", "color": "#e8b040"}}, {"type": "Feature", "geometry": {"type": "Polygon", "coordinates": [[[-118.0199, 49.2791], [-118.0199, 49.2541], [-117.9949, 49.2541], [-117.9949, 49.2708], [-118.0074, 49.2708], [-118.0074, 49.2833], [-118.0199, 49.2833], [-118.0199, 49.2791]]]}, "properties": {"company_id": "orex-minerals", "jurisdiction": "British Columbia", "claim_id": 516886, "claim_name": null, "holder": "OREX MINERALS INC.", "status": "Mineral", "recorded_date": "2005-07-11", "anniversary_or_expiry": "2025-04-28", "area_ha": 463.76, "tenure_type": "Mineral", "source": "BC MTA Mineral, Placer and Coal Tenure Spatial View (BCGW). Open Government Licence - British Columbia. Not legal title.", "as_of": "2026-09-20", "role": "focus", "color": "#e8b040"}}, {"type": "Feature", "geometry": {"type": "Polygon", "coordinates": [[[-118.0449, 49.2541], [-118.0449, 49.2291], [-118.0136, 49.2291], [-118.0136, 49.2541], [-118.0199, 49.2541], [-118.0199, 49.2583], [-118.0449, 49.2583], [-118.0449, 49.2541]]]}, "properties": {"company_id": "orex-minerals", "jurisdiction": "British Columbia", "claim_id": 516888, "claim_name": null, "holder": "OREX MINERALS INC.", "status": "Mineral", "recorded_date": "2005-07-11", "anniversary_or_expiry": "2025-04-28", "area_ha": 717.039, "tenure_type": "Mineral", "source": "BC MTA Mineral, Placer and Coal Tenure Spatial View (BCGW). Open Government Licence - British Columbia. Not legal title.", "as_of": "2026-09-20", "role": "focus", "color": "#e8b040"}}, {"type": "Feature", "geometry": {"type": "Polygon", "coordinates": [[[-118.0199, 49.2958], [-118.0199, 49.2874], [-118.0011, 49.2874], [-118.0011, 49.2999], [-118.0199, 49.2999], [-118.0199, 49.2958]]]}, "properties": {"company_id": "orex-minerals", "jurisdiction": "British Columbia", "claim_id": 516890, "claim_name": null, "holder": "OREX MINERALS INC.", "status": "Mineral", "recorded_date": "2005-07-11", "anniversary_or_expiry": "2025-04-28", "area_ha": 189.621, "tenure_type": "Mineral", "source": "BC MTA Mineral, Placer and Coal Tenure Spatial View (BCGW). Open Government Licence - British Columbia. Not legal title.", "as_of": "2026-09-20", "role": "focus", "color": "#e8b040"}}, {"type": "Feature", "geometry": {"type": "Polygon", "coordinates": [[[-118.0324, 49.2999], [-118.0324, 49.2583], [-118.0199, 49.2583], [-118.0199, 49.2833], [-118.0074, 49.2833], [-118.0074, 49.2874], [-118.0199, 49.2874], [-118.0199, 49.2999], [-118.0011, 49.2999], [-118.0011, 49.3041], [-118.0324, 49.3041], [-118.0324, 49.2999]]]}, "properties": {"company_id": "orex-minerals", "jurisdiction": "British Columbia", "claim_id": 516893, "claim_name": null, "holder": "OREX MINERALS INC.", "status": "Mineral", "recorded_date": "2005-07-11", "anniversary_or_expiry": "2025-04-28", "area_ha": 568.971, "tenure_type": "Mineral", "source": "BC MTA Mineral, Placer and Coal Tenure Spatial View (BCGW). Open Government Licence - British Columbia. Not legal title.", "as_of": "2026-09-20", "role": "focus", "color": "#e8b040"}}, {"type": "Feature", "geometry": {"type": "Polygon", "coordinates": [[[-118.0011, 49.2999], [-118.0011, 49.2874], [-117.9636, 49.2874], [-117.9636, 49.3041], [-118.0011, 49.3041], [-118.0011, 49.2999]]]}, "properties": {"company_id": "orex-minerals", "jurisdiction": "British Columbia", "claim_id": 516894, "claim_name": null, "holder": "OREX MINERALS INC.", "status": "Mineral", "recorded_date": "2005-07-11", "anniversary_or_expiry": "2025-04-28", "area_ha": 505.61400000000003, "tenure_type": "Mineral", "source": "BC MTA Mineral, Placer and Coal Tenure Spatial View (BCGW). Open Government Licence - British Columbia. Not legal title.", "as_of": "2026-09-20", "role": "focus", "color": "#e8b040"}}, {"type": "Feature", "geometry": {"type": "Polygon", "coordinates": [[[-118.1136, 49.2041], [-118.1136, 49.1874], [-118.1074, 49.1874], [-118.1074, 49.1957], [-118.0949, 49.1958], [-118.0949, 49.2083], [-118.1136, 49.2082], [-118.1136, 49.2041]]]}, "properties": {"company_id": "orex-minerals", "jurisdiction": "British Columbia", "claim_id": 515261, "claim_name": "GAP", "holder": "OREX MINERALS INC.", "status": "Mineral", "recorded_date": "2005-06-25", "anniversary_or_expiry": "2025-04-28", "area_ha": 232.193, "tenure_type": "Mineral", "source": "BC MTA Mineral, Placer and Coal Tenure Spatial View (BCGW). Open Government Licence - British Columbia. Not legal title.", "as_of": "2026-09-20", "role": "focus", "color": "#e8b040"}}, {"type": "Feature", "geometry": {"type": "Polygon", "coordinates": [[[-118.0136, 49.2499], [-118.0136, 49.2291], [-117.9886, 49.2291], [-117.9886, 49.2416], [-117.9949, 49.2416], [-117.9949, 49.2541], [-118.0136, 49.2541], [-118.0136, 49.2499]]]}, "properties": {"company_id": "orex-minerals", "jurisdiction": "British Columbia", "claim_id": 516889, "claim_name": null, "holder": "OREX MINERALS INC.", "status": "Mineral", "recorded_date": "2005-07-11", "anniversary_or_expiry": "2025-04-28", "area_ha": 442.892, "tenure_type": "Mineral", "source": "BC MTA Mineral, Placer and Coal Tenure Spatial View (BCGW). Open Government Licence - British Columbia. Not legal title.", "as_of": "2026-09-20", "role": "focus", "color": "#e8b040"}}, {"type": "Feature", "geometry": {"type": "Polygon", "coordinates": [[[-118.1011, 49.1916], [-118.1011, 49.1749], [-118.0699, 49.1749], [-118.0699, 49.1958], [-118.1011, 49.1957], [-118.1011, 49.1916]]]}, "properties": {"company_id": "orex-minerals", "jurisdiction": "British Columbia", "claim_id": 502048, "claim_name": "Tag 1", "holder": "OREX MINERALS INC.", "status": "Mineral", "recorded_date": "2005-01-12", "anniversary_or_expiry": "2025-04-28", "area_ha": 527.857, "tenure_type": "Mineral", "source": "BC MTA Mineral, Placer and Coal Tenure Spatial View (BCGW). Open Government Licence - British Columbia. Not legal title.", "as_of": "2026-09-20", "role": "focus", "color": "#e8b040"}}, {"type": "Feature", "geometry": {"type": "Polygon", "coordinates": [[[-118.0574, 49.2249], [-118.0574, 49.2041], [-118.0324, 49.2041], [-118.0324, 49.2291], [-118.0574, 49.2291], [-118.0574, 49.2249]]]}, "properties": {"company_id": "orex-minerals", "jurisdiction": "British Columbia", "claim_id": 502223, "claim_name": "Tag 4", "holder": "OREX MINERALS INC.", "status": "Mineral", "recorded_date": "2005-01-12", "anniversary_or_expiry": "2025-04-28", "area_ha": 506.415, "tenure_type": "Mineral", "source": "BC MTA Mineral, Placer and Coal Tenure Spatial View (BCGW). Open Government Licence - British Columbia. Not legal title.", "as_of": "2026-09-20", "role": "focus", "color": "#e8b040"}}]}