{"type": "FeatureCollection", "features": [{"type": "Feature", "geometry": {"type": "Polygon", "coordinates": [[[-79.6563, 47.3458], [-79.6563, 47.35], [-79.6625, 47.35], [-79.6625, 47.3458], [-79.6563, 47.3458]]]}, "properties": {"company_id": "outcrop-silver-and-gold", "jurisdiction": "Ontario", "claim_id": "203778", "claim_name": null, "holder": "(100) OUTCROP EXPLORATIONS LIMITED", "status": "Active", "recorded_date": "2018-04-10", "anniversary_or_expiry": "2027-06-27", "area_ha": null, "tenure_type": "Single Cell Mining Claim", "source": "Ontario MLAS operational claims (OGSEarth / LIO MapServer). Unofficial viewing data, not legal title.", "as_of": "2026-09-20", "role": "focus", "color": "#e8b040"}}, {"type": "Feature", "geometry": {"type": "Polygon", "coordinates": [[[-79.65, 47.3417], [-79.65, 47.3458], [-79.6563, 47.3458], [-79.6563, 47.3417], [-79.65, 47.3417]]]}, "properties": {"company_id": "outcrop-silver-and-gold", "jurisdiction": "Ontario", "claim_id": "207757", "claim_name": null, "holder": "(100) OUTCROP EXPLORATIONS LIMITED", "status": "Active", "recorded_date": "2018-04-10", "anniversary_or_expiry": "2027-06-27", "area_ha": null, "tenure_type": "Boundary Cell Mining Claim", "source": "Ontario MLAS operational claims (OGSEarth / LIO MapServer). Unofficial viewing data, not legal title.", "as_of": "2026-09-20", "role": "focus", "color": "#e8b040"}}, {"type": "Feature", "geometry": {"type": "Polygon", "coordinates": [[[-79.65, 47.3458], [-79.65, 47.35], [-79.6563, 47.35], [-79.6563, 47.3458], [-79.65, 47.3458]]]}, "properties": {"company_id": "outcrop-silver-and-gold", "jurisdiction": "Ontario", "claim_id": "255059", "claim_name": null, "holder": "(100) OUTCROP EXPLORATIONS LIMITED", "status": "Active", "recorded_date": "2018-04-10", "anniversary_or_expiry": "2027-06-27", "area_ha": null, "tenure_type": "Boundary Cell Mining Claim", "source": "Ontario MLAS operational claims (OGSEarth / LIO MapServer). Unofficial viewing data, not legal title.", "as_of": "2026-09-20", "role": "focus", "color": "#e8b040"}}, {"type": "Feature", "geometry": {"type": "Polygon", "coordinates": [[[-79.6563, 47.3417], [-79.6563, 47.3458], [-79.6625, 47.3458], [-79.6625, 47.3417], [-79.6563, 47.3417]]]}, "properties": {"company_id": "outcrop-silver-and-gold", "jurisdiction": "Ontario", "claim_id": "276466", "claim_name": null, "holder": "(100) OUTCROP EXPLORATIONS LIMITED", "status": "Active", "recorded_date": "2018-04-10", "anniversary_or_expiry": "2027-06-27", "area_ha": null, "tenure_type": "Boundary Cell Mining Claim", "source": "Ontario MLAS operational claims (OGSEarth / LIO MapServer). Unofficial viewing data, not legal title.", "as_of": "2026-09-20", "role": "focus", "color": "#e8b040"}}]}