{"type": "FeatureCollection", "features": [{"type": "Feature", "geometry": {"type": "Polygon", "coordinates": [[[-130.7333, 57.2707], [-130.7333, 57.2665], [-130.702, 57.2665], [-130.702, 57.2873], [-130.7333, 57.2873], [-130.7333, 57.2707]]]}, "properties": {"company_id": "p2-gold", "jurisdiction": "British Columbia", "claim_id": 501238, "claim_name": "DA1", "holder": "P2 GOLD INC.", "status": "Mineral", "recorded_date": "2005-01-12", "anniversary_or_expiry": "2032-06-22", "area_ha": 437.368, "tenure_type": "Mineral", "source": "BC MTA Mineral, Placer and Coal Tenure Spatial View (BCGW). Open Government Licence - British Columbia. Not legal title.", "as_of": "2026-09-20", "role": "focus", "color": "#e8b040"}}, {"type": "Feature", "geometry": {"type": "Polygon", "coordinates": [[[-130.7333, 57.2623], [-130.7333, 57.2582], [-130.6895, 57.2582], [-130.6895, 57.2873], [-130.702, 57.2873], [-130.702, 57.2665], [-130.7333, 57.2665], [-130.7333, 57.2623]]]}, "properties": {"company_id": "p2-gold", "jurisdiction": "British Columbia", "claim_id": 510325, "claim_name": "DA 2", "holder": "P2 GOLD INC.", "status": "Mineral", "recorded_date": "2005-04-07", "anniversary_or_expiry": "2032-06-22", "area_ha": 419.97, "tenure_type": "Mineral", "source": "BC MTA Mineral, Placer and Coal Tenure Spatial View (BCGW). Open Government Licence - British Columbia. Not legal title.", "as_of": "2026-09-20", "role": "focus", "color": "#e8b040"}}, {"type": "Feature", "geometry": {"type": "Polygon", "coordinates": [[[-130.7333, 57.2498], [-130.7333, 57.2457], [-130.6833, 57.2457], [-130.6833, 57.2623], [-130.6895, 57.2623], [-130.6895, 57.2582], [-130.7333, 57.2582], [-130.7333, 57.2498]]]}, "properties": {"company_id": "p2-gold", "jurisdiction": "British Columbia", "claim_id": 510372, "claim_name": "DA 3", "holder": "P2 GOLD INC.", "status": "Mineral", "recorded_date": "2005-04-08", "anniversary_or_expiry": "2032-06-22", "area_ha": 437.65900000000005, "tenure_type": "Mineral", "source": "BC MTA Mineral, Placer and Coal Tenure Spatial View (BCGW). Open Government Licence - British Columbia. Not legal title.", "as_of": "2026-09-20", "role": "focus", "color": "#e8b040"}}, {"type": "Feature", "geometry": {"type": "Polygon", "coordinates": [[[-130.6833, 57.2498], [-130.6833, 57.2457], [-130.6458, 57.2457], [-130.6458, 57.2623], [-130.6833, 57.2623], [-130.6833, 57.2498]]]}, "properties": {"company_id": "p2-gold", "jurisdiction": "British Columbia", "claim_id": 515037, "claim_name": "CHAIN1", "holder": "P2 GOLD INC.", "status": "Mineral", "recorded_date": "2005-06-22", "anniversary_or_expiry": "2032-06-22", "area_ha": 420.13, "tenure_type": "Mineral", "source": "BC MTA Mineral, Placer and Coal Tenure Spatial View (BCGW). Open Government Licence - British Columbia. Not legal title.", "as_of": "2026-09-20", "role": "focus", "color": "#e8b040"}}, {"type": "Feature", "geometry": {"type": "Polygon", "coordinates": [[[-130.677, 57.2373], [-130.677, 57.2332], [-130.627, 57.2332], [-130.627, 57.2457], [-130.677, 57.2457], [-130.677, 57.2373]]]}, "properties": {"company_id": "p2-gold", "jurisdiction": "British Columbia", "claim_id": 515051, "claim_name": "PARIS", "holder": "P2 GOLD INC.", "status": "Mineral", "recorded_date": "2005-06-23", "anniversary_or_expiry": "2032-06-22", "area_ha": 420.296, "tenure_type": "Mineral", "source": "BC MTA Mineral, Placer and Coal Tenure Spatial View (BCGW). Open Government Licence - British Columbia. Not legal title.", "as_of": "2026-09-20", "role": "focus", "color": "#e8b040"}}, {"type": "Feature", "geometry": {"type": "Polygon", "coordinates": [[[-130.6895, 57.279], [-130.6895, 57.2748], [-130.6645, 57.2748], [-130.6645, 57.2873], [-130.6895, 57.2873], [-130.6895, 57.279]]]}, "properties": {"company_id": "p2-gold", "jurisdiction": "British Columbia", "claim_id": 515053, "claim_name": "VELVET", "holder": "P2 GOLD INC.", "status": "Mineral", "recorded_date": "2005-06-23", "anniversary_or_expiry": "2032-06-22", "area_ha": 209.912, "tenure_type": "Mineral", "source": "BC MTA Mineral, Placer and Coal Tenure Spatial View (BCGW). Open Government Licence - British Columbia. Not legal title.", "as_of": "2026-09-20", "role": "focus", "color": "#e8b040"}}, {"type": "Feature", "geometry": {"type": "Polygon", "coordinates": [[[-130.7458, 57.2415], [-130.7458, 57.2373], [-130.7083, 57.2373], [-130.7083, 57.2457], [-130.7458, 57.2457], [-130.7458, 57.2415]]]}, "properties": {"company_id": "p2-gold", "jurisdiction": "British Columbia", "claim_id": 514952, "claim_name": "DA 4", "holder": "P2 GOLD INC.", "status": "Mineral", "recorded_date": "2005-06-22", "anniversary_or_expiry": "2032-06-22", "area_ha": 210.13600000000002, "tenure_type": "Mineral", "source": "BC MTA Mineral, Placer and Coal Tenure Spatial View (BCGW). Open Government Licence - British Columbia. Not legal title.", "as_of": "2026-09-20", "role": "focus", "color": "#e8b040"}}, {"type": "Feature", "geometry": {"type": "Polygon", "coordinates": [[[-130.8833, 57.2957], [-130.8708, 57.2957], [-130.8708, 57.3082], [-130.8833, 57.3082], [-130.8833, 57.2998], [-130.8895, 57.2998], [-130.8895, 57.2957], [-130.8833, 57.2957]]]}, "properties": {"company_id": "p2-gold", "jurisdiction": "British Columbia", "claim_id": 526726, "claim_name": "MESS 4", "holder": "P2 GOLD INC.", "status": "Mineral", "recorded_date": "2006-01-30", "anniversary_or_expiry": "2032-06-22", "area_ha": 122.38300000000001, "tenure_type": "Mineral", "source": "BC MTA Mineral, Placer and Coal Tenure Spatial View (BCGW). Open Government Licence - British Columbia. Not legal title.", "as_of": "2026-09-20", "role": "focus", "color": "#e8b040"}}, {"type": "Feature", "geometry": {"type": "Polygon", "coordinates": [[[-130.9145, 57.304], [-130.9145, 57.2998], [-130.8833, 57.2998], [-130.8833, 57.3207], [-130.9145, 57.3207], [-130.9145, 57.304]]]}, "properties": {"company_id": "p2-gold", "jurisdiction": "British Columbia", "claim_id": 525712, "claim_name": "MESS 1", "holder": "P2 GOLD INC.", "status": "Mineral", "recorded_date": "2006-01-17", "anniversary_or_expiry": "2032-06-22", "area_ha": 436.975, "tenure_type": "Mineral", "source": "BC MTA Mineral, Placer and Coal Tenure Spatial View (BCGW). Open Government Licence - British Columbia. Not legal title.", "as_of": "2026-09-20", "role": "focus", "color": "#e8b040"}}, {"type": "Feature", "geometry": {"type": "Polygon", "coordinates": [[[-130.9145, 57.3248], [-130.9145, 57.3207], [-130.877, 57.3207], [-130.877, 57.329], [-130.9145, 57.329], [-130.9145, 57.3248]]]}, "properties": {"company_id": "p2-gold", "jurisdiction": "British Columbia", "claim_id": 525713, "claim_name": "MESS 2", "holder": "P2 GOLD INC.", "status": "Mineral", "recorded_date": "2006-01-17", "anniversary_or_expiry": "2032-06-22", "area_ha": 209.66500000000002, "tenure_type": "Mineral", "source": "BC MTA Mineral, Placer and Coal Tenure Spatial View (BCGW). Open Government Licence - British Columbia. Not legal title.", "as_of": "2026-09-20", "role": "focus", "color": "#e8b040"}}, {"type": "Feature", "geometry": {"type": "Polygon", "coordinates": [[[-130.9145, 57.2873], [-130.8895, 57.2873], [-130.8895, 57.2998], [-130.902, 57.2998], [-130.902, 57.2957], [-130.9083, 57.2957], [-130.9083, 57.2998], [-130.9145, 57.2998], [-130.9145, 57.2915], [-130.9208, 57.2915], [-130.9208, 57.2873], [-130.9145, 57.2873]]]}, "properties": {"company_id": "p2-gold", "jurisdiction": "British Columbia", "claim_id": 525715, "claim_name": "MESS 3", "holder": "P2 GOLD INC.", "status": "Mineral", "recorded_date": "2006-01-17", "anniversary_or_expiry": "2032-06-22", "area_ha": 209.846, "tenure_type": "Mineral", "source": "BC MTA Mineral, Placer and Coal Tenure Spatial View (BCGW). Open Government Licence - British Columbia. Not legal title.", "as_of": "2026-09-20", "role": "focus", "color": "#e8b040"}}, {"type": "Feature", "geometry": {"type": "Polygon", "coordinates": [[[-131.027, 57.329], [-131.027, 57.3248], [-130.9833, 57.3248], [-130.9833, 57.3373], [-131.027, 57.3373], [-131.027, 57.329]]]}, "properties": {"company_id": "p2-gold", "jurisdiction": "British Columbia", "claim_id": 527394, "claim_name": "MESS 5", "holder": "P2 GOLD INC.", "status": "Mineral", "recorded_date": "2006-02-10", "anniversary_or_expiry": "2032-06-22", "area_ha": 366.848, "tenure_type": "Mineral", "source": "BC MTA Mineral, Placer and Coal Tenure Spatial View (BCGW). Open Government Licence - British Columbia. Not legal title.", "as_of": "2026-09-20", "role": "focus", "color": "#e8b040"}}, {"type": "Feature", "geometry": {"type": "Polygon", "coordinates": [[[-130.977, 57.3248], [-130.9583, 57.3248], [-130.9583, 57.3207], [-130.9145, 57.3207], [-130.9145, 57.3248], [-130.9395, 57.3248], [-130.9395, 57.329], [-130.9833, 57.329], [-130.9833, 57.3248], [-130.977, 57.3248]]]}, "properties": {"company_id": "p2-gold", "jurisdiction": "British Columbia", "claim_id": 527395, "claim_name": "MESS 6", "holder": "P2 GOLD INC.", "status": "Mineral", "recorded_date": "2006-02-10", "anniversary_or_expiry": "2032-06-22", "area_ha": 244.608, "tenure_type": "Mineral", "source": "BC MTA Mineral, Placer and Coal Tenure Spatial View (BCGW). Open Government Licence - British Columbia. Not legal title.", "as_of": "2026-09-20", "role": "focus", "color": "#e8b040"}}, {"type": "Feature", "geometry": {"type": "Polygon", "coordinates": [[[-130.9333, 57.3332], [-130.9333, 57.329], [-130.8958, 57.329], [-130.8958, 57.3415], [-130.9333, 57.3415], [-130.9333, 57.3332]]]}, "properties": {"company_id": "p2-gold", "jurisdiction": "British Columbia", "claim_id": 526100, "claim_name": "SHAFT 666", "holder": "P2 GOLD INC.", "status": "Mineral", "recorded_date": "2006-01-23", "anniversary_or_expiry": "2032-06-22", "area_ha": 314.41, "tenure_type": "Mineral", "source": "BC MTA Mineral, Placer and Coal Tenure Spatial View (BCGW). Open Government Licence - British Columbia. Not legal title.", "as_of": "2026-09-20", "role": "focus", "color": "#e8b040"}}, {"type": "Feature", "geometry": {"type": "Polygon", "coordinates": [[[-130.9145, 57.3665], [-130.9145, 57.3623], [-130.8833, 57.3623], [-130.8833, 57.379], [-130.9145, 57.379], [-130.9145, 57.3665]]]}, "properties": {"company_id": "p2-gold", "jurisdiction": "British Columbia", "claim_id": 526287, "claim_name": "SHAFT 667", "holder": "P2 GOLD INC.", "status": "Mineral", "recorded_date": "2006-01-25", "anniversary_or_expiry": "2032-06-22", "area_ha": 349.01, "tenure_type": "Mineral", "source": "BC MTA Mineral, Placer and Coal Tenure Spatial View (BCGW). Open Government Licence - British Columbia. Not legal title.", "as_of": "2026-09-20", "role": "focus", "color": "#e8b040"}}, {"type": "Feature", "geometry": {"type": "Polygon", "coordinates": [[[-130.9583, 57.3332], [-130.9583, 57.329], [-130.9395, 57.329], [-130.9395, 57.3248], [-130.9145, 57.3248], [-130.9145, 57.329], [-130.9333, 57.329], [-130.9333, 57.3373], [-130.9583, 57.3373], [-130.9583, 57.3332]]]}, "properties": {"company_id": "p2-gold", "jurisdiction": "British Columbia", "claim_id": 526294, "claim_name": "SHAFT 668", "holder": "P2 GOLD INC.", "status": "Mineral", "recorded_date": "2006-01-26", "anniversary_or_expiry": "2032-06-22", "area_ha": 209.62900000000002, "tenure_type": "Mineral", "source": "BC MTA Mineral, Placer and Coal Tenure Spatial View (BCGW). Open Government Licence - British Columbia. Not legal title.", "as_of": "2026-09-20", "role": "focus", "color": "#e8b040"}}, {"type": "Feature", "geometry": {"type": "Polygon", "coordinates": [[[-130.8958, 57.3332], [-130.8958, 57.329], [-130.877, 57.329], [-130.877, 57.3623], [-130.8895, 57.3623], [-130.8895, 57.3457], [-130.8958, 57.3457], [-130.8958, 57.3332]]]}, "properties": {"company_id": "p2-gold", "jurisdiction": "British Columbia", "claim_id": 526295, "claim_name": "SHAFT 669", "holder": "P2 GOLD INC.", "status": "Mineral", "recorded_date": "2006-01-26", "anniversary_or_expiry": "2032-06-22", "area_ha": 349.26300000000003, "tenure_type": "Mineral", "source": "BC MTA Mineral, Placer and Coal Tenure Spatial View (BCGW). Open Government Licence - British Columbia. Not legal title.", "as_of": "2026-09-20", "role": "focus", "color": "#e8b040"}}, {"type": "Feature", "geometry": {"type": "Polygon", "coordinates": [[[-130.8833, 57.3665], [-130.8833, 57.3623], [-130.877, 57.3623], [-130.877, 57.3498], [-130.8708, 57.3498], [-130.8708, 57.3707], [-130.8833, 57.3707], [-130.8833, 57.3665]]]}, "properties": {"company_id": "p2-gold", "jurisdiction": "British Columbia", "claim_id": 526490, "claim_name": "SHAFT 670", "holder": "P2 GOLD INC.", "status": "Mineral", "recorded_date": "2006-01-27", "anniversary_or_expiry": "2032-06-22", "area_ha": 122.182, "tenure_type": "Mineral", "source": "BC MTA Mineral, Placer and Coal Tenure Spatial View (BCGW). Open Government Licence - British Columbia. Not legal title.", "as_of": "2026-09-20", "role": "focus", "color": "#e8b040"}}, {"type": "Feature", "geometry": {"type": "Polygon", "coordinates": [[[-130.7458, 57.229], [-130.7458, 57.2248], [-130.6895, 57.2248], [-130.6895, 57.2332], [-130.7083, 57.2332], [-130.7083, 57.2373], [-130.7458, 57.2373], [-130.7458, 57.229]]]}, "properties": {"company_id": "p2-gold", "jurisdiction": "British Columbia", "claim_id": 533216, "claim_name": null, "holder": "P2 GOLD INC.", "status": "Mineral", "recorded_date": "2006-04-30", "anniversary_or_expiry": "2032-06-22", "area_ha": 420.39500000000004, "tenure_type": "Mineral", "source": "BC MTA Mineral, Placer and Coal Tenure Spatial View (BCGW). Open Government Licence - British Columbia. Not legal title.", "as_of": "2026-09-20", "role": "focus", "color": "#e8b040"}}, {"type": "Feature", "geometry": {"type": "Polygon", "coordinates": [[[-130.902, 57.2957], [-130.902, 57.2998], [-130.9083, 57.2998], [-130.9083, 57.2957], [-130.902, 57.2957]]]}, "properties": {"company_id": "p2-gold", "jurisdiction": "British Columbia", "claim_id": 530660, "claim_name": "MESS_RUN", "holder": "P2 GOLD INC.", "status": "Mineral", "recorded_date": "2006-03-28", "anniversary_or_expiry": "2032-06-22", "area_ha": 17.485, "tenure_type": "Mineral", "source": "BC MTA Mineral, Placer and Coal Tenure Spatial View (BCGW). Open Government Licence - British Columbia. Not legal title.", "as_of": "2026-09-20", "role": "focus", "color": "#e8b040"}}, {"type": "Feature", "geometry": {"type": "Polygon", "coordinates": [[[-130.9333, 57.2915], [-130.9333, 57.2873], [-130.927, 57.2873], [-130.9208, 57.2873], [-130.9208, 57.2915], [-130.9145, 57.2915], [-130.9145, 57.3207], [-130.9333, 57.3207], [-130.9333, 57.2915]]]}, "properties": {"company_id": "p2-gold", "jurisdiction": "British Columbia", "claim_id": 532722, "claim_name": "MESS WEST EXT.", "holder": "P2 GOLD INC.", "status": "Mineral", "recorded_date": "2006-04-20", "anniversary_or_expiry": "2032-06-22", "area_ha": 402.077, "tenure_type": "Mineral", "source": "BC MTA Mineral, Placer and Coal Tenure Spatial View (BCGW). Open Government Licence - British Columbia. Not legal title.", "as_of": "2026-09-20", "role": "focus", "color": "#e8b040"}}, {"type": "Feature", "geometry": {"type": "Polygon", "coordinates": [[[-130.6458, 57.2498], [-130.6458, 57.2457], [-130.6083, 57.2457], [-130.6083, 57.2623], [-130.6458, 57.2623], [-130.6458, 57.2498]]]}, "properties": {"company_id": "p2-gold", "jurisdiction": "British Columbia", "claim_id": 515038, "claim_name": "CHAIN2", "holder": "P2 GOLD INC.", "status": "Mineral", "recorded_date": "2005-06-22", "anniversary_or_expiry": "2032-06-22", "area_ha": 420.124, "tenure_type": "Mineral", "source": "BC MTA Mineral, Placer and Coal Tenure Spatial View (BCGW). Open Government Licence - British Columbia. Not legal title.", "as_of": "2026-09-20", "role": "focus", "color": "#e8b040"}}, {"type": "Feature", "geometry": {"type": "Polygon", "coordinates": [[[-130.7083, 57.2373], [-130.7083, 57.2332], [-130.677, 57.2332], [-130.677, 57.2457], [-130.7083, 57.2457], [-130.7083, 57.2373]]]}, "properties": {"company_id": "p2-gold", "jurisdiction": "British Columbia", "claim_id": 515052, "claim_name": "HILTON", "holder": "P2 GOLD INC.", "status": "Mineral", "recorded_date": "2005-06-23", "anniversary_or_expiry": "2032-06-22", "area_ha": 262.685, "tenure_type": "Mineral", "source": "BC MTA Mineral, Placer and Coal Tenure Spatial View (BCGW). Open Government Licence - British Columbia. Not legal title.", "as_of": "2026-09-20", "role": "focus", "color": "#e8b040"}}, {"type": "Feature", "geometry": {"type": "Polygon", "coordinates": [[[-130.7583, 57.2873], [-130.6645, 57.2873], [-130.6645, 57.2915], [-130.7645, 57.2915], [-130.7645, 57.2873], [-130.7583, 57.2873]]]}, "properties": {"company_id": "p2-gold", "jurisdiction": "British Columbia", "claim_id": 538376, "claim_name": "LADYTRON 1", "holder": "P2 GOLD INC.", "status": "Mineral", "recorded_date": "2006-07-31", "anniversary_or_expiry": "2032-06-22", "area_ha": 279.821, "tenure_type": "Mineral", "source": "BC MTA Mineral, Placer and Coal Tenure Spatial View (BCGW). Open Government Licence - British Columbia. Not legal title.", "as_of": "2026-09-20", "role": "focus", "color": "#e8b040"}}, {"type": "Feature", "geometry": {"type": "Polygon", "coordinates": [[[-130.7645, 57.2498], [-130.7645, 57.2457], [-130.7333, 57.2457], [-130.7333, 57.2665], [-130.7645, 57.2665], [-130.7645, 57.2498]]]}, "properties": {"company_id": "p2-gold", "jurisdiction": "British Columbia", "claim_id": 535835, "claim_name": "NM_W06-1", "holder": "P2 GOLD INC.", "status": "Mineral", "recorded_date": "2006-06-17", "anniversary_or_expiry": "2032-06-22", "area_ha": 437.61400000000003, "tenure_type": "Mineral", "source": "BC MTA Mineral, Placer and Coal Tenure Spatial View (BCGW). Open Government Licence - British Columbia. Not legal title.", "as_of": "2026-09-20", "role": "focus", "color": "#e8b040"}}, {"type": "Feature", "geometry": {"type": "Polygon", "coordinates": [[[-130.7645, 57.2707], [-130.7645, 57.2665], [-130.7333, 57.2665], [-130.7333, 57.2873], [-130.7645, 57.2873], [-130.7645, 57.2707]]]}, "properties": {"company_id": "p2-gold", "jurisdiction": "British Columbia", "claim_id": 535836, "claim_name": "NM_W06-2", "holder": "P2 GOLD INC.", "status": "Mineral", "recorded_date": "2006-06-17", "anniversary_or_expiry": "2032-06-22", "area_ha": 437.369, "tenure_type": "Mineral", "source": "BC MTA Mineral, Placer and Coal Tenure Spatial View (BCGW). Open Government Licence - British Columbia. Not legal title.", "as_of": "2026-09-20", "role": "focus", "color": "#e8b040"}}, {"type": "Feature", "geometry": {"type": "Polygon", "coordinates": [[[-130.877, 57.3248], [-130.877, 57.3207], [-130.8645, 57.3207], [-130.8645, 57.3415], [-130.877, 57.3415], [-130.877, 57.3248]]]}, "properties": {"company_id": "p2-gold", "jurisdiction": "British Columbia", "claim_id": 535986, "claim_name": "MESS 44", "holder": "P2 GOLD INC.", "status": "Mineral", "recorded_date": "2006-06-20", "anniversary_or_expiry": "2032-06-22", "area_ha": 174.692, "tenure_type": "Mineral", "source": "BC MTA Mineral, Placer and Coal Tenure Spatial View (BCGW). Open Government Licence - British Columbia. Not legal title.", "as_of": "2026-09-20", "role": "focus", "color": "#e8b040"}}, {"type": "Feature", "geometry": {"type": "Polygon", "coordinates": [[[-130.9333, 57.2707], [-130.9333, 57.2665], [-130.902, 57.2665], [-130.902, 57.2873], [-130.9333, 57.2873], [-130.9333, 57.2707]]]}, "properties": {"company_id": "p2-gold", "jurisdiction": "British Columbia", "claim_id": 537690, "claim_name": "MESS S EXT 1", "holder": "P2 GOLD INC.", "status": "Mineral", "recorded_date": "2006-07-23", "anniversary_or_expiry": "2032-06-22", "area_ha": 437.369, "tenure_type": "Mineral", "source": "BC MTA Mineral, Placer and Coal Tenure Spatial View (BCGW). Open Government Licence - British Columbia. Not legal title.", "as_of": "2026-09-20", "role": "focus", "color": "#e8b040"}}, {"type": "Feature", "geometry": {"type": "Polygon", "coordinates": [[[-130.902, 57.2707], [-130.902, 57.2665], [-130.8708, 57.2665], [-130.8708, 57.2873], [-130.902, 57.2873], [-130.902, 57.2707]]]}, "properties": {"company_id": "p2-gold", "jurisdiction": "British Columbia", "claim_id": 537691, "claim_name": "MESS S EXT 2", "holder": "P2 GOLD INC.", "status": "Mineral", "recorded_date": "2006-07-23", "anniversary_or_expiry": "2032-06-22", "area_ha": 437.369, "tenure_type": "Mineral", "source": "BC MTA Mineral, Placer and Coal Tenure Spatial View (BCGW). Open Government Licence - British Columbia. Not legal title.", "as_of": "2026-09-20", "role": "focus", "color": "#e8b040"}}, {"type": "Feature", "geometry": {"type": "Polygon", "coordinates": [[[-130.8458, 57.2498], [-130.8458, 57.2457], [-130.827, 57.2457], [-130.827, 57.279], [-130.8458, 57.279], [-130.8458, 57.2498]]]}, "properties": {"company_id": "p2-gold", "jurisdiction": "British Columbia", "claim_id": 537692, "claim_name": "ARCTIC 1", "holder": "P2 GOLD INC.", "status": "Mineral", "recorded_date": "2006-07-23", "anniversary_or_expiry": "2032-06-22", "area_ha": 420.038, "tenure_type": "Mineral", "source": "BC MTA Mineral, Placer and Coal Tenure Spatial View (BCGW). Open Government Licence - British Columbia. Not legal title.", "as_of": "2026-09-20", "role": "focus", "color": "#e8b040"}}, {"type": "Feature", "geometry": {"type": "Polygon", "coordinates": [[[-130.8645, 57.229], [-130.8645, 57.2248], [-130.8395, 57.2248], [-130.8395, 57.2457], [-130.8458, 57.2457], [-130.8458, 57.2498], [-130.8645, 57.2498], [-130.8645, 57.229]]]}, "properties": {"company_id": "p2-gold", "jurisdiction": "British Columbia", "claim_id": 537693, "claim_name": "ARCTIC 2", "holder": "P2 GOLD INC.", "status": "Mineral", "recorded_date": "2006-07-23", "anniversary_or_expiry": "2032-06-22", "area_ha": 402.807, "tenure_type": "Mineral", "source": "BC MTA Mineral, Placer and Coal Tenure Spatial View (BCGW). Open Government Licence - British Columbia. Not legal title.", "as_of": "2026-09-20", "role": "focus", "color": "#e8b040"}}, {"type": "Feature", "geometry": {"type": "Polygon", "coordinates": [[[-130.8895, 57.2915], [-130.8895, 57.2873], [-130.877, 57.2873], [-130.877, 57.2915], [-130.8708, 57.2915], [-130.8708, 57.2957], [-130.8895, 57.2957], [-130.8895, 57.2915]]]}, "properties": {"company_id": "p2-gold", "jurisdiction": "British Columbia", "claim_id": 537724, "claim_name": "MESS E", "holder": "P2 GOLD INC.", "status": "Mineral", "recorded_date": "2006-07-24", "anniversary_or_expiry": "2032-06-22", "area_ha": 87.438, "tenure_type": "Mineral", "source": "BC MTA Mineral, Placer and Coal Tenure Spatial View (BCGW). Open Government Licence - British Columbia. Not legal title.", "as_of": "2026-09-20", "role": "focus", "color": "#e8b040"}}, {"type": "Feature", "geometry": {"type": "Polygon", "coordinates": [[[-130.8708, 57.2707], [-130.8708, 57.2665], [-130.8458, 57.2665], [-130.8458, 57.2873], [-130.8708, 57.2873], [-130.8708, 57.2707]]]}, "properties": {"company_id": "p2-gold", "jurisdiction": "British Columbia", "claim_id": 537725, "claim_name": "ARCTIC 3", "holder": "P2 GOLD INC.", "status": "Mineral", "recorded_date": "2006-07-24", "anniversary_or_expiry": "2032-06-22", "area_ha": 349.89500000000004, "tenure_type": "Mineral", "source": "BC MTA Mineral, Placer and Coal Tenure Spatial View (BCGW). Open Government Licence - British Columbia. Not legal title.", "as_of": "2026-09-20", "role": "focus", "color": "#e8b040"}}, {"type": "Feature", "geometry": {"type": "Polygon", "coordinates": [[[-130.9333, 57.2498], [-130.9333, 57.2457], [-130.902, 57.2457], [-130.902, 57.2665], [-130.9333, 57.2665], [-130.9333, 57.2498]]]}, "properties": {"company_id": "p2-gold", "jurisdiction": "British Columbia", "claim_id": 537973, "claim_name": "MESS S 3", "holder": "P2 GOLD INC.", "status": "Mineral", "recorded_date": "2006-07-27", "anniversary_or_expiry": "2032-06-22", "area_ha": 437.613, "tenure_type": "Mineral", "source": "BC MTA Mineral, Placer and Coal Tenure Spatial View (BCGW). Open Government Licence - British Columbia. Not legal title.", "as_of": "2026-09-20", "role": "focus", "color": "#e8b040"}}, {"type": "Feature", "geometry": {"type": "Polygon", "coordinates": [[[-130.902, 57.2498], [-130.902, 57.2457], [-130.8708, 57.2457], [-130.8708, 57.2665], [-130.902, 57.2665], [-130.902, 57.2498]]]}, "properties": {"company_id": "p2-gold", "jurisdiction": "British Columbia", "claim_id": 537974, "claim_name": "MESS S 4", "holder": "P2 GOLD INC.", "status": "Mineral", "recorded_date": "2006-07-27", "anniversary_or_expiry": "2032-06-22", "area_ha": 437.613, "tenure_type": "Mineral", "source": "BC MTA Mineral, Placer and Coal Tenure Spatial View (BCGW). Open Government Licence - British Columbia. Not legal title.", "as_of": "2026-09-20", "role": "focus", "color": "#e8b040"}}, {"type": "Feature", "geometry": {"type": "Polygon", "coordinates": [[[-130.8708, 57.2498], [-130.8708, 57.2457], [-130.8645, 57.2457], [-130.8645, 57.2498], [-130.8458, 57.2498], [-130.8458, 57.2665], [-130.8708, 57.2665], [-130.8708, 57.2498]]]}, "properties": {"company_id": "p2-gold", "jurisdiction": "British Columbia", "claim_id": 537976, "claim_name": "ARCTIC 4", "holder": "P2 GOLD INC.", "status": "Mineral", "recorded_date": "2006-07-27", "anniversary_or_expiry": "2032-06-22", "area_ha": 297.56600000000003, "tenure_type": "Mineral", "source": "BC MTA Mineral, Placer and Coal Tenure Spatial View (BCGW). Open Government Licence - British Columbia. Not legal title.", "as_of": "2026-09-20", "role": "focus", "color": "#e8b040"}}, {"type": "Feature", "geometry": {"type": "Polygon", "coordinates": [[[-130.827, 57.2748], [-130.827, 57.2707], [-130.7645, 57.2707], [-130.7645, 57.279], [-130.827, 57.279], [-130.827, 57.2748]]]}, "properties": {"company_id": "p2-gold", "jurisdiction": "British Columbia", "claim_id": 537978, "claim_name": "FLATS 1", "holder": "P2 GOLD INC.", "status": "Mineral", "recorded_date": "2006-07-27", "anniversary_or_expiry": "2032-06-22", "area_ha": 349.915, "tenure_type": "Mineral", "source": "BC MTA Mineral, Placer and Coal Tenure Spatial View (BCGW). Open Government Licence - British Columbia. Not legal title.", "as_of": "2026-09-20", "role": "focus", "color": "#e8b040"}}, {"type": "Feature", "geometry": {"type": "Polygon", "coordinates": [[[-130.827, 57.2665], [-130.827, 57.2623], [-130.7645, 57.2623], [-130.7645, 57.2707], [-130.827, 57.2707], [-130.827, 57.2665]]]}, "properties": {"company_id": "p2-gold", "jurisdiction": "British Columbia", "claim_id": 537979, "claim_name": "FLATS 2", "holder": "P2 GOLD INC.", "status": "Mineral", "recorded_date": "2006-07-27", "anniversary_or_expiry": "2032-06-22", "area_ha": 349.993, "tenure_type": "Mineral", "source": "BC MTA Mineral, Placer and Coal Tenure Spatial View (BCGW). Open Government Licence - British Columbia. Not legal title.", "as_of": "2026-09-20", "role": "focus", "color": "#e8b040"}}, {"type": "Feature", "geometry": {"type": "Polygon", "coordinates": [[[-130.827, 57.2582], [-130.827, 57.254], [-130.7645, 57.254], [-130.7645, 57.2623], [-130.827, 57.2623], [-130.827, 57.2582]]]}, "properties": {"company_id": "p2-gold", "jurisdiction": "British Columbia", "claim_id": 537980, "claim_name": "FLATS 3", "holder": "P2 GOLD INC.", "status": "Mineral", "recorded_date": "2006-07-27", "anniversary_or_expiry": "2032-06-22", "area_ha": 350.072, "tenure_type": "Mineral", "source": "BC MTA Mineral, Placer and Coal Tenure Spatial View (BCGW). Open Government Licence - British Columbia. Not legal title.", "as_of": "2026-09-20", "role": "focus", "color": "#e8b040"}}]}