{"type": "FeatureCollection", "features": [{"type": "Feature", "geometry": {"type": "Polygon", "coordinates": [[[-122.2592, 54.0564], [-122.256, 54.0564], [-122.256, 54.0609], [-122.2859, 54.0609], [-122.2859, 54.06], [-122.2866, 54.06], [-122.2866, 54.0564], [-122.2592, 54.0564]]]}, "properties": {"company_id": "pacific-empire-minerals", "jurisdiction": "British Columbia", "claim_id": 205485, "claim_name": "COM 7", "holder": "PACIFIC LIME PRODUCTS (1997) LTD", "status": "Mineral", "recorded_date": "5492448000", "anniversary_or_expiry": "2025-05-29", "area_ha": 100, "tenure_type": "Mineral", "source": "BC MTA Mineral, Placer and Coal Tenure Spatial View (BCGW). Open Government Licence - British Columbia. Not legal title.", "as_of": "2026-09-20", "role": "focus", "color": "#e8b040"}}, {"type": "Feature", "geometry": {"type": "MultiPolygon", "coordinates": [[[[-122.2898, 54.0564], [-122.2866, 54.0564], [-122.2866, 54.06], [-122.2981, 54.06], [-122.3, 54.0564], [-122.2898, 54.0564]]], [[[-122.3047, 54.0564], [-122.3095, 54.0573], [-122.3095, 54.0564], [-122.3047, 54.0564]]]]}, "properties": {"company_id": "pacific-empire-minerals", "jurisdiction": "British Columbia", "claim_id": 205486, "claim_name": "COM 8", "holder": "PACIFIC LIME PRODUCTS (1997) LTD", "status": "Mineral", "recorded_date": "5492448000", "anniversary_or_expiry": "2025-05-29", "area_ha": 75, "tenure_type": "Mineral", "source": "BC MTA Mineral, Placer and Coal Tenure Spatial View (BCGW). Open Government Licence - British Columbia. Not legal title.", "as_of": "2026-09-20", "role": "focus", "color": "#e8b040"}}, {"type": "Feature", "geometry": {"type": "Polygon", "coordinates": [[[-122.3116, 54.062], [-122.3183, 54.0633], [-122.3204, 54.0594], [-122.3138, 54.0581], [-122.3116, 54.062]]]}, "properties": {"company_id": "pacific-empire-minerals", "jurisdiction": "British Columbia", "claim_id": 204765, "claim_name": "BUG 1", "holder": "PACIFIC LIME PRODUCTS (1997) LTD", "status": "Mineral", "recorded_date": "4274208000", "anniversary_or_expiry": "2025-07-19", "area_ha": 25, "tenure_type": "Mineral", "source": "BC MTA Mineral, Placer and Coal Tenure Spatial View (BCGW). Open Government Licence - British Columbia. Not legal title.", "as_of": "2026-09-20", "role": "focus", "color": "#e8b040"}}, {"type": "Feature", "geometry": {"type": "Polygon", "coordinates": [[[-122.3153, 54.0671], [-122.3161, 54.0672], [-122.3183, 54.0633], [-122.3116, 54.062], [-122.3095, 54.066], [-122.3153, 54.0671]]]}, "properties": {"company_id": "pacific-empire-minerals", "jurisdiction": "British Columbia", "claim_id": 204766, "claim_name": "BUG 2", "holder": "PACIFIC LIME PRODUCTS (1997) LTD", "status": "Mineral", "recorded_date": "4274208000", "anniversary_or_expiry": "2025-07-19", "area_ha": 25, "tenure_type": "Mineral", "source": "BC MTA Mineral, Placer and Coal Tenure Spatial View (BCGW). Open Government Licence - British Columbia. Not legal title.", "as_of": "2026-09-20", "role": "focus", "color": "#e8b040"}}, {"type": "Feature", "geometry": {"type": "Polygon", "coordinates": [[[-122.305, 54.0608], [-122.3116, 54.062], [-122.3138, 54.0581], [-122.3071, 54.0569], [-122.305, 54.0608]]]}, "properties": {"company_id": "pacific-empire-minerals", "jurisdiction": "British Columbia", "claim_id": 204767, "claim_name": "BUG 3", "holder": "PACIFIC LIME PRODUCTS (1997) LTD", "status": "Mineral", "recorded_date": "4274208000", "anniversary_or_expiry": "2025-07-19", "area_ha": 25, "tenure_type": "Mineral", "source": "BC MTA Mineral, Placer and Coal Tenure Spatial View (BCGW). Open Government Licence - British Columbia. Not legal title.", "as_of": "2026-09-20", "role": "focus", "color": "#e8b040"}}, {"type": "Feature", "geometry": {"type": "Polygon", "coordinates": [[[-122.3028, 54.0647], [-122.3095, 54.066], [-122.3116, 54.062], [-122.305, 54.0608], [-122.3028, 54.0647]]]}, "properties": {"company_id": "pacific-empire-minerals", "jurisdiction": "British Columbia", "claim_id": 204768, "claim_name": "BUG 4", "holder": "PACIFIC LIME PRODUCTS (1997) LTD", "status": "Mineral", "recorded_date": "4274208000", "anniversary_or_expiry": "2025-07-19", "area_ha": 25, "tenure_type": "Mineral", "source": "BC MTA Mineral, Placer and Coal Tenure Spatial View (BCGW). Open Government Licence - British Columbia. Not legal title.", "as_of": "2026-09-20", "role": "focus", "color": "#e8b040"}}, {"type": "Feature", "geometry": {"type": "Polygon", "coordinates": [[[-122.2983, 54.0595], [-122.305, 54.0608], [-122.3071, 54.0569], [-122.3005, 54.0556], [-122.2983, 54.0595]]]}, "properties": {"company_id": "pacific-empire-minerals", "jurisdiction": "British Columbia", "claim_id": 204769, "claim_name": "BUG 5", "holder": "PACIFIC LIME PRODUCTS (1997) LTD", "status": "Mineral", "recorded_date": "4274208000", "anniversary_or_expiry": "2025-07-19", "area_ha": 25, "tenure_type": "Mineral", "source": "BC MTA Mineral, Placer and Coal Tenure Spatial View (BCGW). Open Government Licence - British Columbia. Not legal title.", "as_of": "2026-09-20", "role": "focus", "color": "#e8b040"}}, {"type": "Feature", "geometry": {"type": "Polygon", "coordinates": [[[-122.2981, 54.06], [-122.2962, 54.0634], [-122.3028, 54.0647], [-122.305, 54.0608], [-122.2983, 54.0595], [-122.2981, 54.06]]]}, "properties": {"company_id": "pacific-empire-minerals", "jurisdiction": "British Columbia", "claim_id": 204770, "claim_name": "BUG 6", "holder": "PACIFIC LIME PRODUCTS (1997) LTD", "status": "Mineral", "recorded_date": "4274208000", "anniversary_or_expiry": "2025-07-19", "area_ha": 25, "tenure_type": "Mineral", "source": "BC MTA Mineral, Placer and Coal Tenure Spatial View (BCGW). Open Government Licence - British Columbia. Not legal title.", "as_of": "2026-09-20", "role": "focus", "color": "#e8b040"}}, {"type": "Feature", "geometry": {"type": "Polygon", "coordinates": [[[-126.1439, 56.5119], [-126.1505, 56.5119], [-126.1505, 56.5083], [-126.1439, 56.5083], [-126.1439, 56.5119]]]}, "properties": {"company_id": "pacific-empire-minerals", "jurisdiction": "British Columbia", "claim_id": 245065, "claim_name": "KLI NO. 1", "holder": "PACIFIC RIDGE EXPLORATION LTD.", "status": "Mineral", "recorded_date": "2575-01-29", "anniversary_or_expiry": "2034-12-31", "area_ha": 25, "tenure_type": "Mineral", "source": "BC MTA Mineral, Placer and Coal Tenure Spatial View (BCGW). Open Government Licence - British Columbia. Not legal title.", "as_of": "2026-09-20", "role": "focus", "color": "#e8b040"}}, {"type": "Feature", "geometry": {"type": "Polygon", "coordinates": [[[-126.1439, 56.5047], [-126.1439, 56.5083], [-126.1505, 56.5083], [-126.1505, 56.5047], [-126.1439, 56.5047]]]}, "properties": {"company_id": "pacific-empire-minerals", "jurisdiction": "British Columbia", "claim_id": 245066, "claim_name": "KLI NO. 2", "holder": "PACIFIC RIDGE EXPLORATION LTD.", "status": "Mineral", "recorded_date": "2575-01-29", "anniversary_or_expiry": "2034-12-31", "area_ha": 25, "tenure_type": "Mineral", "source": "BC MTA Mineral, Placer and Coal Tenure Spatial View (BCGW). Open Government Licence - British Columbia. Not legal title.", "as_of": "2026-09-20", "role": "focus", "color": "#e8b040"}}, {"type": "Feature", "geometry": {"type": "Polygon", "coordinates": [[[-126.143, 56.5119], [-126.1439, 56.5119], [-126.1439, 56.5083], [-126.1374, 56.5083], [-126.1374, 56.5119], [-126.143, 56.5119]]]}, "properties": {"company_id": "pacific-empire-minerals", "jurisdiction": "British Columbia", "claim_id": 245067, "claim_name": "KLI NO. 3", "holder": "PACIFIC RIDGE EXPLORATION LTD.", "status": "Mineral", "recorded_date": "2575-01-29", "anniversary_or_expiry": "2034-12-31", "area_ha": 25, "tenure_type": "Mineral", "source": "BC MTA Mineral, Placer and Coal Tenure Spatial View (BCGW). Open Government Licence - British Columbia. Not legal title.", "as_of": "2026-09-20", "role": "focus", "color": "#e8b040"}}, {"type": "Feature", "geometry": {"type": "Polygon", "coordinates": [[[-126.1374, 56.5047], [-126.1374, 56.5083], [-126.1439, 56.5083], [-126.1439, 56.5047], [-126.1374, 56.5047]]]}, "properties": {"company_id": "pacific-empire-minerals", "jurisdiction": "British Columbia", "claim_id": 245068, "claim_name": "KLI NO. 4", "holder": "PACIFIC RIDGE EXPLORATION LTD.", "status": "Mineral", "recorded_date": "2575-01-29", "anniversary_or_expiry": "2034-12-31", "area_ha": 25, "tenure_type": "Mineral", "source": "BC MTA Mineral, Placer and Coal Tenure Spatial View (BCGW). Open Government Licence - British Columbia. Not legal title.", "as_of": "2026-09-20", "role": "focus", "color": "#e8b040"}}, {"type": "Feature", "geometry": {"type": "Polygon", "coordinates": [[[-126.1309, 56.5047], [-126.1309, 56.5083], [-126.1374, 56.5083], [-126.1374, 56.5047], [-126.1309, 56.5047]]]}, "properties": {"company_id": "pacific-empire-minerals", "jurisdiction": "British Columbia", "claim_id": 245070, "claim_name": "KLI NO. 6", "holder": "PACIFIC RIDGE EXPLORATION LTD.", "status": "Mineral", "recorded_date": "2575-01-29", "anniversary_or_expiry": "2034-12-31", "area_ha": 25, "tenure_type": "Mineral", "source": "BC MTA Mineral, Placer and Coal Tenure Spatial View (BCGW). Open Government Licence - British Columbia. Not legal title.", "as_of": "2026-09-20", "role": "focus", "color": "#e8b040"}}, {"type": "Feature", "geometry": {"type": "Polygon", "coordinates": [[[-126.1243, 56.5083], [-126.1243, 56.5119], [-126.1308, 56.5119], [-126.1309, 56.5083], [-126.1243, 56.5083]]]}, "properties": {"company_id": "pacific-empire-minerals", "jurisdiction": "British Columbia", "claim_id": 245071, "claim_name": "KLI NO. 7", "holder": "PACIFIC RIDGE EXPLORATION LTD.", "status": "Mineral", "recorded_date": "2575-01-29", "anniversary_or_expiry": "2034-12-31", "area_ha": 25, "tenure_type": "Mineral", "source": "BC MTA Mineral, Placer and Coal Tenure Spatial View (BCGW). Open Government Licence - British Columbia. Not legal title.", "as_of": "2026-09-20", "role": "focus", "color": "#e8b040"}}, {"type": "Feature", "geometry": {"type": "Polygon", "coordinates": [[[-126.1243, 56.5047], [-126.1243, 56.5083], [-126.1309, 56.5083], [-126.1309, 56.5047], [-126.1243, 56.5047]]]}, "properties": {"company_id": "pacific-empire-minerals", "jurisdiction": "British Columbia", "claim_id": 245072, "claim_name": "KLI NO. 8", "holder": "PACIFIC RIDGE EXPLORATION LTD.", "status": "Mineral", "recorded_date": "2575-01-29", "anniversary_or_expiry": "2034-12-31", "area_ha": 25, "tenure_type": "Mineral", "source": "BC MTA Mineral, Placer and Coal Tenure Spatial View (BCGW). Open Government Licence - British Columbia. Not legal title.", "as_of": "2026-09-20", "role": "focus", "color": "#e8b040"}}, {"type": "Feature", "geometry": {"type": "Polygon", "coordinates": [[[-126.1178, 56.5047], [-126.1178, 56.5083], [-126.1243, 56.5083], [-126.1243, 56.5047], [-126.1178, 56.5047]]]}, "properties": {"company_id": "pacific-empire-minerals", "jurisdiction": "British Columbia", "claim_id": 245074, "claim_name": "KLI NO. 10", "holder": "PACIFIC RIDGE EXPLORATION LTD.", "status": "Mineral", "recorded_date": "2575-01-29", "anniversary_or_expiry": "2034-12-31", "area_ha": 25, "tenure_type": "Mineral", "source": "BC MTA Mineral, Placer and Coal Tenure Spatial View (BCGW). Open Government Licence - British Columbia. Not legal title.", "as_of": "2026-09-20", "role": "focus", "color": "#e8b040"}}, {"type": "Feature", "geometry": {"type": "Polygon", "coordinates": [[[-126.1439, 56.5011], [-126.1439, 56.5047], [-126.1505, 56.5047], [-126.1505, 56.5011], [-126.1439, 56.5011]]]}, "properties": {"company_id": "pacific-empire-minerals", "jurisdiction": "British Columbia", "claim_id": 245075, "claim_name": "KLI NO. 11", "holder": "PACIFIC RIDGE EXPLORATION LTD.", "status": "Mineral", "recorded_date": "2575-01-29", "anniversary_or_expiry": "2034-12-31", "area_ha": 25, "tenure_type": "Mineral", "source": "BC MTA Mineral, Placer and Coal Tenure Spatial View (BCGW). Open Government Licence - British Columbia. Not legal title.", "as_of": "2026-09-20", "role": "focus", "color": "#e8b040"}}, {"type": "Feature", "geometry": {"type": "Polygon", "coordinates": [[[-126.1439, 56.5], [-126.1439, 56.5011], [-126.1505, 56.5011], [-126.1505, 56.4975], [-126.1439, 56.4975], [-126.1439, 56.5]]]}, "properties": {"company_id": "pacific-empire-minerals", "jurisdiction": "British Columbia", "claim_id": 245076, "claim_name": "KLI NO. 12", "holder": "PACIFIC RIDGE EXPLORATION LTD.", "status": "Mineral", "recorded_date": "2575-01-29", "anniversary_or_expiry": "2034-12-31", "area_ha": 25, "tenure_type": "Mineral", "source": "BC MTA Mineral, Placer and Coal Tenure Spatial View (BCGW). Open Government Licence - British Columbia. Not legal title.", "as_of": "2026-09-20", "role": "focus", "color": "#e8b040"}}, {"type": "Feature", "geometry": {"type": "Polygon", "coordinates": [[[-126.1374, 56.5047], [-126.1439, 56.5047], [-126.1439, 56.5011], [-126.1374, 56.5011], [-126.1374, 56.5047]]]}, "properties": {"company_id": "pacific-empire-minerals", "jurisdiction": "British Columbia", "claim_id": 245077, "claim_name": "KLI NO. 13", "holder": "PACIFIC RIDGE EXPLORATION LTD.", "status": "Mineral", "recorded_date": "2575-01-29", "anniversary_or_expiry": "2034-12-31", "area_ha": 25, "tenure_type": "Mineral", "source": "BC MTA Mineral, Placer and Coal Tenure Spatial View (BCGW). Open Government Licence - British Columbia. Not legal title.", "as_of": "2026-09-20", "role": "focus", "color": "#e8b040"}}, {"type": "Feature", "geometry": {"type": "Polygon", "coordinates": [[[-126.1374, 56.5011], [-126.1439, 56.5011], [-126.1439, 56.4975], [-126.1374, 56.4974], [-126.1374, 56.5011]]]}, "properties": {"company_id": "pacific-empire-minerals", "jurisdiction": "British Columbia", "claim_id": 245078, "claim_name": "KLI NO. 14", "holder": "PACIFIC RIDGE EXPLORATION LTD.", "status": "Mineral", "recorded_date": "2575-01-29", "anniversary_or_expiry": "2034-12-31", "area_ha": 25, "tenure_type": "Mineral", "source": "BC MTA Mineral, Placer and Coal Tenure Spatial View (BCGW). Open Government Licence - British Columbia. Not legal title.", "as_of": "2026-09-20", "role": "focus", "color": "#e8b040"}}, {"type": "Feature", "geometry": {"type": "Polygon", "coordinates": [[[-126.1309, 56.5011], [-126.1309, 56.5047], [-126.1374, 56.5047], [-126.1374, 56.5011], [-126.1309, 56.5011]]]}, "properties": {"company_id": "pacific-empire-minerals", "jurisdiction": "British Columbia", "claim_id": 245079, "claim_name": "KLI NO. 15", "holder": "PACIFIC RIDGE EXPLORATION LTD.", "status": "Mineral", "recorded_date": "2575-01-29", "anniversary_or_expiry": "2034-12-31", "area_ha": 25, "tenure_type": "Mineral", "source": "BC MTA Mineral, Placer and Coal Tenure Spatial View (BCGW). Open Government Licence - British Columbia. Not legal title.", "as_of": "2026-09-20", "role": "focus", "color": "#e8b040"}}, {"type": "Feature", "geometry": {"type": "Polygon", "coordinates": [[[-126.1309, 56.5], [-126.1309, 56.5011], [-126.1374, 56.5011], [-126.1374, 56.4974], [-126.1309, 56.4974], [-126.1309, 56.5]]]}, "properties": {"company_id": "pacific-empire-minerals", "jurisdiction": "British Columbia", "claim_id": 245080, "claim_name": "KLI NO. 16", "holder": "PACIFIC RIDGE EXPLORATION LTD.", "status": "Mineral", "recorded_date": "2575-01-29", "anniversary_or_expiry": "2034-12-31", "area_ha": 25, "tenure_type": "Mineral", "source": "BC MTA Mineral, Placer and Coal Tenure Spatial View (BCGW). Open Government Licence - British Columbia. Not legal title.", "as_of": "2026-09-20", "role": "focus", "color": "#e8b040"}}, {"type": "Feature", "geometry": {"type": "Polygon", "coordinates": [[[-126.1243, 56.5011], [-126.1243, 56.5047], [-126.1309, 56.5047], [-126.1309, 56.5011], [-126.1243, 56.5011]]]}, "properties": {"company_id": "pacific-empire-minerals", "jurisdiction": "British Columbia", "claim_id": 245081, "claim_name": "KLI NO. 17", "holder": "PACIFIC RIDGE EXPLORATION LTD.", "status": "Mineral", "recorded_date": "2575-01-29", "anniversary_or_expiry": "2034-12-31", "area_ha": 25, "tenure_type": "Mineral", "source": "BC MTA Mineral, Placer and Coal Tenure Spatial View (BCGW). Open Government Licence - British Columbia. Not legal title.", "as_of": "2026-09-20", "role": "focus", "color": "#e8b040"}}, {"type": "Feature", "geometry": {"type": "Polygon", "coordinates": [[[-126.1243, 56.5], [-126.1243, 56.5011], [-126.1309, 56.5011], [-126.1309, 56.4974], [-126.1243, 56.4974], [-126.1243, 56.5]]]}, "properties": {"company_id": "pacific-empire-minerals", "jurisdiction": "British Columbia", "claim_id": 245082, "claim_name": "KLI NO. 18", "holder": "PACIFIC RIDGE EXPLORATION LTD.", "status": "Mineral", "recorded_date": "2575-01-29", "anniversary_or_expiry": "2034-12-31", "area_ha": 25, "tenure_type": "Mineral", "source": "BC MTA Mineral, Placer and Coal Tenure Spatial View (BCGW). Open Government Licence - British Columbia. Not legal title.", "as_of": "2026-09-20", "role": "focus", "color": "#e8b040"}}, {"type": "Feature", "geometry": {"type": "Polygon", "coordinates": [[[-126.1178, 56.5011], [-126.1178, 56.5047], [-126.1243, 56.5047], [-126.1243, 56.5011], [-126.1178, 56.5011]]]}, "properties": {"company_id": "pacific-empire-minerals", "jurisdiction": "British Columbia", "claim_id": 245083, "claim_name": "KLI NO. 19", "holder": "PACIFIC RIDGE EXPLORATION LTD.", "status": "Mineral", "recorded_date": "2575-01-29", "anniversary_or_expiry": "2034-12-31", "area_ha": 25, "tenure_type": "Mineral", "source": "BC MTA Mineral, Placer and Coal Tenure Spatial View (BCGW). Open Government Licence - British Columbia. Not legal title.", "as_of": "2026-09-20", "role": "focus", "color": "#e8b040"}}, {"type": "Feature", "geometry": {"type": "Polygon", "coordinates": [[[-126.1178, 56.4987], [-126.1178, 56.5011], [-126.1243, 56.5011], [-126.1243, 56.4974], [-126.1178, 56.4974], [-126.1178, 56.4987]]]}, "properties": {"company_id": "pacific-empire-minerals", "jurisdiction": "British Columbia", "claim_id": 245084, "claim_name": "KLI NO. 20", "holder": "PACIFIC RIDGE EXPLORATION LTD.", "status": "Mineral", "recorded_date": "2575-01-29", "anniversary_or_expiry": "2034-12-31", "area_ha": 25, "tenure_type": "Mineral", "source": "BC MTA Mineral, Placer and Coal Tenure Spatial View (BCGW). Open Government Licence - British Columbia. Not legal title.", "as_of": "2026-09-20", "role": "focus", "color": "#e8b040"}}, {"type": "Feature", "geometry": {"type": "Polygon", "coordinates": [[[-126.1178, 56.5083], [-126.1112, 56.5083], [-126.1112, 56.5119], [-126.1178, 56.5119], [-126.1178, 56.5083]]]}, "properties": {"company_id": "pacific-empire-minerals", "jurisdiction": "British Columbia", "claim_id": 245155, "claim_name": "KLI NO.21", "holder": "PACIFIC RIDGE EXPLORATION LTD.", "status": "Mineral", "recorded_date": "2662-09-10", "anniversary_or_expiry": "2034-12-31", "area_ha": 25, "tenure_type": "Mineral", "source": "BC MTA Mineral, Placer and Coal Tenure Spatial View (BCGW). Open Government Licence - British Columbia. Not legal title.", "as_of": "2026-09-20", "role": "focus", "color": "#e8b040"}}, {"type": "Feature", "geometry": {"type": "Polygon", "coordinates": [[[-126.1113, 56.5011], [-126.1113, 56.5047], [-126.1178, 56.5047], [-126.1178, 56.5011], [-126.1113, 56.5011]]]}, "properties": {"company_id": "pacific-empire-minerals", "jurisdiction": "British Columbia", "claim_id": 245156, "claim_name": "KLI NO.25", "holder": "PACIFIC RIDGE EXPLORATION LTD.", "status": "Mineral", "recorded_date": "2662-09-10", "anniversary_or_expiry": "2034-12-31", "area_ha": 25, "tenure_type": "Mineral", "source": "BC MTA Mineral, Placer and Coal Tenure Spatial View (BCGW). Open Government Licence - British Columbia. Not legal title.", "as_of": "2026-09-20", "role": "focus", "color": "#e8b040"}}, {"type": "Feature", "geometry": {"type": "Polygon", "coordinates": [[[-126.1113, 56.5011], [-126.1178, 56.5011], [-126.1178, 56.4974], [-126.1113, 56.4974], [-126.1113, 56.5011]]]}, "properties": {"company_id": "pacific-empire-minerals", "jurisdiction": "British Columbia", "claim_id": 245157, "claim_name": "KLI NO.26", "holder": "PACIFIC RIDGE EXPLORATION LTD.", "status": "Mineral", "recorded_date": "2662-09-10", "anniversary_or_expiry": "2034-12-31", "area_ha": 25, "tenure_type": "Mineral", "source": "BC MTA Mineral, Placer and Coal Tenure Spatial View (BCGW). Open Government Licence - British Columbia. Not legal title.", "as_of": "2026-09-20", "role": "focus", "color": "#e8b040"}}, {"type": "Feature", "geometry": {"type": "Polygon", "coordinates": [[[-126.1113, 56.5011], [-126.1047, 56.5011], [-126.1047, 56.5047], [-126.1113, 56.5047], [-126.1113, 56.5011]]]}, "properties": {"company_id": "pacific-empire-minerals", "jurisdiction": "British Columbia", "claim_id": 245158, "claim_name": "KLI NO.27", "holder": "PACIFIC RIDGE EXPLORATION LTD.", "status": "Mineral", "recorded_date": "2662-09-10", "anniversary_or_expiry": "2034-12-31", "area_ha": 25, "tenure_type": "Mineral", "source": "BC MTA Mineral, Placer and Coal Tenure Spatial View (BCGW). Open Government Licence - British Columbia. Not legal title.", "as_of": "2026-09-20", "role": "focus", "color": "#e8b040"}}, {"type": "Feature", "geometry": {"type": "Polygon", "coordinates": [[[-126.1047, 56.5011], [-126.1113, 56.5011], [-126.1113, 56.4974], [-126.1047, 56.4974], [-126.1047, 56.5011]]]}, "properties": {"company_id": "pacific-empire-minerals", "jurisdiction": "British Columbia", "claim_id": 245159, "claim_name": "KLI NO.28", "holder": "PACIFIC RIDGE EXPLORATION LTD.", "status": "Mineral", "recorded_date": "2662-09-10", "anniversary_or_expiry": "2034-12-31", "area_ha": 25, "tenure_type": "Mineral", "source": "BC MTA Mineral, Placer and Coal Tenure Spatial View (BCGW). Open Government Licence - British Columbia. Not legal title.", "as_of": "2026-09-20", "role": "focus", "color": "#e8b040"}}, {"type": "Feature", "geometry": {"type": "Polygon", "coordinates": [[[-126.1505, 56.4975], [-126.1505, 56.5011], [-126.157, 56.5011], [-126.157, 56.4975], [-126.1505, 56.4975]]]}, "properties": {"company_id": "pacific-empire-minerals", "jurisdiction": "British Columbia", "claim_id": 245382, "claim_name": "KLI #39", "holder": "PACIFIC RIDGE EXPLORATION LTD.", "status": "Mineral", "recorded_date": "4812480000", "anniversary_or_expiry": "2034-12-31", "area_ha": 25, "tenure_type": "Mineral", "source": "BC MTA Mineral, Placer and Coal Tenure Spatial View (BCGW). Open Government Licence - British Columbia. Not legal title.", "as_of": "2026-09-20", "role": "focus", "color": "#e8b040"}}, {"type": "Feature", "geometry": {"type": "Polygon", "coordinates": [[[-126.1505, 56.5047], [-126.157, 56.5047], [-126.157, 56.5011], [-126.1505, 56.5011], [-126.1505, 56.5047]]]}, "properties": {"company_id": "pacific-empire-minerals", "jurisdiction": "British Columbia", "claim_id": 245383, "claim_name": "KLI #40", "holder": "PACIFIC RIDGE EXPLORATION LTD.", "status": "Mineral", "recorded_date": "4812480000", "anniversary_or_expiry": "2034-12-31", "area_ha": 25, "tenure_type": "Mineral", "source": "BC MTA Mineral, Placer and Coal Tenure Spatial View (BCGW). Open Government Licence - British Columbia. Not legal title.", "as_of": "2026-09-20", "role": "focus", "color": "#e8b040"}}, {"type": "Feature", "geometry": {"type": "Polygon", "coordinates": [[[-126.157, 56.5], [-126.157, 56.5011], [-126.1635, 56.5011], [-126.1635, 56.4975], [-126.157, 56.4975], [-126.157, 56.5]]]}, "properties": {"company_id": "pacific-empire-minerals", "jurisdiction": "British Columbia", "claim_id": 245384, "claim_name": "KLI #41", "holder": "PACIFIC RIDGE EXPLORATION LTD.", "status": "Mineral", "recorded_date": "4812480000", "anniversary_or_expiry": "2034-12-31", "area_ha": 25, "tenure_type": "Mineral", "source": "BC MTA Mineral, Placer and Coal Tenure Spatial View (BCGW). Open Government Licence - British Columbia. Not legal title.", "as_of": "2026-09-20", "role": "focus", "color": "#e8b040"}}, {"type": "Feature", "geometry": {"type": "Polygon", "coordinates": [[[-126.157, 56.5011], [-126.157, 56.5047], [-126.1635, 56.5047], [-126.1635, 56.5011], [-126.157, 56.5011]]]}, "properties": {"company_id": "pacific-empire-minerals", "jurisdiction": "British Columbia", "claim_id": 245385, "claim_name": "KLI #42", "holder": "PACIFIC RIDGE EXPLORATION LTD.", "status": "Mineral", "recorded_date": "4812480000", "anniversary_or_expiry": "2034-12-31", "area_ha": 25, "tenure_type": "Mineral", "source": "BC MTA Mineral, Placer and Coal Tenure Spatial View (BCGW). Open Government Licence - British Columbia. Not legal title.", "as_of": "2026-09-20", "role": "focus", "color": "#e8b040"}}, {"type": "Feature", "geometry": {"type": "Polygon", "coordinates": [[[-126.1505, 56.4938], [-126.157, 56.4938], [-126.157, 56.4902], [-126.1505, 56.4902], [-126.1505, 56.4938]]]}, "properties": {"company_id": "pacific-empire-minerals", "jurisdiction": "British Columbia", "claim_id": 245386, "claim_name": "KLI #43", "holder": "PACIFIC RIDGE EXPLORATION LTD.", "status": "Mineral", "recorded_date": "4812480000", "anniversary_or_expiry": "2034-12-31", "area_ha": 25, "tenure_type": "Mineral", "source": "BC MTA Mineral, Placer and Coal Tenure Spatial View (BCGW). Open Government Licence - British Columbia. Not legal title.", "as_of": "2026-09-20", "role": "focus", "color": "#e8b040"}}, {"type": "Feature", "geometry": {"type": "Polygon", "coordinates": [[[-126.1505, 56.4975], [-126.157, 56.4975], [-126.157, 56.4938], [-126.1505, 56.4938], [-126.1505, 56.4975]]]}, "properties": {"company_id": "pacific-empire-minerals", "jurisdiction": "British Columbia", "claim_id": 245387, "claim_name": "KLI #44", "holder": "PACIFIC RIDGE EXPLORATION LTD.", "status": "Mineral", "recorded_date": "4812480000", "anniversary_or_expiry": "2034-12-31", "area_ha": 25, "tenure_type": "Mineral", "source": "BC MTA Mineral, Placer and Coal Tenure Spatial View (BCGW). Open Government Licence - British Columbia. Not legal title.", "as_of": "2026-09-20", "role": "focus", "color": "#e8b040"}}, {"type": "Feature", "geometry": {"type": "Polygon", "coordinates": [[[-126.157, 56.4938], [-126.1635, 56.4938], [-126.1635, 56.4902], [-126.157, 56.4902], [-126.157, 56.4938]]]}, "properties": {"company_id": "pacific-empire-minerals", "jurisdiction": "British Columbia", "claim_id": 245388, "claim_name": "KLI #45", "holder": "PACIFIC RIDGE EXPLORATION LTD.", "status": "Mineral", "recorded_date": "4812480000", "anniversary_or_expiry": "2034-12-31", "area_ha": 25, "tenure_type": "Mineral", "source": "BC MTA Mineral, Placer and Coal Tenure Spatial View (BCGW). Open Government Licence - British Columbia. Not legal title.", "as_of": "2026-09-20", "role": "focus", "color": "#e8b040"}}, {"type": "Feature", "geometry": {"type": "Polygon", "coordinates": [[[-126.157, 56.4975], [-126.1635, 56.4975], [-126.1635, 56.4938], [-126.157, 56.4938], [-126.157, 56.4975]]]}, "properties": {"company_id": "pacific-empire-minerals", "jurisdiction": "British Columbia", "claim_id": 245389, "claim_name": "KLI #46", "holder": "PACIFIC RIDGE EXPLORATION LTD.", "status": "Mineral", "recorded_date": "4812480000", "anniversary_or_expiry": "2034-12-31", "area_ha": 25, "tenure_type": "Mineral", "source": "BC MTA Mineral, Placer and Coal Tenure Spatial View (BCGW). Open Government Licence - British Columbia. Not legal title.", "as_of": "2026-09-20", "role": "focus", "color": "#e8b040"}}, {"type": "Feature", "geometry": {"type": "Polygon", "coordinates": [[[-126.1505, 56.5047], [-126.1505, 56.5083], [-126.157, 56.5083], [-126.157, 56.5047], [-126.1505, 56.5047]]]}, "properties": {"company_id": "pacific-empire-minerals", "jurisdiction": "British Columbia", "claim_id": 245390, "claim_name": "KLI #47", "holder": "PACIFIC RIDGE EXPLORATION LTD.", "status": "Mineral", "recorded_date": "4812480000", "anniversary_or_expiry": "2034-12-31", "area_ha": 25, "tenure_type": "Mineral", "source": "BC MTA Mineral, Placer and Coal Tenure Spatial View (BCGW). Open Government Licence - British Columbia. Not legal title.", "as_of": "2026-09-20", "role": "focus", "color": "#e8b040"}}, {"type": "Feature", "geometry": {"type": "Polygon", "coordinates": [[[-126.1505, 56.5083], [-126.1505, 56.5119], [-126.157, 56.5119], [-126.157, 56.5083], [-126.1505, 56.5083]]]}, "properties": {"company_id": "pacific-empire-minerals", "jurisdiction": "British Columbia", "claim_id": 245391, "claim_name": "KLI #48", "holder": "PACIFIC RIDGE EXPLORATION LTD.", "status": "Mineral", "recorded_date": "4812480000", "anniversary_or_expiry": "2034-12-31", "area_ha": 25, "tenure_type": "Mineral", "source": "BC MTA Mineral, Placer and Coal Tenure Spatial View (BCGW). Open Government Licence - British Columbia. Not legal title.", "as_of": "2026-09-20", "role": "focus", "color": "#e8b040"}}, {"type": "Feature", "geometry": {"type": "Polygon", "coordinates": [[[-126.1635, 56.5083], [-126.1701, 56.5083], [-126.1701, 56.5047], [-126.1635, 56.5047], [-126.1635, 56.5083]]]}, "properties": {"company_id": "pacific-empire-minerals", "jurisdiction": "British Columbia", "claim_id": 245777, "claim_name": "UTA #4", "holder": "PACIFIC RIDGE EXPLORATION LTD.", "status": "Mineral", "recorded_date": "1154304000", "anniversary_or_expiry": "2034-12-31", "area_ha": 25, "tenure_type": "Mineral", "source": "BC MTA Mineral, Placer and Coal Tenure Spatial View (BCGW). Open Government Licence - British Columbia. Not legal title.", "as_of": "2026-09-20", "role": "focus", "color": "#e8b040"}}, {"type": "Feature", "geometry": {"type": "Polygon", "coordinates": [[[-126.1635, 56.5119], [-126.1701, 56.5119], [-126.1701, 56.5083], [-126.1635, 56.5083], [-126.1635, 56.5119]]]}, "properties": {"company_id": "pacific-empire-minerals", "jurisdiction": "British Columbia", "claim_id": 245778, "claim_name": "UTA #6", "holder": "PACIFIC RIDGE EXPLORATION LTD.", "status": "Mineral", "recorded_date": "1154304000", "anniversary_or_expiry": "2034-12-31", "area_ha": 25, "tenure_type": "Mineral", "source": "BC MTA Mineral, Placer and Coal Tenure Spatial View (BCGW). Open Government Licence - British Columbia. Not legal title.", "as_of": "2026-09-20", "role": "focus", "color": "#e8b040"}}, {"type": "Feature", "geometry": {"type": "Polygon", "coordinates": [[[-126.1635, 56.514], [-126.1635, 56.5155], [-126.1701, 56.5155], [-126.1701, 56.5119], [-126.1635, 56.5119], [-126.1635, 56.514]]]}, "properties": {"company_id": "pacific-empire-minerals", "jurisdiction": "British Columbia", "claim_id": 245779, "claim_name": "UTA #8", "holder": "PACIFIC RIDGE EXPLORATION LTD.", "status": "Mineral", "recorded_date": "1154304000", "anniversary_or_expiry": "2034-12-31", "area_ha": 25, "tenure_type": "Mineral", "source": "BC MTA Mineral, Placer and Coal Tenure Spatial View (BCGW). Open Government Licence - British Columbia. Not legal title.", "as_of": "2026-09-20", "role": "focus", "color": "#e8b040"}}, {"type": "Feature", "geometry": {"type": "Polygon", "coordinates": [[[-129.8857, 55.4159], [-129.8874, 55.4164], [-129.8909, 55.4128], [-129.8846, 55.4108], [-129.8811, 55.4144], [-129.8857, 55.4159]]]}, "properties": {"company_id": "pacific-empire-minerals", "jurisdiction": "British Columbia", "claim_id": 254595, "claim_name": "DOUBLE ED #2", "holder": "PACIFIC CROWN RESOURCES INC.", "status": "Mineral", "recorded_date": "-238118400", "anniversary_or_expiry": "2024-11-30", "area_ha": 25, "tenure_type": "Mineral", "source": "BC MTA Mineral, Placer and Coal Tenure Spatial View (BCGW). Open Government Licence - British Columbia. Not legal title.", "as_of": "2026-09-20", "role": "focus", "color": "#e8b040"}}, {"type": "Feature", "geometry": {"type": "Polygon", "coordinates": [[[-129.8846, 55.4108], [-129.8782, 55.4089], [-129.8748, 55.4125], [-129.8811, 55.4144], [-129.8846, 55.4108]]]}, "properties": {"company_id": "pacific-empire-minerals", "jurisdiction": "British Columbia", "claim_id": 254596, "claim_name": "DOUBLE ED #3", "holder": "PACIFIC CROWN RESOURCES INC.", "status": "Mineral", "recorded_date": "-553651200", "anniversary_or_expiry": "2024-11-30", "area_ha": 25, "tenure_type": "Mineral", "source": "BC MTA Mineral, Placer and Coal Tenure Spatial View (BCGW). Open Government Licence - British Columbia. Not legal title.", "as_of": "2026-09-20", "role": "focus", "color": "#e8b040"}}, {"type": "Feature", "geometry": {"type": "Polygon", "coordinates": [[[-129.8846, 55.4108], [-129.8909, 55.4128], [-129.89, 55.4137], [-129.8946, 55.412], [-129.8906, 55.4086], [-129.8846, 55.4108]]]}, "properties": {"company_id": "pacific-empire-minerals", "jurisdiction": "British Columbia", "claim_id": 254597, "claim_name": "DOUBLE ED #4", "holder": "PACIFIC CROWN RESOURCES INC.", "status": "Mineral", "recorded_date": "-553651200", "anniversary_or_expiry": "2024-11-30", "area_ha": 25, "tenure_type": "Mineral", "source": "BC MTA Mineral, Placer and Coal Tenure Spatial View (BCGW). Open Government Licence - British Columbia. Not legal title.", "as_of": "2026-09-20", "role": "focus", "color": "#e8b040"}}, {"type": "Feature", "geometry": {"type": "Polygon", "coordinates": [[[-129.8906, 55.4086], [-129.8867, 55.4052], [-129.8806, 55.4074], [-129.8846, 55.4108], [-129.8906, 55.4086]]]}, "properties": {"company_id": "pacific-empire-minerals", "jurisdiction": "British Columbia", "claim_id": 254598, "claim_name": "DOUBLE ED #5", "holder": "PACIFIC CROWN RESOURCES INC.", "status": "Mineral", "recorded_date": "-553651200", "anniversary_or_expiry": "2024-11-30", "area_ha": 25, "tenure_type": "Mineral", "source": "BC MTA Mineral, Placer and Coal Tenure Spatial View (BCGW). Open Government Licence - British Columbia. Not legal title.", "as_of": "2026-09-20", "role": "focus", "color": "#e8b040"}}, {"type": "Feature", "geometry": {"type": "Polygon", "coordinates": [[[-126.1187, 56.5121], [-126.1187, 56.514], [-126.1268, 56.514], [-126.1268, 56.5121], [-126.1187, 56.5121]]]}, "properties": {"company_id": "pacific-empire-minerals", "jurisdiction": "British Columbia", "claim_id": 319492, "claim_name": "YUL-7", "holder": "PACIFIC RIDGE EXPLORATION LTD.", "status": "Mineral", "recorded_date": "7426944000", "anniversary_or_expiry": "2034-12-31", "area_ha": 25, "tenure_type": "Mineral", "source": "BC MTA Mineral, Placer and Coal Tenure Spatial View (BCGW). Open Government Licence - British Columbia. Not legal title.", "as_of": "2026-09-20", "role": "focus", "color": "#e8b040"}}, {"type": "Feature", "geometry": {"type": "Polygon", "coordinates": [[[-126.1117, 56.514], [-126.1187, 56.5139], [-126.1187, 56.5121], [-126.1117, 56.5121], [-126.1117, 56.514]]]}, "properties": {"company_id": "pacific-empire-minerals", "jurisdiction": "British Columbia", "claim_id": 319493, "claim_name": "YUL-8", "holder": "PACIFIC RIDGE EXPLORATION LTD.", "status": "Mineral", "recorded_date": "7426944000", "anniversary_or_expiry": "2034-12-31", "area_ha": 25, "tenure_type": "Mineral", "source": "BC MTA Mineral, Placer and Coal Tenure Spatial View (BCGW). Open Government Licence - British Columbia. Not legal title.", "as_of": "2026-09-20", "role": "focus", "color": "#e8b040"}}, {"type": "Feature", "geometry": {"type": "Polygon", "coordinates": [[[-126.135, 56.512], [-126.1268, 56.5121], [-126.1269, 56.5141], [-126.135, 56.514], [-126.135, 56.512]]]}, "properties": {"company_id": "pacific-empire-minerals", "jurisdiction": "British Columbia", "claim_id": 319494, "claim_name": "YUL-9", "holder": "PACIFIC RIDGE EXPLORATION LTD.", "status": "Mineral", "recorded_date": "7426944000", "anniversary_or_expiry": "2034-12-31", "area_ha": 25, "tenure_type": "Mineral", "source": "BC MTA Mineral, Placer and Coal Tenure Spatial View (BCGW). Open Government Licence - British Columbia. Not legal title.", "as_of": "2026-09-20", "role": "focus", "color": "#e8b040"}}, {"type": "Feature", "geometry": {"type": "Polygon", "coordinates": [[[-126.135, 56.512], [-126.135, 56.514], [-126.1429, 56.514], [-126.143, 56.5119], [-126.135, 56.512]]]}, "properties": {"company_id": "pacific-empire-minerals", "jurisdiction": "British Columbia", "claim_id": 319495, "claim_name": "YUL-10", "holder": "PACIFIC RIDGE EXPLORATION LTD.", "status": "Mineral", "recorded_date": "7426944000", "anniversary_or_expiry": "2034-12-31", "area_ha": 25, "tenure_type": "Mineral", "source": "BC MTA Mineral, Placer and Coal Tenure Spatial View (BCGW). Open Government Licence - British Columbia. Not legal title.", "as_of": "2026-09-20", "role": "focus", "color": "#e8b040"}}, {"type": "Feature", "geometry": {"type": "Polygon", "coordinates": [[[-126.1429, 56.514], [-126.151, 56.514], [-126.1511, 56.5119], [-126.143, 56.5119], [-126.1429, 56.514]]]}, "properties": {"company_id": "pacific-empire-minerals", "jurisdiction": "British Columbia", "claim_id": 319496, "claim_name": "YUL-11", "holder": "PACIFIC RIDGE EXPLORATION LTD.", "status": "Mineral", "recorded_date": "7426944000", "anniversary_or_expiry": "2034-12-31", "area_ha": 25, "tenure_type": "Mineral", "source": "BC MTA Mineral, Placer and Coal Tenure Spatial View (BCGW). Open Government Licence - British Columbia. Not legal title.", "as_of": "2026-09-20", "role": "focus", "color": "#e8b040"}}, {"type": "Feature", "geometry": {"type": "Polygon", "coordinates": [[[-126.151, 56.514], [-126.1591, 56.514], [-126.1593, 56.5119], [-126.1511, 56.5119], [-126.151, 56.514]]]}, "properties": {"company_id": "pacific-empire-minerals", "jurisdiction": "British Columbia", "claim_id": 319497, "claim_name": "YUL-12", "holder": "PACIFIC RIDGE EXPLORATION LTD.", "status": "Mineral", "recorded_date": "7431264000", "anniversary_or_expiry": "2034-12-31", "area_ha": 25, "tenure_type": "Mineral", "source": "BC MTA Mineral, Placer and Coal Tenure Spatial View (BCGW). Open Government Licence - British Columbia. Not legal title.", "as_of": "2026-09-20", "role": "focus", "color": "#e8b040"}}, {"type": "Feature", "geometry": {"type": "Polygon", "coordinates": [[[-126.1591, 56.514], [-126.1635, 56.514], [-126.1635, 56.5119], [-126.1593, 56.5119], [-126.1591, 56.514]]]}, "properties": {"company_id": "pacific-empire-minerals", "jurisdiction": "British Columbia", "claim_id": 319498, "claim_name": "YUL-13", "holder": "PACIFIC RIDGE EXPLORATION LTD.", "status": "Mineral", "recorded_date": "7431264000", "anniversary_or_expiry": "2034-12-31", "area_ha": 25, "tenure_type": "Mineral", "source": "BC MTA Mineral, Placer and Coal Tenure Spatial View (BCGW). Open Government Licence - British Columbia. Not legal title.", "as_of": "2026-09-20", "role": "focus", "color": "#e8b040"}}, {"type": "Feature", "geometry": {"type": "Polygon", "coordinates": [[[-123.5004, 50.6792], [-123.4999, 50.6833], [-123.5168, 50.6841], [-123.5174, 50.6797], [-123.5004, 50.6792]]]}, "properties": {"company_id": "pacific-empire-minerals", "jurisdiction": "British Columbia", "claim_id": 333936, "claim_name": null, "holder": "GREAT PACIFIC PUMICE INC.", "status": "Mineral", "recorded_date": "8012736000", "anniversary_or_expiry": "2026-05-24", "area_ha": 60, "tenure_type": "Mineral", "source": "BC MTA Mineral, Placer and Coal Tenure Spatial View (BCGW). Open Government Licence - British Columbia. Not legal title.", "as_of": "2026-09-20", "role": "focus", "color": "#e8b040"}}, {"type": "Feature", "geometry": {"type": "Polygon", "coordinates": [[[-123.4023, 50.6232], [-123.4007, 50.6241], [-123.4045, 50.6267], [-123.4061, 50.6258], [-123.4023, 50.6232]]]}, "properties": {"company_id": "pacific-empire-minerals", "jurisdiction": "British Columbia", "claim_id": 333937, "claim_name": null, "holder": "GREAT PACIFIC PUMICE INC.", "status": "Mineral", "recorded_date": "8017056000", "anniversary_or_expiry": "2026-05-29", "area_ha": 6, "tenure_type": "Mineral", "source": "BC MTA Mineral, Placer and Coal Tenure Spatial View (BCGW). Open Government Licence - British Columbia. Not legal title.", "as_of": "2026-09-20", "role": "focus", "color": "#e8b040"}}, {"type": "Feature", "geometry": {"type": "Polygon", "coordinates": [[[-123.1346, 49.7243], [-123.1316, 49.7243], [-123.1316, 49.7269], [-123.1346, 49.7269], [-123.1346, 49.7243]]]}, "properties": {"company_id": "pacific-empire-minerals", "jurisdiction": "British Columbia", "claim_id": 356249, "claim_name": null, "holder": "GREAT PACIFIC PUMICE INC.", "status": "Mineral", "recorded_date": "8901792000", "anniversary_or_expiry": "2026-03-18", "area_ha": 6.73, "tenure_type": "Mineral", "source": "BC MTA Mineral, Placer and Coal Tenure Spatial View (BCGW). Open Government Licence - British Columbia. Not legal title.", "as_of": "2026-09-20", "role": "focus", "color": "#e8b040"}}, {"type": "Feature", "geometry": {"type": "MultiPolygon", "coordinates": [[[[-129.8152, 55.3786], [-129.8114, 55.3786], [-129.8114, 55.3814], [-129.8138, 55.3802], [-129.8152, 55.3786]]], [[[-129.8155, 55.3831], [-129.8167, 55.3831], [-129.8167, 55.3829], [-129.8155, 55.3831]]]]}, "properties": {"company_id": "pacific-empire-minerals", "jurisdiction": "British Columbia", "claim_id": 369881, "claim_name": "NECK 2", "holder": "PACIFIC CROWN RESOURCES INC.", "status": "Mineral", "recorded_date": "9289728000", "anniversary_or_expiry": "2024-11-30", "area_ha": 25, "tenure_type": "Mineral", "source": "BC MTA Mineral, Placer and Coal Tenure Spatial View (BCGW). Open Government Licence - British Columbia. Not legal title.", "as_of": "2026-09-20", "role": "focus", "color": "#e8b040"}}, {"type": "Feature", "geometry": {"type": "Polygon", "coordinates": [[[-129.8, 55.4539], [-129.8026, 55.458], [-129.8093, 55.4565], [-129.8065, 55.4525], [-129.8, 55.4539]]]}, "properties": {"company_id": "pacific-empire-minerals", "jurisdiction": "British Columbia", "claim_id": 373858, "claim_name": "AND 1", "holder": "PACIFIC CROWN RESOURCES INC.", "status": "Mineral", "recorded_date": "9444384000", "anniversary_or_expiry": "2023-12-09", "area_ha": 25, "tenure_type": "Mineral", "source": "BC MTA Mineral, Placer and Coal Tenure Spatial View (BCGW). Open Government Licence - British Columbia. Not legal title.", "as_of": "2026-09-20", "role": "focus", "color": "#e8b040"}}, {"type": "Feature", "geometry": {"type": "Polygon", "coordinates": [[[-129.7957, 55.4376], [-129.7961, 55.4385], [-129.8027, 55.4373], [-129.8023, 55.4346], [-129.8013, 55.4328], [-129.7937, 55.4342], [-129.7957, 55.4376]]]}, "properties": {"company_id": "pacific-empire-minerals", "jurisdiction": "British Columbia", "claim_id": 373860, "claim_name": "AND 3", "holder": "PACIFIC CROWN RESOURCES INC.", "status": "Mineral", "recorded_date": "9444384000", "anniversary_or_expiry": "2023-12-09", "area_ha": 25, "tenure_type": "Mineral", "source": "BC MTA Mineral, Placer and Coal Tenure Spatial View (BCGW). Open Government Licence - British Columbia. Not legal title.", "as_of": "2026-09-20", "role": "focus", "color": "#e8b040"}}, {"type": "Feature", "geometry": {"type": "Polygon", "coordinates": [[[-120.4316, 50.6118], [-120.4381, 50.6118], [-120.4386, 50.6107], [-120.4457, 50.6118], [-120.4457, 50.5938], [-120.4316, 50.5938], [-120.4316, 50.6118]]]}, "properties": {"company_id": "pacific-empire-minerals", "jurisdiction": "British Columbia", "claim_id": 385260, "claim_name": "GM-18", "holder": "PACIFICANA RESOURCES CORP", "status": "Mineral", "recorded_date": "9851328000", "anniversary_or_expiry": "2028-11-22", "area_ha": 200, "tenure_type": "Mineral", "source": "BC MTA Mineral, Placer and Coal Tenure Spatial View (BCGW). Open Government Licence - British Columbia. Not legal title.", "as_of": "2026-09-20", "role": "focus", "color": "#e8b040"}}, {"type": "Feature", "geometry": {"type": "Polygon", "coordinates": [[[-120.4457, 50.6028], [-120.474, 50.6028], [-120.474, 50.6058], [-120.4783, 50.6058], [-120.4783, 50.5944], [-120.4457, 50.5943], [-120.4457, 50.6028]]]}, "properties": {"company_id": "pacific-empire-minerals", "jurisdiction": "British Columbia", "claim_id": 408976, "claim_name": "GM 21", "holder": "PACIFICANA RESOURCES CORP", "status": "Mineral", "recorded_date": "2004-03-20", "anniversary_or_expiry": "2028-11-22", "area_ha": 375, "tenure_type": "Mineral", "source": "BC MTA Mineral, Placer and Coal Tenure Spatial View (BCGW). Open Government Licence - British Columbia. Not legal title.", "as_of": "2026-09-20", "role": "focus", "color": "#e8b040"}}, {"type": "Feature", "geometry": {"type": "Polygon", "coordinates": [[[-125.3642, 55.5749], [-125.3642, 55.5499], [-125.3329, 55.5499], [-125.3329, 55.5416], [-125.3267, 55.5416], [-125.3204, 55.5416], [-125.3204, 55.5499], [-125.3142, 55.5499], [-125.3142, 55.5583], [-125.3579, 55.5583], [-125.3579, 55.5791], [-125.3642, 55.5791], [-125.3642, 55.5749]]]}, "properties": {"company_id": "pacific-empire-minerals", "jurisdiction": "British Columbia", "claim_id": 502179, "claim_name": "CS045", "holder": "PACIFIC RIDGE EXPLORATION LTD.", "status": "Mineral", "recorded_date": "2005-01-12", "anniversary_or_expiry": "2027-03-01", "area_ha": 457.47400000000005, "tenure_type": "Mineral", "source": "BC MTA Mineral, Placer and Coal Tenure Spatial View (BCGW). Open Government Licence - British Columbia. Not legal title.", "as_of": "2026-09-20", "role": "focus", "color": "#e8b040"}}, {"type": "Feature", "geometry": {"type": "Polygon", "coordinates": [[[-125.3267, 55.5374], [-125.3267, 55.5332], [-125.2954, 55.5332], [-125.2954, 55.5583], [-125.3142, 55.5583], [-125.3142, 55.5499], [-125.3204, 55.5499], [-125.3204, 55.5416], [-125.3267, 55.5416], [-125.3267, 55.5374]]]}, "properties": {"company_id": "pacific-empire-minerals", "jurisdiction": "British Columbia", "claim_id": 502205, "claim_name": "CS046", "holder": "PACIFIC RIDGE EXPLORATION LTD.", "status": "Mineral", "recorded_date": "2005-01-12", "anniversary_or_expiry": "2027-03-01", "area_ha": 439.29900000000004, "tenure_type": "Mineral", "source": "BC MTA Mineral, Placer and Coal Tenure Spatial View (BCGW). Open Government Licence - British Columbia. Not legal title.", "as_of": "2026-09-20", "role": "focus", "color": "#e8b040"}}, {"type": "Feature", "geometry": {"type": "Polygon", "coordinates": [[[-125.3267, 55.5291], [-125.3267, 55.5207], [-125.3142, 55.5207], [-125.3142, 55.5041], [-125.3079, 55.5041], [-125.3079, 55.5082], [-125.2954, 55.5082], [-125.2954, 55.5332], [-125.3267, 55.5332], [-125.3267, 55.5291]]]}, "properties": {"company_id": "pacific-empire-minerals", "jurisdiction": "British Columbia", "claim_id": 502260, "claim_name": "CS047", "holder": "PACIFIC RIDGE EXPLORATION LTD.", "status": "Mineral", "recorded_date": "2005-01-12", "anniversary_or_expiry": "2027-03-01", "area_ha": 457.865, "tenure_type": "Mineral", "source": "BC MTA Mineral, Placer and Coal Tenure Spatial View (BCGW). Open Government Licence - British Columbia. Not legal title.", "as_of": "2026-09-20", "role": "focus", "color": "#e8b040"}}, {"type": "Feature", "geometry": {"type": "Polygon", "coordinates": [[[-129.8017, 55.4081], [-129.7955, 55.4081], [-129.7955, 55.4123], [-129.808, 55.4123], [-129.808, 55.4081], [-129.8017, 55.4081]]]}, "properties": {"company_id": "pacific-empire-minerals", "jurisdiction": "British Columbia", "claim_id": 504180, "claim_name": "granby pen.", "holder": "PACIFIC CROWN RESOURCES INC.", "status": "Mineral", "recorded_date": "2005-01-18", "anniversary_or_expiry": "2024-11-30", "area_ha": 36.730000000000004, "tenure_type": "Mineral", "source": "BC MTA Mineral, Placer and Coal Tenure Spatial View (BCGW). Open Government Licence - British Columbia. Not legal title.", "as_of": "2026-09-20", "role": "focus", "color": "#e8b040"}}, {"type": "Feature", "geometry": {"type": "Polygon", "coordinates": [[[-129.7892, 55.4081], [-129.7892, 55.4123], [-129.7955, 55.4123], [-129.7955, 55.4081], [-129.7892, 55.4081]]]}, "properties": {"company_id": "pacific-empire-minerals", "jurisdiction": "British Columbia", "claim_id": 504294, "claim_name": "Granby Fr 2", "holder": "PACIFIC CROWN RESOURCES INC.", "status": "Mineral", "recorded_date": "2005-01-19", "anniversary_or_expiry": "2024-12-10", "area_ha": 18.365000000000002, "tenure_type": "Mineral", "source": "BC MTA Mineral, Placer and Coal Tenure Spatial View (BCGW). Open Government Licence - British Columbia. Not legal title.", "as_of": "2026-09-20", "role": "focus", "color": "#e8b040"}}, {"type": "Feature", "geometry": {"type": "Polygon", "coordinates": [[[-125.2954, 55.5541], [-125.2954, 55.5374], [-125.2642, 55.5374], [-125.2642, 55.5583], [-125.2954, 55.5583], [-125.2954, 55.5541]]]}, "properties": {"company_id": "pacific-empire-minerals", "jurisdiction": "British Columbia", "claim_id": 502419, "claim_name": "cs070", "holder": "PACIFIC RIDGE EXPLORATION LTD.", "status": "Mineral", "recorded_date": "2005-01-12", "anniversary_or_expiry": "2027-03-01", "area_ha": 457.567, "tenure_type": "Mineral", "source": "BC MTA Mineral, Placer and Coal Tenure Spatial View (BCGW). Open Government Licence - British Columbia. Not legal title.", "as_of": "2026-09-20", "role": "focus", "color": "#e8b040"}}, {"type": "Feature", "geometry": {"type": "Polygon", "coordinates": [[[-125.2954, 55.5332], [-125.2954, 55.5166], [-125.2642, 55.5166], [-125.2642, 55.5374], [-125.2954, 55.5374], [-125.2954, 55.5332]]]}, "properties": {"company_id": "pacific-empire-minerals", "jurisdiction": "British Columbia", "claim_id": 502431, "claim_name": "cs073", "holder": "PACIFIC RIDGE EXPLORATION LTD.", "status": "Mineral", "recorded_date": "2005-01-12", "anniversary_or_expiry": "2027-03-01", "area_ha": 457.807, "tenure_type": "Mineral", "source": "BC MTA Mineral, Placer and Coal Tenure Spatial View (BCGW). Open Government Licence - British Columbia. Not legal title.", "as_of": "2026-09-20", "role": "focus", "color": "#e8b040"}}, {"type": "Feature", "geometry": {"type": "Polygon", "coordinates": [[[-125.2954, 55.4916], [-125.2954, 55.4749], [-125.2642, 55.4749], [-125.2642, 55.4957], [-125.2954, 55.4957], [-125.2954, 55.4916]]]}, "properties": {"company_id": "pacific-empire-minerals", "jurisdiction": "British Columbia", "claim_id": 502451, "claim_name": "cs079", "holder": "PACIFIC RIDGE EXPLORATION LTD.", "status": "Mineral", "recorded_date": "2005-01-12", "anniversary_or_expiry": "2027-03-01", "area_ha": 458.211, "tenure_type": "Mineral", "source": "BC MTA Mineral, Placer and Coal Tenure Spatial View (BCGW). Open Government Licence - British Columbia. Not legal title.", "as_of": "2026-09-20", "role": "focus", "color": "#e8b040"}}, {"type": "Feature", "geometry": {"type": "Polygon", "coordinates": [[[-125.3142, 55.5041], [-125.3204, 55.5041], [-125.3204, 55.4999], [-125.3142, 55.4999], [-125.3142, 55.4957], [-125.3079, 55.4957], [-125.3079, 55.4874], [-125.3017, 55.4874], [-125.3017, 55.4791], [-125.2954, 55.4791], [-125.2954, 55.5082], [-125.3079, 55.5082], [-125.3079, 55.5041], [-125.3142, 55.5041]]]}, "properties": {"company_id": "pacific-empire-minerals", "jurisdiction": "British Columbia", "claim_id": 502571, "claim_name": "CS098", "holder": "PACIFIC RIDGE EXPLORATION LTD.", "status": "Mineral", "recorded_date": "2005-01-12", "anniversary_or_expiry": "2027-03-01", "area_ha": 274.867, "tenure_type": "Mineral", "source": "BC MTA Mineral, Placer and Coal Tenure Spatial View (BCGW). Open Government Licence - British Columbia. Not legal title.", "as_of": "2026-09-20", "role": "focus", "color": "#e8b040"}}, {"type": "Feature", "geometry": {"type": "Polygon", "coordinates": [[[-127.8142, 57.7665], [-127.8142, 57.7623], [-127.7392, 57.7623], [-127.7392, 57.7915], [-127.8142, 57.7915], [-127.8142, 57.7665]]]}, "properties": {"company_id": "pacific-empire-minerals", "jurisdiction": "British Columbia", "claim_id": 502764, "claim_name": null, "holder": "OMEGA PACIFIC RESOURCES INC", "status": "Mineral", "recorded_date": "2005-01-13", "anniversary_or_expiry": "2034-11-21", "area_ha": 1449.39, "tenure_type": "Mineral", "source": "BC MTA Mineral, Placer and Coal Tenure Spatial View (BCGW). Open Government Licence - British Columbia. Not legal title.", "as_of": "2026-09-20", "role": "focus", "color": "#e8b040"}}, {"type": "Feature", "geometry": {"type": "Polygon", "coordinates": [[[-127.8142, 57.729], [-127.8142, 57.7248], [-127.7642, 57.7248], [-127.7642, 57.7498], [-127.8142, 57.7498], [-127.8142, 57.729]]]}, "properties": {"company_id": "pacific-empire-minerals", "jurisdiction": "British Columbia", "claim_id": 502766, "claim_name": null, "holder": "OMEGA PACIFIC RESOURCES INC", "status": "Mineral", "recorded_date": "2005-01-13", "anniversary_or_expiry": "2034-11-21", "area_ha": 829.114, "tenure_type": "Mineral", "source": "BC MTA Mineral, Placer and Coal Tenure Spatial View (BCGW). Open Government Licence - British Columbia. Not legal title.", "as_of": "2026-09-20", "role": "focus", "color": "#e8b040"}}, {"type": "Feature", "geometry": {"type": "Polygon", "coordinates": [[[-127.7892, 57.754], [-127.7892, 57.7498], [-127.7642, 57.7498], [-127.7642, 57.7415], [-127.7329, 57.7415], [-127.7329, 57.7707], [-127.7392, 57.7707], [-127.7392, 57.7623], [-127.7892, 57.7623], [-127.7892, 57.754]]]}, "properties": {"company_id": "pacific-empire-minerals", "jurisdiction": "British Columbia", "claim_id": 502768, "claim_name": null, "holder": "OMEGA PACIFIC RESOURCES INC", "status": "Mineral", "recorded_date": "2005-01-13", "anniversary_or_expiry": "2034-11-21", "area_ha": 673.359, "tenure_type": "Mineral", "source": "BC MTA Mineral, Placer and Coal Tenure Spatial View (BCGW). Open Government Licence - British Columbia. Not legal title.", "as_of": "2026-09-20", "role": "focus", "color": "#e8b040"}}, {"type": "Feature", "geometry": {"type": "Polygon", "coordinates": [[[-127.7829, 57.7957], [-127.7829, 57.7915], [-127.7392, 57.7915], [-127.7392, 57.8207], [-127.7829, 57.8207], [-127.7829, 57.7957]]]}, "properties": {"company_id": "pacific-empire-minerals", "jurisdiction": "British Columbia", "claim_id": 502770, "claim_name": null, "holder": "OMEGA PACIFIC RESOURCES INC", "status": "Mineral", "recorded_date": "2005-01-13", "anniversary_or_expiry": "2034-11-21", "area_ha": 844.8040000000001, "tenure_type": "Mineral", "source": "BC MTA Mineral, Placer and Coal Tenure Spatial View (BCGW). Open Government Licence - British Columbia. Not legal title.", "as_of": "2026-09-20", "role": "focus", "color": "#e8b040"}}, {"type": "Feature", "geometry": {"type": "Polygon", "coordinates": [[[-127.7392, 57.7832], [-127.7392, 57.779], [-127.6954, 57.779], [-127.6954, 57.8123], [-127.7392, 57.8123], [-127.7392, 57.7832]]]}, "properties": {"company_id": "pacific-empire-minerals", "jurisdiction": "British Columbia", "claim_id": 502773, "claim_name": null, "holder": "OMEGA PACIFIC RESOURCES INC", "status": "Mineral", "recorded_date": "2005-01-13", "anniversary_or_expiry": "2034-11-21", "area_ha": 965.782, "tenure_type": "Mineral", "source": "BC MTA Mineral, Placer and Coal Tenure Spatial View (BCGW). Open Government Licence - British Columbia. Not legal title.", "as_of": "2026-09-20", "role": "focus", "color": "#e8b040"}}, {"type": "Feature", "geometry": {"type": "Polygon", "coordinates": [[[-127.7454, 57.8207], [-127.7392, 57.8207], [-127.7392, 57.8123], [-127.6954, 57.8123], [-127.6954, 57.8248], [-127.7517, 57.8248], [-127.7517, 57.8207], [-127.7454, 57.8207]]]}, "properties": {"company_id": "pacific-empire-minerals", "jurisdiction": "British Columbia", "claim_id": 502774, "claim_name": null, "holder": "OMEGA PACIFIC RESOURCES INC", "status": "Mineral", "recorded_date": "2005-01-13", "anniversary_or_expiry": "2034-11-21", "area_ha": 396.40700000000004, "tenure_type": "Mineral", "source": "BC MTA Mineral, Placer and Coal Tenure Spatial View (BCGW). Open Government Licence - British Columbia. Not legal title.", "as_of": "2026-09-20", "role": "focus", "color": "#e8b040"}}, {"type": "Feature", "geometry": {"type": "Polygon", "coordinates": [[[-126.5578, 49.754], [-126.5578, 49.7498], [-126.5203, 49.7498], [-126.5203, 49.7706], [-126.5578, 49.7706], [-126.5578, 49.754]]]}, "properties": {"company_id": "pacific-empire-minerals", "jurisdiction": "British Columbia", "claim_id": 512519, "claim_name": null, "holder": "PACIFIC WEST STONE INC.", "status": "Mineral", "recorded_date": "2005-05-13", "anniversary_or_expiry": "2027-11-09", "area_ha": 626.135, "tenure_type": "Mineral", "source": "BC MTA Mineral, Placer and Coal Tenure Spatial View (BCGW). Open Government Licence - British Columbia. Not legal title.", "as_of": "2026-09-20", "role": "focus", "color": "#e8b040"}}, {"type": "Feature", "geometry": {"type": "Polygon", "coordinates": [[[-129.4767, 59.3123], [-129.4767, 59.3081], [-129.458, 59.3081], [-129.458, 59.304], [-129.4392, 59.304], [-129.4392, 59.3081], [-129.4455, 59.3081], [-129.4455, 59.329], [-129.4767, 59.3289], [-129.4767, 59.3123]]]}, "properties": {"company_id": "pacific-empire-minerals", "jurisdiction": "British Columbia", "claim_id": 510709, "claim_name": null, "holder": "PACIFIC BAY MINERALS LTD.", "status": "Mineral", "recorded_date": "2005-04-13", "anniversary_or_expiry": "2025-10-04", "area_ha": 462.54990000000004, "tenure_type": "Mineral", "source": "BC MTA Mineral, Placer and Coal Tenure Spatial View (BCGW). Open Government Licence - British Columbia. Not legal title.", "as_of": "2026-09-20", "role": "focus", "color": "#e8b040"}}, {"type": "Feature", "geometry": {"type": "Polygon", "coordinates": [[[-129.4767, 59.3331], [-129.4767, 59.3289], [-129.4517, 59.329], [-129.4517, 59.3373], [-129.458, 59.3373], [-129.458, 59.3415], [-129.4767, 59.3415], [-129.4767, 59.3331]]]}, "properties": {"company_id": "pacific-empire-minerals", "jurisdiction": "British Columbia", "claim_id": 510712, "claim_name": null, "holder": "PACIFIC BAY MINERALS LTD.", "status": "Mineral", "recorded_date": "2005-04-13", "anniversary_or_expiry": "2025-10-04", "area_ha": 181.625, "tenure_type": "Mineral", "source": "BC MTA Mineral, Placer and Coal Tenure Spatial View (BCGW). Open Government Licence - British Columbia. Not legal title.", "as_of": "2026-09-20", "role": "focus", "color": "#e8b040"}}, {"type": "Feature", "geometry": {"type": "Polygon", "coordinates": [[[-129.4955, 59.3164], [-129.4955, 59.3123], [-129.4767, 59.3123], [-129.4767, 59.3331], [-129.4955, 59.3331], [-129.4955, 59.3164]]]}, "properties": {"company_id": "pacific-empire-minerals", "jurisdiction": "British Columbia", "claim_id": 510720, "claim_name": null, "holder": "PACIFIC BAY MINERALS LTD.", "status": "Mineral", "recorded_date": "2005-04-13", "anniversary_or_expiry": "2025-10-04", "area_ha": 247.75480000000002, "tenure_type": "Mineral", "source": "BC MTA Mineral, Placer and Coal Tenure Spatial View (BCGW). Open Government Licence - British Columbia. Not legal title.", "as_of": "2026-09-20", "role": "focus", "color": "#e8b040"}}, {"type": "Feature", "geometry": {"type": "Polygon", "coordinates": [[[-129.4392, 59.2915], [-129.4392, 59.2873], [-129.4205, 59.2873], [-129.4205, 59.2956], [-129.4392, 59.2956], [-129.4392, 59.2915]]]}, "properties": {"company_id": "pacific-empire-minerals", "jurisdiction": "British Columbia", "claim_id": 510721, "claim_name": null, "holder": "PACIFIC BAY MINERALS LTD.", "status": "Mineral", "recorded_date": "2005-04-13", "anniversary_or_expiry": "2025-10-04", "area_ha": 99.19250000000001, "tenure_type": "Mineral", "source": "BC MTA Mineral, Placer and Coal Tenure Spatial View (BCGW). Open Government Licence - British Columbia. Not legal title.", "as_of": "2026-09-20", "role": "focus", "color": "#e8b040"}}, {"type": "Feature", "geometry": {"type": "Polygon", "coordinates": [[[-129.458, 59.2998], [-129.458, 59.2956], [-129.4517, 59.2956], [-129.4517, 59.2915], [-129.4392, 59.2915], [-129.4392, 59.2956], [-129.4205, 59.2956], [-129.4205, 59.2998], [-129.4267, 59.2998], [-129.4267, 59.304], [-129.458, 59.304], [-129.458, 59.2998]]]}, "properties": {"company_id": "pacific-empire-minerals", "jurisdiction": "British Columbia", "claim_id": 510722, "claim_name": "JOE REED 1-25", "holder": "PACIFIC BAY MINERALS LTD.", "status": "Mineral", "recorded_date": "2005-04-13", "anniversary_or_expiry": "2025-10-04", "area_ha": 214.87140000000002, "tenure_type": "Mineral", "source": "BC MTA Mineral, Placer and Coal Tenure Spatial View (BCGW). Open Government Licence - British Columbia. Not legal title.", "as_of": "2026-09-20", "role": "focus", "color": "#e8b040"}}, {"type": "Feature", "geometry": {"type": "Polygon", "coordinates": [[[-129.808, 55.4039], [-129.808, 55.4081], [-129.8142, 55.4081], [-129.8142, 55.4039], [-129.808, 55.4039]]]}, "properties": {"company_id": "pacific-empire-minerals", "jurisdiction": "British Columbia", "claim_id": 508970, "claim_name": "Point 6", "holder": "PACIFIC CROWN RESOURCES INC.", "status": "Mineral", "recorded_date": "2005-03-15", "anniversary_or_expiry": "2024-11-30", "area_ha": 18.367, "tenure_type": "Mineral", "source": "BC MTA Mineral, Placer and Coal Tenure Spatial View (BCGW). Open Government Licence - British Columbia. Not legal title.", "as_of": "2026-09-20", "role": "focus", "color": "#e8b040"}}, {"type": "Feature", "geometry": {"type": "Polygon", "coordinates": [[[-129.9205, 55.4164], [-129.9205, 55.4123], [-129.883, 55.4123], [-129.883, 55.4331], [-129.9205, 55.4331], [-129.9205, 55.4164]]]}, "properties": {"company_id": "pacific-empire-minerals", "jurisdiction": "British Columbia", "claim_id": 505314, "claim_name": null, "holder": "PACIFIC CROWN RESOURCES INC.", "status": "Mineral", "recorded_date": "2005-01-31", "anniversary_or_expiry": "2024-12-09", "area_ha": 550.78, "tenure_type": "Mineral", "source": "BC MTA Mineral, Placer and Coal Tenure Spatial View (BCGW). Open Government Licence - British Columbia. Not legal title.", "as_of": "2026-09-20", "role": "focus", "color": "#e8b040"}}, {"type": "Feature", "geometry": {"type": "Polygon", "coordinates": [[[-129.933, 55.4289], [-129.933, 55.4248], [-129.9205, 55.4248], [-129.9205, 55.4331], [-129.933, 55.4331], [-129.933, 55.4289]]]}, "properties": {"company_id": "pacific-empire-minerals", "jurisdiction": "British Columbia", "claim_id": 1088475, "claim_name": null, "holder": "PACIFIC CROWN RESOURCES INC.", "status": "Mineral", "recorded_date": "2022-01-11", "anniversary_or_expiry": "2024-11-30", "area_ha": 73.42580000000001, "tenure_type": "Mineral", "source": "BC MTA Mineral, Placer and Coal Tenure Spatial View (BCGW). Open Government Licence - British Columbia. Not legal title.", "as_of": "2026-09-20", "role": "focus", "color": "#e8b040"}}, {"type": "Feature", "geometry": {"type": "Polygon", "coordinates": [[[-129.8017, 55.4039], [-129.783, 55.4039], [-129.783, 55.4081], [-129.808, 55.4081], [-129.808, 55.4039], [-129.8017, 55.4039]]]}, "properties": {"company_id": "pacific-empire-minerals", "jurisdiction": "British Columbia", "claim_id": 510063, "claim_name": "Point 7", "holder": "PACIFIC CROWN RESOURCES INC.", "status": "Mineral", "recorded_date": "2005-04-02", "anniversary_or_expiry": "2024-11-30", "area_ha": 73.468, "tenure_type": "Mineral", "source": "BC MTA Mineral, Placer and Coal Tenure Spatial View (BCGW). Open Government Licence - British Columbia. Not legal title.", "as_of": "2026-09-20", "role": "focus", "color": "#e8b040"}}, {"type": "Feature", "geometry": {"type": "Polygon", "coordinates": [[[-126.539, 49.7748], [-126.539, 49.7706], [-126.4765, 49.7706], [-126.4765, 49.7831], [-126.4828, 49.7831], [-126.4828, 49.7873], [-126.4953, 49.7873], [-126.4953, 49.779], [-126.539, 49.779], [-126.539, 49.7748]]]}, "properties": {"company_id": "pacific-empire-minerals", "jurisdiction": "British Columbia", "claim_id": 510251, "claim_name": "INLET", "holder": "PACIFIC WEST STONE INC.", "status": "Mineral", "recorded_date": "2005-04-06", "anniversary_or_expiry": "2027-11-09", "area_ha": 521.605, "tenure_type": "Mineral", "source": "BC MTA Mineral, Placer and Coal Tenure Spatial View (BCGW). Open Government Licence - British Columbia. Not legal title.", "as_of": "2026-09-20", "role": "focus", "color": "#e8b040"}}, {"type": "Feature", "geometry": {"type": "Polygon", "coordinates": [[[-126.5203, 49.754], [-126.5203, 49.7498], [-126.514, 49.7498], [-126.514, 49.7623], [-126.5203, 49.7623], [-126.5203, 49.754]]]}, "properties": {"company_id": "pacific-empire-minerals", "jurisdiction": "British Columbia", "claim_id": 510254, "claim_name": "INLET 4", "holder": "PACIFIC WEST STONE INC.", "status": "Mineral", "recorded_date": "2005-04-06", "anniversary_or_expiry": "2027-11-09", "area_ha": 62.618, "tenure_type": "Mineral", "source": "BC MTA Mineral, Placer and Coal Tenure Spatial View (BCGW). Open Government Licence - British Columbia. Not legal title.", "as_of": "2026-09-20", "role": "focus", "color": "#e8b040"}}, {"type": "Feature", "geometry": {"type": "Polygon", "coordinates": [[[-126.4702, 49.7748], [-126.4765, 49.7748], [-126.4765, 49.7706], [-126.4702, 49.7706], [-126.4702, 49.7748]]]}, "properties": {"company_id": "pacific-empire-minerals", "jurisdiction": "British Columbia", "claim_id": 510256, "claim_name": "INLET 5", "holder": "PACIFIC WEST STONE INC.", "status": "Mineral", "recorded_date": "2005-04-06", "anniversary_or_expiry": "2027-11-09", "area_ha": 20.866, "tenure_type": "Mineral", "source": "BC MTA Mineral, Placer and Coal Tenure Spatial View (BCGW). Open Government Licence - British Columbia. Not legal title.", "as_of": "2026-09-20", "role": "focus", "color": "#e8b040"}}, {"type": "Feature", "geometry": {"type": "Polygon", "coordinates": [[[-120.47, 50.6082], [-120.47, 50.6041], [-120.4763, 50.6041], [-120.4763, 50.5999], [-120.445, 50.5999], [-120.445, 50.6124], [-120.47, 50.6124], [-120.47, 50.6082]]]}, "properties": {"company_id": "pacific-empire-minerals", "jurisdiction": "British Columbia", "claim_id": 515570, "claim_name": null, "holder": "PACIFICANA RESOURCES CORP", "status": "Mineral", "recorded_date": "2005-06-29", "anniversary_or_expiry": "2028-11-22", "area_ha": 266.611, "tenure_type": "Mineral", "source": "BC MTA Mineral, Placer and Coal Tenure Spatial View (BCGW). Open Government Licence - British Columbia. Not legal title.", "as_of": "2026-09-20", "role": "focus", "color": "#e8b040"}}, {"type": "Feature", "geometry": {"type": "Polygon", "coordinates": [[[-120.7763, 49.5207], [-120.7763, 49.4999], [-120.7575, 49.4999], [-120.7575, 49.5249], [-120.7763, 49.5249], [-120.7763, 49.5207]]]}, "properties": {"company_id": "pacific-empire-minerals", "jurisdiction": "British Columbia", "claim_id": 515916, "claim_name": null, "holder": "PACIFIC WEST COAL LTD.", "status": "Mineral", "recorded_date": "2005-07-04", "anniversary_or_expiry": "2025-02-12", "area_ha": 377.571, "tenure_type": "Mineral", "source": "BC MTA Mineral, Placer and Coal Tenure Spatial View (BCGW). Open Government Licence - British Columbia. Not legal title.", "as_of": "2026-09-20", "role": "focus", "color": "#e8b040"}}, {"type": "Feature", "geometry": {"type": "Polygon", "coordinates": [[[-120.77, 49.4957], [-120.77, 49.4915], [-120.7638, 49.4915], [-120.7638, 49.4874], [-120.7575, 49.4874], [-120.7575, 49.4832], [-120.7513, 49.4832], [-120.7513, 49.479], [-120.7325, 49.479], [-120.7325, 49.4915], [-120.7388, 49.4915], [-120.7388, 49.4957], [-120.745, 49.4957], [-120.745, 49.4999], [-120.7513, 49.4999], [-120.7513, 49.504], [-120.7575, 49.504], [-120.7575, 49.4999], [-120.77, 49.4999], [-120.77, 49.4957]]]}, "properties": {"company_id": "pacific-empire-minerals", "jurisdiction": "British Columbia", "claim_id": 515918, "claim_name": null, "holder": "PACIFIC WEST COAL LTD.", "status": "Mineral", "recorded_date": "2005-07-04", "anniversary_or_expiry": "2025-02-12", "area_ha": 461.66900000000004, "tenure_type": "Mineral", "source": "BC MTA Mineral, Placer and Coal Tenure Spatial View (BCGW). Open Government Licence - British Columbia. Not legal title.", "as_of": "2026-09-20", "role": "focus", "color": "#e8b040"}}, {"type": "Feature", "geometry": {"type": "Polygon", "coordinates": [[[-129.8205, 55.3914], [-129.8205, 55.3873], [-129.8142, 55.3873], [-129.8142, 55.3956], [-129.8205, 55.3956], [-129.8205, 55.3914]]]}, "properties": {"company_id": "pacific-empire-minerals", "jurisdiction": "British Columbia", "claim_id": 519974, "claim_name": "GRANBY PEN FRAC #1", "holder": "PACIFIC CROWN RESOURCES INC.", "status": "Mineral", "recorded_date": "2005-09-14", "anniversary_or_expiry": "2023-12-10", "area_ha": 36.748000000000005, "tenure_type": "Mineral", "source": "BC MTA Mineral, Placer and Coal Tenure Spatial View (BCGW). Open Government Licence - British Columbia. Not legal title.", "as_of": "2026-09-20", "role": "focus", "color": "#e8b040"}}, {"type": "Feature", "geometry": {"type": "Polygon", "coordinates": [[[-129.7892, 55.3998], [-129.7892, 55.3956], [-129.783, 55.3956], [-129.783, 55.4039], [-129.7892, 55.4039], [-129.7892, 55.3998]]]}, "properties": {"company_id": "pacific-empire-minerals", "jurisdiction": "British Columbia", "claim_id": 519975, "claim_name": "GRANBY PEN FRAC #2", "holder": "PACIFIC CROWN RESOURCES INC.", "status": "Mineral", "recorded_date": "2005-09-14", "anniversary_or_expiry": "2023-12-10", "area_ha": 36.74, "tenure_type": "Mineral", "source": "BC MTA Mineral, Placer and Coal Tenure Spatial View (BCGW). Open Government Licence - British Columbia. Not legal title.", "as_of": "2026-09-20", "role": "focus", "color": "#e8b040"}}, {"type": "Feature", "geometry": {"type": "Polygon", "coordinates": [[[-129.9267, 55.4206], [-129.9205, 55.4206], [-129.9205, 55.4248], [-129.933, 55.4248], [-129.933, 55.4206], [-129.9267, 55.4206]]]}, "properties": {"company_id": "pacific-empire-minerals", "jurisdiction": "British Columbia", "claim_id": 1088477, "claim_name": null, "holder": "PACIFIC CROWN RESOURCES INC.", "status": "Mineral", "recorded_date": "2022-01-11", "anniversary_or_expiry": "2024-11-30", "area_ha": 36.7187, "tenure_type": "Mineral", "source": "BC MTA Mineral, Placer and Coal Tenure Spatial View (BCGW). Open Government Licence - British Columbia. Not legal title.", "as_of": "2026-09-20", "role": "focus", "color": "#e8b040"}}, {"type": "Feature", "geometry": {"type": "Polygon", "coordinates": [[[-124.7641, 55.2499], [-124.7641, 55.2458], [-124.7579, 55.2458], [-124.7579, 55.2416], [-124.7454, 55.2416], [-124.7454, 55.2458], [-124.7391, 55.2458], [-124.7391, 55.2541], [-124.7454, 55.2541], [-124.7454, 55.2583], [-124.7516, 55.2583], [-124.7516, 55.2541], [-124.7641, 55.2541], [-124.7641, 55.2499]]]}, "properties": {"company_id": "pacific-empire-minerals", "jurisdiction": "British Columbia", "claim_id": 516840, "claim_name": null, "holder": "PACIFIC EMPIRE MINERALS CORP.", "status": "Mineral", "recorded_date": "2005-07-11", "anniversary_or_expiry": "2027-06-30", "area_ha": 202.829, "tenure_type": "Mineral", "source": "BC MTA Mineral, Placer and Coal Tenure Spatial View (BCGW). Open Government Licence - British Columbia. Not legal title.", "as_of": "2026-09-20", "role": "focus", "color": "#e8b040"}}, {"type": "Feature", "geometry": {"type": "Polygon", "coordinates": [[[-124.7391, 55.2416], [-124.7391, 55.2458], [-124.7454, 55.2458], [-124.7454, 55.2416], [-124.7391, 55.2416]]]}, "properties": {"company_id": "pacific-empire-minerals", "jurisdiction": "British Columbia", "claim_id": 516845, "claim_name": "COL 10", "holder": "PACIFIC EMPIRE MINERALS CORP.", "status": "Mineral", "recorded_date": "2005-07-11", "anniversary_or_expiry": "2027-06-30", "area_ha": 18.441000000000003, "tenure_type": "Mineral", "source": "BC MTA Mineral, Placer and Coal Tenure Spatial View (BCGW). Open Government Licence - British Columbia. Not legal title.", "as_of": "2026-09-20", "role": "focus", "color": "#e8b040"}}, {"type": "Feature", "geometry": {"type": "Polygon", "coordinates": [[[-129.8517, 55.4331], [-129.8517, 55.4289], [-129.8455, 55.4289], [-129.8455, 55.4414], [-129.8392, 55.4414], [-129.8392, 55.4498], [-129.833, 55.4498], [-129.833, 55.4456], [-129.8267, 55.4456], [-129.8267, 55.4539], [-129.8455, 55.4539], [-129.8455, 55.4456], [-129.8517, 55.4456], [-129.8517, 55.4331]]]}, "properties": {"company_id": "pacific-empire-minerals", "jurisdiction": "British Columbia", "claim_id": 517219, "claim_name": "HC GAP #2", "holder": "PACIFIC CROWN RESOURCES INC.", "status": "Mineral", "recorded_date": "2005-07-12", "anniversary_or_expiry": "2024-11-30", "area_ha": 183.493, "tenure_type": "Mineral", "source": "BC MTA Mineral, Placer and Coal Tenure Spatial View (BCGW). Open Government Licence - British Columbia. Not legal title.", "as_of": "2026-09-20", "role": "focus", "color": "#e8b040"}}, {"type": "Feature", "geometry": {"type": "Polygon", "coordinates": [[[-129.8267, 55.4539], [-129.8205, 55.4539], [-129.8205, 55.4498], [-129.808, 55.4498], [-129.808, 55.4539], [-129.8142, 55.4539], [-129.8142, 55.4581], [-129.8267, 55.4581], [-129.8267, 55.4539]]]}, "properties": {"company_id": "pacific-empire-minerals", "jurisdiction": "British Columbia", "claim_id": 517254, "claim_name": "HC GAP #3", "holder": "PACIFIC CROWN RESOURCES INC.", "status": "Mineral", "recorded_date": "2005-07-12", "anniversary_or_expiry": "2025-11-30", "area_ha": 73.379, "tenure_type": "Mineral", "source": "BC MTA Mineral, Placer and Coal Tenure Spatial View (BCGW). Open Government Licence - British Columbia. Not legal title.", "as_of": "2026-09-20", "role": "focus", "color": "#e8b040"}}, {"type": "Feature", "geometry": {"type": "Polygon", "coordinates": [[[-129.8517, 55.4039], [-129.8517, 55.3998], [-129.8455, 55.3998], [-129.8455, 55.4039], [-129.8392, 55.4039], [-129.8392, 55.4081], [-129.833, 55.4081], [-129.833, 55.4164], [-129.8267, 55.4164], [-129.8267, 55.4206], [-129.8455, 55.4206], [-129.8455, 55.4123], [-129.8517, 55.4123], [-129.8517, 55.4039]]]}, "properties": {"company_id": "pacific-empire-minerals", "jurisdiction": "British Columbia", "claim_id": 517290, "claim_name": "HC GAP #4", "holder": "PACIFIC CROWN RESOURCES INC.", "status": "Mineral", "recorded_date": "2005-07-12", "anniversary_or_expiry": "2024-11-30", "area_ha": 202.00900000000001, "tenure_type": "Mineral", "source": "BC MTA Mineral, Placer and Coal Tenure Spatial View (BCGW). Open Government Licence - British Columbia. Not legal title.", "as_of": "2026-09-20", "role": "focus", "color": "#e8b040"}}, {"type": "Feature", "geometry": {"type": "Polygon", "coordinates": [[[-129.8642, 55.3748], [-129.8517, 55.3748], [-129.8517, 55.3831], [-129.8392, 55.3831], [-129.8392, 55.3873], [-129.8267, 55.3873], [-129.8267, 55.3914], [-129.8455, 55.3914], [-129.8455, 55.3873], [-129.8517, 55.3873], [-129.8517, 55.3998], [-129.858, 55.3998], [-129.858, 55.3873], [-129.8642, 55.3873], [-129.8642, 55.3748]]]}, "properties": {"company_id": "pacific-empire-minerals", "jurisdiction": "British Columbia", "claim_id": 517304, "claim_name": "HC GAP #5", "holder": "PACIFIC CROWN RESOURCES INC.", "status": "Mineral", "recorded_date": "2005-07-12", "anniversary_or_expiry": "2024-11-30", "area_ha": 257.26800000000003, "tenure_type": "Mineral", "source": "BC MTA Mineral, Placer and Coal Tenure Spatial View (BCGW). Open Government Licence - British Columbia. Not legal title.", "as_of": "2026-09-20", "role": "focus", "color": "#e8b040"}}, {"type": "Feature", "geometry": {"type": "Polygon", "coordinates": [[[-129.8892, 55.3789], [-129.8892, 55.3748], [-129.8705, 55.3748], [-129.8705, 55.3831], [-129.8955, 55.3831], [-129.8955, 55.3789], [-129.8892, 55.3789]]]}, "properties": {"company_id": "pacific-empire-minerals", "jurisdiction": "British Columbia", "claim_id": 517318, "claim_name": "HC GAP #6", "holder": "PACIFIC CROWN RESOURCES INC.", "status": "Mineral", "recorded_date": "2005-07-12", "anniversary_or_expiry": "2024-11-30", "area_ha": 128.656, "tenure_type": "Mineral", "source": "BC MTA Mineral, Placer and Coal Tenure Spatial View (BCGW). Open Government Licence - British Columbia. Not legal title.", "as_of": "2026-09-20", "role": "focus", "color": "#e8b040"}}, {"type": "Feature", "geometry": {"type": "Polygon", "coordinates": [[[-129.858, 55.4414], [-129.8517, 55.4414], [-129.8517, 55.4456], [-129.8642, 55.4456], [-129.8642, 55.4414], [-129.858, 55.4414]]]}, "properties": {"company_id": "pacific-empire-minerals", "jurisdiction": "British Columbia", "claim_id": 517361, "claim_name": "HC GAP #7", "holder": "PACIFIC CROWN RESOURCES INC.", "status": "Mineral", "recorded_date": "2005-07-12", "anniversary_or_expiry": "2024-11-30", "area_ha": 36.699000000000005, "tenure_type": "Mineral", "source": "BC MTA Mineral, Placer and Coal Tenure Spatial View (BCGW). Open Government Licence - British Columbia. Not legal title.", "as_of": "2026-09-20", "role": "focus", "color": "#e8b040"}}, {"type": "Feature", "geometry": {"type": "Polygon", "coordinates": [[[-124.7454, 55.2583], [-124.7454, 55.2541], [-124.7391, 55.2541], [-124.7391, 55.2416], [-124.7141, 55.2416], [-124.7141, 55.2624], [-124.7454, 55.2624], [-124.7454, 55.2583]]]}, "properties": {"company_id": "pacific-empire-minerals", "jurisdiction": "British Columbia", "claim_id": 528767, "claim_name": "COL 30", "holder": "PACIFIC EMPIRE MINERALS CORP.", "status": "Mineral", "recorded_date": "2006-02-23", "anniversary_or_expiry": "2027-06-30", "area_ha": 405.622, "tenure_type": "Mineral", "source": "BC MTA Mineral, Placer and Coal Tenure Spatial View (BCGW). Open Government Licence - British Columbia. Not legal title.", "as_of": "2026-09-20", "role": "focus", "color": "#e8b040"}}, {"type": "Feature", "geometry": {"type": "Polygon", "coordinates": [[[-129.8017, 55.3789], [-129.8017, 55.3831], [-129.808, 55.3831], [-129.808, 55.3789], [-129.8017, 55.3789]]]}, "properties": {"company_id": "pacific-empire-minerals", "jurisdiction": "British Columbia", "claim_id": 522609, "claim_name": null, "holder": "PACIFIC CROWN RESOURCES INC.", "status": "Mineral", "recorded_date": "2005-11-24", "anniversary_or_expiry": "2023-12-10", "area_ha": 18.379, "tenure_type": "Mineral", "source": "BC MTA Mineral, Placer and Coal Tenure Spatial View (BCGW). Open Government Licence - British Columbia. Not legal title.", "as_of": "2026-09-20", "role": "focus", "color": "#e8b040"}}, {"type": "Feature", "geometry": {"type": "Polygon", "coordinates": [[[-129.8455, 55.3789], [-129.8392, 55.3789], [-129.8392, 55.3831], [-129.8517, 55.3831], [-129.8517, 55.3789], [-129.8455, 55.3789]]]}, "properties": {"company_id": "pacific-empire-minerals", "jurisdiction": "British Columbia", "claim_id": 522629, "claim_name": null, "holder": "PACIFIC CROWN RESOURCES INC.", "status": "Mineral", "recorded_date": "2005-11-24", "anniversary_or_expiry": "2023-12-10", "area_ha": 36.757000000000005, "tenure_type": "Mineral", "source": "BC MTA Mineral, Placer and Coal Tenure Spatial View (BCGW). Open Government Licence - British Columbia. Not legal title.", "as_of": "2026-09-20", "role": "focus", "color": "#e8b040"}}, {"type": "Feature", "geometry": {"type": "Polygon", "coordinates": [[[-129.833, 55.3831], [-129.833, 55.3873], [-129.8392, 55.3873], [-129.8392, 55.3831], [-129.833, 55.3831]]]}, "properties": {"company_id": "pacific-empire-minerals", "jurisdiction": "British Columbia", "claim_id": 522630, "claim_name": "CUB FRACTION", "holder": "PACIFIC CROWN RESOURCES INC.", "status": "Mineral", "recorded_date": "2005-11-24", "anniversary_or_expiry": "2023-11-30", "area_ha": 18.377000000000002, "tenure_type": "Mineral", "source": "BC MTA Mineral, Placer and Coal Tenure Spatial View (BCGW). Open Government Licence - British Columbia. Not legal title.", "as_of": "2026-09-20", "role": "focus", "color": "#e8b040"}}, {"type": "Feature", "geometry": {"type": "Polygon", "coordinates": [[[-129.908, 55.3414], [-129.908, 55.3373], [-129.8892, 55.3373], [-129.8892, 55.3581], [-129.908, 55.3581], [-129.908, 55.3414]]]}, "properties": {"company_id": "pacific-empire-minerals", "jurisdiction": "British Columbia", "claim_id": 522434, "claim_name": null, "holder": "PACIFIC CROWN RESOURCES INC.", "status": "Mineral", "recorded_date": "2005-11-20", "anniversary_or_expiry": "2024-12-10", "area_ha": 275.91, "tenure_type": "Mineral", "source": "BC MTA Mineral, Placer and Coal Tenure Spatial View (BCGW). Open Government Licence - British Columbia. Not legal title.", "as_of": "2026-09-20", "role": "focus", "color": "#e8b040"}}, {"type": "Feature", "geometry": {"type": "Polygon", "coordinates": [[[-129.8705, 55.3623], [-129.8705, 55.3581], [-129.833, 55.3581], [-129.833, 55.3748], [-129.8392, 55.3748], [-129.8392, 55.3789], [-129.8455, 55.3789], [-129.8517, 55.3789], [-129.8517, 55.3748], [-129.8642, 55.3748], [-129.8642, 55.3789], [-129.8705, 55.3789], [-129.8705, 55.3623]]]}, "properties": {"company_id": "pacific-empire-minerals", "jurisdiction": "British Columbia", "claim_id": 522524, "claim_name": null, "holder": "PACIFIC CROWN RESOURCES INC.", "status": "Mineral", "recorded_date": "2005-11-22", "anniversary_or_expiry": "2024-12-10", "area_ha": 496.39, "tenure_type": "Mineral", "source": "BC MTA Mineral, Placer and Coal Tenure Spatial View (BCGW). Open Government Licence - British Columbia. Not legal title.", "as_of": "2026-09-20", "role": "focus", "color": "#e8b040"}}, {"type": "Feature", "geometry": {"type": "Polygon", "coordinates": [[[-129.858, 55.4081], [-129.858, 55.4039], [-129.8517, 55.4039], [-129.8517, 55.4123], [-129.8642, 55.4123], [-129.8642, 55.4081], [-129.858, 55.4081]]]}, "properties": {"company_id": "pacific-empire-minerals", "jurisdiction": "British Columbia", "claim_id": 522529, "claim_name": null, "holder": "PACIFIC CROWN RESOURCES INC.", "status": "Mineral", "recorded_date": "2005-11-22", "anniversary_or_expiry": "2024-12-10", "area_ha": 55.097, "tenure_type": "Mineral", "source": "BC MTA Mineral, Placer and Coal Tenure Spatial View (BCGW). Open Government Licence - British Columbia. Not legal title.", "as_of": "2026-09-20", "role": "focus", "color": "#e8b040"}}, {"type": "Feature", "geometry": {"type": "Polygon", "coordinates": [[[-129.8205, 55.3998], [-129.8205, 55.3956], [-129.8142, 55.3956], [-129.8142, 55.3873], [-129.8205, 55.3873], [-129.8205, 55.3831], [-129.7955, 55.3831], [-129.7955, 55.3873], [-129.7892, 55.3873], [-129.7892, 55.4039], [-129.8205, 55.4039], [-129.8205, 55.3998]]]}, "properties": {"company_id": "pacific-empire-minerals", "jurisdiction": "British Columbia", "claim_id": 522531, "claim_name": null, "holder": "PACIFIC CROWN RESOURCES INC.", "status": "Mineral", "recorded_date": "2005-11-22", "anniversary_or_expiry": "2024-11-30", "area_ha": 404.196, "tenure_type": "Mineral", "source": "BC MTA Mineral, Placer and Coal Tenure Spatial View (BCGW). Open Government Licence - British Columbia. Not legal title.", "as_of": "2026-09-20", "role": "focus", "color": "#e8b040"}}, {"type": "Feature", "geometry": {"type": "Polygon", "coordinates": [[[-129.808, 55.3789], [-129.808, 55.3831], [-129.8142, 55.3831], [-129.8142, 55.3789], [-129.808, 55.3789]]]}, "properties": {"company_id": "pacific-empire-minerals", "jurisdiction": "British Columbia", "claim_id": 522533, "claim_name": "DEEP GAP", "holder": "PACIFIC CROWN RESOURCES INC.", "status": "Mineral", "recorded_date": "2005-11-22", "anniversary_or_expiry": "2024-11-30", "area_ha": 18.379, "tenure_type": "Mineral", "source": "BC MTA Mineral, Placer and Coal Tenure Spatial View (BCGW). Open Government Licence - British Columbia. Not legal title.", "as_of": "2026-09-20", "role": "focus", "color": "#e8b040"}}, {"type": "Feature", "geometry": {"type": "Polygon", "coordinates": [[[-129.8267, 55.4206], [-129.8267, 55.4164], [-129.8017, 55.4164], [-129.8017, 55.4206], [-129.7955, 55.4206], [-129.7955, 55.4289], [-129.8017, 55.4289], [-129.8017, 55.4248], [-129.808, 55.4248], [-129.808, 55.4331], [-129.8205, 55.4331], [-129.8205, 55.4248], [-129.833, 55.4248], [-129.833, 55.4206], [-129.8267, 55.4206]]]}, "properties": {"company_id": "pacific-empire-minerals", "jurisdiction": "British Columbia", "claim_id": 523345, "claim_name": null, "holder": "PACIFIC CROWN RESOURCES INC.", "status": "Mineral", "recorded_date": "2005-12-01", "anniversary_or_expiry": "2024-12-10", "area_ha": 275.38300000000004, "tenure_type": "Mineral", "source": "BC MTA Mineral, Placer and Coal Tenure Spatial View (BCGW). Open Government Licence - British Columbia. Not legal title.", "as_of": "2026-09-20", "role": "focus", "color": "#e8b040"}}, {"type": "Feature", "geometry": {"type": "Polygon", "coordinates": [[[-125.2954, 55.5124], [-125.2954, 55.4957], [-125.2642, 55.4957], [-125.2642, 55.5166], [-125.2954, 55.5166], [-125.2954, 55.5124]]]}, "properties": {"company_id": "pacific-empire-minerals", "jurisdiction": "British Columbia", "claim_id": 502440, "claim_name": "cs076", "holder": "PACIFIC RIDGE EXPLORATION LTD.", "status": "Mineral", "recorded_date": "2005-01-12", "anniversary_or_expiry": "2027-03-01", "area_ha": 458.03200000000004, "tenure_type": "Mineral", "source": "BC MTA Mineral, Placer and Coal Tenure Spatial View (BCGW). Open Government Licence - British Columbia. Not legal title.", "as_of": "2026-09-20", "role": "focus", "color": "#e8b040"}}, {"type": "Feature", "geometry": {"type": "Polygon", "coordinates": [[[-124.7516, 55.2749], [-124.7516, 55.2708], [-124.6766, 55.2708], [-124.6766, 55.2791], [-124.7516, 55.2791], [-124.7516, 55.2749]]]}, "properties": {"company_id": "pacific-empire-minerals", "jurisdiction": "British Columbia", "claim_id": 530602, "claim_name": "COL 30", "holder": "PACIFIC EMPIRE MINERALS CORP.", "status": "Mineral", "recorded_date": "2006-03-27", "anniversary_or_expiry": "2027-06-30", "area_ha": 442.252, "tenure_type": "Mineral", "source": "BC MTA Mineral, Placer and Coal Tenure Spatial View (BCGW). Open Government Licence - British Columbia. Not legal title.", "as_of": "2026-09-20", "role": "focus", "color": "#e8b040"}}, {"type": "Feature", "geometry": {"type": "Polygon", "coordinates": [[[-124.7016, 55.2333], [-124.7016, 55.2166], [-124.6704, 55.2166], [-124.6704, 55.2374], [-124.7016, 55.2374], [-124.7016, 55.2333]]]}, "properties": {"company_id": "pacific-empire-minerals", "jurisdiction": "British Columbia", "claim_id": 530606, "claim_name": "COL 31", "holder": "PACIFIC EMPIRE MINERALS CORP.", "status": "Mineral", "recorded_date": "2006-03-27", "anniversary_or_expiry": "2027-06-30", "area_ha": 461.22400000000005, "tenure_type": "Mineral", "source": "BC MTA Mineral, Placer and Coal Tenure Spatial View (BCGW). Open Government Licence - British Columbia. Not legal title.", "as_of": "2026-09-20", "role": "focus", "color": "#e8b040"}}, {"type": "Feature", "geometry": {"type": "Polygon", "coordinates": [[[-126.2081, 56.5165], [-126.2081, 56.5124], [-126.1518, 56.5124], [-126.1518, 56.5249], [-126.1956, 56.5249], [-126.1956, 56.5207], [-126.2081, 56.5207], [-126.2081, 56.5165]]]}, "properties": {"company_id": "pacific-empire-minerals", "jurisdiction": "British Columbia", "claim_id": 532002, "claim_name": "KLI 51", "holder": "PACIFIC RIDGE EXPLORATION LTD.", "status": "Mineral", "recorded_date": "2006-04-13", "anniversary_or_expiry": "2034-12-31", "area_ha": 446.18, "tenure_type": "Mineral", "source": "BC MTA Mineral, Placer and Coal Tenure Spatial View (BCGW). Open Government Licence - British Columbia. Not legal title.", "as_of": "2026-09-20", "role": "focus", "color": "#e8b040"}}, {"type": "Feature", "geometry": {"type": "Polygon", "coordinates": [[[-126.2018, 56.504], [-126.2018, 56.4999], [-126.1581, 56.4999], [-126.1581, 56.504], [-126.1643, 56.504], [-126.1643, 56.5124], [-126.2081, 56.5124], [-126.2081, 56.5082], [-126.2018, 56.5082], [-126.2018, 56.504]]]}, "properties": {"company_id": "pacific-empire-minerals", "jurisdiction": "British Columbia", "claim_id": 532005, "claim_name": "KLI 52", "holder": "PACIFIC RIDGE EXPLORATION LTD.", "status": "Mineral", "recorded_date": "2006-04-13", "anniversary_or_expiry": "2034-12-31", "area_ha": 357.06600000000003, "tenure_type": "Mineral", "source": "BC MTA Mineral, Placer and Coal Tenure Spatial View (BCGW). Open Government Licence - British Columbia. Not legal title.", "as_of": "2026-09-20", "role": "focus", "color": "#e8b040"}}, {"type": "Feature", "geometry": {"type": "Polygon", "coordinates": [[[-126.2018, 56.4874], [-126.1581, 56.4874], [-126.1581, 56.4999], [-126.2018, 56.4999], [-126.2018, 56.4915], [-126.2081, 56.4915], [-126.2081, 56.4874], [-126.2018, 56.4874]]]}, "properties": {"company_id": "pacific-empire-minerals", "jurisdiction": "British Columbia", "claim_id": 532011, "claim_name": "KLI 53", "holder": "PACIFIC RIDGE EXPLORATION LTD.", "status": "Mineral", "recorded_date": "2006-04-13", "anniversary_or_expiry": "2034-12-31", "area_ha": 392.925, "tenure_type": "Mineral", "source": "BC MTA Mineral, Placer and Coal Tenure Spatial View (BCGW). Open Government Licence - British Columbia. Not legal title.", "as_of": "2026-09-20", "role": "focus", "color": "#e8b040"}}, {"type": "Feature", "geometry": {"type": "Polygon", "coordinates": [[[-126.2143, 56.5332], [-126.1956, 56.5332], [-126.1956, 56.5249], [-126.1518, 56.5249], [-126.1518, 56.5374], [-126.2206, 56.5374], [-126.2206, 56.5332], [-126.2143, 56.5332]]]}, "properties": {"company_id": "pacific-empire-minerals", "jurisdiction": "British Columbia", "claim_id": 532014, "claim_name": "KLI 54", "holder": "PACIFIC RIDGE EXPLORATION LTD.", "status": "Mineral", "recorded_date": "2006-04-13", "anniversary_or_expiry": "2034-12-31", "area_ha": 446.019, "tenure_type": "Mineral", "source": "BC MTA Mineral, Placer and Coal Tenure Spatial View (BCGW). Open Government Licence - British Columbia. Not legal title.", "as_of": "2026-09-20", "role": "focus", "color": "#e8b040"}}, {"type": "Feature", "geometry": {"type": "Polygon", "coordinates": [[[-126.1081, 56.4999], [-126.0706, 56.4999], [-126.0706, 56.5124], [-126.0643, 56.5124], [-126.0643, 56.5165], [-126.1018, 56.5165], [-126.1018, 56.5124], [-126.1081, 56.5124], [-126.1081, 56.5082], [-126.1143, 56.5082], [-126.1143, 56.504], [-126.1081, 56.504], [-126.1081, 56.4999]]]}, "properties": {"company_id": "pacific-empire-minerals", "jurisdiction": "British Columbia", "claim_id": 535013, "claim_name": "JOH2", "holder": "PACIFIC RIDGE EXPLORATION LTD.", "status": "Mineral", "recorded_date": "2006-06-06", "anniversary_or_expiry": "2034-12-31", "area_ha": 446.283, "tenure_type": "Mineral", "source": "BC MTA Mineral, Placer and Coal Tenure Spatial View (BCGW). Open Government Licence - British Columbia. Not legal title.", "as_of": "2026-09-20", "role": "focus", "color": "#e8b040"}}, {"type": "Feature", "geometry": {"type": "Polygon", "coordinates": [[[-124.7266, 55.2374], [-124.7266, 55.2333], [-124.7141, 55.2333], [-124.7141, 55.2291], [-124.7016, 55.2291], [-124.7016, 55.2708], [-124.7141, 55.2708], [-124.7141, 55.2416], [-124.7266, 55.2416], [-124.7266, 55.2374]]]}, "properties": {"company_id": "pacific-empire-minerals", "jurisdiction": "British Columbia", "claim_id": 540420, "claim_name": "NATCOL 10", "holder": "PACIFIC EMPIRE MINERALS CORP.", "status": "Mineral", "recorded_date": "2006-09-05", "anniversary_or_expiry": "2027-06-30", "area_ha": 442.54810000000003, "tenure_type": "Mineral", "source": "BC MTA Mineral, Placer and Coal Tenure Spatial View (BCGW). Open Government Licence - British Columbia. Not legal title.", "as_of": "2026-09-20", "role": "focus", "color": "#e8b040"}}, {"type": "Feature", "geometry": {"type": "Polygon", "coordinates": [[[-126.514, 49.7456], [-126.514, 49.7415], [-126.4827, 49.7415], [-126.4827, 49.7498], [-126.514, 49.7498], [-126.514, 49.7456]]]}, "properties": {"company_id": "pacific-empire-minerals", "jurisdiction": "British Columbia", "claim_id": 534520, "claim_name": "THASIS", "holder": "PACIFIC WEST STONE INC.", "status": "Mineral", "recorded_date": "2006-05-27", "anniversary_or_expiry": "2027-11-09", "area_ha": 208.788, "tenure_type": "Mineral", "source": "BC MTA Mineral, Placer and Coal Tenure Spatial View (BCGW). Open Government Licence - British Columbia. Not legal title.", "as_of": "2026-09-20", "role": "focus", "color": "#e8b040"}}, {"type": "Feature", "geometry": {"type": "Polygon", "coordinates": [[[-124.7016, 55.2833], [-124.7016, 55.2791], [-124.6766, 55.2791], [-124.6766, 55.2708], [-124.6579, 55.2708], [-124.6579, 55.2874], [-124.7016, 55.2874], [-124.7016, 55.2833]]]}, "properties": {"company_id": "pacific-empire-minerals", "jurisdiction": "British Columbia", "claim_id": 534732, "claim_name": "COL-NAT 2", "holder": "PACIFIC EMPIRE MINERALS CORP.", "status": "Mineral", "recorded_date": "2006-05-31", "anniversary_or_expiry": "2027-06-30", "area_ha": 368.49, "tenure_type": "Mineral", "source": "BC MTA Mineral, Placer and Coal Tenure Spatial View (BCGW). Open Government Licence - British Columbia. Not legal title.", "as_of": "2026-09-20", "role": "focus", "color": "#e8b040"}}, {"type": "Feature", "geometry": {"type": "Polygon", "coordinates": [[[-124.7516, 55.3083], [-124.7516, 55.2916], [-124.7204, 55.2916], [-124.7204, 55.3124], [-124.7329, 55.3124], [-124.7329, 55.3041], [-124.7391, 55.3041], [-124.7391, 55.3124], [-124.7516, 55.3124], [-124.7516, 55.3083]]]}, "properties": {"company_id": "pacific-empire-minerals", "jurisdiction": "British Columbia", "claim_id": 534733, "claim_name": "COL - NAT 3", "holder": "PACIFIC EMPIRE MINERALS CORP.", "status": "Mineral", "recorded_date": "2006-05-31", "anniversary_or_expiry": "2027-06-30", "area_ha": 423.54400000000004, "tenure_type": "Mineral", "source": "BC MTA Mineral, Placer and Coal Tenure Spatial View (BCGW). Open Government Licence - British Columbia. Not legal title.", "as_of": "2026-09-20", "role": "focus", "color": "#e8b040"}}, {"type": "Feature", "geometry": {"type": "Polygon", "coordinates": [[[-124.7516, 55.2874], [-124.7516, 55.2791], [-124.7016, 55.2791], [-124.7016, 55.2916], [-124.7516, 55.2916], [-124.7516, 55.2874]]]}, "properties": {"company_id": "pacific-empire-minerals", "jurisdiction": "British Columbia", "claim_id": 534659, "claim_name": "COL-NAT 1", "holder": "PACIFIC EMPIRE MINERALS CORP.", "status": "Mineral", "recorded_date": "2006-05-30", "anniversary_or_expiry": "2027-06-30", "area_ha": 442.137, "tenure_type": "Mineral", "source": "BC MTA Mineral, Placer and Coal Tenure Spatial View (BCGW). Open Government Licence - British Columbia. Not legal title.", "as_of": "2026-09-20", "role": "focus", "color": "#e8b040"}}, {"type": "Feature", "geometry": {"type": "Polygon", "coordinates": [[[-126.5078, 49.7373], [-126.4702, 49.7373], [-126.4702, 49.7498], [-126.4827, 49.7498], [-126.4827, 49.7415], [-126.514, 49.7415], [-126.514, 49.7373], [-126.5078, 49.7373]]]}, "properties": {"company_id": "pacific-empire-minerals", "jurisdiction": "British Columbia", "claim_id": 534845, "claim_name": "AVA", "holder": "PACIFIC WEST STONE INC.", "status": "Mineral", "recorded_date": "2006-06-02", "anniversary_or_expiry": "2027-11-09", "area_ha": 229.68800000000002, "tenure_type": "Mineral", "source": "BC MTA Mineral, Placer and Coal Tenure Spatial View (BCGW). Open Government Licence - British Columbia. Not legal title.", "as_of": "2026-09-20", "role": "focus", "color": "#e8b040"}}, {"type": "Feature", "geometry": {"type": "Polygon", "coordinates": [[[-126.1518, 56.4874], [-126.1518, 56.4832], [-126.1143, 56.4832], [-126.1143, 56.4915], [-126.1206, 56.4915], [-126.1206, 56.4999], [-126.1518, 56.4999], [-126.1518, 56.4874]]]}, "properties": {"company_id": "pacific-empire-minerals", "jurisdiction": "British Columbia", "claim_id": 534992, "claim_name": "MOC1", "holder": "PACIFIC RIDGE EXPLORATION LTD.", "status": "Mineral", "recorded_date": "2006-06-06", "anniversary_or_expiry": "2034-12-31", "area_ha": 392.932, "tenure_type": "Mineral", "source": "BC MTA Mineral, Placer and Coal Tenure Spatial View (BCGW). Open Government Licence - British Columbia. Not legal title.", "as_of": "2026-09-20", "role": "focus", "color": "#e8b040"}}]}