{"type": "FeatureCollection", "features": [{"type": "Feature", "geometry": {"type": "Polygon", "coordinates": [[[-79.51666666413243, 48.55833333168073], [-79.50833333990032, 48.55833333122155], [-79.50833332887949, 48.54999999411525], [-79.51666666595338, 48.54999999861458], [-79.51666666413243, 48.55833333168073]]]}, "properties": {"company_id": "pacific-empire-minerals", "jurisdiction": "Quebec", "claim_id": "", "claim_name": null, "holder": "Transpacific Resources Inc", "status": "Active", "recorded_date": null, "anniversary_or_expiry": null, "area_ha": null, "tenure_type": null, "source": "GESTIM active titles (MRNF digital data dump). Not legal title.", "as_of": "2026-09-20", "role": "focus", "color": "#e8b040"}}, {"type": "Feature", "geometry": {"type": "Polygon", "coordinates": [[[-79.50000000000001, 48.45833333334283], [-79.49166666666669, 48.45833333334283], [-79.4916666666667, 48.45000000000955], [-79.5, 48.45000000000955], [-79.50000000000001, 48.45833333334283]]]}, "properties": {"company_id": "pacific-empire-minerals", "jurisdiction": "Quebec", "claim_id": "", "claim_name": null, "holder": "Transpacific Resources Inc", "status": "Active", "recorded_date": null, "anniversary_or_expiry": null, "area_ha": null, "tenure_type": null, "source": "GESTIM active titles (MRNF digital data dump). Not legal title.", "as_of": "2026-09-20", "role": "focus", "color": "#e8b040"}}, {"type": "Feature", "geometry": {"type": "Polygon", "coordinates": [[[-79.5, 48.46666666667619], [-79.4916666666667, 48.4666666666762], [-79.49166666666669, 48.45833333334283], [-79.50000000000001, 48.45833333334283], [-79.5, 48.46666666667619]]]}, "properties": {"company_id": "pacific-empire-minerals", "jurisdiction": "Quebec", "claim_id": "", "claim_name": null, "holder": "Transpacific Resources Inc", "status": "Active", "recorded_date": null, "anniversary_or_expiry": null, "area_ha": null, "tenure_type": null, "source": "GESTIM active titles (MRNF digital data dump). Not legal title.", "as_of": "2026-09-20", "role": "focus", "color": "#e8b040"}}, {"type": "Feature", "geometry": {"type": "Polygon", "coordinates": [[[-79.4916666666667, 48.47500000000946], [-79.4833333333333, 48.47500000000947], [-79.4833333333333, 48.4666666666762], [-79.4916666666667, 48.4666666666762], [-79.4916666666667, 48.47500000000946]]]}, "properties": {"company_id": "pacific-empire-minerals", "jurisdiction": "Quebec", "claim_id": "", "claim_name": null, "holder": "Transpacific Resources Inc", "status": "Active", "recorded_date": null, "anniversary_or_expiry": null, "area_ha": null, "tenure_type": null, "source": "GESTIM active titles (MRNF digital data dump). Not legal title.", "as_of": "2026-09-20", "role": "focus", "color": "#e8b040"}}, {"type": "Feature", "geometry": {"type": "Polygon", "coordinates": [[[-79.4916666666667, 48.48333333334275], [-79.4833333333333, 48.48333333334274], [-79.4833333333333, 48.47500000000947], [-79.4916666666667, 48.47500000000946], [-79.4916666666667, 48.48333333334275]]]}, "properties": {"company_id": "pacific-empire-minerals", "jurisdiction": "Quebec", "claim_id": "", "claim_name": null, "holder": "Transpacific Resources Inc", "status": "Active", "recorded_date": null, "anniversary_or_expiry": null, "area_ha": null, "tenure_type": null, "source": "GESTIM active titles (MRNF digital data dump). Not legal title.", "as_of": "2026-09-20", "role": "focus", "color": "#e8b040"}}, {"type": "Feature", "geometry": {"type": "Polygon", "coordinates": [[[-79.4833333333333, 48.48333333334274], [-79.475, 48.48333333334275], [-79.475, 48.47500000000947], [-79.4833333333333, 48.47500000000947], [-79.4833333333333, 48.48333333334274]]]}, "properties": {"company_id": "pacific-empire-minerals", "jurisdiction": "Quebec", "claim_id": "", "claim_name": null, "holder": "Transpacific Resources Inc", "status": "Active", "recorded_date": null, "anniversary_or_expiry": null, "area_ha": null, "tenure_type": null, "source": "GESTIM active titles (MRNF digital data dump). Not legal title.", "as_of": "2026-09-20", "role": "focus", "color": "#e8b040"}}, {"type": "Feature", "geometry": {"type": "Polygon", "coordinates": [[[-79.4916666666667, 48.49166666667613], [-79.4833333333333, 48.49166666667613], [-79.4833333333333, 48.48333333334274], [-79.4916666666667, 48.48333333334275], [-79.4916666666667, 48.49166666667613]]]}, "properties": {"company_id": "pacific-empire-minerals", "jurisdiction": "Quebec", "claim_id": "", "claim_name": null, "holder": "Transpacific Resources Inc", "status": "Active", "recorded_date": null, "anniversary_or_expiry": null, "area_ha": null, "tenure_type": null, "source": "GESTIM active titles (MRNF digital data dump). Not legal title.", "as_of": "2026-09-20", "role": "focus", "color": "#e8b040"}}, {"type": "Feature", "geometry": {"type": "Polygon", "coordinates": [[[-79.49999999999999, 48.5000000000094], [-79.4916666666667, 48.50000000000941], [-79.4916666666667, 48.49166666667613], [-79.5, 48.49166666667613], [-79.49999999999999, 48.5000000000094]]]}, "properties": {"company_id": "pacific-empire-minerals", "jurisdiction": "Quebec", "claim_id": "", "claim_name": null, "holder": "Transpacific Resources Inc", "status": "Active", "recorded_date": null, "anniversary_or_expiry": null, "area_ha": null, "tenure_type": null, "source": "GESTIM active titles (MRNF digital data dump). Not legal title.", "as_of": "2026-09-20", "role": "focus", "color": "#e8b040"}}, {"type": "Feature", "geometry": {"type": "Polygon", "coordinates": [[[-79.49999999999999, 48.503419192340466], [-79.49954960600851, 48.503419631703785], [-79.49656580938593, 48.50342219369749], [-79.49601362928038, 48.503422707197956], [-79.49457200781079, 48.503423912437405], [-79.49305703299066, 48.50342518277255], [-79.49302658513591, 48.5034251799425], [-79.49246953127975, 48.503425684588244], [-79.49166666666669, 48.5034263310007], [-79.4916666666667, 48.50000000000941], [-79.49999999999999, 48.5000000000094], [-79.49999999999999, 48.503419192340466]]]}, "properties": {"company_id": "pacific-empire-minerals", "jurisdiction": "Quebec", "claim_id": "", "claim_name": null, "holder": "Transpacific Resources Inc", "status": "Active", "recorded_date": null, "anniversary_or_expiry": null, "area_ha": null, "tenure_type": null, "source": "GESTIM active titles (MRNF digital data dump). Not legal title.", "as_of": "2026-09-20", "role": "focus", "color": "#e8b040"}}, {"type": "Feature", "geometry": {"type": "Polygon", "coordinates": [[[-79.4916666666667, 48.50000000000941], [-79.49166666666669, 48.5034263310007], [-79.48948722767732, 48.50342805555827], [-79.48893369411145, 48.50342854430312], [-79.48594772323082, 48.50343082934764], [-79.4853977102217, 48.5034312934141], [-79.48333333333332, 48.503432817158924], [-79.48333333333332, 48.5000000000094], [-79.4916666666667, 48.50000000000941]]]}, "properties": {"company_id": "pacific-empire-minerals", "jurisdiction": "Quebec", "claim_id": "", "claim_name": null, "holder": "Transpacific Resources Inc", "status": "Active", "recorded_date": null, "anniversary_or_expiry": null, "area_ha": null, "tenure_type": null, "source": "GESTIM active titles (MRNF digital data dump). Not legal title.", "as_of": "2026-09-20", "role": "focus", "color": "#e8b040"}}, {"type": "Feature", "geometry": {"type": "Polygon", "coordinates": [[[-79.4916666666667, 48.50000000000941], [-79.48333333333332, 48.5000000000094], [-79.4833333333333, 48.49166666667613], [-79.4916666666667, 48.49166666667613], [-79.4916666666667, 48.50000000000941]]]}, "properties": {"company_id": "pacific-empire-minerals", "jurisdiction": "Quebec", "claim_id": "", "claim_name": null, "holder": "Transpacific Resources Inc", "status": "Active", "recorded_date": null, "anniversary_or_expiry": null, "area_ha": null, "tenure_type": null, "source": "GESTIM active titles (MRNF digital data dump). Not legal title.", "as_of": "2026-09-20", "role": "focus", "color": "#e8b040"}}, {"type": "Feature", "geometry": {"type": "Polygon", "coordinates": [[[-79.51666666666671, 48.48333333334274], [-79.5083333333333, 48.48333333334275], [-79.5083333333333, 48.47500000000948], [-79.51666666666671, 48.47500000000948], [-79.51666666666671, 48.48333333334274]]]}, "properties": {"company_id": "pacific-empire-minerals", "jurisdiction": "Quebec", "claim_id": "", "claim_name": null, "holder": "Transpacific Resources Inc", "status": "Active", "recorded_date": null, "anniversary_or_expiry": null, "area_ha": null, "tenure_type": null, "source": "GESTIM active titles (MRNF digital data dump). Not legal title.", "as_of": "2026-09-20", "role": "focus", "color": "#e8b040"}}, {"type": "Feature", "geometry": {"type": "Polygon", "coordinates": [[[-79.51666666666671, 48.45833333334283], [-79.51755220162012, 48.45833336399346], [-79.51756884465115, 48.46666669782797], [-79.51666666666671, 48.4666666666762], [-79.51666666666671, 48.45833333334283]]]}, "properties": {"company_id": "pacific-empire-minerals", "jurisdiction": "Quebec", "claim_id": "", "claim_name": null, "holder": "Transpacific Resources Inc", "status": "Active", "recorded_date": null, "anniversary_or_expiry": null, "area_ha": null, "tenure_type": null, "source": "GESTIM active titles (MRNF digital data dump). Not legal title.", "as_of": "2026-09-20", "role": "focus", "color": "#e8b040"}}, {"type": "Feature", "geometry": {"type": "Polygon", "coordinates": [[[-79.51666666666672, 48.4333333333429], [-79.51666666666671, 48.44166666667626], [-79.5083333333333, 48.44166666667626], [-79.5083333333333, 48.433333333342894], [-79.51666666666672, 48.4333333333429]]]}, "properties": {"company_id": "pacific-empire-minerals", "jurisdiction": "Quebec", "claim_id": "", "claim_name": null, "holder": "Transpacific Resources Inc", "status": "Active", "recorded_date": null, "anniversary_or_expiry": null, "area_ha": null, "tenure_type": null, "source": "GESTIM active titles (MRNF digital data dump). Not legal title.", "as_of": "2026-09-20", "role": "focus", "color": "#e8b040"}}, {"type": "Feature", "geometry": {"type": "Polygon", "coordinates": [[[-79.5, 48.48333333334274], [-79.4916666666667, 48.48333333334275], [-79.4916666666667, 48.47500000000946], [-79.49999999999999, 48.47500000000946], [-79.5, 48.48333333334274]]]}, "properties": {"company_id": "pacific-empire-minerals", "jurisdiction": "Quebec", "claim_id": "", "claim_name": null, "holder": "Transpacific Resources Inc", "status": "Active", "recorded_date": null, "anniversary_or_expiry": null, "area_ha": null, "tenure_type": null, "source": "GESTIM active titles (MRNF digital data dump). Not legal title.", "as_of": "2026-09-20", "role": "focus", "color": "#e8b040"}}, {"type": "Feature", "geometry": {"type": "Polygon", "coordinates": [[[-79.5083333333333, 48.46666666667619], [-79.5, 48.46666666667619], [-79.50000000000001, 48.45833333334283], [-79.5083333333333, 48.45833333334283], [-79.5083333333333, 48.46666666667619]]]}, "properties": {"company_id": "pacific-empire-minerals", "jurisdiction": "Quebec", "claim_id": "", "claim_name": null, "holder": "Transpacific Resources Inc", "status": "Active", "recorded_date": null, "anniversary_or_expiry": null, "area_ha": null, "tenure_type": null, "source": "GESTIM active titles (MRNF digital data dump). Not legal title.", "as_of": "2026-09-20", "role": "focus", "color": "#e8b040"}}, {"type": "Feature", "geometry": {"type": "Polygon", "coordinates": [[[-79.51758164644191, 48.5034016334498], [-79.51666666666672, 48.50340263889709], [-79.51666666666671, 48.50000000000941], [-79.5176354734505, 48.50000003313999], [-79.51763550008852, 48.50001335063989], [-79.51758164644191, 48.5034016334498]]]}, "properties": {"company_id": "pacific-empire-minerals", "jurisdiction": "Quebec", "claim_id": "", "claim_name": null, "holder": "Transpacific Resources Inc", "status": "Active", "recorded_date": null, "anniversary_or_expiry": null, "area_ha": null, "tenure_type": null, "source": "GESTIM active titles (MRNF digital data dump). Not legal title.", "as_of": "2026-09-20", "role": "focus", "color": "#e8b040"}}, {"type": "Feature", "geometry": {"type": "Polygon", "coordinates": [[[-79.5083333333333, 48.45833333334283], [-79.50000000000001, 48.45833333334283], [-79.5, 48.45000000000955], [-79.5083333333333, 48.45000000000954], [-79.5083333333333, 48.45833333334283]]]}, "properties": {"company_id": "pacific-empire-minerals", "jurisdiction": "Quebec", "claim_id": "", "claim_name": null, "holder": "Transpacific Resources Inc", "status": "Active", "recorded_date": null, "anniversary_or_expiry": null, "area_ha": null, "tenure_type": null, "source": "GESTIM active titles (MRNF digital data dump). Not legal title.", "as_of": "2026-09-20", "role": "focus", "color": "#e8b040"}}, {"type": "Feature", "geometry": {"type": "Polygon", "coordinates": [[[-79.51756884465115, 48.46666669782797], [-79.5175854933465, 48.47500003165982], [-79.51666666666671, 48.47500000000948], [-79.51666666666671, 48.4666666666762], [-79.51756884465115, 48.46666669782797]]]}, "properties": {"company_id": "pacific-empire-minerals", "jurisdiction": "Quebec", "claim_id": "", "claim_name": null, "holder": "Transpacific Resources Inc", "status": "Active", "recorded_date": null, "anniversary_or_expiry": null, "area_ha": null, "tenure_type": null, "source": "GESTIM active titles (MRNF digital data dump). Not legal title.", "as_of": "2026-09-20", "role": "focus", "color": "#e8b040"}}, {"type": "Feature", "geometry": {"type": "Polygon", "coordinates": [[[-79.51666666666671, 48.44166666667626], [-79.51666666666671, 48.45000000000954], [-79.5083333333333, 48.45000000000954], [-79.5083333333333, 48.44166666667626], [-79.51666666666671, 48.44166666667626]]]}, "properties": {"company_id": "pacific-empire-minerals", "jurisdiction": "Quebec", "claim_id": "", "claim_name": null, "holder": "Transpacific Resources Inc", "status": "Active", "recorded_date": null, "anniversary_or_expiry": null, "area_ha": null, "tenure_type": null, "source": "GESTIM active titles (MRNF digital data dump). Not legal title.", "as_of": "2026-09-20", "role": "focus", "color": "#e8b040"}}, {"type": "Feature", "geometry": {"type": "Polygon", "coordinates": [[[-79.5083333333333, 48.49166666667613], [-79.5, 48.49166666667613], [-79.5, 48.48333333334274], [-79.5083333333333, 48.48333333334275], [-79.5083333333333, 48.49166666667613]]]}, "properties": {"company_id": "pacific-empire-minerals", "jurisdiction": "Quebec", "claim_id": "", "claim_name": null, "holder": "Transpacific Resources Inc", "status": "Active", "recorded_date": null, "anniversary_or_expiry": null, "area_ha": null, "tenure_type": null, "source": "GESTIM active titles (MRNF digital data dump). Not legal title.", "as_of": "2026-09-20", "role": "focus", "color": "#e8b040"}}, {"type": "Feature", "geometry": {"type": "Polygon", "coordinates": [[[-79.51666666666671, 48.45000000000954], [-79.51666666666671, 48.45833333334283], [-79.5083333333333, 48.45833333334283], [-79.5083333333333, 48.45000000000954], [-79.51666666666671, 48.45000000000954]]]}, "properties": {"company_id": "pacific-empire-minerals", "jurisdiction": "Quebec", "claim_id": "", "claim_name": null, "holder": "Transpacific Resources Inc", "status": "Active", "recorded_date": null, "anniversary_or_expiry": null, "area_ha": null, "tenure_type": null, "source": "GESTIM active titles (MRNF digital data dump). Not legal title.", "as_of": "2026-09-20", "role": "focus", "color": "#e8b040"}}, {"type": "Feature", "geometry": {"type": "Polygon", "coordinates": [[[-79.5083333333333, 48.47500000000948], [-79.49999999999999, 48.47500000000946], [-79.5, 48.46666666667619], [-79.5083333333333, 48.46666666667619], [-79.5083333333333, 48.47500000000948]]]}, "properties": {"company_id": "pacific-empire-minerals", "jurisdiction": "Quebec", "claim_id": "", "claim_name": null, "holder": "Transpacific Resources Inc", "status": "Active", "recorded_date": null, "anniversary_or_expiry": null, "area_ha": null, "tenure_type": null, "source": "GESTIM active titles (MRNF digital data dump). Not legal title.", "as_of": "2026-09-20", "role": "focus", "color": "#e8b040"}}, {"type": "Feature", "geometry": {"type": "Polygon", "coordinates": [[[-79.51666666666671, 48.4666666666762], [-79.5083333333333, 48.46666666667619], [-79.5083333333333, 48.45833333334283], [-79.51666666666671, 48.45833333334283], [-79.51666666666671, 48.4666666666762]]]}, "properties": {"company_id": "pacific-empire-minerals", "jurisdiction": "Quebec", "claim_id": "", "claim_name": null, "holder": "Transpacific Resources Inc", "status": "Active", "recorded_date": null, "anniversary_or_expiry": null, "area_ha": null, "tenure_type": null, "source": "GESTIM active titles (MRNF digital data dump). Not legal title.", "as_of": "2026-09-20", "role": "focus", "color": "#e8b040"}}, {"type": "Feature", "geometry": {"type": "Polygon", "coordinates": [[[-79.49999999999999, 48.47500000000946], [-79.4916666666667, 48.47500000000946], [-79.4916666666667, 48.4666666666762], [-79.5, 48.46666666667619], [-79.49999999999999, 48.47500000000946]]]}, "properties": {"company_id": "pacific-empire-minerals", "jurisdiction": "Quebec", "claim_id": "", "claim_name": null, "holder": "Transpacific Resources Inc", "status": "Active", "recorded_date": null, "anniversary_or_expiry": null, "area_ha": null, "tenure_type": null, "source": "GESTIM active titles (MRNF digital data dump). Not legal title.", "as_of": "2026-09-20", "role": "focus", "color": "#e8b040"}}, {"type": "Feature", "geometry": {"type": "Polygon", "coordinates": [[[-79.51666666666671, 48.49166666667613], [-79.5083333333333, 48.49166666667613], [-79.5083333333333, 48.48333333334275], [-79.51666666666671, 48.48333333334274], [-79.51666666666671, 48.49166666667613]]]}, "properties": {"company_id": "pacific-empire-minerals", "jurisdiction": "Quebec", "claim_id": "", "claim_name": null, "holder": "Transpacific Resources Inc", "status": "Active", "recorded_date": null, "anniversary_or_expiry": null, "area_ha": null, "tenure_type": null, "source": "GESTIM active titles (MRNF digital data dump). Not legal title.", "as_of": "2026-09-20", "role": "focus", "color": "#e8b040"}}, {"type": "Feature", "geometry": {"type": "Polygon", "coordinates": [[[-79.51666666666671, 48.47500000000948], [-79.5083333333333, 48.47500000000948], [-79.5083333333333, 48.46666666667619], [-79.51666666666671, 48.4666666666762], [-79.51666666666671, 48.47500000000948]]]}, "properties": {"company_id": "pacific-empire-minerals", "jurisdiction": "Quebec", "claim_id": "", "claim_name": null, "holder": "Transpacific Resources Inc", "status": "Active", "recorded_date": null, "anniversary_or_expiry": null, "area_ha": null, "tenure_type": null, "source": "GESTIM active titles (MRNF digital data dump). Not legal title.", "as_of": "2026-09-20", "role": "focus", "color": "#e8b040"}}, {"type": "Feature", "geometry": {"type": "Polygon", "coordinates": [[[-79.5083333333333, 48.48333333334275], [-79.5, 48.48333333334274], [-79.49999999999999, 48.47500000000946], [-79.5083333333333, 48.47500000000948], [-79.5083333333333, 48.48333333334275]]]}, "properties": {"company_id": "pacific-empire-minerals", "jurisdiction": "Quebec", "claim_id": "", "claim_name": null, "holder": "Transpacific Resources Inc", "status": "Active", "recorded_date": null, "anniversary_or_expiry": null, "area_ha": null, "tenure_type": null, "source": "GESTIM active titles (MRNF digital data dump). Not legal title.", "as_of": "2026-09-20", "role": "focus", "color": "#e8b040"}}, {"type": "Feature", "geometry": {"type": "Polygon", "coordinates": [[[-79.51761880774295, 48.49166669931587], [-79.51666666666671, 48.49166666667613], [-79.51666666666671, 48.48333333334274], [-79.51760214770937, 48.48333336548908], [-79.51761880774295, 48.49166669931587]]]}, "properties": {"company_id": "pacific-empire-minerals", "jurisdiction": "Quebec", "claim_id": "", "claim_name": null, "holder": "Transpacific Resources Inc", "status": "Active", "recorded_date": null, "anniversary_or_expiry": null, "area_ha": null, "tenure_type": null, "source": "GESTIM active titles (MRNF digital data dump). Not legal title.", "as_of": "2026-09-20", "role": "focus", "color": "#e8b040"}}, {"type": "Feature", "geometry": {"type": "Polygon", "coordinates": [[[-79.5083333333333, 48.44166666667626], [-79.5, 48.44166666667627], [-79.50000000000001, 48.4333333333429], [-79.5083333333333, 48.433333333342894], [-79.5083333333333, 48.44166666667626]]]}, "properties": {"company_id": "pacific-empire-minerals", "jurisdiction": "Quebec", "claim_id": "", "claim_name": null, "holder": "Transpacific Resources Inc", "status": "Active", "recorded_date": null, "anniversary_or_expiry": null, "area_ha": null, "tenure_type": null, "source": "GESTIM active titles (MRNF digital data dump). Not legal title.", "as_of": "2026-09-20", "role": "focus", "color": "#e8b040"}}, {"type": "Feature", "geometry": {"type": "Polygon", "coordinates": [[[-79.51755220162012, 48.45833336399346], [-79.51666666666671, 48.45833333334283], [-79.51666666666671, 48.45000000000954], [-79.5175355642502, 48.450000030156474], [-79.51755220162012, 48.45833336399346]]]}, "properties": {"company_id": "pacific-empire-minerals", "jurisdiction": "Quebec", "claim_id": "", "claim_name": null, "holder": "Transpacific Resources Inc", "status": "Active", "recorded_date": null, "anniversary_or_expiry": null, "area_ha": null, "tenure_type": null, "source": "GESTIM active titles (MRNF digital data dump). Not legal title.", "as_of": "2026-09-20", "role": "focus", "color": "#e8b040"}}, {"type": "Feature", "geometry": {"type": "Polygon", "coordinates": [[[-79.5083333333333, 48.50000000000941], [-79.49999999999999, 48.5000000000094], [-79.5, 48.49166666667613], [-79.5083333333333, 48.49166666667613], [-79.5083333333333, 48.50000000000941]]]}, "properties": {"company_id": "pacific-empire-minerals", "jurisdiction": "Quebec", "claim_id": "", "claim_name": null, "holder": "Transpacific Resources Inc", "status": "Active", "recorded_date": null, "anniversary_or_expiry": null, "area_ha": null, "tenure_type": null, "source": "GESTIM active titles (MRNF digital data dump). Not legal title.", "as_of": "2026-09-20", "role": "focus", "color": "#e8b040"}}, {"type": "Feature", "geometry": {"type": "Polygon", "coordinates": [[[-79.5083333333333, 48.45000000000954], [-79.5, 48.45000000000955], [-79.5, 48.44166666667627], [-79.5083333333333, 48.44166666667626], [-79.5083333333333, 48.45000000000954]]]}, "properties": {"company_id": "pacific-empire-minerals", "jurisdiction": "Quebec", "claim_id": "", "claim_name": null, "holder": "Transpacific Resources Inc", "status": "Active", "recorded_date": null, "anniversary_or_expiry": null, "area_ha": null, "tenure_type": null, "source": "GESTIM active titles (MRNF digital data dump). Not legal title.", "as_of": "2026-09-20", "role": "focus", "color": "#e8b040"}}, {"type": "Feature", "geometry": {"type": "Polygon", "coordinates": [[[-79.5175355642502, 48.450000030156474], [-79.51666666666671, 48.45000000000954], [-79.51666666666671, 48.44166666667626], [-79.51751893253815, 48.44166669631694], [-79.5175355642502, 48.450000030156474]]]}, "properties": {"company_id": "pacific-empire-minerals", "jurisdiction": "Quebec", "claim_id": "", "claim_name": null, "holder": "Transpacific Resources Inc", "status": "Active", "recorded_date": null, "anniversary_or_expiry": null, "area_ha": null, "tenure_type": null, "source": "GESTIM active titles (MRNF digital data dump). Not legal title.", "as_of": "2026-09-20", "role": "focus", "color": "#e8b040"}}, {"type": "Feature", "geometry": {"type": "Polygon", "coordinates": [[[-79.51666666666672, 48.50340263889709], [-79.51426274681228, 48.50340517197652], [-79.51369338478999, 48.50340577343912], [-79.5109353240815, 48.503408591277044], [-79.51072352319302, 48.50340879262147], [-79.51015739699986, 48.503409382470416], [-79.5083333333333, 48.50341118141075], [-79.5083333333333, 48.50000000000941], [-79.51666666666671, 48.50000000000941], [-79.51666666666672, 48.50340263889709]]]}, "properties": {"company_id": "pacific-empire-minerals", "jurisdiction": "Quebec", "claim_id": "", "claim_name": null, "holder": "Transpacific Resources Inc", "status": "Active", "recorded_date": null, "anniversary_or_expiry": null, "area_ha": null, "tenure_type": null, "source": "GESTIM active titles (MRNF digital data dump). Not legal title.", "as_of": "2026-09-20", "role": "focus", "color": "#e8b040"}}, {"type": "Feature", "geometry": {"type": "Polygon", "coordinates": [[[-79.51666666666671, 48.50000000000941], [-79.5083333333333, 48.50000000000941], [-79.5083333333333, 48.49166666667613], [-79.51666666666671, 48.49166666667613], [-79.51666666666671, 48.50000000000941]]]}, "properties": {"company_id": "pacific-empire-minerals", "jurisdiction": "Quebec", "claim_id": "", "claim_name": null, "holder": "Transpacific Resources Inc", "status": "Active", "recorded_date": null, "anniversary_or_expiry": null, "area_ha": null, "tenure_type": null, "source": "GESTIM active titles (MRNF digital data dump). Not legal title.", "as_of": "2026-09-20", "role": "focus", "color": "#e8b040"}}, {"type": "Feature", "geometry": {"type": "Polygon", "coordinates": [[[-79.5176354734505, 48.50000003313999], [-79.51666666666671, 48.50000000000941], [-79.51666666666671, 48.49166666667613], [-79.51761880774295, 48.49166669931587], [-79.5176354734505, 48.50000003313999]]]}, "properties": {"company_id": "pacific-empire-minerals", "jurisdiction": "Quebec", "claim_id": "", "claim_name": null, "holder": "Transpacific Resources Inc", "status": "Active", "recorded_date": null, "anniversary_or_expiry": null, "area_ha": null, "tenure_type": null, "source": "GESTIM active titles (MRNF digital data dump). Not legal title.", "as_of": "2026-09-20", "role": "focus", "color": "#e8b040"}}, {"type": "Feature", "geometry": {"type": "Polygon", "coordinates": [[[-79.5, 48.49166666667613], [-79.4916666666667, 48.49166666667613], [-79.4916666666667, 48.48333333334275], [-79.5, 48.48333333334274], [-79.5, 48.49166666667613]]]}, "properties": {"company_id": "pacific-empire-minerals", "jurisdiction": "Quebec", "claim_id": "", "claim_name": null, "holder": "Transpacific Resources Inc", "status": "Active", "recorded_date": null, "anniversary_or_expiry": null, "area_ha": null, "tenure_type": null, "source": "GESTIM active titles (MRNF digital data dump). Not legal title.", "as_of": "2026-09-20", "role": "focus", "color": "#e8b040"}}, {"type": "Feature", "geometry": {"type": "Polygon", "coordinates": [[[-79.51760214770937, 48.48333336548908], [-79.51666666666671, 48.48333333334274], [-79.51666666666671, 48.47500000000948], [-79.5175854933465, 48.47500003165982], [-79.51760214770937, 48.48333336548908]]]}, "properties": {"company_id": "pacific-empire-minerals", "jurisdiction": "Quebec", "claim_id": "", "claim_name": null, "holder": "Transpacific Resources Inc", "status": "Active", "recorded_date": null, "anniversary_or_expiry": null, "area_ha": null, "tenure_type": null, "source": "GESTIM active titles (MRNF digital data dump). Not legal title.", "as_of": "2026-09-20", "role": "focus", "color": "#e8b040"}}, {"type": "Feature", "geometry": {"type": "Polygon", "coordinates": [[[-79.475, 48.48333333334275], [-79.4833333333333, 48.48333333334274], [-79.4833333333333, 48.49166666667613], [-79.475, 48.49166666667612], [-79.475, 48.48333333334275]]]}, "properties": {"company_id": "pacific-empire-minerals", "jurisdiction": "Quebec", "claim_id": "", "claim_name": null, "holder": "Transpacific Resources Inc", "status": "Active", "recorded_date": null, "anniversary_or_expiry": null, "area_ha": null, "tenure_type": null, "source": "GESTIM active titles (MRNF digital data dump). Not legal title.", "as_of": "2026-09-20", "role": "focus", "color": "#e8b040"}}, {"type": "Feature", "geometry": {"type": "Polygon", "coordinates": [[[-79.475, 48.49166666667612], [-79.4833333333333, 48.49166666667613], [-79.48333333333332, 48.5000000000094], [-79.475, 48.5000000000094], [-79.475, 48.49166666667612]]]}, "properties": {"company_id": "pacific-empire-minerals", "jurisdiction": "Quebec", "claim_id": "", "claim_name": null, "holder": "Transpacific Resources Inc", "status": "Active", "recorded_date": null, "anniversary_or_expiry": null, "area_ha": null, "tenure_type": null, "source": "GESTIM active titles (MRNF digital data dump). Not legal title.", "as_of": "2026-09-20", "role": "focus", "color": "#e8b040"}}, {"type": "Feature", "geometry": {"type": "Polygon", "coordinates": [[[-79.475, 48.5000000000094], [-79.48333333333332, 48.5000000000094], [-79.48333333333332, 48.503432817158924], [-79.48240835654894, 48.503433487058075], [-79.48186186355898, 48.503433944649714], [-79.47886914091785, 48.503436037874295], [-79.47832588401852, 48.50343647645735], [-79.47532964033196, 48.50343857499823], [-79.475, 48.503438833992945], [-79.475, 48.5000000000094]]]}, "properties": {"company_id": "pacific-empire-minerals", "jurisdiction": "Quebec", "claim_id": "", "claim_name": null, "holder": "Transpacific Resources Inc", "status": "Active", "recorded_date": null, "anniversary_or_expiry": null, "area_ha": null, "tenure_type": null, "source": "GESTIM active titles (MRNF digital data dump). Not legal title.", "as_of": "2026-09-20", "role": "focus", "color": "#e8b040"}}, {"type": "Feature", "geometry": {"type": "Polygon", "coordinates": [[[-79.46666666666671, 48.49166666667614], [-79.475, 48.49166666667612], [-79.475, 48.5000000000094], [-79.4666666666667, 48.5000000000094], [-79.46666666666671, 48.49166666667614]]]}, "properties": {"company_id": "pacific-empire-minerals", "jurisdiction": "Quebec", "claim_id": "", "claim_name": null, "holder": "Transpacific Resources Inc", "status": "Active", "recorded_date": null, "anniversary_or_expiry": null, "area_ha": null, "tenure_type": null, "source": "GESTIM active titles (MRNF digital data dump). Not legal title.", "as_of": "2026-09-20", "role": "focus", "color": "#e8b040"}}, {"type": "Feature", "geometry": {"type": "Polygon", "coordinates": [[[-79.4666666666667, 48.5000000000094], [-79.475, 48.5000000000094], [-79.475, 48.503438833992945], [-79.47478990371586, 48.503438998536716], [-79.47204281665493, 48.50344078648626], [-79.47179028026686, 48.50344090612394], [-79.47125406393326, 48.503441314834916], [-79.46825104397809, 48.50344313900245], [-79.46771807726448, 48.503443529499286], [-79.46666666666671, 48.50344417273718], [-79.4666666666667, 48.5000000000094]]]}, "properties": {"company_id": "pacific-empire-minerals", "jurisdiction": "Quebec", "claim_id": "", "claim_name": null, "holder": "Transpacific Resources Inc", "status": "Active", "recorded_date": null, "anniversary_or_expiry": null, "area_ha": null, "tenure_type": null, "source": "GESTIM active titles (MRNF digital data dump). Not legal title.", "as_of": "2026-09-20", "role": "focus", "color": "#e8b040"}}, {"type": "Feature", "geometry": {"type": "Polygon", "coordinates": [[[-79.5, 48.44166666667627], [-79.49166666666672, 48.44166666667626], [-79.4916666666667, 48.433333333342894], [-79.50000000000001, 48.433333333342894], [-79.5, 48.44166666667627]]]}, "properties": {"company_id": "pacific-empire-minerals", "jurisdiction": "Quebec", "claim_id": "", "claim_name": null, "holder": "Transpacific Resources Inc", "status": "Active", "recorded_date": null, "anniversary_or_expiry": null, "area_ha": null, "tenure_type": null, "source": "GESTIM active titles (MRNF digital data dump). Not legal title.", "as_of": "2026-09-20", "role": "focus", "color": "#e8b040"}}, {"type": "Feature", "geometry": {"type": "Polygon", "coordinates": [[[-79.4833333333333, 48.47500000000947], [-79.475, 48.47500000000947], [-79.475, 48.4666666666762], [-79.4833333333333, 48.4666666666762], [-79.4833333333333, 48.47500000000947]]]}, "properties": {"company_id": "pacific-empire-minerals", "jurisdiction": "Quebec", "claim_id": "", "claim_name": null, "holder": "Transpacific Resources Inc", "status": "Active", "recorded_date": null, "anniversary_or_expiry": null, "area_ha": null, "tenure_type": null, "source": "GESTIM active titles (MRNF digital data dump). Not legal title.", "as_of": "2026-09-20", "role": "focus", "color": "#e8b040"}}, {"type": "Feature", "geometry": {"type": "Polygon", "coordinates": [[[-79.4916666666667, 48.458333333342836], [-79.4833333333333, 48.45833333334283], [-79.4833333333333, 48.45000000000954], [-79.4916666666667, 48.45000000000955], [-79.4916666666667, 48.458333333342836]]]}, "properties": {"company_id": "pacific-empire-minerals", "jurisdiction": "Quebec", "claim_id": "", "claim_name": null, "holder": "Transpacific Resources Inc", "status": "Active", "recorded_date": null, "anniversary_or_expiry": null, "area_ha": null, "tenure_type": null, "source": "GESTIM active titles (MRNF digital data dump). Not legal title.", "as_of": "2026-09-20", "role": "focus", "color": "#e8b040"}}, {"type": "Feature", "geometry": {"type": "Polygon", "coordinates": [[[-79.4833333333333, 48.4666666666762], [-79.475, 48.4666666666762], [-79.475, 48.458333333342814], [-79.4833333333333, 48.45833333334283], [-79.4833333333333, 48.4666666666762]]]}, "properties": {"company_id": "pacific-empire-minerals", "jurisdiction": "Quebec", "claim_id": "", "claim_name": null, "holder": "Transpacific Resources Inc", "status": "Active", "recorded_date": null, "anniversary_or_expiry": null, "area_ha": null, "tenure_type": null, "source": "GESTIM active titles (MRNF digital data dump). Not legal title.", "as_of": "2026-09-20", "role": "focus", "color": "#e8b040"}}, {"type": "Feature", "geometry": {"type": "Polygon", "coordinates": [[[-79.475, 48.48333333334275], [-79.4666666666667, 48.48333333334274], [-79.46666666666671, 48.47500000000946], [-79.475, 48.47500000000947], [-79.475, 48.48333333334275]]]}, "properties": {"company_id": "pacific-empire-minerals", "jurisdiction": "Quebec", "claim_id": "", "claim_name": null, "holder": "Transpacific Resources Inc", "status": "Active", "recorded_date": null, "anniversary_or_expiry": null, "area_ha": null, "tenure_type": null, "source": "GESTIM active titles (MRNF digital data dump). Not legal title.", "as_of": "2026-09-20", "role": "focus", "color": "#e8b040"}}, {"type": "Feature", "geometry": {"type": "Polygon", "coordinates": [[[-79.4666666666667, 48.5000000000094], [-79.46471281518564, 48.50000005788881], [-79.4647158999388, 48.49166672450167], [-79.46666666666671, 48.49166666667614], [-79.4666666666667, 48.5000000000094]]]}, "properties": {"company_id": "pacific-empire-minerals", "jurisdiction": "Quebec", "claim_id": "", "claim_name": null, "holder": "Transpacific Resources Inc", "status": "Active", "recorded_date": null, "anniversary_or_expiry": null, "area_ha": null, "tenure_type": null, "source": "GESTIM active titles (MRNF digital data dump). Not legal title.", "as_of": "2026-09-20", "role": "focus", "color": "#e8b040"}}, {"type": "Feature", "geometry": {"type": "Polygon", "coordinates": [[[-79.4916666666667, 48.4666666666762], [-79.4833333333333, 48.4666666666762], [-79.4833333333333, 48.45833333334283], [-79.4916666666667, 48.458333333342836], [-79.4916666666667, 48.4666666666762]]]}, "properties": {"company_id": "pacific-empire-minerals", "jurisdiction": "Quebec", "claim_id": "", "claim_name": null, "holder": "Transpacific Resources Inc", "status": "Active", "recorded_date": null, "anniversary_or_expiry": null, "area_ha": null, "tenure_type": null, "source": "GESTIM active titles (MRNF digital data dump). Not legal title.", "as_of": "2026-09-20", "role": "focus", "color": "#e8b040"}}, {"type": "Feature", "geometry": {"type": "Polygon", "coordinates": [[[-79.475000000001, 48.49166666667612], [-79.46666666666773, 48.4916666666761], [-79.46666666666772, 48.48333333334274], [-79.47500000000102, 48.48333333334275], [-79.475000000001, 48.49166666667612]]]}, "properties": {"company_id": "pacific-empire-minerals", "jurisdiction": "Quebec", "claim_id": "", "claim_name": null, "holder": "Transpacific Resources Inc", "status": "Active", "recorded_date": null, "anniversary_or_expiry": null, "area_ha": null, "tenure_type": null, "source": "GESTIM active titles (MRNF digital data dump). Not legal title.", "as_of": "2026-09-20", "role": "focus", "color": "#e8b040"}}, {"type": "Feature", "geometry": {"type": "Polygon", "coordinates": [[[-79.475, 48.4666666666762], [-79.46666666666673, 48.46666666667619], [-79.46666666666671, 48.458333333342814], [-79.475, 48.458333333342814], [-79.475, 48.4666666666762]]]}, "properties": {"company_id": "pacific-empire-minerals", "jurisdiction": "Quebec", "claim_id": "", "claim_name": null, "holder": "Transpacific Resources Inc", "status": "Active", "recorded_date": null, "anniversary_or_expiry": null, "area_ha": null, "tenure_type": null, "source": "GESTIM active titles (MRNF digital data dump). Not legal title.", "as_of": "2026-09-20", "role": "focus", "color": "#e8b040"}}, {"type": "Feature", "geometry": {"type": "Polygon", "coordinates": [[[-79.475, 48.47500000000947], [-79.46666666666671, 48.47500000000946], [-79.46666666666673, 48.46666666667619], [-79.475, 48.4666666666762], [-79.475, 48.47500000000947]]]}, "properties": {"company_id": "pacific-empire-minerals", "jurisdiction": "Quebec", "claim_id": "", "claim_name": null, "holder": "Transpacific Resources Inc", "status": "Active", "recorded_date": null, "anniversary_or_expiry": null, "area_ha": null, "tenure_type": null, "source": "GESTIM active titles (MRNF digital data dump). Not legal title.", "as_of": "2026-09-20", "role": "focus", "color": "#e8b040"}}, {"type": "Feature", "geometry": {"type": "Polygon", "coordinates": [[[-79.46666666666671, 48.50344417273718], [-79.4658141423647, 48.50344468676268], [-79.46554211112569, 48.5034447847105], [-79.46471153957043, 48.50344525042331], [-79.46471281518564, 48.50000005788881], [-79.4666666666667, 48.5000000000094], [-79.46666666666671, 48.50344417273718]]]}, "properties": {"company_id": "pacific-empire-minerals", "jurisdiction": "Quebec", "claim_id": "", "claim_name": null, "holder": "Transpacific Resources Inc", "status": "Active", "recorded_date": null, "anniversary_or_expiry": null, "area_ha": null, "tenure_type": null, "source": "GESTIM active titles (MRNF digital data dump). Not legal title.", "as_of": "2026-09-20", "role": "focus", "color": "#e8b040"}}, {"type": "Feature", "geometry": {"type": "Polygon", "coordinates": [[[-79.4916666666667, 48.45000000000955], [-79.49166666666672, 48.44166666667626], [-79.5, 48.44166666667627], [-79.5, 48.45000000000955], [-79.4916666666667, 48.45000000000955]]]}, "properties": {"company_id": "pacific-empire-minerals", "jurisdiction": "Quebec", "claim_id": "", "claim_name": null, "holder": "Transpacific Resources Inc", "status": "Active", "recorded_date": null, "anniversary_or_expiry": null, "area_ha": null, "tenure_type": null, "source": "GESTIM active titles (MRNF digital data dump). Not legal title.", "as_of": "2026-09-20", "role": "focus", "color": "#e8b040"}}, {"type": "Feature", "geometry": {"type": "Polygon", "coordinates": [[[-79.50662142501065, 48.50341287402983], [-79.50675625388757, 48.50833338281189], [-79.50321983522265, 48.50833340978382], [-79.50308545213335, 48.503416355862726], [-79.50010503600328, 48.50341908960603], [-79.49999999999999, 48.503419192340466], [-79.49999999999999, 48.5000000000094], [-79.5083333333333, 48.50000000000941], [-79.5083333333333, 48.50341118141075], [-79.5071838955808, 48.503412299147094], [-79.50662142501065, 48.50341287402983]]]}, "properties": {"company_id": "pacific-empire-minerals", "jurisdiction": "Quebec", "claim_id": "", "claim_name": null, "holder": "Transpacific Resources Inc", "status": "Active", "recorded_date": null, "anniversary_or_expiry": null, "area_ha": null, "tenure_type": null, "source": "GESTIM active titles (MRNF digital data dump). Not legal title.", "as_of": "2026-09-20", "role": "focus", "color": "#e8b040"}}]}