{"type": "FeatureCollection", "features": [{"type": "Feature", "geometry": {"type": "Polygon", "coordinates": [[[-126.2911, 54.2125], [-126.2911, 54.2122], [-126.2887, 54.2122], [-126.2911, 54.2125]]]}, "properties": {"company_id": "palisades-goldcorp", "jurisdiction": "British Columbia", "claim_id": 237979, "claim_name": "XL-1", "holder": "GOLDCORP CANADA LTD.", "status": "Mineral", "recorded_date": "2484864000", "anniversary_or_expiry": "2025-11-16", "area_ha": 75, "tenure_type": "Mineral", "source": "BC MTA Mineral, Placer and Coal Tenure Spatial View (BCGW). Open Government Licence - British Columbia. Not legal title.", "as_of": "2026-09-20", "role": "focus", "color": "#e8b040"}}, {"type": "Feature", "geometry": {"type": "Polygon", "coordinates": [[[-126.3263, 54.9], [-126.3263, 54.886], [-126.2951, 54.886], [-126.2951, 54.9085], [-126.3263, 54.9085], [-126.3263, 54.9]]]}, "properties": {"company_id": "palisades-goldcorp", "jurisdiction": "British Columbia", "claim_id": 240207, "claim_name": "CART 1", "holder": "GOLDCORP CANADA LTD.", "status": "Mineral", "recorded_date": "5964192000", "anniversary_or_expiry": "2025-11-25", "area_ha": 500, "tenure_type": "Mineral", "source": "BC MTA Mineral, Placer and Coal Tenure Spatial View (BCGW). Open Government Licence - British Columbia. Not legal title.", "as_of": "2026-09-20", "role": "focus", "color": "#e8b040"}}, {"type": "Feature", "geometry": {"type": "Polygon", "coordinates": [[[-126.2948, 54.2013], [-126.2948, 54.2049], [-126.301, 54.2049], [-126.301, 54.2013], [-126.2948, 54.2013]]]}, "properties": {"company_id": "palisades-goldcorp", "jurisdiction": "British Columbia", "claim_id": 244616, "claim_name": "T 90", "holder": "GOLDCORP CANADA LTD.", "status": "Mineral", "recorded_date": "-317088000", "anniversary_or_expiry": "2025-12-30", "area_ha": 25, "tenure_type": "Mineral", "source": "BC MTA Mineral, Placer and Coal Tenure Spatial View (BCGW). Open Government Licence - British Columbia. Not legal title.", "as_of": "2026-09-20", "role": "focus", "color": "#e8b040"}}, {"type": "Feature", "geometry": {"type": "Polygon", "coordinates": [[[-126.2887, 54.2049], [-126.2948, 54.2049], [-126.2948, 54.2013], [-126.2887, 54.2013], [-126.2887, 54.2049]]]}, "properties": {"company_id": "palisades-goldcorp", "jurisdiction": "British Columbia", "claim_id": 244617, "claim_name": "T 91", "holder": "GOLDCORP CANADA LTD.", "status": "Mineral", "recorded_date": "-317088000", "anniversary_or_expiry": "2025-12-30", "area_ha": 25, "tenure_type": "Mineral", "source": "BC MTA Mineral, Placer and Coal Tenure Spatial View (BCGW). Open Government Licence - British Columbia. Not legal title.", "as_of": "2026-09-20", "role": "focus", "color": "#e8b040"}}, {"type": "Feature", "geometry": {"type": "Polygon", "coordinates": [[[-126.2578, 54.207], [-126.2578, 54.2086], [-126.264, 54.2086], [-126.264, 54.207], [-126.2578, 54.207]]]}, "properties": {"company_id": "palisades-goldcorp", "jurisdiction": "British Columbia", "claim_id": 244620, "claim_name": "T 114", "holder": "GOLDCORP CANADA LTD.", "status": "Mineral", "recorded_date": "-317088000", "anniversary_or_expiry": "2025-12-30", "area_ha": 25, "tenure_type": "Mineral", "source": "BC MTA Mineral, Placer and Coal Tenure Spatial View (BCGW). Open Government Licence - British Columbia. Not legal title.", "as_of": "2026-09-20", "role": "focus", "color": "#e8b040"}}, {"type": "Feature", "geometry": {"type": "Polygon", "coordinates": [[[-126.2578, 54.2086], [-126.2579, 54.2122], [-126.264, 54.2122], [-126.264, 54.2086], [-126.2578, 54.2086]]]}, "properties": {"company_id": "palisades-goldcorp", "jurisdiction": "British Columbia", "claim_id": 244622, "claim_name": "T 116", "holder": "GOLDCORP CANADA LTD.", "status": "Mineral", "recorded_date": "-317088000", "anniversary_or_expiry": "2025-12-30", "area_ha": 25, "tenure_type": "Mineral", "source": "BC MTA Mineral, Placer and Coal Tenure Spatial View (BCGW). Open Government Licence - British Columbia. Not legal title.", "as_of": "2026-09-20", "role": "focus", "color": "#e8b040"}}, {"type": "Feature", "geometry": {"type": "Polygon", "coordinates": [[[-126.289, 54.185], [-126.2892, 54.1888], [-126.2954, 54.1887], [-126.2952, 54.1849], [-126.289, 54.185]]]}, "properties": {"company_id": "palisades-goldcorp", "jurisdiction": "British Columbia", "claim_id": 244270, "claim_name": "S.G. #11", "holder": "GOLDCORP CANADA LTD.", "status": "Mineral", "recorded_date": "-724896000", "anniversary_or_expiry": "2025-09-15", "area_ha": 25, "tenure_type": "Mineral", "source": "BC MTA Mineral, Placer and Coal Tenure Spatial View (BCGW). Open Government Licence - British Columbia. Not legal title.", "as_of": "2026-09-20", "role": "focus", "color": "#e8b040"}}, {"type": "Feature", "geometry": {"type": "Polygon", "coordinates": [[[-126.2822, 54.1922], [-126.2754, 54.1922], [-126.2753, 54.196], [-126.2822, 54.196], [-126.2822, 54.1922]]]}, "properties": {"company_id": "palisades-goldcorp", "jurisdiction": "British Columbia", "claim_id": 244274, "claim_name": "S.G. #39", "holder": "GOLDCORP CANADA LTD.", "status": "Mineral", "recorded_date": "-724896000", "anniversary_or_expiry": "2025-09-15", "area_ha": 25, "tenure_type": "Mineral", "source": "BC MTA Mineral, Placer and Coal Tenure Spatial View (BCGW). Open Government Licence - British Columbia. Not legal title.", "as_of": "2026-09-20", "role": "focus", "color": "#e8b040"}}, {"type": "Feature", "geometry": {"type": "Polygon", "coordinates": [[[-126.2752, 54.1966], [-126.2754, 54.2006], [-126.2823, 54.2005], [-126.2822, 54.196], [-126.2753, 54.196], [-126.2752, 54.1966]]]}, "properties": {"company_id": "palisades-goldcorp", "jurisdiction": "British Columbia", "claim_id": 244276, "claim_name": "S.G. #41", "holder": "GOLDCORP CANADA LTD.", "status": "Mineral", "recorded_date": "-724896000", "anniversary_or_expiry": "2025-09-15", "area_ha": 25, "tenure_type": "Mineral", "source": "BC MTA Mineral, Placer and Coal Tenure Spatial View (BCGW). Open Government Licence - British Columbia. Not legal title.", "as_of": "2026-09-20", "role": "focus", "color": "#e8b040"}}, {"type": "Feature", "geometry": {"type": "Polygon", "coordinates": [[[-126.2823, 54.2], [-126.2823, 54.2005], [-126.2892, 54.2004], [-126.289, 54.1961], [-126.2822, 54.196], [-126.2823, 54.2]]]}, "properties": {"company_id": "palisades-goldcorp", "jurisdiction": "British Columbia", "claim_id": 244277, "claim_name": "S.G. #42", "holder": "GOLDCORP CANADA LTD.", "status": "Mineral", "recorded_date": "-724896000", "anniversary_or_expiry": "2025-09-15", "area_ha": 25, "tenure_type": "Mineral", "source": "BC MTA Mineral, Placer and Coal Tenure Spatial View (BCGW). Open Government Licence - British Columbia. Not legal title.", "as_of": "2026-09-20", "role": "focus", "color": "#e8b040"}}, {"type": "Feature", "geometry": {"type": "Polygon", "coordinates": [[[-126.289, 54.185], [-126.2952, 54.1849], [-126.295, 54.1811], [-126.2882, 54.1811], [-126.2884, 54.1843], [-126.2889, 54.1843], [-126.289, 54.185]]]}, "properties": {"company_id": "palisades-goldcorp", "jurisdiction": "British Columbia", "claim_id": 244286, "claim_name": "S.G. #1", "holder": "GOLDCORP CANADA LTD.", "status": "Mineral", "recorded_date": "-722304000", "anniversary_or_expiry": "2025-09-18", "area_ha": 25, "tenure_type": "Mineral", "source": "BC MTA Mineral, Placer and Coal Tenure Spatial View (BCGW). Open Government Licence - British Columbia. Not legal title.", "as_of": "2026-09-20", "role": "focus", "color": "#e8b040"}}, {"type": "Feature", "geometry": {"type": "Polygon", "coordinates": [[[-126.2882, 54.1805], [-126.2882, 54.1811], [-126.295, 54.1811], [-126.2948, 54.1772], [-126.2879, 54.1774], [-126.2882, 54.1805]]]}, "properties": {"company_id": "palisades-goldcorp", "jurisdiction": "British Columbia", "claim_id": 244288, "claim_name": "S.G. #3", "holder": "GOLDCORP CANADA LTD.", "status": "Mineral", "recorded_date": "-722304000", "anniversary_or_expiry": "2025-09-18", "area_ha": 25, "tenure_type": "Mineral", "source": "BC MTA Mineral, Placer and Coal Tenure Spatial View (BCGW). Open Government Licence - British Columbia. Not legal title.", "as_of": "2026-09-20", "role": "focus", "color": "#e8b040"}}, {"type": "Feature", "geometry": {"type": "Polygon", "coordinates": [[[-126.2884, 54.1736], [-126.2873, 54.1737], [-126.2879, 54.1774], [-126.2948, 54.1772], [-126.2942, 54.1734], [-126.2884, 54.1736]]]}, "properties": {"company_id": "palisades-goldcorp", "jurisdiction": "British Columbia", "claim_id": 244290, "claim_name": "S.G. #5", "holder": "GOLDCORP CANADA LTD.", "status": "Mineral", "recorded_date": "-722304000", "anniversary_or_expiry": "2025-09-18", "area_ha": 25, "tenure_type": "Mineral", "source": "BC MTA Mineral, Placer and Coal Tenure Spatial View (BCGW). Open Government Licence - British Columbia. Not legal title.", "as_of": "2026-09-20", "role": "focus", "color": "#e8b040"}}, {"type": "Feature", "geometry": {"type": "Polygon", "coordinates": [[[-126.2884, 54.1736], [-126.2944, 54.1734], [-126.2948, 54.1688], [-126.2886, 54.1688], [-126.2884, 54.1736]]]}, "properties": {"company_id": "palisades-goldcorp", "jurisdiction": "British Columbia", "claim_id": 244292, "claim_name": "S.G. #7", "holder": "GOLDCORP CANADA LTD.", "status": "Mineral", "recorded_date": "-722304000", "anniversary_or_expiry": "2025-09-18", "area_ha": 25, "tenure_type": "Mineral", "source": "BC MTA Mineral, Placer and Coal Tenure Spatial View (BCGW). Open Government Licence - British Columbia. Not legal title.", "as_of": "2026-09-20", "role": "focus", "color": "#e8b040"}}, {"type": "Feature", "geometry": {"type": "Polygon", "coordinates": [[[-126.2886, 54.1686], [-126.2948, 54.1688], [-126.2948, 54.1652], [-126.2886, 54.1652], [-126.2886, 54.1686]]]}, "properties": {"company_id": "palisades-goldcorp", "jurisdiction": "British Columbia", "claim_id": 244294, "claim_name": "S.G. #9", "holder": "GOLDCORP CANADA LTD.", "status": "Mineral", "recorded_date": "-722304000", "anniversary_or_expiry": "2025-09-18", "area_ha": 25, "tenure_type": "Mineral", "source": "BC MTA Mineral, Placer and Coal Tenure Spatial View (BCGW). Open Government Licence - British Columbia. Not legal title.", "as_of": "2026-09-20", "role": "focus", "color": "#e8b040"}}, {"type": "Feature", "geometry": {"type": "Polygon", "coordinates": [[[-126.2817, 54.1771], [-126.2819, 54.1804], [-126.2878, 54.1803], [-126.2879, 54.1769], [-126.2817, 54.1771]]]}, "properties": {"company_id": "palisades-goldcorp", "jurisdiction": "British Columbia", "claim_id": 244296, "claim_name": "S.G. #18", "holder": "GOLDCORP CANADA LTD.", "status": "Mineral", "recorded_date": "-722304000", "anniversary_or_expiry": "2025-09-18", "area_ha": 25, "tenure_type": "Mineral", "source": "BC MTA Mineral, Placer and Coal Tenure Spatial View (BCGW). Open Government Licence - British Columbia. Not legal title.", "as_of": "2026-09-20", "role": "focus", "color": "#e8b040"}}, {"type": "Feature", "geometry": {"type": "Polygon", "coordinates": [[[-126.2482, 54.1801], [-126.2481, 54.184], [-126.2553, 54.1842], [-126.2556, 54.1802], [-126.2482, 54.1801]]]}, "properties": {"company_id": "palisades-goldcorp", "jurisdiction": "British Columbia", "claim_id": 244308, "claim_name": "S.G. #51", "holder": "GOLDCORP CANADA LTD.", "status": "Mineral", "recorded_date": "-722304000", "anniversary_or_expiry": "2025-09-18", "area_ha": 25, "tenure_type": "Mineral", "source": "BC MTA Mineral, Placer and Coal Tenure Spatial View (BCGW). Open Government Licence - British Columbia. Not legal title.", "as_of": "2026-09-20", "role": "focus", "color": "#e8b040"}}, {"type": "Feature", "geometry": {"type": "Polygon", "coordinates": [[[-126.255, 54.188], [-126.2475, 54.1879], [-126.2475, 54.1919], [-126.2549, 54.1919], [-126.255, 54.188]]]}, "properties": {"company_id": "palisades-goldcorp", "jurisdiction": "British Columbia", "claim_id": 244313, "claim_name": "S.G. #63", "holder": "GOLDCORP CANADA LTD.", "status": "Mineral", "recorded_date": "-722304000", "anniversary_or_expiry": "2025-09-18", "area_ha": 25, "tenure_type": "Mineral", "source": "BC MTA Mineral, Placer and Coal Tenure Spatial View (BCGW). Open Government Licence - British Columbia. Not legal title.", "as_of": "2026-09-20", "role": "focus", "color": "#e8b040"}}, {"type": "Feature", "geometry": {"type": "Polygon", "coordinates": [[[-126.2753, 54.2086], [-126.2774, 54.2086], [-126.2774, 54.2006], [-126.2739, 54.2002], [-126.2735, 54.2049], [-126.2753, 54.2049], [-126.2753, 54.2086]]]}, "properties": {"company_id": "palisades-goldcorp", "jurisdiction": "British Columbia", "claim_id": 244910, "claim_name": "S.G. NO.1 FR.", "holder": "GOLDCORP CANADA LTD.", "status": "Mineral", "recorded_date": "-984960000", "anniversary_or_expiry": "2025-09-09", "area_ha": 25, "tenure_type": "Mineral", "source": "BC MTA Mineral, Placer and Coal Tenure Spatial View (BCGW). Open Government Licence - British Columbia. Not legal title.", "as_of": "2026-09-20", "role": "focus", "color": "#e8b040"}}, {"type": "Feature", "geometry": {"type": "Polygon", "coordinates": [[[-126.2739, 54.2], [-126.2754, 54.2006], [-126.2752, 54.1966], [-126.2743, 54.1965], [-126.2739, 54.2]]]}, "properties": {"company_id": "palisades-goldcorp", "jurisdiction": "British Columbia", "claim_id": 244911, "claim_name": "S.G. NO.2 FR.", "holder": "GOLDCORP CANADA LTD.", "status": "Mineral", "recorded_date": "-984960000", "anniversary_or_expiry": "2025-09-09", "area_ha": 25, "tenure_type": "Mineral", "source": "BC MTA Mineral, Placer and Coal Tenure Spatial View (BCGW). Open Government Licence - British Columbia. Not legal title.", "as_of": "2026-09-20", "role": "focus", "color": "#e8b040"}}, {"type": "Feature", "geometry": {"type": "Polygon", "coordinates": [[[-126.2747, 54.1935], [-126.2743, 54.1965], [-126.2752, 54.1966], [-126.2754, 54.1922], [-126.2748, 54.192], [-126.2747, 54.1935]]]}, "properties": {"company_id": "palisades-goldcorp", "jurisdiction": "British Columbia", "claim_id": 244912, "claim_name": "S.G. NO.3 FR.", "holder": "GOLDCORP CANADA LTD.", "status": "Mineral", "recorded_date": "-984960000", "anniversary_or_expiry": "2025-09-09", "area_ha": 25, "tenure_type": "Mineral", "source": "BC MTA Mineral, Placer and Coal Tenure Spatial View (BCGW). Open Government Licence - British Columbia. Not legal title.", "as_of": "2026-09-20", "role": "focus", "color": "#e8b040"}}, {"type": "Feature", "geometry": {"type": "Polygon", "coordinates": [[[-126.274, 54.1997], [-126.2751, 54.1877], [-126.2747, 54.1761], [-126.2615, 54.1762], [-126.2614, 54.1835], [-126.2553, 54.1835], [-126.2544, 54.1992], [-126.274, 54.1997]]]}, "properties": {"company_id": "palisades-goldcorp", "jurisdiction": "British Columbia", "claim_id": 243447, "claim_name": null, "holder": "GOLDCORP CANADA LTD.", "status": "Mineral", "recorded_date": "2224800000", "anniversary_or_expiry": "2026-01-19", "area_ha": 301.719, "tenure_type": "Mineral", "source": "BC MTA Mineral, Placer and Coal Tenure Spatial View (BCGW). Open Government Licence - British Columbia. Not legal title.", "as_of": "2026-09-20", "role": "focus", "color": "#e8b040"}}, {"type": "Feature", "geometry": {"type": "Polygon", "coordinates": [[[-126.2749, 54.1841], [-126.2748, 54.192], [-126.2892, 54.1921], [-126.2882, 54.1803], [-126.2819, 54.1804], [-126.2817, 54.1764], [-126.2747, 54.1766], [-126.2749, 54.1841]]]}, "properties": {"company_id": "palisades-goldcorp", "jurisdiction": "British Columbia", "claim_id": 243449, "claim_name": null, "holder": "GOLDCORP CANADA LTD.", "status": "Mineral", "recorded_date": "2871936000", "anniversary_or_expiry": "2026-02-07", "area_ha": 138.77, "tenure_type": "Mineral", "source": "BC MTA Mineral, Placer and Coal Tenure Spatial View (BCGW). Open Government Licence - British Columbia. Not legal title.", "as_of": "2026-09-20", "role": "focus", "color": "#e8b040"}}, {"type": "Feature", "geometry": {"type": "Polygon", "coordinates": [[[-126.2948, 54.1652], [-126.301, 54.1652], [-126.301, 54.1616], [-126.2948, 54.1616], [-126.2948, 54.1652]]]}, "properties": {"company_id": "palisades-goldcorp", "jurisdiction": "British Columbia", "claim_id": 244470, "claim_name": "T 31", "holder": "GOLDCORP CANADA LTD.", "status": "Mineral", "recorded_date": "-322272000", "anniversary_or_expiry": "2025-12-24", "area_ha": 25, "tenure_type": "Mineral", "source": "BC MTA Mineral, Placer and Coal Tenure Spatial View (BCGW). Open Government Licence - British Columbia. Not legal title.", "as_of": "2026-09-20", "role": "focus", "color": "#e8b040"}}, {"type": "Feature", "geometry": {"type": "Polygon", "coordinates": [[[-126.2825, 54.2013], [-126.2887, 54.2013], [-126.2887, 54.2004], [-126.2825, 54.2005], [-126.2825, 54.2013]]]}, "properties": {"company_id": "palisades-goldcorp", "jurisdiction": "British Columbia", "claim_id": 244496, "claim_name": "T 92", "holder": "GOLDCORP CANADA LTD.", "status": "Mineral", "recorded_date": "-322272000", "anniversary_or_expiry": "2025-12-24", "area_ha": 25, "tenure_type": "Mineral", "source": "BC MTA Mineral, Placer and Coal Tenure Spatial View (BCGW). Open Government Licence - British Columbia. Not legal title.", "as_of": "2026-09-20", "role": "focus", "color": "#e8b040"}}, {"type": "Feature", "geometry": {"type": "Polygon", "coordinates": [[[-126.2774, 54.2006], [-126.2774, 54.2013], [-126.2825, 54.2013], [-126.2825, 54.2005], [-126.2774, 54.2006]]]}, "properties": {"company_id": "palisades-goldcorp", "jurisdiction": "British Columbia", "claim_id": 244497, "claim_name": "T 93", "holder": "GOLDCORP CANADA LTD.", "status": "Mineral", "recorded_date": "-322272000", "anniversary_or_expiry": "2025-12-24", "area_ha": 25, "tenure_type": "Mineral", "source": "BC MTA Mineral, Placer and Coal Tenure Spatial View (BCGW). Open Government Licence - British Columbia. Not legal title.", "as_of": "2026-09-20", "role": "focus", "color": "#e8b040"}}, {"type": "Feature", "geometry": {"type": "Polygon", "coordinates": [[[-126.2825, 54.2049], [-126.2887, 54.2049], [-126.2887, 54.2013], [-126.2825, 54.2013], [-126.2825, 54.2049]]]}, "properties": {"company_id": "palisades-goldcorp", "jurisdiction": "British Columbia", "claim_id": 244498, "claim_name": "T 94", "holder": "GOLDCORP CANADA LTD.", "status": "Mineral", "recorded_date": "-322272000", "anniversary_or_expiry": "2025-12-24", "area_ha": 25, "tenure_type": "Mineral", "source": "BC MTA Mineral, Placer and Coal Tenure Spatial View (BCGW). Open Government Licence - British Columbia. Not legal title.", "as_of": "2026-09-20", "role": "focus", "color": "#e8b040"}}, {"type": "Feature", "geometry": {"type": "Polygon", "coordinates": [[[-126.2774, 54.2013], [-126.2774, 54.2049], [-126.2825, 54.2049], [-126.2825, 54.2013], [-126.2774, 54.2013]]]}, "properties": {"company_id": "palisades-goldcorp", "jurisdiction": "British Columbia", "claim_id": 244499, "claim_name": "T 95", "holder": "GOLDCORP CANADA LTD.", "status": "Mineral", "recorded_date": "-322272000", "anniversary_or_expiry": "2025-12-24", "area_ha": 25, "tenure_type": "Mineral", "source": "BC MTA Mineral, Placer and Coal Tenure Spatial View (BCGW). Open Government Licence - British Columbia. Not legal title.", "as_of": "2026-09-20", "role": "focus", "color": "#e8b040"}}, {"type": "Feature", "geometry": {"type": "Polygon", "coordinates": [[[-126.2825, 54.2086], [-126.2887, 54.2086], [-126.2887, 54.2049], [-126.2825, 54.2049], [-126.2825, 54.2086]]]}, "properties": {"company_id": "palisades-goldcorp", "jurisdiction": "British Columbia", "claim_id": 244500, "claim_name": "T 96", "holder": "GOLDCORP CANADA LTD.", "status": "Mineral", "recorded_date": "-322272000", "anniversary_or_expiry": "2025-12-24", "area_ha": 25, "tenure_type": "Mineral", "source": "BC MTA Mineral, Placer and Coal Tenure Spatial View (BCGW). Open Government Licence - British Columbia. Not legal title.", "as_of": "2026-09-20", "role": "focus", "color": "#e8b040"}}, {"type": "Feature", "geometry": {"type": "Polygon", "coordinates": [[[-126.2774, 54.2086], [-126.2825, 54.2086], [-126.2825, 54.2049], [-126.2774, 54.2049], [-126.2774, 54.2086]]]}, "properties": {"company_id": "palisades-goldcorp", "jurisdiction": "British Columbia", "claim_id": 244501, "claim_name": "T 97", "holder": "GOLDCORP CANADA LTD.", "status": "Mineral", "recorded_date": "-322272000", "anniversary_or_expiry": "2025-12-24", "area_ha": 25, "tenure_type": "Mineral", "source": "BC MTA Mineral, Placer and Coal Tenure Spatial View (BCGW). Open Government Licence - British Columbia. Not legal title.", "as_of": "2026-09-20", "role": "focus", "color": "#e8b040"}}, {"type": "Feature", "geometry": {"type": "Polygon", "coordinates": [[[-126.2664, 54.2037], [-126.2736, 54.2041], [-126.2739, 54.2002], [-126.2669, 54.2], [-126.2664, 54.2037]]]}, "properties": {"company_id": "palisades-goldcorp", "jurisdiction": "British Columbia", "claim_id": 244506, "claim_name": "T 102", "holder": "GOLDCORP CANADA LTD.", "status": "Mineral", "recorded_date": "-322272000", "anniversary_or_expiry": "2025-12-24", "area_ha": 25, "tenure_type": "Mineral", "source": "BC MTA Mineral, Placer and Coal Tenure Spatial View (BCGW). Open Government Licence - British Columbia. Not legal title.", "as_of": "2026-09-20", "role": "focus", "color": "#e8b040"}}, {"type": "Feature", "geometry": {"type": "Polygon", "coordinates": [[[-126.2664, 54.2037], [-126.2664, 54.2049], [-126.2735, 54.2049], [-126.2736, 54.2041], [-126.2664, 54.2037]]]}, "properties": {"company_id": "palisades-goldcorp", "jurisdiction": "British Columbia", "claim_id": 244508, "claim_name": "T 104", "holder": "GOLDCORP CANADA LTD.", "status": "Mineral", "recorded_date": "-322272000", "anniversary_or_expiry": "2025-12-24", "area_ha": 25, "tenure_type": "Mineral", "source": "BC MTA Mineral, Placer and Coal Tenure Spatial View (BCGW). Open Government Licence - British Columbia. Not legal title.", "as_of": "2026-09-20", "role": "focus", "color": "#e8b040"}}, {"type": "Feature", "geometry": {"type": "Polygon", "coordinates": [[[-126.2702, 54.2086], [-126.2753, 54.2086], [-126.2753, 54.2049], [-126.2702, 54.2049], [-126.2702, 54.2086]]]}, "properties": {"company_id": "palisades-goldcorp", "jurisdiction": "British Columbia", "claim_id": 244510, "claim_name": "T 106", "holder": "GOLDCORP CANADA LTD.", "status": "Mineral", "recorded_date": "-322272000", "anniversary_or_expiry": "2025-12-24", "area_ha": 25, "tenure_type": "Mineral", "source": "BC MTA Mineral, Placer and Coal Tenure Spatial View (BCGW). Open Government Licence - British Columbia. Not legal title.", "as_of": "2026-09-20", "role": "focus", "color": "#e8b040"}}, {"type": "Feature", "geometry": {"type": "Polygon", "coordinates": [[[-126.2664, 54.2049], [-126.2643, 54.2049], [-126.264, 54.2086], [-126.2702, 54.2086], [-126.2702, 54.2049], [-126.2664, 54.2049]]]}, "properties": {"company_id": "palisades-goldcorp", "jurisdiction": "British Columbia", "claim_id": 244511, "claim_name": "T 107", "holder": "GOLDCORP CANADA LTD.", "status": "Mineral", "recorded_date": "-322272000", "anniversary_or_expiry": "2025-12-24", "area_ha": 25, "tenure_type": "Mineral", "source": "BC MTA Mineral, Placer and Coal Tenure Spatial View (BCGW). Open Government Licence - British Columbia. Not legal title.", "as_of": "2026-09-20", "role": "focus", "color": "#e8b040"}}, {"type": "Feature", "geometry": {"type": "Polygon", "coordinates": [[[-126.2702, 54.2122], [-126.2754, 54.2122], [-126.2753, 54.2086], [-126.2702, 54.2086], [-126.2702, 54.2122]]]}, "properties": {"company_id": "palisades-goldcorp", "jurisdiction": "British Columbia", "claim_id": 244512, "claim_name": "T 108", "holder": "GOLDCORP CANADA LTD.", "status": "Mineral", "recorded_date": "-322272000", "anniversary_or_expiry": "2025-12-24", "area_ha": 25, "tenure_type": "Mineral", "source": "BC MTA Mineral, Placer and Coal Tenure Spatial View (BCGW). Open Government Licence - British Columbia. Not legal title.", "as_of": "2026-09-20", "role": "focus", "color": "#e8b040"}}, {"type": "Feature", "geometry": {"type": "Polygon", "coordinates": [[[-126.264, 54.2122], [-126.2702, 54.2122], [-126.2702, 54.2086], [-126.264, 54.2086], [-126.264, 54.2122]]]}, "properties": {"company_id": "palisades-goldcorp", "jurisdiction": "British Columbia", "claim_id": 244513, "claim_name": "T 109", "holder": "GOLDCORP CANADA LTD.", "status": "Mineral", "recorded_date": "-322272000", "anniversary_or_expiry": "2025-12-24", "area_ha": 25, "tenure_type": "Mineral", "source": "BC MTA Mineral, Placer and Coal Tenure Spatial View (BCGW). Open Government Licence - British Columbia. Not legal title.", "as_of": "2026-09-20", "role": "focus", "color": "#e8b040"}}, {"type": "Feature", "geometry": {"type": "Polygon", "coordinates": [[[-126.264, 54.2122], [-126.264, 54.2158], [-126.2702, 54.2158], [-126.2702, 54.2122], [-126.264, 54.2122]]]}, "properties": {"company_id": "palisades-goldcorp", "jurisdiction": "British Columbia", "claim_id": 244515, "claim_name": "T 111", "holder": "GOLDCORP CANADA LTD.", "status": "Mineral", "recorded_date": "-322272000", "anniversary_or_expiry": "2025-12-24", "area_ha": 25, "tenure_type": "Mineral", "source": "BC MTA Mineral, Placer and Coal Tenure Spatial View (BCGW). Open Government Licence - British Columbia. Not legal title.", "as_of": "2026-09-20", "role": "focus", "color": "#e8b040"}}, {"type": "Feature", "geometry": {"type": "Polygon", "coordinates": [[[-126.2475, 54.1919], [-126.2472, 54.1956], [-126.2546, 54.1958], [-126.2549, 54.1919], [-126.2475, 54.1919]]]}, "properties": {"company_id": "palisades-goldcorp", "jurisdiction": "British Columbia", "claim_id": 245404, "claim_name": "REV #1", "holder": "GOLDCORP CANADA LTD.", "status": "Mineral", "recorded_date": "5633280000", "anniversary_or_expiry": "2025-10-15", "area_ha": 25, "tenure_type": "Mineral", "source": "BC MTA Mineral, Placer and Coal Tenure Spatial View (BCGW). Open Government Licence - British Columbia. Not legal title.", "as_of": "2026-09-20", "role": "focus", "color": "#e8b040"}}, {"type": "Feature", "geometry": {"type": "Polygon", "coordinates": [[[-126.2468, 54.1996], [-126.2543, 54.1997], [-126.2546, 54.1958], [-126.2472, 54.1956], [-126.2468, 54.1996]]]}, "properties": {"company_id": "palisades-goldcorp", "jurisdiction": "British Columbia", "claim_id": 245405, "claim_name": "REV #3", "holder": "GOLDCORP CANADA LTD.", "status": "Mineral", "recorded_date": "5633280000", "anniversary_or_expiry": "2025-10-15", "area_ha": 25, "tenure_type": "Mineral", "source": "BC MTA Mineral, Placer and Coal Tenure Spatial View (BCGW). Open Government Licence - British Columbia. Not legal title.", "as_of": "2026-09-20", "role": "focus", "color": "#e8b040"}}, {"type": "Feature", "geometry": {"type": "Polygon", "coordinates": [[[-126.2543, 54.1997], [-126.254, 54.207], [-126.2642, 54.207], [-126.2647, 54.1994], [-126.2544, 54.1992], [-126.2543, 54.1997]]]}, "properties": {"company_id": "palisades-goldcorp", "jurisdiction": "British Columbia", "claim_id": 317124, "claim_name": null, "holder": "GOLDCORP CANADA LTD.", "status": "Mineral", "recorded_date": "7771680000", "anniversary_or_expiry": "2024-08-18", "area_ha": 71.06, "tenure_type": "Mineral", "source": "BC MTA Mineral, Placer and Coal Tenure Spatial View (BCGW). Open Government Licence - British Columbia. Not legal title.", "as_of": "2026-09-20", "role": "focus", "color": "#e8b040"}}, {"type": "Feature", "geometry": {"type": "Polygon", "coordinates": [[[-117.3752, 49.8929], [-117.3684, 49.892], [-117.3675, 49.8948], [-117.3743, 49.8957], [-117.3752, 49.8929]]]}, "properties": {"company_id": "palisades-goldcorp", "jurisdiction": "British Columbia", "claim_id": 393214, "claim_name": "MARGIE #1", "holder": "MAGNUM GOLDCORP INC.", "status": "Mineral", "recorded_date": "2002-05-03", "anniversary_or_expiry": "2029-03-05", "area_ha": 25, "tenure_type": "Mineral", "source": "BC MTA Mineral, Placer and Coal Tenure Spatial View (BCGW). Open Government Licence - British Columbia. Not legal title.", "as_of": "2026-09-20", "role": "focus", "color": "#e8b040"}}, {"type": "Feature", "geometry": {"type": "Polygon", "coordinates": [[[-117.4011, 49.9041], [-117.4011, 49.8583], [-117.3699, 49.8583], [-117.3699, 49.8749], [-117.3761, 49.8749], [-117.3761, 49.8916], [-117.3511, 49.8916], [-117.3511, 49.8958], [-117.3449, 49.8958], [-117.3449, 49.9041], [-117.3824, 49.9041], [-117.3824, 49.9083], [-117.3949, 49.9083], [-117.4011, 49.9083], [-117.4011, 49.9041]]]}, "properties": {"company_id": "palisades-goldcorp", "jurisdiction": "British Columbia", "claim_id": 514022, "claim_name": null, "holder": "MAGNUM GOLDCORP INC.", "status": "Mineral", "recorded_date": "2005-06-06", "anniversary_or_expiry": "2024-10-05", "area_ha": 1353.116, "tenure_type": "Mineral", "source": "BC MTA Mineral, Placer and Coal Tenure Spatial View (BCGW). Open Government Licence - British Columbia. Not legal title.", "as_of": "2026-09-20", "role": "focus", "color": "#e8b040"}}]}