{"type": "FeatureCollection", "features": [{"type": "Feature", "geometry": {"type": "Polygon", "coordinates": [[[-93.8563, 51.025], [-93.8563, 51.0292], [-93.8625, 51.0292], [-93.8625, 51.025], [-93.8563, 51.025]]]}, "properties": {"company_id": "premier-american-uranium", "jurisdiction": "Ontario", "claim_id": "115225", "claim_name": null, "holder": "(100) PREMIER GOLD MINES NWO INC.", "status": "Active", "recorded_date": "2018-04-10", "anniversary_or_expiry": "2030-10-30", "area_ha": null, "tenure_type": "Boundary Cell Mining Claim", "source": "Ontario MLAS operational claims (OGSEarth / LIO MapServer). Unofficial viewing data, not legal title.", "as_of": "2026-09-20", "role": "focus", "color": "#e8b040"}}, {"type": "Feature", "geometry": {"type": "Polygon", "coordinates": [[[-93.8188, 51.0542], [-93.8188, 51.0583], [-93.825, 51.0583], [-93.825, 51.0542], [-93.8188, 51.0542]]]}, "properties": {"company_id": "premier-american-uranium", "jurisdiction": "Ontario", "claim_id": "117650", "claim_name": null, "holder": "(49) PREMIER GOLD MINES NWO INC., (51) Evolution Mining Gold Operations Ltd.", "status": "Active", "recorded_date": "2018-04-10", "anniversary_or_expiry": "2029-12-27", "area_ha": null, "tenure_type": "Single Cell Mining Claim", "source": "Ontario MLAS operational claims (OGSEarth / LIO MapServer). Unofficial viewing data, not legal title.", "as_of": "2026-09-20", "role": "focus", "color": "#e8b040"}}, {"type": "Feature", "geometry": {"type": "Polygon", "coordinates": [[[-93.8125, 51.0417], [-93.8125, 51.0458], [-93.8188, 51.0458], [-93.8188, 51.0417], [-93.8125, 51.0417]]]}, "properties": {"company_id": "premier-american-uranium", "jurisdiction": "Ontario", "claim_id": "117651", "claim_name": null, "holder": "(49) PREMIER GOLD MINES NWO INC., (51) Evolution Mining Gold Operations Ltd.", "status": "Active", "recorded_date": "2018-04-10", "anniversary_or_expiry": "2029-01-30", "area_ha": null, "tenure_type": "Boundary Cell Mining Claim", "source": "Ontario MLAS operational claims (OGSEarth / LIO MapServer). Unofficial viewing data, not legal title.", "as_of": "2026-09-20", "role": "focus", "color": "#e8b040"}}, {"type": "Feature", "geometry": {"type": "Polygon", "coordinates": [[[-93.8125, 51.0333], [-93.8125, 51.0375], [-93.8188, 51.0375], [-93.8188, 51.0333], [-93.8125, 51.0333]]]}, "properties": {"company_id": "premier-american-uranium", "jurisdiction": "Ontario", "claim_id": "116501", "claim_name": null, "holder": "(44) PREMIER GOLD MINES NWO INC., (56) Evolution Mining Gold Operations Ltd.", "status": "Active", "recorded_date": "2018-04-10", "anniversary_or_expiry": "2029-07-15", "area_ha": null, "tenure_type": "Single Cell Mining Claim", "source": "Ontario MLAS operational claims (OGSEarth / LIO MapServer). Unofficial viewing data, not legal title.", "as_of": "2026-09-20", "role": "focus", "color": "#e8b040"}}, {"type": "Feature", "geometry": {"type": "Polygon", "coordinates": [[[-93.8125, 51.0417], [-93.8125, 51.0458], [-93.8188, 51.0458], [-93.8188, 51.0417], [-93.8125, 51.0417]]]}, "properties": {"company_id": "premier-american-uranium", "jurisdiction": "Ontario", "claim_id": "120438", "claim_name": null, "holder": "(44) PREMIER GOLD MINES NWO INC., (56) Evolution Mining Gold Operations Ltd.", "status": "Active", "recorded_date": "2018-04-10", "anniversary_or_expiry": "2029-07-15", "area_ha": null, "tenure_type": "Boundary Cell Mining Claim", "source": "Ontario MLAS operational claims (OGSEarth / LIO MapServer). Unofficial viewing data, not legal title.", "as_of": "2026-09-20", "role": "focus", "color": "#e8b040"}}, {"type": "Feature", "geometry": {"type": "Polygon", "coordinates": [[[-93.8125, 51.0375], [-93.8125, 51.0417], [-93.8188, 51.0417], [-93.8188, 51.0375], [-93.8125, 51.0375]]]}, "properties": {"company_id": "premier-american-uranium", "jurisdiction": "Ontario", "claim_id": "120439", "claim_name": null, "holder": "(44) PREMIER GOLD MINES NWO INC., (56) Evolution Mining Gold Operations Ltd.", "status": "Active", "recorded_date": "2018-04-10", "anniversary_or_expiry": "2029-10-17", "area_ha": null, "tenure_type": "Single Cell Mining Claim", "source": "Ontario MLAS operational claims (OGSEarth / LIO MapServer). Unofficial viewing data, not legal title.", "as_of": "2026-09-20", "role": "focus", "color": "#e8b040"}}, {"type": "Feature", "geometry": {"type": "Polygon", "coordinates": [[[-93.825, 51.0333], [-93.825, 51.0375], [-93.8313, 51.0375], [-93.8313, 51.0333], [-93.825, 51.0333]]]}, "properties": {"company_id": "premier-american-uranium", "jurisdiction": "Ontario", "claim_id": "129568", "claim_name": null, "holder": "(44) PREMIER GOLD MINES NWO INC., (56) Evolution Mining Gold Operations Ltd.", "status": "Active", "recorded_date": "2018-04-10", "anniversary_or_expiry": "2029-07-29", "area_ha": null, "tenure_type": "Boundary Cell Mining Claim", "source": "Ontario MLAS operational claims (OGSEarth / LIO MapServer). Unofficial viewing data, not legal title.", "as_of": "2026-09-20", "role": "focus", "color": "#e8b040"}}, {"type": "Feature", "geometry": {"type": "Polygon", "coordinates": [[[-93.8, 51.0542], [-93.8, 51.0583], [-93.8063, 51.0583], [-93.8063, 51.0542], [-93.8, 51.0542]]]}, "properties": {"company_id": "premier-american-uranium", "jurisdiction": "Ontario", "claim_id": "129690", "claim_name": null, "holder": "(49) PREMIER GOLD MINES NWO INC., (51) Evolution Mining Gold Operations Ltd.", "status": "Active", "recorded_date": "2018-04-10", "anniversary_or_expiry": "2029-12-15", "area_ha": null, "tenure_type": "Single Cell Mining Claim", "source": "Ontario MLAS operational claims (OGSEarth / LIO MapServer). Unofficial viewing data, not legal title.", "as_of": "2026-09-20", "role": "focus", "color": "#e8b040"}}, {"type": "Feature", "geometry": {"type": "Polygon", "coordinates": [[[-93.8188, 51.0458], [-93.8188, 51.05], [-93.825, 51.05], [-93.825, 51.0458], [-93.8188, 51.0458]]]}, "properties": {"company_id": "premier-american-uranium", "jurisdiction": "Ontario", "claim_id": "132215", "claim_name": null, "holder": "(44) PREMIER GOLD MINES NWO INC., (56) Evolution Mining Gold Operations Ltd.", "status": "Active", "recorded_date": "2018-04-10", "anniversary_or_expiry": "2029-07-29", "area_ha": null, "tenure_type": "Boundary Cell Mining Claim", "source": "Ontario MLAS operational claims (OGSEarth / LIO MapServer). Unofficial viewing data, not legal title.", "as_of": "2026-09-20", "role": "focus", "color": "#e8b040"}}, {"type": "Feature", "geometry": {"type": "Polygon", "coordinates": [[[-93.8625, 51.0292], [-93.8625, 51.0333], [-93.8688, 51.0333], [-93.8688, 51.0292], [-93.8625, 51.0292]]]}, "properties": {"company_id": "premier-american-uranium", "jurisdiction": "Ontario", "claim_id": "130594", "claim_name": null, "holder": "(100) PREMIER GOLD MINES NWO INC.", "status": "Active", "recorded_date": "2018-04-10", "anniversary_or_expiry": "2029-09-02", "area_ha": null, "tenure_type": "Boundary Cell Mining Claim", "source": "Ontario MLAS operational claims (OGSEarth / LIO MapServer). Unofficial viewing data, not legal title.", "as_of": "2026-09-20", "role": "focus", "color": "#e8b040"}}, {"type": "Feature", "geometry": {"type": "Polygon", "coordinates": [[[-93.8688, 51.0292], [-93.8688, 51.0333], [-93.875, 51.0333], [-93.875, 51.0292], [-93.8688, 51.0292]]]}, "properties": {"company_id": "premier-american-uranium", "jurisdiction": "Ontario", "claim_id": "150571", "claim_name": null, "holder": "(100) PREMIER GOLD MINES NWO INC.", "status": "Active", "recorded_date": "2018-04-10", "anniversary_or_expiry": "2029-10-30", "area_ha": null, "tenure_type": "Boundary Cell Mining Claim", "source": "Ontario MLAS operational claims (OGSEarth / LIO MapServer). Unofficial viewing data, not legal title.", "as_of": "2026-09-20", "role": "focus", "color": "#e8b040"}}, {"type": "Feature", "geometry": {"type": "Polygon", "coordinates": [[[-93.8625, 51.025], [-93.8625, 51.0292], [-93.8688, 51.0292], [-93.8688, 51.025], [-93.8625, 51.025]]]}, "properties": {"company_id": "premier-american-uranium", "jurisdiction": "Ontario", "claim_id": "150572", "claim_name": null, "holder": "(100) PREMIER GOLD MINES NWO INC.", "status": "Active", "recorded_date": "2018-04-10", "anniversary_or_expiry": "2029-10-30", "area_ha": null, "tenure_type": "Boundary Cell Mining Claim", "source": "Ontario MLAS operational claims (OGSEarth / LIO MapServer). Unofficial viewing data, not legal title.", "as_of": "2026-09-20", "role": "focus", "color": "#e8b040"}}, {"type": "Feature", "geometry": {"type": "Polygon", "coordinates": [[[-93.8188, 51.0417], [-93.8188, 51.0458], [-93.825, 51.0458], [-93.825, 51.0417], [-93.8188, 51.0417]]]}, "properties": {"company_id": "premier-american-uranium", "jurisdiction": "Ontario", "claim_id": "151709", "claim_name": null, "holder": "(49) PREMIER GOLD MINES NWO INC., (51) Evolution Mining Gold Operations Ltd.", "status": "Active", "recorded_date": "2018-04-10", "anniversary_or_expiry": "2029-01-30", "area_ha": null, "tenure_type": "Boundary Cell Mining Claim", "source": "Ontario MLAS operational claims (OGSEarth / LIO MapServer). Unofficial viewing data, not legal title.", "as_of": "2026-09-20", "role": "focus", "color": "#e8b040"}}, {"type": "Feature", "geometry": {"type": "Polygon", "coordinates": [[[-93.8625, 51.0208], [-93.8625, 51.025], [-93.8688, 51.025], [-93.8688, 51.0208], [-93.8625, 51.0208]]]}, "properties": {"company_id": "premier-american-uranium", "jurisdiction": "Ontario", "claim_id": "160636", "claim_name": null, "holder": "(100) PREMIER GOLD MINES NWO INC.", "status": "Active", "recorded_date": "2018-04-10", "anniversary_or_expiry": "2030-02-10", "area_ha": null, "tenure_type": "Boundary Cell Mining Claim", "source": "Ontario MLAS operational claims (OGSEarth / LIO MapServer). Unofficial viewing data, not legal title.", "as_of": "2026-09-20", "role": "focus", "color": "#e8b040"}}, {"type": "Feature", "geometry": {"type": "Polygon", "coordinates": [[[-93.825, 51.0542], [-93.825, 51.0583], [-93.8313, 51.0583], [-93.8313, 51.0542], [-93.825, 51.0542]]]}, "properties": {"company_id": "premier-american-uranium", "jurisdiction": "Ontario", "claim_id": "161254", "claim_name": null, "holder": "(49) PREMIER GOLD MINES NWO INC., (51) Evolution Mining Gold Operations Ltd.", "status": "Active", "recorded_date": "2018-04-10", "anniversary_or_expiry": "2029-06-03", "area_ha": null, "tenure_type": "Single Cell Mining Claim", "source": "Ontario MLAS operational claims (OGSEarth / LIO MapServer). Unofficial viewing data, not legal title.", "as_of": "2026-09-20", "role": "focus", "color": "#e8b040"}}, {"type": "Feature", "geometry": {"type": "Polygon", "coordinates": [[[-93.8313, 51.0458], [-93.8313, 51.05], [-93.8375, 51.05], [-93.8375, 51.0458], [-93.8313, 51.0458]]]}, "properties": {"company_id": "premier-american-uranium", "jurisdiction": "Ontario", "claim_id": "164711", "claim_name": null, "holder": "(44) PREMIER GOLD MINES NWO INC., (56) Evolution Mining Gold Operations Ltd.", "status": "Active", "recorded_date": "2018-04-10", "anniversary_or_expiry": "2029-02-03", "area_ha": null, "tenure_type": "Boundary Cell Mining Claim", "source": "Ontario MLAS operational claims (OGSEarth / LIO MapServer). Unofficial viewing data, not legal title.", "as_of": "2026-09-20", "role": "focus", "color": "#e8b040"}}, {"type": "Feature", "geometry": {"type": "Polygon", "coordinates": [[[-93.8188, 51.0333], [-93.8188, 51.0375], [-93.825, 51.0375], [-93.825, 51.0333], [-93.8188, 51.0333]]]}, "properties": {"company_id": "premier-american-uranium", "jurisdiction": "Ontario", "claim_id": "164849", "claim_name": null, "holder": "(44) PREMIER GOLD MINES NWO INC., (56) Evolution Mining Gold Operations Ltd.", "status": "Active", "recorded_date": "2018-04-10", "anniversary_or_expiry": "2029-07-29", "area_ha": null, "tenure_type": "Single Cell Mining Claim", "source": "Ontario MLAS operational claims (OGSEarth / LIO MapServer). Unofficial viewing data, not legal title.", "as_of": "2026-09-20", "role": "focus", "color": "#e8b040"}}, {"type": "Feature", "geometry": {"type": "Polygon", "coordinates": [[[-93.8688, 51.0167], [-93.8688, 51.0208], [-93.875, 51.0208], [-93.875, 51.0167], [-93.8688, 51.0167]]]}, "properties": {"company_id": "premier-american-uranium", "jurisdiction": "Ontario", "claim_id": "169588", "claim_name": null, "holder": "(100) PREMIER GOLD MINES NWO INC.", "status": "Active", "recorded_date": "2018-04-10", "anniversary_or_expiry": "2030-02-10", "area_ha": null, "tenure_type": "Boundary Cell Mining Claim", "source": "Ontario MLAS operational claims (OGSEarth / LIO MapServer). Unofficial viewing data, not legal title.", "as_of": "2026-09-20", "role": "focus", "color": "#e8b040"}}, {"type": "Feature", "geometry": {"type": "Polygon", "coordinates": [[[-93.8563, 51.0292], [-93.8563, 51.0333], [-93.8625, 51.0333], [-93.8625, 51.0292], [-93.8563, 51.0292]]]}, "properties": {"company_id": "premier-american-uranium", "jurisdiction": "Ontario", "claim_id": "169402", "claim_name": null, "holder": "(100) PREMIER GOLD MINES NWO INC.", "status": "Active", "recorded_date": "2018-04-10", "anniversary_or_expiry": "2030-10-30", "area_ha": null, "tenure_type": "Boundary Cell Mining Claim", "source": "Ontario MLAS operational claims (OGSEarth / LIO MapServer). Unofficial viewing data, not legal title.", "as_of": "2026-09-20", "role": "focus", "color": "#e8b040"}}, {"type": "Feature", "geometry": {"type": "Polygon", "coordinates": [[[-93.8125, 51.0458], [-93.8125, 51.05], [-93.8188, 51.05], [-93.8188, 51.0458], [-93.8125, 51.0458]]]}, "properties": {"company_id": "premier-american-uranium", "jurisdiction": "Ontario", "claim_id": "181117", "claim_name": null, "holder": "(49) PREMIER GOLD MINES NWO INC., (51) Evolution Mining Gold Operations Ltd.", "status": "Active", "recorded_date": "2018-04-10", "anniversary_or_expiry": "2029-01-30", "area_ha": null, "tenure_type": "Single Cell Mining Claim", "source": "Ontario MLAS operational claims (OGSEarth / LIO MapServer). Unofficial viewing data, not legal title.", "as_of": "2026-09-20", "role": "focus", "color": "#e8b040"}}, {"type": "Feature", "geometry": {"type": "Polygon", "coordinates": [[[-93.8063, 51.0375], [-93.8063, 51.0417], [-93.8125, 51.0417], [-93.8125, 51.0375], [-93.8063, 51.0375]]]}, "properties": {"company_id": "premier-american-uranium", "jurisdiction": "Ontario", "claim_id": "183040", "claim_name": null, "holder": "(44) PREMIER GOLD MINES NWO INC., (56) Evolution Mining Gold Operations Ltd.", "status": "Active", "recorded_date": "2018-04-10", "anniversary_or_expiry": "2029-07-29", "area_ha": null, "tenure_type": "Single Cell Mining Claim", "source": "Ontario MLAS operational claims (OGSEarth / LIO MapServer). Unofficial viewing data, not legal title.", "as_of": "2026-09-20", "role": "focus", "color": "#e8b040"}}, {"type": "Feature", "geometry": {"type": "Polygon", "coordinates": [[[-93.8063, 51.0333], [-93.8063, 51.0375], [-93.8125, 51.0375], [-93.8125, 51.0333], [-93.8063, 51.0333]]]}, "properties": {"company_id": "premier-american-uranium", "jurisdiction": "Ontario", "claim_id": "183055", "claim_name": null, "holder": "(44) PREMIER GOLD MINES NWO INC., (56) Evolution Mining Gold Operations Ltd.", "status": "Active", "recorded_date": "2018-04-10", "anniversary_or_expiry": "2029-07-03", "area_ha": null, "tenure_type": "Single Cell Mining Claim", "source": "Ontario MLAS operational claims (OGSEarth / LIO MapServer). Unofficial viewing data, not legal title.", "as_of": "2026-09-20", "role": "focus", "color": "#e8b040"}}, {"type": "Feature", "geometry": {"type": "Polygon", "coordinates": [[[-93.8125, 51.0292], [-93.8125, 51.0333], [-93.8188, 51.0333], [-93.8188, 51.0292], [-93.8125, 51.0292]]]}, "properties": {"company_id": "premier-american-uranium", "jurisdiction": "Ontario", "claim_id": "183056", "claim_name": null, "holder": "(44) PREMIER GOLD MINES NWO INC., (56) Evolution Mining Gold Operations Ltd.", "status": "Active", "recorded_date": "2018-04-10", "anniversary_or_expiry": "2029-07-03", "area_ha": null, "tenure_type": "Single Cell Mining Claim", "source": "Ontario MLAS operational claims (OGSEarth / LIO MapServer). Unofficial viewing data, not legal title.", "as_of": "2026-09-20", "role": "focus", "color": "#e8b040"}}, {"type": "Feature", "geometry": {"type": "Polygon", "coordinates": [[[-93.8688, 51.0292], [-93.8688, 51.0333], [-93.875, 51.0333], [-93.875, 51.0292], [-93.8688, 51.0292]]]}, "properties": {"company_id": "premier-american-uranium", "jurisdiction": "Ontario", "claim_id": "194807", "claim_name": null, "holder": "(100) PREMIER GOLD MINES NWO INC.", "status": "Active", "recorded_date": "2018-04-10", "anniversary_or_expiry": "2029-09-02", "area_ha": null, "tenure_type": "Boundary Cell Mining Claim", "source": "Ontario MLAS operational claims (OGSEarth / LIO MapServer). Unofficial viewing data, not legal title.", "as_of": "2026-09-20", "role": "focus", "color": "#e8b040"}}, {"type": "Feature", "geometry": {"type": "Polygon", "coordinates": [[[-93.8688, 51.0208], [-93.8688, 51.025], [-93.875, 51.025], [-93.875, 51.0208], [-93.8688, 51.0208]]]}, "properties": {"company_id": "premier-american-uranium", "jurisdiction": "Ontario", "claim_id": "194739", "claim_name": null, "holder": "(100) PREMIER GOLD MINES NWO INC.", "status": "Active", "recorded_date": "2018-04-10", "anniversary_or_expiry": "2030-02-10", "area_ha": null, "tenure_type": "Boundary Cell Mining Claim", "source": "Ontario MLAS operational claims (OGSEarth / LIO MapServer). Unofficial viewing data, not legal title.", "as_of": "2026-09-20", "role": "focus", "color": "#e8b040"}}, {"type": "Feature", "geometry": {"type": "Polygon", "coordinates": [[[-93.8063, 51.0583], [-93.8063, 51.0625], [-93.8125, 51.0625], [-93.8125, 51.0583], [-93.8063, 51.0583]]]}, "properties": {"company_id": "premier-american-uranium", "jurisdiction": "Ontario", "claim_id": "194761", "claim_name": null, "holder": "(49) PREMIER GOLD MINES NWO INC., (51) Evolution Mining Gold Operations Ltd.", "status": "Active", "recorded_date": "2018-04-10", "anniversary_or_expiry": "2029-04-21", "area_ha": null, "tenure_type": "Single Cell Mining Claim", "source": "Ontario MLAS operational claims (OGSEarth / LIO MapServer). Unofficial viewing data, not legal title.", "as_of": "2026-09-20", "role": "focus", "color": "#e8b040"}}, {"type": "Feature", "geometry": {"type": "Polygon", "coordinates": [[[-93.8188, 51.05], [-93.8188, 51.0542], [-93.825, 51.0542], [-93.825, 51.05], [-93.8188, 51.05]]]}, "properties": {"company_id": "premier-american-uranium", "jurisdiction": "Ontario", "claim_id": "198208", "claim_name": null, "holder": "(49) PREMIER GOLD MINES NWO INC., (51) Evolution Mining Gold Operations Ltd.", "status": "Active", "recorded_date": "2018-04-10", "anniversary_or_expiry": "2029-06-03", "area_ha": null, "tenure_type": "Boundary Cell Mining Claim", "source": "Ontario MLAS operational claims (OGSEarth / LIO MapServer). Unofficial viewing data, not legal title.", "as_of": "2026-09-20", "role": "focus", "color": "#e8b040"}}, {"type": "Feature", "geometry": {"type": "Polygon", "coordinates": [[[-93.8063, 51.05], [-93.8063, 51.0542], [-93.8125, 51.0542], [-93.8125, 51.05], [-93.8063, 51.05]]]}, "properties": {"company_id": "premier-american-uranium", "jurisdiction": "Ontario", "claim_id": "212873", "claim_name": null, "holder": "(49) PREMIER GOLD MINES NWO INC., (51) Evolution Mining Gold Operations Ltd.", "status": "Active", "recorded_date": "2018-04-10", "anniversary_or_expiry": "2029-06-08", "area_ha": null, "tenure_type": "Single Cell Mining Claim", "source": "Ontario MLAS operational claims (OGSEarth / LIO MapServer). Unofficial viewing data, not legal title.", "as_of": "2026-09-20", "role": "focus", "color": "#e8b040"}}, {"type": "Feature", "geometry": {"type": "Polygon", "coordinates": [[[-93.8188, 51.0375], [-93.8188, 51.0417], [-93.825, 51.0417], [-93.825, 51.0375], [-93.8188, 51.0375]]]}, "properties": {"company_id": "premier-american-uranium", "jurisdiction": "Ontario", "claim_id": "224250", "claim_name": null, "holder": "(44) PREMIER GOLD MINES NWO INC., (56) Evolution Mining Gold Operations Ltd.", "status": "Active", "recorded_date": "2018-04-10", "anniversary_or_expiry": "2029-07-29", "area_ha": null, "tenure_type": "Single Cell Mining Claim", "source": "Ontario MLAS operational claims (OGSEarth / LIO MapServer). Unofficial viewing data, not legal title.", "as_of": "2026-09-20", "role": "focus", "color": "#e8b040"}}, {"type": "Feature", "geometry": {"type": "Polygon", "coordinates": [[[-93.8313, 51.05], [-93.8313, 51.0542], [-93.8375, 51.0542], [-93.8375, 51.05], [-93.8313, 51.05]]]}, "properties": {"company_id": "premier-american-uranium", "jurisdiction": "Ontario", "claim_id": "224118", "claim_name": null, "holder": "(44) PREMIER GOLD MINES NWO INC., (56) Evolution Mining Gold Operations Ltd.", "status": "Active", "recorded_date": "2018-04-10", "anniversary_or_expiry": "2029-02-03", "area_ha": null, "tenure_type": "Single Cell Mining Claim", "source": "Ontario MLAS operational claims (OGSEarth / LIO MapServer). Unofficial viewing data, not legal title.", "as_of": "2026-09-20", "role": "focus", "color": "#e8b040"}}, {"type": "Feature", "geometry": {"type": "Polygon", "coordinates": [[[-93.8375, 51.05], [-93.8375, 51.0542], [-93.8438, 51.0542], [-93.8438, 51.05], [-93.8375, 51.05]]]}, "properties": {"company_id": "premier-american-uranium", "jurisdiction": "Ontario", "claim_id": "224119", "claim_name": null, "holder": "(44) PREMIER GOLD MINES NWO INC., (56) Evolution Mining Gold Operations Ltd.", "status": "Active", "recorded_date": "2018-04-10", "anniversary_or_expiry": "2029-02-03", "area_ha": null, "tenure_type": "Boundary Cell Mining Claim", "source": "Ontario MLAS operational claims (OGSEarth / LIO MapServer). Unofficial viewing data, not legal title.", "as_of": "2026-09-20", "role": "focus", "color": "#e8b040"}}, {"type": "Feature", "geometry": {"type": "Polygon", "coordinates": [[[-93.8375, 51.0458], [-93.8375, 51.05], [-93.8438, 51.05], [-93.8438, 51.0458], [-93.8375, 51.0458]]]}, "properties": {"company_id": "premier-american-uranium", "jurisdiction": "Ontario", "claim_id": "224120", "claim_name": null, "holder": "(44) PREMIER GOLD MINES NWO INC., (56) Evolution Mining Gold Operations Ltd.", "status": "Active", "recorded_date": "2018-04-10", "anniversary_or_expiry": "2029-02-03", "area_ha": null, "tenure_type": "Boundary Cell Mining Claim", "source": "Ontario MLAS operational claims (OGSEarth / LIO MapServer). Unofficial viewing data, not legal title.", "as_of": "2026-09-20", "role": "focus", "color": "#e8b040"}}, {"type": "Feature", "geometry": {"type": "Polygon", "coordinates": [[[-93.8063, 51.0292], [-93.8063, 51.0333], [-93.8125, 51.0333], [-93.8125, 51.0292], [-93.8063, 51.0292]]]}, "properties": {"company_id": "premier-american-uranium", "jurisdiction": "Ontario", "claim_id": "226392", "claim_name": null, "holder": "(44) PREMIER GOLD MINES NWO INC., (56) Evolution Mining Gold Operations Ltd.", "status": "Active", "recorded_date": "2018-04-10", "anniversary_or_expiry": "2029-07-03", "area_ha": null, "tenure_type": "Single Cell Mining Claim", "source": "Ontario MLAS operational claims (OGSEarth / LIO MapServer). Unofficial viewing data, not legal title.", "as_of": "2026-09-20", "role": "focus", "color": "#e8b040"}}, {"type": "Feature", "geometry": {"type": "Polygon", "coordinates": [[[-93.8625, 51.025], [-93.8625, 51.0292], [-93.8688, 51.0292], [-93.8688, 51.025], [-93.8625, 51.025]]]}, "properties": {"company_id": "premier-american-uranium", "jurisdiction": "Ontario", "claim_id": "232038", "claim_name": null, "holder": "(100) PREMIER GOLD MINES NWO INC.", "status": "Active", "recorded_date": "2018-04-10", "anniversary_or_expiry": "2029-09-02", "area_ha": null, "tenure_type": "Boundary Cell Mining Claim", "source": "Ontario MLAS operational claims (OGSEarth / LIO MapServer). Unofficial viewing data, not legal title.", "as_of": "2026-09-20", "role": "focus", "color": "#e8b040"}}, {"type": "Feature", "geometry": {"type": "Polygon", "coordinates": [[[-93.8, 51.05], [-93.8, 51.0542], [-93.8063, 51.0542], [-93.8063, 51.05], [-93.8, 51.05]]]}, "properties": {"company_id": "premier-american-uranium", "jurisdiction": "Ontario", "claim_id": "232186", "claim_name": null, "holder": "(49) PREMIER GOLD MINES NWO INC., (51) Evolution Mining Gold Operations Ltd.", "status": "Active", "recorded_date": "2018-04-10", "anniversary_or_expiry": "2029-06-08", "area_ha": null, "tenure_type": "Single Cell Mining Claim", "source": "Ontario MLAS operational claims (OGSEarth / LIO MapServer). Unofficial viewing data, not legal title.", "as_of": "2026-09-20", "role": "focus", "color": "#e8b040"}}, {"type": "Feature", "geometry": {"type": "Polygon", "coordinates": [[[-93.825, 51.05], [-93.825, 51.0542], [-93.8313, 51.0542], [-93.8313, 51.05], [-93.825, 51.05]]]}, "properties": {"company_id": "premier-american-uranium", "jurisdiction": "Ontario", "claim_id": "250487", "claim_name": null, "holder": "(49) PREMIER GOLD MINES NWO INC., (51) Evolution Mining Gold Operations Ltd.", "status": "Active", "recorded_date": "2018-04-10", "anniversary_or_expiry": "2029-06-03", "area_ha": null, "tenure_type": "Boundary Cell Mining Claim", "source": "Ontario MLAS operational claims (OGSEarth / LIO MapServer). Unofficial viewing data, not legal title.", "as_of": "2026-09-20", "role": "focus", "color": "#e8b040"}}, {"type": "Feature", "geometry": {"type": "Polygon", "coordinates": [[[-93.8063, 51.0417], [-93.8063, 51.0458], [-93.8125, 51.0458], [-93.8125, 51.0417], [-93.8063, 51.0417]]]}, "properties": {"company_id": "premier-american-uranium", "jurisdiction": "Ontario", "claim_id": "252147", "claim_name": null, "holder": "(44) PREMIER GOLD MINES NWO INC., (56) Evolution Mining Gold Operations Ltd.", "status": "Active", "recorded_date": "2018-04-10", "anniversary_or_expiry": "2029-07-29", "area_ha": null, "tenure_type": "Boundary Cell Mining Claim", "source": "Ontario MLAS operational claims (OGSEarth / LIO MapServer). Unofficial viewing data, not legal title.", "as_of": "2026-09-20", "role": "focus", "color": "#e8b040"}}, {"type": "Feature", "geometry": {"type": "Polygon", "coordinates": [[[-93.8, 51.0375], [-93.8, 51.0417], [-93.8063, 51.0417], [-93.8063, 51.0375], [-93.8, 51.0375]]]}, "properties": {"company_id": "premier-american-uranium", "jurisdiction": "Ontario", "claim_id": "265647", "claim_name": null, "holder": "(44) PREMIER GOLD MINES NWO INC., (56) Evolution Mining Gold Operations Ltd.", "status": "Active", "recorded_date": "2018-04-10", "anniversary_or_expiry": "2029-07-03", "area_ha": null, "tenure_type": "Boundary Cell Mining Claim", "source": "Ontario MLAS operational claims (OGSEarth / LIO MapServer). Unofficial viewing data, not legal title.", "as_of": "2026-09-20", "role": "focus", "color": "#e8b040"}}, {"type": "Feature", "geometry": {"type": "Polygon", "coordinates": [[[-93.8125, 51.0542], [-93.8125, 51.0583], [-93.8188, 51.0583], [-93.8188, 51.0542], [-93.8125, 51.0542]]]}, "properties": {"company_id": "premier-american-uranium", "jurisdiction": "Ontario", "claim_id": "264197", "claim_name": null, "holder": "(49) PREMIER GOLD MINES NWO INC., (51) Evolution Mining Gold Operations Ltd.", "status": "Active", "recorded_date": "2018-04-10", "anniversary_or_expiry": "2029-12-27", "area_ha": null, "tenure_type": "Single Cell Mining Claim", "source": "Ontario MLAS operational claims (OGSEarth / LIO MapServer). Unofficial viewing data, not legal title.", "as_of": "2026-09-20", "role": "focus", "color": "#e8b040"}}, {"type": "Feature", "geometry": {"type": "Polygon", "coordinates": [[[-93.8125, 51.05], [-93.8125, 51.0542], [-93.8188, 51.0542], [-93.8188, 51.05], [-93.8125, 51.05]]]}, "properties": {"company_id": "premier-american-uranium", "jurisdiction": "Ontario", "claim_id": "264198", "claim_name": null, "holder": "(49) PREMIER GOLD MINES NWO INC., (51) Evolution Mining Gold Operations Ltd.", "status": "Active", "recorded_date": "2018-04-10", "anniversary_or_expiry": "2029-01-30", "area_ha": null, "tenure_type": "Single Cell Mining Claim", "source": "Ontario MLAS operational claims (OGSEarth / LIO MapServer). Unofficial viewing data, not legal title.", "as_of": "2026-09-20", "role": "focus", "color": "#e8b040"}}, {"type": "Feature", "geometry": {"type": "Polygon", "coordinates": [[[-93.8625, 51.0167], [-93.8625, 51.0208], [-93.8688, 51.0208], [-93.8688, 51.0167], [-93.8625, 51.0167]]]}, "properties": {"company_id": "premier-american-uranium", "jurisdiction": "Ontario", "claim_id": "264999", "claim_name": null, "holder": "(100) PREMIER GOLD MINES NWO INC.", "status": "Active", "recorded_date": "2018-04-10", "anniversary_or_expiry": "2030-02-10", "area_ha": null, "tenure_type": "Boundary Cell Mining Claim", "source": "Ontario MLAS operational claims (OGSEarth / LIO MapServer). Unofficial viewing data, not legal title.", "as_of": "2026-09-20", "role": "focus", "color": "#e8b040"}}, {"type": "Feature", "geometry": {"type": "Polygon", "coordinates": [[[-93.8, 51.0583], [-93.8, 51.0625], [-93.8063, 51.0625], [-93.8063, 51.0583], [-93.8, 51.0583]]]}, "properties": {"company_id": "premier-american-uranium", "jurisdiction": "Ontario", "claim_id": "268727", "claim_name": null, "holder": "(49) PREMIER GOLD MINES NWO INC., (51) Evolution Mining Gold Operations Ltd.", "status": "Active", "recorded_date": "2018-04-10", "anniversary_or_expiry": "2029-12-15", "area_ha": null, "tenure_type": "Single Cell Mining Claim", "source": "Ontario MLAS operational claims (OGSEarth / LIO MapServer). Unofficial viewing data, not legal title.", "as_of": "2026-09-20", "role": "focus", "color": "#e8b040"}}, {"type": "Feature", "geometry": {"type": "Polygon", "coordinates": [[[-93.825, 51.0375], [-93.825, 51.0417], [-93.8313, 51.0417], [-93.8313, 51.0375], [-93.825, 51.0375]]]}, "properties": {"company_id": "premier-american-uranium", "jurisdiction": "Ontario", "claim_id": "268212", "claim_name": null, "holder": "(44) PREMIER GOLD MINES NWO INC., (56) Evolution Mining Gold Operations Ltd.", "status": "Active", "recorded_date": "2018-04-10", "anniversary_or_expiry": "2029-07-29", "area_ha": null, "tenure_type": "Boundary Cell Mining Claim", "source": "Ontario MLAS operational claims (OGSEarth / LIO MapServer). Unofficial viewing data, not legal title.", "as_of": "2026-09-20", "role": "focus", "color": "#e8b040"}}, {"type": "Feature", "geometry": {"type": "Polygon", "coordinates": [[[-93.8063, 51.0542], [-93.8063, 51.0583], [-93.8125, 51.0583], [-93.8125, 51.0542], [-93.8063, 51.0542]]]}, "properties": {"company_id": "premier-american-uranium", "jurisdiction": "Ontario", "claim_id": "268847", "claim_name": null, "holder": "(49) PREMIER GOLD MINES NWO INC., (51) Evolution Mining Gold Operations Ltd.", "status": "Active", "recorded_date": "2018-04-10", "anniversary_or_expiry": "2029-04-21", "area_ha": null, "tenure_type": "Single Cell Mining Claim", "source": "Ontario MLAS operational claims (OGSEarth / LIO MapServer). Unofficial viewing data, not legal title.", "as_of": "2026-09-20", "role": "focus", "color": "#e8b040"}}, {"type": "Feature", "geometry": {"type": "Polygon", "coordinates": [[[-93.8063, 51.0417], [-93.8063, 51.0458], [-93.8125, 51.0458], [-93.8125, 51.0417], [-93.8063, 51.0417]]]}, "properties": {"company_id": "premier-american-uranium", "jurisdiction": "Ontario", "claim_id": "271688", "claim_name": null, "holder": "(49) PREMIER GOLD MINES NWO INC., (51) Evolution Mining Gold Operations Ltd.", "status": "Active", "recorded_date": "2018-04-10", "anniversary_or_expiry": "2029-01-30", "area_ha": null, "tenure_type": "Boundary Cell Mining Claim", "source": "Ontario MLAS operational claims (OGSEarth / LIO MapServer). Unofficial viewing data, not legal title.", "as_of": "2026-09-20", "role": "focus", "color": "#e8b040"}}, {"type": "Feature", "geometry": {"type": "Polygon", "coordinates": [[[-93.8, 51.0333], [-93.8, 51.0375], [-93.8063, 51.0375], [-93.8063, 51.0333], [-93.8, 51.0333]]]}, "properties": {"company_id": "premier-american-uranium", "jurisdiction": "Ontario", "claim_id": "273587", "claim_name": null, "holder": "(44) PREMIER GOLD MINES NWO INC., (56) Evolution Mining Gold Operations Ltd.", "status": "Active", "recorded_date": "2018-04-10", "anniversary_or_expiry": "2029-07-03", "area_ha": null, "tenure_type": "Boundary Cell Mining Claim", "source": "Ontario MLAS operational claims (OGSEarth / LIO MapServer). Unofficial viewing data, not legal title.", "as_of": "2026-09-20", "role": "focus", "color": "#e8b040"}}, {"type": "Feature", "geometry": {"type": "Polygon", "coordinates": [[[-93.825, 51.05], [-93.825, 51.0542], [-93.8313, 51.0542], [-93.8313, 51.05], [-93.825, 51.05]]]}, "properties": {"company_id": "premier-american-uranium", "jurisdiction": "Ontario", "claim_id": "280037", "claim_name": null, "holder": "(44) PREMIER GOLD MINES NWO INC., (56) Evolution Mining Gold Operations Ltd.", "status": "Active", "recorded_date": "2018-04-10", "anniversary_or_expiry": "2029-07-29", "area_ha": null, "tenure_type": "Boundary Cell Mining Claim", "source": "Ontario MLAS operational claims (OGSEarth / LIO MapServer). Unofficial viewing data, not legal title.", "as_of": "2026-09-20", "role": "focus", "color": "#e8b040"}}, {"type": "Feature", "geometry": {"type": "Polygon", "coordinates": [[[-93.825, 51.0458], [-93.825, 51.05], [-93.8313, 51.05], [-93.8313, 51.0458], [-93.825, 51.0458]]]}, "properties": {"company_id": "premier-american-uranium", "jurisdiction": "Ontario", "claim_id": "299233", "claim_name": null, "holder": "(44) PREMIER GOLD MINES NWO INC., (56) Evolution Mining Gold Operations Ltd.", "status": "Active", "recorded_date": "2018-04-10", "anniversary_or_expiry": "2029-07-29", "area_ha": null, "tenure_type": "Boundary Cell Mining Claim", "source": "Ontario MLAS operational claims (OGSEarth / LIO MapServer). Unofficial viewing data, not legal title.", "as_of": "2026-09-20", "role": "focus", "color": "#e8b040"}}, {"type": "Feature", "geometry": {"type": "Polygon", "coordinates": [[[-93.8688, 51.025], [-93.8688, 51.0292], [-93.875, 51.0292], [-93.875, 51.025], [-93.8688, 51.025]]]}, "properties": {"company_id": "premier-american-uranium", "jurisdiction": "Ontario", "claim_id": "302016", "claim_name": null, "holder": "(100) PREMIER GOLD MINES NWO INC.", "status": "Active", "recorded_date": "2018-04-10", "anniversary_or_expiry": "2029-10-30", "area_ha": null, "tenure_type": "Boundary Cell Mining Claim", "source": "Ontario MLAS operational claims (OGSEarth / LIO MapServer). Unofficial viewing data, not legal title.", "as_of": "2026-09-20", "role": "focus", "color": "#e8b040"}}, {"type": "Feature", "geometry": {"type": "Polygon", "coordinates": [[[-93.8438, 51.05], [-93.8438, 51.0542], [-93.85, 51.0542], [-93.85, 51.05], [-93.8438, 51.05]]]}, "properties": {"company_id": "premier-american-uranium", "jurisdiction": "Ontario", "claim_id": "314619", "claim_name": null, "holder": "(44) PREMIER GOLD MINES NWO INC., (56) Evolution Mining Gold Operations Ltd.", "status": "Active", "recorded_date": "2018-04-10", "anniversary_or_expiry": "2029-02-03", "area_ha": null, "tenure_type": "Boundary Cell Mining Claim", "source": "Ontario MLAS operational claims (OGSEarth / LIO MapServer). Unofficial viewing data, not legal title.", "as_of": "2026-09-20", "role": "focus", "color": "#e8b040"}}, {"type": "Feature", "geometry": {"type": "Polygon", "coordinates": [[[-93.8563, 51.0292], [-93.8563, 51.0333], [-93.8625, 51.0333], [-93.8625, 51.0292], [-93.8563, 51.0292]]]}, "properties": {"company_id": "premier-american-uranium", "jurisdiction": "Ontario", "claim_id": "315924", "claim_name": null, "holder": "(100) PREMIER GOLD MINES NWO INC.", "status": "Active", "recorded_date": "2018-04-10", "anniversary_or_expiry": "2029-09-02", "area_ha": null, "tenure_type": "Boundary Cell Mining Claim", "source": "Ontario MLAS operational claims (OGSEarth / LIO MapServer). Unofficial viewing data, not legal title.", "as_of": "2026-09-20", "role": "focus", "color": "#e8b040"}}, {"type": "Feature", "geometry": {"type": "Polygon", "coordinates": [[[-93.8625, 51.0292], [-93.8625, 51.0333], [-93.8688, 51.0333], [-93.8688, 51.0292], [-93.8625, 51.0292]]]}, "properties": {"company_id": "premier-american-uranium", "jurisdiction": "Ontario", "claim_id": "319237", "claim_name": null, "holder": "(100) PREMIER GOLD MINES NWO INC.", "status": "Active", "recorded_date": "2018-04-10", "anniversary_or_expiry": "2029-10-30", "area_ha": null, "tenure_type": "Boundary Cell Mining Claim", "source": "Ontario MLAS operational claims (OGSEarth / LIO MapServer). Unofficial viewing data, not legal title.", "as_of": "2026-09-20", "role": "focus", "color": "#e8b040"}}, {"type": "Feature", "geometry": {"type": "Polygon", "coordinates": [[[-93.8125, 51.0583], [-93.8125, 51.0625], [-93.8188, 51.0625], [-93.8188, 51.0583], [-93.8125, 51.0583]]]}, "properties": {"company_id": "premier-american-uranium", "jurisdiction": "Ontario", "claim_id": "328619", "claim_name": null, "holder": "(49) PREMIER GOLD MINES NWO INC., (51) Evolution Mining Gold Operations Ltd.", "status": "Active", "recorded_date": "2018-04-10", "anniversary_or_expiry": "2029-12-27", "area_ha": null, "tenure_type": "Single Cell Mining Claim", "source": "Ontario MLAS operational claims (OGSEarth / LIO MapServer). Unofficial viewing data, not legal title.", "as_of": "2026-09-20", "role": "focus", "color": "#e8b040"}}, {"type": "Feature", "geometry": {"type": "Polygon", "coordinates": [[[-93.8688, 51.025], [-93.8688, 51.0292], [-93.875, 51.0292], [-93.875, 51.025], [-93.8688, 51.025]]]}, "properties": {"company_id": "premier-american-uranium", "jurisdiction": "Ontario", "claim_id": "328688", "claim_name": null, "holder": "(100) PREMIER GOLD MINES NWO INC.", "status": "Active", "recorded_date": "2018-04-10", "anniversary_or_expiry": "2029-09-02", "area_ha": null, "tenure_type": "Boundary Cell Mining Claim", "source": "Ontario MLAS operational claims (OGSEarth / LIO MapServer). Unofficial viewing data, not legal title.", "as_of": "2026-09-20", "role": "focus", "color": "#e8b040"}}, {"type": "Feature", "geometry": {"type": "Polygon", "coordinates": [[[-93.8188, 51.0417], [-93.8188, 51.0458], [-93.825, 51.0458], [-93.825, 51.0417], [-93.8188, 51.0417]]]}, "properties": {"company_id": "premier-american-uranium", "jurisdiction": "Ontario", "claim_id": "328131", "claim_name": null, "holder": "(44) PREMIER GOLD MINES NWO INC., (56) Evolution Mining Gold Operations Ltd.", "status": "Active", "recorded_date": "2018-04-10", "anniversary_or_expiry": "2029-06-07", "area_ha": null, "tenure_type": "Boundary Cell Mining Claim", "source": "Ontario MLAS operational claims (OGSEarth / LIO MapServer). Unofficial viewing data, not legal title.", "as_of": "2026-09-20", "role": "focus", "color": "#e8b040"}}, {"type": "Feature", "geometry": {"type": "Polygon", "coordinates": [[[-93.8438, 51.0458], [-93.8438, 51.05], [-93.85, 51.05], [-93.85, 51.0458], [-93.8438, 51.0458]]]}, "properties": {"company_id": "premier-american-uranium", "jurisdiction": "Ontario", "claim_id": "331914", "claim_name": null, "holder": "(44) PREMIER GOLD MINES NWO INC., (56) Evolution Mining Gold Operations Ltd.", "status": "Active", "recorded_date": "2018-04-10", "anniversary_or_expiry": "2029-02-03", "area_ha": null, "tenure_type": "Boundary Cell Mining Claim", "source": "Ontario MLAS operational claims (OGSEarth / LIO MapServer). Unofficial viewing data, not legal title.", "as_of": "2026-09-20", "role": "focus", "color": "#e8b040"}}, {"type": "Feature", "geometry": {"type": "Polygon", "coordinates": [[[-93.8188, 51.05], [-93.8188, 51.0542], [-93.825, 51.0542], [-93.825, 51.05], [-93.8188, 51.05]]]}, "properties": {"company_id": "premier-american-uranium", "jurisdiction": "Ontario", "claim_id": "338997", "claim_name": null, "holder": "(44) PREMIER GOLD MINES NWO INC., (56) Evolution Mining Gold Operations Ltd.", "status": "Active", "recorded_date": "2018-04-10", "anniversary_or_expiry": "2029-07-29", "area_ha": null, "tenure_type": "Boundary Cell Mining Claim", "source": "Ontario MLAS operational claims (OGSEarth / LIO MapServer). Unofficial viewing data, not legal title.", "as_of": "2026-09-20", "role": "focus", "color": "#e8b040"}}, {"type": "Feature", "geometry": {"type": "Polygon", "coordinates": [[[-93.8188, 51.0458], [-93.8188, 51.05], [-93.825, 51.05], [-93.825, 51.0458], [-93.8188, 51.0458]]]}, "properties": {"company_id": "premier-american-uranium", "jurisdiction": "Ontario", "claim_id": "342714", "claim_name": null, "holder": "(49) PREMIER GOLD MINES NWO INC., (51) Evolution Mining Gold Operations Ltd.", "status": "Active", "recorded_date": "2018-04-10", "anniversary_or_expiry": "2029-01-30", "area_ha": null, "tenure_type": "Boundary Cell Mining Claim", "source": "Ontario MLAS operational claims (OGSEarth / LIO MapServer). Unofficial viewing data, not legal title.", "as_of": "2026-09-20", "role": "focus", "color": "#e8b040"}}, {"type": "Feature", "geometry": {"type": "Polygon", "coordinates": [[[-93.8063, 51.0458], [-93.8063, 51.05], [-93.8125, 51.05], [-93.8125, 51.0458], [-93.8063, 51.0458]]]}, "properties": {"company_id": "premier-american-uranium", "jurisdiction": "Ontario", "claim_id": "342613", "claim_name": null, "holder": "(49) PREMIER GOLD MINES NWO INC., (51) Evolution Mining Gold Operations Ltd.", "status": "Active", "recorded_date": "2018-04-10", "anniversary_or_expiry": "2029-06-08", "area_ha": null, "tenure_type": "Single Cell Mining Claim", "source": "Ontario MLAS operational claims (OGSEarth / LIO MapServer). Unofficial viewing data, not legal title.", "as_of": "2026-09-20", "role": "focus", "color": "#e8b040"}}, {"type": "Feature", "geometry": {"type": "Polygon", "coordinates": [[[-93.8, 51.0292], [-93.8, 51.0333], [-93.8063, 51.0333], [-93.8063, 51.0292], [-93.8, 51.0292]]]}, "properties": {"company_id": "premier-american-uranium", "jurisdiction": "Ontario", "claim_id": "344626", "claim_name": null, "holder": "(44) PREMIER GOLD MINES NWO INC., (56) Evolution Mining Gold Operations Ltd.", "status": "Active", "recorded_date": "2018-04-10", "anniversary_or_expiry": "2029-07-03", "area_ha": null, "tenure_type": "Single Cell Mining Claim", "source": "Ontario MLAS operational claims (OGSEarth / LIO MapServer). Unofficial viewing data, not legal title.", "as_of": "2026-09-20", "role": "focus", "color": "#e8b040"}}]}