{"type": "FeatureCollection", "features": [{"type": "Feature", "geometry": {"type": "Polygon", "coordinates": [[[-72.28333333614917, 48.83333333464009], [-72.28333333601343, 48.841666672405644], [-72.27500000307892, 48.841666668352815], [-72.27499999744063, 48.833333340760746], [-72.28333333614917, 48.83333333464009]]]}, "properties": {"company_id": "premier-american-uranium", "jurisdiction": "Quebec", "claim_id": "", "claim_name": null, "holder": "Premier Horticulture ltée", "status": "Active", "recorded_date": null, "anniversary_or_expiry": null, "area_ha": null, "tenure_type": null, "source": "GESTIM active titles (MRNF digital data dump). Not legal title.", "as_of": "2026-09-20", "role": "focus", "color": "#e8b040"}}, {"type": "Feature", "geometry": {"type": "Polygon", "coordinates": [[[-72.27499999744063, 48.833333340760746], [-72.27500000307892, 48.841666668352815], [-72.26666666199894, 48.84166667240061], [-72.26666666519075, 48.83333333730929], [-72.27499999744063, 48.833333340760746]]]}, "properties": {"company_id": "premier-american-uranium", "jurisdiction": "Quebec", "claim_id": "", "claim_name": null, "holder": "Premier Horticulture ltée", "status": "Active", "recorded_date": null, "anniversary_or_expiry": null, "area_ha": null, "tenure_type": null, "source": "GESTIM active titles (MRNF digital data dump). Not legal title.", "as_of": "2026-09-20", "role": "focus", "color": "#e8b040"}}, {"type": "Feature", "geometry": {"type": "Polygon", "coordinates": [[[-72.27500000307892, 48.841666668352815], [-72.27499999113485, 48.850000004141556], [-72.26666666876348, 48.85000000736018], [-72.26666666199894, 48.84166667240061], [-72.27500000307892, 48.841666668352815]]]}, "properties": {"company_id": "premier-american-uranium", "jurisdiction": "Quebec", "claim_id": "", "claim_name": null, "holder": "Premier Horticulture ltée", "status": "Active", "recorded_date": null, "anniversary_or_expiry": null, "area_ha": null, "tenure_type": null, "source": "GESTIM active titles (MRNF digital data dump). Not legal title.", "as_of": "2026-09-20", "role": "focus", "color": "#e8b040"}}, {"type": "Feature", "geometry": {"type": "Polygon", "coordinates": [[[-72.49166666364148, 48.7500000060951], [-72.49166666782162, 48.75833333860004], [-72.48333333318924, 48.75833333378082], [-72.48333333515477, 48.75000000347433], [-72.49166666364148, 48.7500000060951]]]}, "properties": {"company_id": "premier-american-uranium", "jurisdiction": "Quebec", "claim_id": "", "claim_name": null, "holder": "Premier Horticulture ltée", "status": "Active", "recorded_date": null, "anniversary_or_expiry": null, "area_ha": null, "tenure_type": null, "source": "GESTIM active titles (MRNF digital data dump). Not legal title.", "as_of": "2026-09-20", "role": "focus", "color": "#e8b040"}}, {"type": "Feature", "geometry": {"type": "Polygon", "coordinates": [[[-72.48333333515477, 48.75000000347433], [-72.48333333318924, 48.75833333378082], [-72.47500000479465, 48.75833333731677], [-72.4749999997794, 48.74999999990133], [-72.48333333515477, 48.75000000347433]]]}, "properties": {"company_id": "premier-american-uranium", "jurisdiction": "Quebec", "claim_id": "", "claim_name": null, "holder": "Premier Horticulture ltée", "status": "Active", "recorded_date": null, "anniversary_or_expiry": null, "area_ha": null, "tenure_type": null, "source": "GESTIM active titles (MRNF digital data dump). Not legal title.", "as_of": "2026-09-20", "role": "focus", "color": "#e8b040"}}, {"type": "Feature", "geometry": {"type": "Polygon", "coordinates": [[[-68.2536382949603, 49.14087010298641], [-68.25357344977205, 49.15585617574597], [-68.24995285385725, 49.155846207480245], [-68.24633226068855, 49.1558361256935], [-68.24639974400766, 49.14087705714045], [-68.25001945094324, 49.14087363959691], [-68.2536382949603, 49.14087010298641]]]}, "properties": {"company_id": "premier-american-uranium", "jurisdiction": "Quebec", "claim_id": "", "claim_name": null, "holder": "Premier Horticulture ltée", "status": "Active", "recorded_date": null, "anniversary_or_expiry": null, "area_ha": null, "tenure_type": null, "source": "GESTIM active titles (MRNF digital data dump). Not legal title.", "as_of": "2026-09-20", "role": "focus", "color": "#e8b040"}}, {"type": "Feature", "geometry": {"type": "Polygon", "coordinates": [[[-68.25719654560743, 49.15587054429518], [-68.25357344977205, 49.15585617574597], [-68.2536382949603, 49.14087010298641], [-68.25657154443891, 49.14087103603185], [-68.25725793621925, 49.140870955821796], [-68.25719654560743, 49.15587054429518]]]}, "properties": {"company_id": "premier-american-uranium", "jurisdiction": "Quebec", "claim_id": "", "claim_name": null, "holder": "Premier Horticulture ltée", "status": "Active", "recorded_date": null, "anniversary_or_expiry": null, "area_ha": null, "tenure_type": null, "source": "GESTIM active titles (MRNF digital data dump). Not legal title.", "as_of": "2026-09-20", "role": "focus", "color": "#e8b040"}}, {"type": "Feature", "geometry": {"type": "Polygon", "coordinates": [[[-68.20658922250081, 49.11915149963014], [-68.18869775167826, 49.11913027737487], [-68.18865534363414, 49.1163622703561], [-68.18853950998303, 49.11350726253108], [-68.18854818014566, 49.10936734630445], [-68.19212912877889, 49.109379184630136], [-68.19213594629821, 49.10616511360133], [-68.19209292459598, 49.105647791710815], [-68.1957349946384, 49.105715107266846], [-68.19933062899452, 49.10578145508014], [-68.20291246761515, 49.1058474336904], [-68.20546464531213, 49.10589438060017], [-68.20630298102205, 49.105909790908754], [-68.20658924595828, 49.11351128569623], [-68.2065897273137, 49.1163808722932], [-68.20658922250081, 49.11915149963014]]]}, "properties": {"company_id": "premier-american-uranium", "jurisdiction": "Quebec", "claim_id": "", "claim_name": null, "holder": "Premier Horticulture ltée", "status": "Active", "recorded_date": null, "anniversary_or_expiry": null, "area_ha": null, "tenure_type": null, "source": "GESTIM active titles (MRNF digital data dump). Not legal title.", "as_of": "2026-09-20", "role": "focus", "color": "#e8b040"}}, {"type": "Feature", "geometry": {"type": "Polygon", "coordinates": [[[-68.25363829279901, 49.1408702469005], [-68.23554644824915, 49.14085855643421], [-68.23556352230625, 49.13810913715222], [-68.23396468444348, 49.138139271977934], [-68.23417163910892, 49.12949488725858], [-68.23394450491482, 49.12053865802517], [-68.25359989282525, 49.120519945236474], [-68.25363829279901, 49.1408702469005]]]}, "properties": {"company_id": "premier-american-uranium", "jurisdiction": "Quebec", "claim_id": "", "claim_name": null, "holder": "Premier Horticulture ltée", "status": "Active", "recorded_date": null, "anniversary_or_expiry": null, "area_ha": null, "tenure_type": null, "source": "GESTIM active titles (MRNF digital data dump). Not legal title.", "as_of": "2026-09-20", "role": "focus", "color": "#e8b040"}}, {"type": "Feature", "geometry": {"type": "Polygon", "coordinates": [[[-69.47966970712355, 47.80533707565743], [-69.46785010989267, 47.82100103608515], [-69.46093089434912, 47.816399812018695], [-69.4584374755148, 47.814740759255955], [-69.45594719344892, 47.8130861382618], [-69.47320915820485, 47.801220529003636], [-69.47575421499758, 47.802843060557976], [-69.47829902961281, 47.80446553634955], [-69.47966970712355, 47.80533707565743]]]}, "properties": {"company_id": "premier-american-uranium", "jurisdiction": "Quebec", "claim_id": "", "claim_name": null, "holder": "Premier Horticulture ltée", "status": "Active", "recorded_date": null, "anniversary_or_expiry": null, "area_ha": null, "tenure_type": null, "source": "GESTIM active titles (MRNF digital data dump). Not legal title.", "as_of": "2026-09-20", "role": "focus", "color": "#e8b040"}}, {"type": "Feature", "geometry": {"type": "Polygon", "coordinates": [[[-66.01461251767955, 50.27637468401114], [-66.01758466047069, 50.27832128374235], [-66.02022215230927, 50.2783254729705], [-66.02021913204281, 50.28911284456877], [-66.0147242642924, 50.29517527190934], [-66.00901387746258, 50.29641372545098], [-65.99944391778571, 50.296291941364856], [-65.99024895714373, 50.29401287949699], [-65.99039472329154, 50.28690001960941], [-65.99216161954041, 50.28551094880078], [-66.00339105814959, 50.27608208755105], [-66.00711453290897, 50.27472796884101], [-66.01461302813665, 50.274729355127064], [-66.01461251767955, 50.27637468401114]]]}, "properties": {"company_id": "premier-american-uranium", "jurisdiction": "Quebec", "claim_id": "", "claim_name": null, "holder": "Premier Horticulture ltée", "status": "Active", "recorded_date": null, "anniversary_or_expiry": null, "area_ha": null, "tenure_type": null, "source": "GESTIM active titles (MRNF digital data dump). Not legal title.", "as_of": "2026-09-20", "role": "focus", "color": "#e8b040"}}, {"type": "Feature", "geometry": {"type": "Polygon", "coordinates": [[[-66.01461251767955, 50.27637468401114], [-66.01758466047069, 50.27832128374235], [-66.02022215230927, 50.2783254729705], [-66.02021913204281, 50.28911284456877], [-66.0147242642924, 50.29517527190934], [-66.00901387746258, 50.29641372545098], [-65.99944391778571, 50.296291941364856], [-65.99024895714373, 50.29401287949699], [-65.99039472329154, 50.28690001960941], [-65.99216161954041, 50.28551094880078], [-66.00339105814959, 50.27608208755105], [-66.00711453290897, 50.27472796884101], [-66.01461302813665, 50.274729355127064], [-66.01461251767955, 50.27637468401114]]]}, "properties": {"company_id": "premier-american-uranium", "jurisdiction": "Quebec", "claim_id": "", "claim_name": null, "holder": "Premier Horticulture ltée", "status": "Active", "recorded_date": null, "anniversary_or_expiry": null, "area_ha": null, "tenure_type": null, "source": "GESTIM active titles (MRNF digital data dump). Not legal title.", "as_of": "2026-09-20", "role": "focus", "color": "#e8b040"}}, {"type": "Feature", "geometry": {"type": "Polygon", "coordinates": [[[-72.48333332805781, 48.73333334025096], [-72.48333333797612, 48.74166667239686], [-72.47499999499432, 48.74166667071381], [-72.47500000491787, 48.7333333320771], [-72.48333332805781, 48.73333334025096]]]}, "properties": {"company_id": "premier-american-uranium", "jurisdiction": "Quebec", "claim_id": "", "claim_name": null, "holder": "Premier Horticulture ltée", "status": "Active", "recorded_date": null, "anniversary_or_expiry": null, "area_ha": null, "tenure_type": null, "source": "GESTIM active titles (MRNF digital data dump). Not legal title.", "as_of": "2026-09-20", "role": "focus", "color": "#e8b040"}}, {"type": "Feature", "geometry": {"type": "Polygon", "coordinates": [[[-72.47500000491787, 48.7333333320771], [-72.47499999499432, 48.74166667071381], [-72.46666665870589, 48.74166666834523], [-72.46666666041149, 48.73333334057434], [-72.47500000491787, 48.7333333320771]]]}, "properties": {"company_id": "premier-american-uranium", "jurisdiction": "Quebec", "claim_id": "", "claim_name": null, "holder": "Premier Horticulture ltée", "status": "Active", "recorded_date": null, "anniversary_or_expiry": null, "area_ha": null, "tenure_type": null, "source": "GESTIM active titles (MRNF digital data dump). Not legal title.", "as_of": "2026-09-20", "role": "focus", "color": "#e8b040"}}, {"type": "Feature", "geometry": {"type": "Polygon", "coordinates": [[[-72.48333333797612, 48.74166667239686], [-72.48333333515475, 48.750000003474305], [-72.47499999977941, 48.74999999990133], [-72.47499999499432, 48.74166667071381], [-72.48333333797612, 48.74166667239686]]]}, "properties": {"company_id": "premier-american-uranium", "jurisdiction": "Quebec", "claim_id": "", "claim_name": null, "holder": "Premier Horticulture ltée", "status": "Active", "recorded_date": null, "anniversary_or_expiry": null, "area_ha": null, "tenure_type": null, "source": "GESTIM active titles (MRNF digital data dump). Not legal title.", "as_of": "2026-09-20", "role": "focus", "color": "#e8b040"}}, {"type": "Feature", "geometry": {"type": "Polygon", "coordinates": [[[-72.47499999499432, 48.74166667071381], [-72.47499999977941, 48.74999999990133], [-72.46666667063147, 48.750000004654076], [-72.46666665870589, 48.74166666834523], [-72.47499999499432, 48.74166667071381]]]}, "properties": {"company_id": "premier-american-uranium", "jurisdiction": "Quebec", "claim_id": "", "claim_name": null, "holder": "Premier Horticulture ltée", "status": "Active", "recorded_date": null, "anniversary_or_expiry": null, "area_ha": null, "tenure_type": null, "source": "GESTIM active titles (MRNF digital data dump). Not legal title.", "as_of": "2026-09-20", "role": "focus", "color": "#e8b040"}}, {"type": "Feature", "geometry": {"type": "Polygon", "coordinates": [[[-68.26806402069633, 49.162205289422914], [-68.26444282077378, 49.162204767932394], [-68.26082247254972, 49.162204138323716], [-68.25719363456122, 49.16219884285024], [-68.25719654560743, 49.15587054429518], [-68.25725793817152, 49.140870955819835], [-68.253638292799, 49.1408702469005], [-68.25359989282525, 49.120519945236474], [-68.23394450491482, 49.12053865802517], [-68.23460703167156, 49.11477267032378], [-68.2600231023469, 49.11469098567859], [-68.25981439649242, 49.14086835651943], [-68.2608862141883, 49.1408672527085], [-68.26450585788065, 49.14086787831845], [-68.26812471915234, 49.14086388773325], [-68.26806476281996, 49.155872481331215], [-68.26806402069633, 49.162205289422914]]]}, "properties": {"company_id": "premier-american-uranium", "jurisdiction": "Quebec", "claim_id": "", "claim_name": null, "holder": "Premier Horticulture ltée", "status": "Active", "recorded_date": null, "anniversary_or_expiry": null, "area_ha": null, "tenure_type": null, "source": "GESTIM active titles (MRNF digital data dump). Not legal title.", "as_of": "2026-09-20", "role": "focus", "color": "#e8b040"}}, {"type": "Feature", "geometry": {"type": "Polygon", "coordinates": [[[-68.27168435786875, 49.16220569190184], [-68.26806402069633, 49.162205289422914], [-68.26806476281996, 49.155872481331215], [-68.26812471915234, 49.14086388773325], [-68.26450585788065, 49.14086787831845], [-68.2608862141883, 49.1408672527085], [-68.25981439649242, 49.14086835651943], [-68.2600231023469, 49.11469098567859], [-68.23460703167156, 49.11477267032378], [-68.23488824635184, 49.11072557275166], [-68.24405621683238, 49.11074200655317], [-68.24546067480922, 49.110744463924924], [-68.24695934782464, 49.110747068518705], [-68.25035888784821, 49.110749817233874], [-68.25231301779208, 49.11075238536139], [-68.2538383936053, 49.11075436851705], [-68.25596757563851, 49.110760430522525], [-68.25758699442345, 49.110765016585695], [-68.26476754363793, 49.11077919957214], [-68.2647720012044, 49.10271321133876], [-68.26817127667209, 49.10275508755645], [-68.27183031114993, 49.102796316572054], [-68.27257741686842, 49.10280472402191], [-68.27550777039109, 49.10109325244632], [-68.27721233556841, 49.10009397940152], [-68.27550912122028, 49.097387349940526], [-68.27425140742216, 49.09539155489698], [-68.27445224901605, 49.09406747313762], [-68.27551025684257, 49.093594357604196], [-68.27685923749284, 49.092991090542995], [-68.27910196040936, 49.093327861797015], [-68.28079110962776, 49.093591201085886], [-68.28240618687104, 49.09391047537311], [-68.2826696239298, 49.094053082312925], [-68.28531223121881, 49.09554473799813], [-68.28626756688756, 49.09548154493954], [-68.28995246883171, 49.095236148385816], [-68.28995246033324, 49.09523770456628], [-68.29169771145654, 49.096823172009955], [-68.29010369085202, 49.099953766079324], [-68.28995214202178, 49.10005684963054], [-68.2877381016974, 49.10153980060054], [-68.28626667744814, 49.10218421244297], [-68.2853263460574, 49.10259602229868], [-68.2826678336331, 49.10172484699865], [-68.27909976647642, 49.10055547895925], [-68.27897729417778, 49.10051366731229], [-68.27550734979923, 49.10226090035143], [-68.2718488436352, 49.10410282227642], [-68.27189254359594, 49.1071679820862], [-68.27194476631671, 49.110798015373895], [-68.27030140041515, 49.110792137262244], [-68.26920871694722, 49.11078774407941], [-68.26912681660991, 49.1183791742618], [-68.27368964589515, 49.11834596444049], [-68.2737799185638, 49.12194176722749], [-68.27905005400137, 49.122056405713835], [-68.27906565731524, 49.1182191361867], [-68.28263637451036, 49.11823559507722], [-68.28623655323322, 49.118254329572416], [-68.28993290747671, 49.118273444410555], [-68.2935221037451, 49.11829190212215], [-68.29710653507925, 49.11831021922285], [-68.30070747490231, 49.118316417039075], [-68.3006798506434, 49.12529204235317], [-68.29802843452386, 49.12528748376159], [-68.29796887782562, 49.13379297883757], [-68.30065148351662, 49.13378189494787], [-68.30065142593725, 49.13379768170602], [-68.30425211653282, 49.133803891674894], [-68.30427940325025, 49.125300296491545], [-68.30789266357625, 49.1253085205679], [-68.31148458075971, 49.12531200651174], [-68.31145771116415, 49.13387644958644], [-68.31501688948688, 49.13384640907796], [-68.31500672874056, 49.13715754588752], [-68.31499510985219, 49.14098505814943], [-68.31514505279979, 49.14098594763355], [-68.31588804921937, 49.14098840930151], [-68.31875272183811, 49.140998186725184], [-68.31873345954425, 49.149375536635304], [-68.32235070995628, 49.14937948805543], [-68.32596790632223, 49.149360144501166], [-68.32958514203091, 49.14934069685079], [-68.33325115716144, 49.14932086883758], [-68.33681921081512, 49.1493014502751], [-68.33681910591882, 49.14933499377609], [-68.34058078225944, 49.14928086786894], [-68.34060233600822, 49.14107117238927], [-68.3404618106471, 49.1410703697642], [-68.34033670880666, 49.14106965508828], [-68.34034697321285, 49.13719715799683], [-68.34035341813895, 49.13459880292936], [-68.3367696355852, 49.134575537297415], [-68.33328977656875, 49.13455284152801], [-68.32930965513673, 49.13452674911455], [-68.32933512744418, 49.12534511747169], [-68.32574583857952, 49.12533770453544], [-68.32577394567218, 49.11814595494244], [-68.32579764103819, 49.1109001975214], [-68.3257887127031, 49.102645075556595], [-68.32938352548248, 49.102691445361316], [-68.33336032595479, 49.10274261742163], [-68.3370895867657, 49.10279047708491], [-68.33708958940159, 49.102790279198146], [-68.34067227931855, 49.1027728542134], [-68.34432957052061, 49.10275495916887], [-68.34457529414284, 49.09451051608323], [-68.3454416224212, 49.09477630278266], [-68.34659875159058, 49.09512918709774], [-68.34811912793685, 49.09559655603934], [-68.34843461342746, 49.093050221489115], [-68.35154297995244, 49.092164868331565], [-68.35459882400504, 49.09219715204474], [-68.36170321436934, 49.094419695139074], [-68.36322601961322, 49.09226485597485], [-68.36475469033262, 49.09010150059593], [-68.3662828926395, 49.08793860753528], [-68.36779541161425, 49.0857976918176], [-68.36931821703514, 49.08364198718445], [-68.37084152710794, 49.08149219266642], [-68.371702680885, 49.080276787790794], [-68.37246836271959, 49.07932207958761], [-68.3544245991433, 49.07380875325129], [-68.3551166641149, 49.073299873903245], [-68.35540047548837, 49.07305857856259], [-68.35646967847796, 49.072367387238316], [-68.35690181572853, 49.07203695925248], [-68.35704593946066, 49.07194330856586], [-68.35830948043247, 49.07110925319059], [-68.35870323153969, 49.070900045393714], [-68.3598090444468, 49.07015055510487], [-68.36193386088824, 49.06853861787092], [-68.36231613047852, 49.06822138717692], [-68.36239223005713, 49.06815883848618], [-68.36318774012265, 49.06744358334505], [-68.36417202865289, 49.06661691791701], [-68.36441463276313, 49.0663798710223], [-68.3645427499062, 49.06626363380121], [-68.36529044831182, 49.065602074313134], [-68.36542443931853, 49.06542739706134], [-68.3655975054673, 49.06514048954221], [-68.36590585774758, 49.064777862556795], [-68.36625803077138, 49.06419958112608], [-68.36629122771737, 49.06414578984521], [-68.36669561747401, 49.06376569678563], [-68.36692234186631, 49.06342960586768], [-68.3670565553203, 49.06330440366024], [-68.36746190135861, 49.062982784487694], [-68.36771890138478, 49.062822271997355], [-68.36777326244595, 49.06278658741266], [-68.36805808648884, 49.06265771115981], [-68.36886038654382, 49.06240572681981], [-68.36932332773453, 49.0621968609715], [-68.36971571987253, 49.06195162563089], [-68.36998748102805, 49.06184066446484], [-68.37065183831635, 49.06146647404678], [-68.3714496465438, 49.06095807269961], [-68.37190275106434, 49.06071316052491], [-68.37265599262294, 49.06027647303997], [-68.37341291133055, 49.05974984460529], [-68.37394189750913, 49.059455860551786], [-68.37454087648669, 49.05890138102762], [-68.37462829990092, 49.0588208943761], [-68.3748448731881, 49.05867364029866], [-68.37514277597403, 49.05852232836892], [-68.37534514888475, 49.05834800966557], [-68.37585985473056, 49.058031450492486], [-68.37661636308802, 49.057464318510355], [-68.3771249075177, 49.05709833453763], [-68.3796065542918, 49.057856267088084], [-68.38225017039524, 49.05599946149621], [-68.38943946357205, 49.058216533872525], [-68.39018179822787, 49.058445348525886], [-68.39292957866068, 49.059296424874894], [-68.39650673750518, 49.060408149684385], [-68.39744263329338, 49.060696400762424], [-68.39885667511906, 49.061135562906784], [-68.40008324849693, 49.06151526203663], [-68.40047531930763, 49.06163873977669], [-68.40126379151933, 49.06188121591726], [-68.40365991915996, 49.062622263963384], [-68.40736117732747, 49.06377027455955], [-68.41081453501535, 49.06484043834063], [-68.41144566026013, 49.06502729421193], [-68.41012472962049, 49.067173426871356], [-68.40887740801067, 49.06919975788109], [-68.408687384642, 49.06932945424222], [-68.40594785050999, 49.07111360197027], [-68.4032111422561, 49.07289571995677], [-68.40049993506673, 49.07466103851566], [-68.39951347957151, 49.07530328576889], [-68.39963631173698, 49.076974995176926], [-68.39965348833145, 49.076980229981125], [-68.39975950302134, 49.07865163539823], [-68.3990643768308, 49.07944704928079], [-68.39716401447825, 49.081559435429384], [-68.39692055132384, 49.081830045407905], [-68.39749883806351, 49.082883179783934], [-68.39582945135336, 49.083806006769656], [-68.38914941066251, 49.08176039545053], [-68.38740934948993, 49.08388135812482], [-68.37734612614732, 49.08081179521418], [-68.37577298807713, 49.082998215808686], [-68.37422166712216, 49.085139754810236], [-68.37266845721228, 49.087285759862475], [-68.37112811597542, 49.089418320181245], [-68.36957279827854, 49.09157326642151], [-68.36801478394203, 49.09372817632331], [-68.36646359721186, 49.09587410650677], [-68.36487306864983, 49.09807377202824], [-68.36321658244357, 49.10026405563238], [-68.36167029330274, 49.10239645326091], [-68.36011769697856, 49.10454228791283], [-68.36005409972547, 49.10462739293056], [-68.35852141240736, 49.10674632925638], [-68.35808195999896, 49.10735558244199], [-68.35698247661021, 49.10887420536154], [-68.3562186159421, 49.10993142012256], [-68.35563873864972, 49.11073328433375], [-68.35542331150882, 49.111033431736786], [-68.35388052214974, 49.11317473705067], [-68.3523270157531, 49.11533844981133], [-68.35079862850152, 49.11747079800531], [-68.3492553794413, 49.119616534862594], [-68.34770678463897, 49.12176671803536], [-68.3476361146724, 49.12186526932144], [-68.34614406818245, 49.12393928861528], [-68.3451144253307, 49.12536823567052], [-68.34403419663185, 49.12536660090731], [-68.34400566868257, 49.13720451009468], [-68.34399562997487, 49.141081506123314], [-68.34407873880653, 49.1410819782847], [-68.34407626088053, 49.14189098161686], [-68.34570112558272, 49.14187886356971], [-68.34590512224487, 49.15588274146362], [-68.34765065983004, 49.155881767566896], [-68.35126799613556, 49.15587965843418], [-68.35488527482745, 49.155881933379135], [-68.35618669353917, 49.1558811099617], [-68.35621222598851, 49.15971639079958], [-68.35489270033837, 49.16081630317761], [-68.35336517934756, 49.16208952044431], [-68.35127936693438, 49.16382793002534], [-68.34766563607195, 49.166839413628004], [-68.34405177140447, 49.169850521570716], [-68.34333471925751, 49.17044791706501], [-68.34367112355747, 49.17044982952316], [-68.34729344536011, 49.17047485804097], [-68.34767068838238, 49.170476989666774], [-68.34865323519054, 49.1704825357989], [-68.35019129994659, 49.17049569856347], [-68.3506191351169, 49.170498105231026], [-68.35090035295582, 49.17049968628021], [-68.35128959963924, 49.17050187355374], [-68.35187346289374, 49.17050515196574], [-68.35359084439449, 49.1705102802916], [-68.35437442413817, 49.17051916154002], [-68.35490770982865, 49.17052214182679], [-68.35628721571825, 49.17052983982007], [-68.35812114379036, 49.170540048085606], [-68.35852667458109, 49.17054230147488], [-68.36046520354671, 49.17055305350916], [-68.36173845518854, 49.17055560016557], [-68.36218000983534, 49.170558039824904], [-68.36523517440038, 49.170547887546384], [-68.36523358646812, 49.1757022572403], [-68.36523259356908, 49.17819398282028], [-68.36892244052999, 49.17821420544333], [-68.3725094611433, 49.17822925378362], [-68.37487452736899, 49.17823758261399], [-68.37609431827673, 49.17711975212592], [-68.37610955673918, 49.185049288194385], [-68.37488383109658, 49.18505615317727], [-68.37252256429936, 49.18506133874131], [-68.37145647070295, 49.185060039154855], [-68.36893476388612, 49.185068775756065], [-68.3680298606777, 49.18507282292418], [-68.36524485533741, 49.185080037837906], [-68.36523872781667, 49.181636804472966], [-68.36175689348569, 49.18167153279696], [-68.35813924725147, 49.18170729043088], [-68.35439142655298, 49.1817442130674], [-68.35089715334071, 49.18176772295223], [-68.34730901079699, 49.181813651875636], [-68.34368580379225, 49.1818490152731], [-68.34005342529376, 49.18188434751756], [-68.33804677448872, 49.18190381624917], [-68.33855499809908, 49.17738503564321], [-68.33642375394399, 49.17638923105873], [-68.33451766664662, 49.17549856378362], [-68.3328080179647, 49.177051051970984], [-68.33147550637703, 49.17830957801356], [-68.3313221319328, 49.170367918761954], [-68.33280066961193, 49.170378539706455], [-68.33325250853858, 49.170381149406154], [-68.33325098227614, 49.16908094894087], [-68.33455692983557, 49.16906700076131], [-68.33449819909077, 49.16673043839379], [-68.3332482958216, 49.166780142483965], [-68.33128578070345, 49.16682906387307], [-68.33108899427054, 49.15959883056326], [-68.32956775772148, 49.15960599318988], [-68.32604105235627, 49.15962253350811], [-68.32385037878399, 49.15963275510521], [-68.3237854114513, 49.155885657937695], [-68.32232945253101, 49.15588436370956], [-68.31871126007644, 49.15588556116814], [-68.31509393259104, 49.155886650374576], [-68.31147666846367, 49.1558831288974], [-68.30785934336956, 49.15588399146212], [-68.30424201934149, 49.15588474070446], [-68.30062469640208, 49.1558853766244], [-68.29911757160306, 49.15588373165382], [-68.29934376015447, 49.16398847787518], [-68.30062816046933, 49.16399386222527], [-68.30254816160833, 49.1640001134904], [-68.30261859151848, 49.17039044807192], [-68.30063119175561, 49.17039958619753], [-68.3004270764967, 49.17040284755927], [-68.29701255781632, 49.170418093514755], [-68.29684280042997, 49.17041705997033], [-68.29339398639695, 49.17043199009175], [-68.29325767299756, 49.17043115591434], [-68.28977534983305, 49.170450270596525], [-68.2896733308799, 49.170449643103886], [-68.28608905196157, 49.170463521699155], [-68.28250470725119, 49.17048178635393], [-68.28129108859102, 49.170493894495415], [-68.28125275502923, 49.16753356697568], [-68.28251929108369, 49.16681631950243], [-68.28613543253296, 49.16476830051529], [-68.28767078496166, 49.16389865566697], [-68.28977425996874, 49.16389259590056], [-68.29339221190682, 49.16388209302765], [-68.29547852565995, 49.16387598625012], [-68.29510167600148, 49.155881630644814], [-68.29339011785501, 49.15588181115377], [-68.29177301482336, 49.155881960961565], [-68.29164379394986, 49.14090261055846], [-68.28982845488522, 49.14089597479591], [-68.28621155778207, 49.14088266685064], [-68.28259467755468, 49.14086924569524], [-68.27902082266337, 49.14085587195544], [-68.27902078578424, 49.14087731699142], [-68.27241180591012, 49.140868107516674], [-68.2753349174345, 49.14831633629072], [-68.27593683971033, 49.149873929687715], [-68.2765819957207, 49.155877733672334], [-68.27892006321883, 49.15587781240955], [-68.27804574896153, 49.1574555975062], [-68.276777895228, 49.1597250468997], [-68.27530475140848, 49.16126033280349], [-68.27438963498514, 49.16220928385339], [-68.27168435786875, 49.16220569190184]]]}, "properties": {"company_id": "premier-american-uranium", "jurisdiction": "Quebec", "claim_id": "", "claim_name": null, "holder": "Premier Horticulture ltée", "status": "Active", "recorded_date": null, "anniversary_or_expiry": null, "area_ha": null, "tenure_type": null, "source": "GESTIM active titles (MRNF digital data dump). Not legal title.", "as_of": "2026-09-20", "role": "focus", "color": "#e8b040"}}, {"type": "Feature", "geometry": {"type": "Polygon", "coordinates": [[[-71.55833332990461, 48.650000005585824], [-71.55833333468426, 48.658333334423276], [-71.55000000014607, 48.65833333095937], [-71.55000000127286, 48.65000000568218], [-71.55833332990461, 48.650000005585824]]]}, "properties": {"company_id": "premier-american-uranium", "jurisdiction": "Quebec", "claim_id": "", "claim_name": null, "holder": "Premier Horticulture ltée", "status": "Active", "recorded_date": null, "anniversary_or_expiry": null, "area_ha": null, "tenure_type": null, "source": "GESTIM active titles (MRNF digital data dump). Not legal title.", "as_of": "2026-09-20", "role": "focus", "color": "#e8b040"}}, {"type": "Feature", "geometry": {"type": "Polygon", "coordinates": [[[-71.55000000127286, 48.65000000568218], [-71.55000000014607, 48.65833333095937], [-71.5416666606982, 48.65833333234982], [-71.5416666658577, 48.650000004825536], [-71.55000000127286, 48.65000000568218]]]}, "properties": {"company_id": "premier-american-uranium", "jurisdiction": "Quebec", "claim_id": "", "claim_name": null, "holder": "Premier Horticulture ltée", "status": "Active", "recorded_date": null, "anniversary_or_expiry": null, "area_ha": null, "tenure_type": null, "source": "GESTIM active titles (MRNF digital data dump). Not legal title.", "as_of": "2026-09-20", "role": "focus", "color": "#e8b040"}}, {"type": "Feature", "geometry": {"type": "Polygon", "coordinates": [[[-71.51666667339575, 48.65000000439245], [-71.51666666934615, 48.65833332950505], [-71.50833332973052, 48.658333326638044], [-71.5083333377542, 48.649999999190015], [-71.51666667339575, 48.65000000439245]]]}, "properties": {"company_id": "premier-american-uranium", "jurisdiction": "Quebec", "claim_id": "", "claim_name": null, "holder": "Premier Horticulture ltée", "status": "Active", "recorded_date": null, "anniversary_or_expiry": null, "area_ha": null, "tenure_type": null, "source": "GESTIM active titles (MRNF digital data dump). Not legal title.", "as_of": "2026-09-20", "role": "focus", "color": "#e8b040"}}, {"type": "Feature", "geometry": {"type": "Polygon", "coordinates": [[[-71.50833333294472, 48.63333333384741], [-71.50833332797824, 48.64166665967375], [-71.50000000329763, 48.64166665987028], [-71.49999999833699, 48.63333333195729], [-71.50833333294472, 48.63333333384741]]]}, "properties": {"company_id": "premier-american-uranium", "jurisdiction": "Quebec", "claim_id": "", "claim_name": null, "holder": "Premier Horticulture ltée", "status": "Active", "recorded_date": null, "anniversary_or_expiry": null, "area_ha": null, "tenure_type": null, "source": "GESTIM active titles (MRNF digital data dump). Not legal title.", "as_of": "2026-09-20", "role": "focus", "color": "#e8b040"}}, {"type": "Feature", "geometry": {"type": "Polygon", "coordinates": [[[-71.5666666698823, 48.64166666759866], [-71.56666666533845, 48.650000004228644], [-71.55978357123365, 48.650000046163534], [-71.55833332990461, 48.650000005585824], [-71.55833333016002, 48.64974863014567], [-71.55833333836864, 48.641666666740655], [-71.5666666698823, 48.64166666759866]]]}, "properties": {"company_id": "premier-american-uranium", "jurisdiction": "Quebec", "claim_id": "", "claim_name": null, "holder": "Premier Horticulture ltée", "status": "Active", "recorded_date": null, "anniversary_or_expiry": null, "area_ha": null, "tenure_type": null, "source": "GESTIM active titles (MRNF digital data dump). Not legal title.", "as_of": "2026-09-20", "role": "focus", "color": "#e8b040"}}, {"type": "Feature", "geometry": {"type": "Polygon", "coordinates": [[[-71.5249999966903, 48.63333334020527], [-71.5249999994858, 48.64166667032562], [-71.51666667500629, 48.64166667271239], [-71.51666666231448, 48.633333340550855], [-71.5249999966903, 48.63333334020527]]]}, "properties": {"company_id": "premier-american-uranium", "jurisdiction": "Quebec", "claim_id": "", "claim_name": null, "holder": "Premier Horticulture ltée", "status": "Active", "recorded_date": null, "anniversary_or_expiry": null, "area_ha": null, "tenure_type": null, "source": "GESTIM active titles (MRNF digital data dump). Not legal title.", "as_of": "2026-09-20", "role": "focus", "color": "#e8b040"}}, {"type": "Feature", "geometry": {"type": "Polygon", "coordinates": [[[-71.5249999994858, 48.64166667032562], [-71.52500000171715, 48.649999999679636], [-71.51666667339575, 48.65000000439245], [-71.51666667500629, 48.64166667271239], [-71.5249999994858, 48.64166667032562]]]}, "properties": {"company_id": "premier-american-uranium", "jurisdiction": "Quebec", "claim_id": "", "claim_name": null, "holder": "Premier Horticulture ltée", "status": "Active", "recorded_date": null, "anniversary_or_expiry": null, "area_ha": null, "tenure_type": null, "source": "GESTIM active titles (MRNF digital data dump). Not legal title.", "as_of": "2026-09-20", "role": "focus", "color": "#e8b040"}}, {"type": "Feature", "geometry": {"type": "Polygon", "coordinates": [[[-71.51666666231448, 48.633333340550855], [-71.51666667500616, 48.641666672712375], [-71.50833332797824, 48.64166665967375], [-71.50833333294472, 48.63333333384741], [-71.51666666231448, 48.633333340550855]]]}, "properties": {"company_id": "premier-american-uranium", "jurisdiction": "Quebec", "claim_id": "", "claim_name": null, "holder": "Premier Horticulture ltée", "status": "Active", "recorded_date": null, "anniversary_or_expiry": null, "area_ha": null, "tenure_type": null, "source": "GESTIM active titles (MRNF digital data dump). Not legal title.", "as_of": "2026-09-20", "role": "focus", "color": "#e8b040"}}, {"type": "Feature", "geometry": {"type": "Polygon", "coordinates": [[[-71.51666667500616, 48.641666672712375], [-71.51666667339575, 48.65000000439245], [-71.5083333377542, 48.649999999190015], [-71.50833332797824, 48.64166665967375], [-71.51666667500616, 48.641666672712375]]]}, "properties": {"company_id": "premier-american-uranium", "jurisdiction": "Quebec", "claim_id": "", "claim_name": null, "holder": "Premier Horticulture ltée", "status": "Active", "recorded_date": null, "anniversary_or_expiry": null, "area_ha": null, "tenure_type": null, "source": "GESTIM active titles (MRNF digital data dump). Not legal title.", "as_of": "2026-09-20", "role": "focus", "color": "#e8b040"}}, {"type": "Feature", "geometry": {"type": "Polygon", "coordinates": [[[-71.41666666256003, 48.550000000009014], [-71.41666667204012, 48.55833332588577], [-71.40833333948244, 48.55833333342909], [-71.40833333126969, 48.549999995828536], [-71.41666666256003, 48.550000000009014]]]}, "properties": {"company_id": "premier-american-uranium", "jurisdiction": "Quebec", "claim_id": "", "claim_name": null, "holder": "Premier Horticulture ltée", "status": "Active", "recorded_date": null, "anniversary_or_expiry": null, "area_ha": null, "tenure_type": null, "source": "GESTIM active titles (MRNF digital data dump). Not legal title.", "as_of": "2026-09-20", "role": "focus", "color": "#e8b040"}}, {"type": "Feature", "geometry": {"type": "Polygon", "coordinates": [[[-71.40833333126969, 48.549999995828536], [-71.40833333948244, 48.55833333342909], [-71.39999999918558, 48.55833333089198], [-71.40000000661949, 48.54999999924047], [-71.40833333126969, 48.549999995828536]]]}, "properties": {"company_id": "premier-american-uranium", "jurisdiction": "Quebec", "claim_id": "", "claim_name": null, "holder": "Premier Horticulture ltée", "status": "Active", "recorded_date": null, "anniversary_or_expiry": null, "area_ha": null, "tenure_type": null, "source": "GESTIM active titles (MRNF digital data dump). Not legal title.", "as_of": "2026-09-20", "role": "focus", "color": "#e8b040"}}, {"type": "Feature", "geometry": {"type": "Polygon", "coordinates": [[[-71.42499999773507, 48.55833332623377], [-71.42499999363697, 48.566666666749356], [-71.41666666562553, 48.56666666011475], [-71.41666667204012, 48.55833332588577], [-71.42499999773507, 48.55833332623377]]]}, "properties": {"company_id": "premier-american-uranium", "jurisdiction": "Quebec", "claim_id": "", "claim_name": null, "holder": "Premier Horticulture ltée", "status": "Active", "recorded_date": null, "anniversary_or_expiry": null, "area_ha": null, "tenure_type": null, "source": "GESTIM active titles (MRNF digital data dump). Not legal title.", "as_of": "2026-09-20", "role": "focus", "color": "#e8b040"}}, {"type": "Feature", "geometry": {"type": "Polygon", "coordinates": [[[-71.41666667204012, 48.55833332588577], [-71.41666666562553, 48.56666666011475], [-71.40833333076732, 48.566666661392915], [-71.40833333948244, 48.55833333342909], [-71.41666667204012, 48.55833332588577]]]}, "properties": {"company_id": "premier-american-uranium", "jurisdiction": "Quebec", "claim_id": "", "claim_name": null, "holder": "Premier Horticulture ltée", "status": "Active", "recorded_date": null, "anniversary_or_expiry": null, "area_ha": null, "tenure_type": null, "source": "GESTIM active titles (MRNF digital data dump). Not legal title.", "as_of": "2026-09-20", "role": "focus", "color": "#e8b040"}}, {"type": "Feature", "geometry": {"type": "Polygon", "coordinates": [[[-71.40833333948244, 48.55833333342909], [-71.40833333076732, 48.566666661392915], [-71.40000000215383, 48.566666661318095], [-71.39999999918558, 48.55833333089198], [-71.40833333948244, 48.55833333342909]]]}, "properties": {"company_id": "premier-american-uranium", "jurisdiction": "Quebec", "claim_id": "", "claim_name": null, "holder": "Premier Horticulture ltée", "status": "Active", "recorded_date": null, "anniversary_or_expiry": null, "area_ha": null, "tenure_type": null, "source": "GESTIM active titles (MRNF digital data dump). Not legal title.", "as_of": "2026-09-20", "role": "focus", "color": "#e8b040"}}, {"type": "Feature", "geometry": {"type": "Polygon", "coordinates": [[[-71.23333333876108, 48.53333332618606], [-71.23333333858587, 48.54166666534764], [-71.22500000648824, 48.541666667472136], [-71.22499999456083, 48.533333334330074], [-71.23333333876108, 48.53333332618606]]]}, "properties": {"company_id": "premier-american-uranium", "jurisdiction": "Quebec", "claim_id": "", "claim_name": null, "holder": "Premier Horticulture ltée", "status": "Active", "recorded_date": null, "anniversary_or_expiry": null, "area_ha": null, "tenure_type": null, "source": "GESTIM active titles (MRNF digital data dump). Not legal title.", "as_of": "2026-09-20", "role": "focus", "color": "#e8b040"}}, {"type": "Feature", "geometry": {"type": "Polygon", "coordinates": [[[-71.22499999456083, 48.533333334330074], [-71.22500000648824, 48.541666667472136], [-71.216666666185, 48.54166665959696], [-71.21666666921222, 48.53333333192961], [-71.22499999456083, 48.533333334330074]]]}, "properties": {"company_id": "premier-american-uranium", "jurisdiction": "Quebec", "claim_id": "", "claim_name": null, "holder": "Premier Horticulture ltée", "status": "Active", "recorded_date": null, "anniversary_or_expiry": null, "area_ha": null, "tenure_type": null, "source": "GESTIM active titles (MRNF digital data dump). Not legal title.", "as_of": "2026-09-20", "role": "focus", "color": "#e8b040"}}, {"type": "Feature", "geometry": {"type": "Polygon", "coordinates": [[[-71.18333333922962, 48.57500000123913], [-71.1833333337231, 48.58333332624075], [-71.17500000073395, 48.58333332901926], [-71.174999994541, 48.575000000962895], [-71.18333333922962, 48.57500000123913]]]}, "properties": {"company_id": "premier-american-uranium", "jurisdiction": "Quebec", "claim_id": "", "claim_name": null, "holder": "Premier Horticulture ltée", "status": "Active", "recorded_date": null, "anniversary_or_expiry": null, "area_ha": null, "tenure_type": null, "source": "GESTIM active titles (MRNF digital data dump). Not legal title.", "as_of": "2026-09-20", "role": "focus", "color": "#e8b040"}}, {"type": "Feature", "geometry": {"type": "Polygon", "coordinates": [[[-71.174999994541, 48.575000000962895], [-71.17500000073395, 48.58333332901926], [-71.16666665986271, 48.58333333092891], [-71.16666666905374, 48.574999999284074], [-71.174999994541, 48.575000000962895]]]}, "properties": {"company_id": "premier-american-uranium", "jurisdiction": "Quebec", "claim_id": "", "claim_name": null, "holder": "Premier Horticulture ltée", "status": "Active", "recorded_date": null, "anniversary_or_expiry": null, "area_ha": null, "tenure_type": null, "source": "GESTIM active titles (MRNF digital data dump). Not legal title.", "as_of": "2026-09-20", "role": "focus", "color": "#e8b040"}}, {"type": "Feature", "geometry": {"type": "Polygon", "coordinates": [[[-71.14999999431473, 48.574999993277316], [-71.14999999503678, 48.583333331398876], [-71.1416666710394, 48.58333332997324], [-71.141666672495, 48.57499999744338], [-71.14999999431473, 48.574999993277316]]]}, "properties": {"company_id": "premier-american-uranium", "jurisdiction": "Quebec", "claim_id": "", "claim_name": null, "holder": "Premier Horticulture ltée", "status": "Active", "recorded_date": null, "anniversary_or_expiry": null, "area_ha": null, "tenure_type": null, "source": "GESTIM active titles (MRNF digital data dump). Not legal title.", "as_of": "2026-09-20", "role": "focus", "color": "#e8b040"}}, {"type": "Feature", "geometry": {"type": "Polygon", "coordinates": [[[-71.141666672495, 48.57499999744338], [-71.1416666710394, 48.58333332997324], [-71.13333333907423, 48.58333332770103], [-71.13333332914611, 48.57500000099234], [-71.141666672495, 48.57499999744338]]]}, "properties": {"company_id": "premier-american-uranium", "jurisdiction": "Quebec", "claim_id": "", "claim_name": null, "holder": "Premier Horticulture ltée", "status": "Active", "recorded_date": null, "anniversary_or_expiry": null, "area_ha": null, "tenure_type": null, "source": "GESTIM active titles (MRNF digital data dump). Not legal title.", "as_of": "2026-09-20", "role": "focus", "color": "#e8b040"}}, {"type": "Feature", "geometry": {"type": "Polygon", "coordinates": [[[-71.13333332914611, 48.57500000099234], [-71.13333333907423, 48.58333332770103], [-71.12499999949667, 48.58333333357628], [-71.12500000451261, 48.574999994184864], [-71.13333332914611, 48.57500000099234]]]}, "properties": {"company_id": "premier-american-uranium", "jurisdiction": "Quebec", "claim_id": "", "claim_name": null, "holder": "Premier Horticulture ltée", "status": "Active", "recorded_date": null, "anniversary_or_expiry": null, "area_ha": null, "tenure_type": null, "source": "GESTIM active titles (MRNF digital data dump). Not legal title.", "as_of": "2026-09-20", "role": "focus", "color": "#e8b040"}}, {"type": "Feature", "geometry": {"type": "Polygon", "coordinates": [[[-71.14999999503678, 48.583333331398876], [-71.15000000082482, 48.591666668000144], [-71.14166666091981, 48.591666661225524], [-71.1416666710394, 48.58333332997324], [-71.14999999503678, 48.583333331398876]]]}, "properties": {"company_id": "premier-american-uranium", "jurisdiction": "Quebec", "claim_id": "", "claim_name": null, "holder": "Premier Horticulture ltée", "status": "Active", "recorded_date": null, "anniversary_or_expiry": null, "area_ha": null, "tenure_type": null, "source": "GESTIM active titles (MRNF digital data dump). Not legal title.", "as_of": "2026-09-20", "role": "focus", "color": "#e8b040"}}, {"type": "Feature", "geometry": {"type": "Polygon", "coordinates": [[[-71.55000000053303, 48.64166667388777], [-71.55833333836864, 48.641666666740655], [-71.55833332990461, 48.650000005585824], [-71.55000000127286, 48.65000000568218], [-71.55000000053303, 48.64166667388777]]]}, "properties": {"company_id": "premier-american-uranium", "jurisdiction": "Quebec", "claim_id": "", "claim_name": null, "holder": "Premier Horticulture ltée", "status": "Active", "recorded_date": null, "anniversary_or_expiry": null, "area_ha": null, "tenure_type": null, "source": "GESTIM active titles (MRNF digital data dump). Not legal title.", "as_of": "2026-09-20", "role": "focus", "color": "#e8b040"}}, {"type": "Feature", "geometry": {"type": "Polygon", "coordinates": [[[-71.56666666533845, 48.650000004228644], [-71.57500000759606, 48.65000000160226], [-71.57500000747878, 48.658333335343364], [-71.56666667467185, 48.65833333984884], [-71.56666666533845, 48.650000004228644]]]}, "properties": {"company_id": "premier-american-uranium", "jurisdiction": "Quebec", "claim_id": "", "claim_name": null, "holder": "Premier Horticulture ltée", "status": "Active", "recorded_date": null, "anniversary_or_expiry": null, "area_ha": null, "tenure_type": null, "source": "GESTIM active titles (MRNF digital data dump). Not legal title.", "as_of": "2026-09-20", "role": "focus", "color": "#e8b040"}}, {"type": "Feature", "geometry": {"type": "Polygon", "coordinates": [[[-71.55833333468426, 48.658333334423276], [-71.55833332990461, 48.650000005585824], [-71.56666666533845, 48.650000004228644], [-71.56666667467185, 48.65833333984884], [-71.55833333468426, 48.658333334423276]]]}, "properties": {"company_id": "premier-american-uranium", "jurisdiction": "Quebec", "claim_id": "", "claim_name": null, "holder": "Premier Horticulture ltée", "status": "Active", "recorded_date": null, "anniversary_or_expiry": null, "area_ha": null, "tenure_type": null, "source": "GESTIM active titles (MRNF digital data dump). Not legal title.", "as_of": "2026-09-20", "role": "focus", "color": "#e8b040"}}, {"type": "Feature", "geometry": {"type": "Polygon", "coordinates": [[[-71.54166666900672, 48.64166667077142], [-71.5416666658577, 48.650000004825536], [-71.5333333372011, 48.650000002722805], [-71.53333333066145, 48.6416666666856], [-71.54166666900672, 48.64166667077142]]]}, "properties": {"company_id": "premier-american-uranium", "jurisdiction": "Quebec", "claim_id": "", "claim_name": null, "holder": "Premier Horticulture ltée", "status": "Active", "recorded_date": null, "anniversary_or_expiry": null, "area_ha": null, "tenure_type": null, "source": "GESTIM active titles (MRNF digital data dump). Not legal title.", "as_of": "2026-09-20", "role": "focus", "color": "#e8b040"}}, {"type": "Feature", "geometry": {"type": "Polygon", "coordinates": [[[-71.5333333377462, 48.63333333858267], [-71.53333333066145, 48.6416666666856], [-71.5249999994858, 48.64166667032562], [-71.5249999966903, 48.63333334020527], [-71.5333333377462, 48.63333333858267]]]}, "properties": {"company_id": "premier-american-uranium", "jurisdiction": "Quebec", "claim_id": "", "claim_name": null, "holder": "Premier Horticulture ltée", "status": "Active", "recorded_date": null, "anniversary_or_expiry": null, "area_ha": null, "tenure_type": null, "source": "GESTIM active titles (MRNF digital data dump). Not legal title.", "as_of": "2026-09-20", "role": "focus", "color": "#e8b040"}}, {"type": "Feature", "geometry": {"type": "Polygon", "coordinates": [[[-71.53333333066145, 48.6416666666856], [-71.5333333372011, 48.650000002722805], [-71.52500000171715, 48.649999999679636], [-71.5249999994858, 48.64166667032562], [-71.53333333066145, 48.6416666666856]]]}, "properties": {"company_id": "premier-american-uranium", "jurisdiction": "Quebec", "claim_id": "", "claim_name": null, "holder": "Premier Horticulture ltée", "status": "Active", "recorded_date": null, "anniversary_or_expiry": null, "area_ha": null, "tenure_type": null, "source": "GESTIM active titles (MRNF digital data dump). Not legal title.", "as_of": "2026-09-20", "role": "focus", "color": "#e8b040"}}, {"type": "Feature", "geometry": {"type": "Polygon", "coordinates": [[[-68.24633226068855, 49.1558361256935], [-68.24271167028871, 49.15582593038591], [-68.23915107950101, 49.155816016907124], [-68.23915021673832, 49.15724636025581], [-68.2362140537604, 49.1562823769887], [-68.23620589368838, 49.15681305668153], [-68.2391498910772, 49.157786036858944], [-68.23914960333094, 49.15826277890588], [-68.23914716006684, 49.158869957837496], [-68.23848761013929, 49.15866770946298], [-68.23764821738366, 49.15845527460911], [-68.23715139742875, 49.15826308830896], [-68.23671040578864, 49.15812074407285], [-68.23639355601304, 49.157988214652256], [-68.23618675193023, 49.1579463671832], [-68.23557022140139, 49.157735391145934], [-68.23556753368273, 49.15580592261384], [-68.23554675747, 49.14087767394082], [-68.23916296507616, 49.14087907136901], [-68.24278010639397, 49.14087586389552], [-68.24639974400766, 49.14087705714045], [-68.24633226068855, 49.1558361256935]]]}, "properties": {"company_id": "premier-american-uranium", "jurisdiction": "Quebec", "claim_id": "", "claim_name": null, "holder": "Premier Horticulture ltée", "status": "Active", "recorded_date": null, "anniversary_or_expiry": null, "area_ha": null, "tenure_type": null, "source": "GESTIM active titles (MRNF digital data dump). Not legal title.", "as_of": "2026-09-20", "role": "focus", "color": "#e8b040"}}, {"type": "Feature", "geometry": {"type": "Polygon", "coordinates": [[[-69.52219218923534, 47.794818149961515], [-69.52019758136966, 47.79644183818684], [-69.51361262722916, 47.79226393276147], [-69.51501147403356, 47.790262310668204], [-69.52219218923534, 47.794818149961515]]]}, "properties": {"company_id": "premier-american-uranium", "jurisdiction": "Quebec", "claim_id": "", "claim_name": null, "holder": "Premier Horticulture ltée", "status": "Active", "recorded_date": null, "anniversary_or_expiry": null, "area_ha": null, "tenure_type": null, "source": "GESTIM active titles (MRNF digital data dump). Not legal title.", "as_of": "2026-09-20", "role": "focus", "color": "#e8b040"}}, {"type": "Feature", "geometry": {"type": "Polygon", "coordinates": [[[-68.23417163910892, 49.12949488725858], [-68.2289157570739, 49.129422383495125], [-68.22889430858223, 49.12591933489453], [-68.21211312698732, 49.1259025540105], [-68.21211321085113, 49.125892176342326], [-68.21046330515644, 49.12524662915367], [-68.20659291744902, 49.12450405014019], [-68.20659271842645, 49.124504003697574], [-68.20658924595828, 49.11351128569623], [-68.2070000867882, 49.11351284920886], [-68.20699678048088, 49.11724472373388], [-68.21812197761732, 49.115576514164744], [-68.21816195228591, 49.11017483505608], [-68.2202464788323, 49.110174873930745], [-68.22021793016485, 49.108114607062], [-68.22161989222245, 49.1081062214692], [-68.22380813633214, 49.108093105265176], [-68.2237799507104, 49.10585958660011], [-68.22524680408473, 49.10585130552018], [-68.22805235007257, 49.10583552165265], [-68.22868754683122, 49.10583041214678], [-68.22874992251536, 49.11070233974946], [-68.23488824635184, 49.11072557275166], [-68.23459910958334, 49.11488676234126], [-68.2339445112877, 49.12053824427254], [-68.23417163910892, 49.12949488725858]]]}, "properties": {"company_id": "premier-american-uranium", "jurisdiction": "Quebec", "claim_id": "", "claim_name": null, "holder": "Premier Horticulture ltée", "status": "Active", "recorded_date": null, "anniversary_or_expiry": null, "area_ha": null, "tenure_type": null, "source": "GESTIM active titles (MRNF digital data dump). Not legal title.", "as_of": "2026-09-20", "role": "focus", "color": "#e8b040"}}, {"type": "Feature", "geometry": {"type": "Polygon", "coordinates": [[[-71.15833333818694, 48.58333333146568], [-71.15833333572468, 48.57523840977133], [-71.15953078857721, 48.575000039533464], [-71.16666666905374, 48.574999999284074], [-71.16666665986271, 48.58333333092891], [-71.15833333818694, 48.58333333146568]]]}, "properties": {"company_id": "premier-american-uranium", "jurisdiction": "Quebec", "claim_id": "", "claim_name": null, "holder": "Premier Horticulture ltée", "status": "Active", "recorded_date": null, "anniversary_or_expiry": null, "area_ha": null, "tenure_type": null, "source": "GESTIM active titles (MRNF digital data dump). Not legal title.", "as_of": "2026-09-20", "role": "focus", "color": "#e8b040"}}]}