{"type": "FeatureCollection", "features": [{"type": "Feature", "geometry": {"type": "Polygon", "coordinates": [[[-84.4938, 47.1333], [-84.4938, 47.1375], [-84.5, 47.1375], [-84.5, 47.1333], [-84.4938, 47.1333]]]}, "properties": {"company_id": "rupert-resources", "jurisdiction": "Ontario", "claim_id": "963656", "claim_name": null, "holder": "(100) ROY JOHN RUPERT", "status": "Active", "recorded_date": "2025-09-29", "anniversary_or_expiry": "2027-09-29", "area_ha": null, "tenure_type": "Single Cell Mining Claim", "source": "Ontario MLAS operational claims (OGSEarth / LIO MapServer). Unofficial viewing data, not legal title.", "as_of": "2026-09-20", "role": "focus", "color": "#e8b040"}}, {"type": "Feature", "geometry": {"type": "Polygon", "coordinates": [[[-84.4938, 47.1292], [-84.4938, 47.1333], [-84.5, 47.1333], [-84.5, 47.1292], [-84.4938, 47.1292]]]}, "properties": {"company_id": "rupert-resources", "jurisdiction": "Ontario", "claim_id": "963657", "claim_name": null, "holder": "(100) ROY JOHN RUPERT", "status": "Active", "recorded_date": "2025-09-29", "anniversary_or_expiry": "2027-09-29", "area_ha": null, "tenure_type": "Single Cell Mining Claim", "source": "Ontario MLAS operational claims (OGSEarth / LIO MapServer). Unofficial viewing data, not legal title.", "as_of": "2026-09-20", "role": "focus", "color": "#e8b040"}}, {"type": "Feature", "geometry": {"type": "Polygon", "coordinates": [[[-84.4875, 47.1292], [-84.4875, 47.1333], [-84.4938, 47.1333], [-84.4938, 47.1292], [-84.4875, 47.1292]]]}, "properties": {"company_id": "rupert-resources", "jurisdiction": "Ontario", "claim_id": "963658", "claim_name": null, "holder": "(100) ROY JOHN RUPERT", "status": "Active", "recorded_date": "2025-09-29", "anniversary_or_expiry": "2027-09-29", "area_ha": null, "tenure_type": "Single Cell Mining Claim", "source": "Ontario MLAS operational claims (OGSEarth / LIO MapServer). Unofficial viewing data, not legal title.", "as_of": "2026-09-20", "role": "focus", "color": "#e8b040"}}, {"type": "Feature", "geometry": {"type": "Polygon", "coordinates": [[[-84.4938, 47.125], [-84.4938, 47.1292], [-84.5, 47.1292], [-84.5, 47.125], [-84.4938, 47.125]]]}, "properties": {"company_id": "rupert-resources", "jurisdiction": "Ontario", "claim_id": "963659", "claim_name": null, "holder": "(100) ROY JOHN RUPERT", "status": "Active", "recorded_date": "2025-09-29", "anniversary_or_expiry": "2027-09-29", "area_ha": null, "tenure_type": "Single Cell Mining Claim", "source": "Ontario MLAS operational claims (OGSEarth / LIO MapServer). Unofficial viewing data, not legal title.", "as_of": "2026-09-20", "role": "focus", "color": "#e8b040"}}, {"type": "Feature", "geometry": {"type": "Polygon", "coordinates": [[[-84.4875, 47.125], [-84.4875, 47.1292], [-84.4938, 47.1292], [-84.4938, 47.125], [-84.4875, 47.125]]]}, "properties": {"company_id": "rupert-resources", "jurisdiction": "Ontario", "claim_id": "963660", "claim_name": null, "holder": "(100) ROY JOHN RUPERT", "status": "Active", "recorded_date": "2025-09-29", "anniversary_or_expiry": "2027-09-29", "area_ha": null, "tenure_type": "Single Cell Mining Claim", "source": "Ontario MLAS operational claims (OGSEarth / LIO MapServer). Unofficial viewing data, not legal title.", "as_of": "2026-09-20", "role": "focus", "color": "#e8b040"}}, {"type": "Feature", "geometry": {"type": "Polygon", "coordinates": [[[-84.4938, 47.1208], [-84.4938, 47.125], [-84.5, 47.125], [-84.5, 47.1208], [-84.4938, 47.1208]]]}, "properties": {"company_id": "rupert-resources", "jurisdiction": "Ontario", "claim_id": "963661", "claim_name": null, "holder": "(100) ROY JOHN RUPERT", "status": "Active", "recorded_date": "2025-09-29", "anniversary_or_expiry": "2027-09-29", "area_ha": null, "tenure_type": "Single Cell Mining Claim", "source": "Ontario MLAS operational claims (OGSEarth / LIO MapServer). Unofficial viewing data, not legal title.", "as_of": "2026-09-20", "role": "focus", "color": "#e8b040"}}, {"type": "Feature", "geometry": {"type": "Polygon", "coordinates": [[[-84.4875, 47.1208], [-84.4875, 47.125], [-84.4938, 47.125], [-84.4938, 47.1208], [-84.4875, 47.1208]]]}, "properties": {"company_id": "rupert-resources", "jurisdiction": "Ontario", "claim_id": "963662", "claim_name": null, "holder": "(100) ROY JOHN RUPERT", "status": "Active", "recorded_date": "2025-09-29", "anniversary_or_expiry": "2027-09-29", "area_ha": null, "tenure_type": "Single Cell Mining Claim", "source": "Ontario MLAS operational claims (OGSEarth / LIO MapServer). Unofficial viewing data, not legal title.", "as_of": "2026-09-20", "role": "focus", "color": "#e8b040"}}, {"type": "Feature", "geometry": {"type": "Polygon", "coordinates": [[[-84.4938, 47.1167], [-84.4938, 47.1208], [-84.5, 47.1208], [-84.5, 47.1167], [-84.4938, 47.1167]]]}, "properties": {"company_id": "rupert-resources", "jurisdiction": "Ontario", "claim_id": "963663", "claim_name": null, "holder": "(100) ROY JOHN RUPERT", "status": "Active", "recorded_date": "2025-09-29", "anniversary_or_expiry": "2027-09-29", "area_ha": null, "tenure_type": "Single Cell Mining Claim", "source": "Ontario MLAS operational claims (OGSEarth / LIO MapServer). Unofficial viewing data, not legal title.", "as_of": "2026-09-20", "role": "focus", "color": "#e8b040"}}, {"type": "Feature", "geometry": {"type": "Polygon", "coordinates": [[[-84.4875, 47.1167], [-84.4875, 47.1208], [-84.4938, 47.1208], [-84.4938, 47.1167], [-84.4875, 47.1167]]]}, "properties": {"company_id": "rupert-resources", "jurisdiction": "Ontario", "claim_id": "963664", "claim_name": null, "holder": "(100) ROY JOHN RUPERT", "status": "Active", "recorded_date": "2025-09-29", "anniversary_or_expiry": "2027-09-29", "area_ha": null, "tenure_type": "Single Cell Mining Claim", "source": "Ontario MLAS operational claims (OGSEarth / LIO MapServer). Unofficial viewing data, not legal title.", "as_of": "2026-09-20", "role": "focus", "color": "#e8b040"}}, {"type": "Feature", "geometry": {"type": "Polygon", "coordinates": [[[-84.5063, 47.1333], [-84.5063, 47.1375], [-84.5125, 47.1375], [-84.5125, 47.1333], [-84.5063, 47.1333]]]}, "properties": {"company_id": "rupert-resources", "jurisdiction": "Ontario", "claim_id": "963665", "claim_name": null, "holder": "(100) ROY JOHN RUPERT", "status": "Active", "recorded_date": "2025-09-29", "anniversary_or_expiry": "2027-09-29", "area_ha": null, "tenure_type": "Single Cell Mining Claim", "source": "Ontario MLAS operational claims (OGSEarth / LIO MapServer). Unofficial viewing data, not legal title.", "as_of": "2026-09-20", "role": "focus", "color": "#e8b040"}}, {"type": "Feature", "geometry": {"type": "Polygon", "coordinates": [[[-84.5, 47.1333], [-84.5, 47.1375], [-84.5063, 47.1375], [-84.5063, 47.1333], [-84.5, 47.1333]]]}, "properties": {"company_id": "rupert-resources", "jurisdiction": "Ontario", "claim_id": "963666", "claim_name": null, "holder": "(100) ROY JOHN RUPERT", "status": "Active", "recorded_date": "2025-09-29", "anniversary_or_expiry": "2027-09-29", "area_ha": null, "tenure_type": "Single Cell Mining Claim", "source": "Ontario MLAS operational claims (OGSEarth / LIO MapServer). Unofficial viewing data, not legal title.", "as_of": "2026-09-20", "role": "focus", "color": "#e8b040"}}, {"type": "Feature", "geometry": {"type": "Polygon", "coordinates": [[[-84.5063, 47.1292], [-84.5063, 47.1333], [-84.5125, 47.1333], [-84.5125, 47.1292], [-84.5063, 47.1292]]]}, "properties": {"company_id": "rupert-resources", "jurisdiction": "Ontario", "claim_id": "963667", "claim_name": null, "holder": "(100) ROY JOHN RUPERT", "status": "Active", "recorded_date": "2025-09-29", "anniversary_or_expiry": "2027-09-29", "area_ha": null, "tenure_type": "Single Cell Mining Claim", "source": "Ontario MLAS operational claims (OGSEarth / LIO MapServer). Unofficial viewing data, not legal title.", "as_of": "2026-09-20", "role": "focus", "color": "#e8b040"}}, {"type": "Feature", "geometry": {"type": "Polygon", "coordinates": [[[-84.5, 47.1292], [-84.5, 47.1333], [-84.5063, 47.1333], [-84.5063, 47.1292], [-84.5, 47.1292]]]}, "properties": {"company_id": "rupert-resources", "jurisdiction": "Ontario", "claim_id": "963668", "claim_name": null, "holder": "(100) ROY JOHN RUPERT", "status": "Active", "recorded_date": "2025-09-29", "anniversary_or_expiry": "2027-09-29", "area_ha": null, "tenure_type": "Single Cell Mining Claim", "source": "Ontario MLAS operational claims (OGSEarth / LIO MapServer). Unofficial viewing data, not legal title.", "as_of": "2026-09-20", "role": "focus", "color": "#e8b040"}}, {"type": "Feature", "geometry": {"type": "Polygon", "coordinates": [[[-84.5063, 47.125], [-84.5063, 47.1292], [-84.5125, 47.1292], [-84.5125, 47.125], [-84.5063, 47.125]]]}, "properties": {"company_id": "rupert-resources", "jurisdiction": "Ontario", "claim_id": "963669", "claim_name": null, "holder": "(100) ROY JOHN RUPERT", "status": "Active", "recorded_date": "2025-09-29", "anniversary_or_expiry": "2027-09-29", "area_ha": null, "tenure_type": "Single Cell Mining Claim", "source": "Ontario MLAS operational claims (OGSEarth / LIO MapServer). Unofficial viewing data, not legal title.", "as_of": "2026-09-20", "role": "focus", "color": "#e8b040"}}, {"type": "Feature", "geometry": {"type": "Polygon", "coordinates": [[[-84.5, 47.125], [-84.5, 47.1292], [-84.5063, 47.1292], [-84.5063, 47.125], [-84.5, 47.125]]]}, "properties": {"company_id": "rupert-resources", "jurisdiction": "Ontario", "claim_id": "963670", "claim_name": null, "holder": "(100) ROY JOHN RUPERT", "status": "Active", "recorded_date": "2025-09-29", "anniversary_or_expiry": "2027-09-29", "area_ha": null, "tenure_type": "Single Cell Mining Claim", "source": "Ontario MLAS operational claims (OGSEarth / LIO MapServer). Unofficial viewing data, not legal title.", "as_of": "2026-09-20", "role": "focus", "color": "#e8b040"}}, {"type": "Feature", "geometry": {"type": "Polygon", "coordinates": [[[-84.5188, 47.1208], [-84.5188, 47.125], [-84.525, 47.125], [-84.525, 47.1208], [-84.5188, 47.1208]]]}, "properties": {"company_id": "rupert-resources", "jurisdiction": "Ontario", "claim_id": "963671", "claim_name": null, "holder": "(100) ROY JOHN RUPERT", "status": "Active", "recorded_date": "2025-09-29", "anniversary_or_expiry": "2027-09-29", "area_ha": null, "tenure_type": "Single Cell Mining Claim", "source": "Ontario MLAS operational claims (OGSEarth / LIO MapServer). Unofficial viewing data, not legal title.", "as_of": "2026-09-20", "role": "focus", "color": "#e8b040"}}, {"type": "Feature", "geometry": {"type": "Polygon", "coordinates": [[[-84.5125, 47.1208], [-84.5125, 47.125], [-84.5188, 47.125], [-84.5188, 47.1208], [-84.5125, 47.1208]]]}, "properties": {"company_id": "rupert-resources", "jurisdiction": "Ontario", "claim_id": "963672", "claim_name": null, "holder": "(100) ROY JOHN RUPERT", "status": "Active", "recorded_date": "2025-09-29", "anniversary_or_expiry": "2027-09-29", "area_ha": null, "tenure_type": "Single Cell Mining Claim", "source": "Ontario MLAS operational claims (OGSEarth / LIO MapServer). Unofficial viewing data, not legal title.", "as_of": "2026-09-20", "role": "focus", "color": "#e8b040"}}, {"type": "Feature", "geometry": {"type": "Polygon", "coordinates": [[[-84.5063, 47.1208], [-84.5063, 47.125], [-84.5125, 47.125], [-84.5125, 47.1208], [-84.5063, 47.1208]]]}, "properties": {"company_id": "rupert-resources", "jurisdiction": "Ontario", "claim_id": "963673", "claim_name": null, "holder": "(100) ROY JOHN RUPERT", "status": "Active", "recorded_date": "2025-09-29", "anniversary_or_expiry": "2027-09-29", "area_ha": null, "tenure_type": "Single Cell Mining Claim", "source": "Ontario MLAS operational claims (OGSEarth / LIO MapServer). Unofficial viewing data, not legal title.", "as_of": "2026-09-20", "role": "focus", "color": "#e8b040"}}, {"type": "Feature", "geometry": {"type": "Polygon", "coordinates": [[[-84.5, 47.1208], [-84.5, 47.125], [-84.5063, 47.125], [-84.5063, 47.1208], [-84.5, 47.1208]]]}, "properties": {"company_id": "rupert-resources", "jurisdiction": "Ontario", "claim_id": "963674", "claim_name": null, "holder": "(100) ROY JOHN RUPERT", "status": "Active", "recorded_date": "2025-09-29", "anniversary_or_expiry": "2027-09-29", "area_ha": null, "tenure_type": "Single Cell Mining Claim", "source": "Ontario MLAS operational claims (OGSEarth / LIO MapServer). Unofficial viewing data, not legal title.", "as_of": "2026-09-20", "role": "focus", "color": "#e8b040"}}, {"type": "Feature", "geometry": {"type": "Polygon", "coordinates": [[[-84.5188, 47.1167], [-84.5188, 47.1208], [-84.525, 47.1208], [-84.525, 47.1167], [-84.5188, 47.1167]]]}, "properties": {"company_id": "rupert-resources", "jurisdiction": "Ontario", "claim_id": "963675", "claim_name": null, "holder": "(100) ROY JOHN RUPERT", "status": "Active", "recorded_date": "2025-09-29", "anniversary_or_expiry": "2027-09-29", "area_ha": null, "tenure_type": "Single Cell Mining Claim", "source": "Ontario MLAS operational claims (OGSEarth / LIO MapServer). Unofficial viewing data, not legal title.", "as_of": "2026-09-20", "role": "focus", "color": "#e8b040"}}, {"type": "Feature", "geometry": {"type": "Polygon", "coordinates": [[[-84.5125, 47.1167], [-84.5125, 47.1208], [-84.5188, 47.1208], [-84.5188, 47.1167], [-84.5125, 47.1167]]]}, "properties": {"company_id": "rupert-resources", "jurisdiction": "Ontario", "claim_id": "963676", "claim_name": null, "holder": "(100) ROY JOHN RUPERT", "status": "Active", "recorded_date": "2025-09-29", "anniversary_or_expiry": "2027-09-29", "area_ha": null, "tenure_type": "Single Cell Mining Claim", "source": "Ontario MLAS operational claims (OGSEarth / LIO MapServer). Unofficial viewing data, not legal title.", "as_of": "2026-09-20", "role": "focus", "color": "#e8b040"}}, {"type": "Feature", "geometry": {"type": "Polygon", "coordinates": [[[-84.5063, 47.1167], [-84.5063, 47.1208], [-84.5125, 47.1208], [-84.5125, 47.1167], [-84.5063, 47.1167]]]}, "properties": {"company_id": "rupert-resources", "jurisdiction": "Ontario", "claim_id": "963677", "claim_name": null, "holder": "(100) ROY JOHN RUPERT", "status": "Active", "recorded_date": "2025-09-29", "anniversary_or_expiry": "2027-09-29", "area_ha": null, "tenure_type": "Single Cell Mining Claim", "source": "Ontario MLAS operational claims (OGSEarth / LIO MapServer). Unofficial viewing data, not legal title.", "as_of": "2026-09-20", "role": "focus", "color": "#e8b040"}}, {"type": "Feature", "geometry": {"type": "Polygon", "coordinates": [[[-84.5, 47.1167], [-84.5, 47.1208], [-84.5063, 47.1208], [-84.5063, 47.1167], [-84.5, 47.1167]]]}, "properties": {"company_id": "rupert-resources", "jurisdiction": "Ontario", "claim_id": "963678", "claim_name": null, "holder": "(100) ROY JOHN RUPERT", "status": "Active", "recorded_date": "2025-09-29", "anniversary_or_expiry": "2027-09-29", "area_ha": null, "tenure_type": "Single Cell Mining Claim", "source": "Ontario MLAS operational claims (OGSEarth / LIO MapServer). Unofficial viewing data, not legal title.", "as_of": "2026-09-20", "role": "focus", "color": "#e8b040"}}, {"type": "Feature", "geometry": {"type": "Polygon", "coordinates": [[[-84.3938, 47.0083], [-84.3938, 47.0125], [-84.4, 47.0125], [-84.4, 47.0083], [-84.3938, 47.0083]]]}, "properties": {"company_id": "rupert-resources", "jurisdiction": "Ontario", "claim_id": "979298", "claim_name": null, "holder": "(50) ROY JOHN RUPERT, (50) DANIEL IAN SHELLY", "status": "Active", "recorded_date": "2025-10-27", "anniversary_or_expiry": "2027-10-27", "area_ha": null, "tenure_type": "Single Cell Mining Claim", "source": "Ontario MLAS operational claims (OGSEarth / LIO MapServer). Unofficial viewing data, not legal title.", "as_of": "2026-09-20", "role": "focus", "color": "#e8b040"}}, {"type": "Feature", "geometry": {"type": "Polygon", "coordinates": [[[-84.3875, 47.0042], [-84.3875, 47.0083], [-84.3938, 47.0083], [-84.3938, 47.0042], [-84.3875, 47.0042]]]}, "properties": {"company_id": "rupert-resources", "jurisdiction": "Ontario", "claim_id": "979299", "claim_name": null, "holder": "(50) ROY JOHN RUPERT, (50) DANIEL IAN SHELLY", "status": "Active", "recorded_date": "2025-10-27", "anniversary_or_expiry": "2027-10-27", "area_ha": null, "tenure_type": "Single Cell Mining Claim", "source": "Ontario MLAS operational claims (OGSEarth / LIO MapServer). Unofficial viewing data, not legal title.", "as_of": "2026-09-20", "role": "focus", "color": "#e8b040"}}, {"type": "Feature", "geometry": {"type": "Polygon", "coordinates": [[[-84.4, 47.0083], [-84.4, 47.0125], [-84.4063, 47.0125], [-84.4063, 47.0083], [-84.4, 47.0083]]]}, "properties": {"company_id": "rupert-resources", "jurisdiction": "Ontario", "claim_id": "979300", "claim_name": null, "holder": "(50) ROY JOHN RUPERT, (50) DANIEL IAN SHELLY", "status": "Active", "recorded_date": "2025-10-27", "anniversary_or_expiry": "2027-10-27", "area_ha": null, "tenure_type": "Single Cell Mining Claim", "source": "Ontario MLAS operational claims (OGSEarth / LIO MapServer). Unofficial viewing data, not legal title.", "as_of": "2026-09-20", "role": "focus", "color": "#e8b040"}}, {"type": "Feature", "geometry": {"type": "Polygon", "coordinates": [[[-84.3813, 47.0125], [-84.3813, 47.0167], [-84.3875, 47.0167], [-84.3875, 47.0125], [-84.3813, 47.0125]]]}, "properties": {"company_id": "rupert-resources", "jurisdiction": "Ontario", "claim_id": "979301", "claim_name": null, "holder": "(50) ROY JOHN RUPERT, (50) DANIEL IAN SHELLY", "status": "Active", "recorded_date": "2025-10-27", "anniversary_or_expiry": "2027-10-27", "area_ha": null, "tenure_type": "Single Cell Mining Claim", "source": "Ontario MLAS operational claims (OGSEarth / LIO MapServer). Unofficial viewing data, not legal title.", "as_of": "2026-09-20", "role": "focus", "color": "#e8b040"}}, {"type": "Feature", "geometry": {"type": "Polygon", "coordinates": [[[-84.3938, 47.0125], [-84.3938, 47.0167], [-84.4, 47.0167], [-84.4, 47.0125], [-84.3938, 47.0125]]]}, "properties": {"company_id": "rupert-resources", "jurisdiction": "Ontario", "claim_id": "979302", "claim_name": null, "holder": "(50) ROY JOHN RUPERT, (50) DANIEL IAN SHELLY", "status": "Active", "recorded_date": "2025-10-27", "anniversary_or_expiry": "2027-10-27", "area_ha": null, "tenure_type": "Single Cell Mining Claim", "source": "Ontario MLAS operational claims (OGSEarth / LIO MapServer). Unofficial viewing data, not legal title.", "as_of": "2026-09-20", "role": "focus", "color": "#e8b040"}}, {"type": "Feature", "geometry": {"type": "Polygon", "coordinates": [[[-84.3813, 47.0042], [-84.3813, 47.0083], [-84.3875, 47.0083], [-84.3875, 47.0042], [-84.3813, 47.0042]]]}, "properties": {"company_id": "rupert-resources", "jurisdiction": "Ontario", "claim_id": "979303", "claim_name": null, "holder": "(50) ROY JOHN RUPERT, (50) DANIEL IAN SHELLY", "status": "Active", "recorded_date": "2025-10-27", "anniversary_or_expiry": "2027-10-27", "area_ha": null, "tenure_type": "Single Cell Mining Claim", "source": "Ontario MLAS operational claims (OGSEarth / LIO MapServer). Unofficial viewing data, not legal title.", "as_of": "2026-09-20", "role": "focus", "color": "#e8b040"}}, {"type": "Feature", "geometry": {"type": "Polygon", "coordinates": [[[-84.3875, 47.0083], [-84.3875, 47.0125], [-84.3938, 47.0125], [-84.3938, 47.0083], [-84.3875, 47.0083]]]}, "properties": {"company_id": "rupert-resources", "jurisdiction": "Ontario", "claim_id": "979304", "claim_name": null, "holder": "(50) ROY JOHN RUPERT, (50) DANIEL IAN SHELLY", "status": "Active", "recorded_date": "2025-10-27", "anniversary_or_expiry": "2027-10-27", "area_ha": null, "tenure_type": "Single Cell Mining Claim", "source": "Ontario MLAS operational claims (OGSEarth / LIO MapServer). Unofficial viewing data, not legal title.", "as_of": "2026-09-20", "role": "focus", "color": "#e8b040"}}, {"type": "Feature", "geometry": {"type": "Polygon", "coordinates": [[[-84.3875, 47.0125], [-84.3875, 47.0167], [-84.3938, 47.0167], [-84.3938, 47.0125], [-84.3875, 47.0125]]]}, "properties": {"company_id": "rupert-resources", "jurisdiction": "Ontario", "claim_id": "979305", "claim_name": null, "holder": "(50) ROY JOHN RUPERT, (50) DANIEL IAN SHELLY", "status": "Active", "recorded_date": "2025-10-27", "anniversary_or_expiry": "2027-10-27", "area_ha": null, "tenure_type": "Single Cell Mining Claim", "source": "Ontario MLAS operational claims (OGSEarth / LIO MapServer). Unofficial viewing data, not legal title.", "as_of": "2026-09-20", "role": "focus", "color": "#e8b040"}}, {"type": "Feature", "geometry": {"type": "Polygon", "coordinates": [[[-84.3875, 47.0167], [-84.3875, 47.0208], [-84.3938, 47.0208], [-84.3938, 47.0167], [-84.3875, 47.0167]]]}, "properties": {"company_id": "rupert-resources", "jurisdiction": "Ontario", "claim_id": "979306", "claim_name": null, "holder": "(50) ROY JOHN RUPERT, (50) DANIEL IAN SHELLY", "status": "Active", "recorded_date": "2025-10-27", "anniversary_or_expiry": "2027-10-27", "area_ha": null, "tenure_type": "Single Cell Mining Claim", "source": "Ontario MLAS operational claims (OGSEarth / LIO MapServer). Unofficial viewing data, not legal title.", "as_of": "2026-09-20", "role": "focus", "color": "#e8b040"}}, {"type": "Feature", "geometry": {"type": "Polygon", "coordinates": [[[-84.4, 47.0042], [-84.4, 47.0083], [-84.4063, 47.0083], [-84.4063, 47.0042], [-84.4, 47.0042]]]}, "properties": {"company_id": "rupert-resources", "jurisdiction": "Ontario", "claim_id": "979307", "claim_name": null, "holder": "(50) ROY JOHN RUPERT, (50) DANIEL IAN SHELLY", "status": "Active", "recorded_date": "2025-10-27", "anniversary_or_expiry": "2027-10-27", "area_ha": null, "tenure_type": "Single Cell Mining Claim", "source": "Ontario MLAS operational claims (OGSEarth / LIO MapServer). Unofficial viewing data, not legal title.", "as_of": "2026-09-20", "role": "focus", "color": "#e8b040"}}, {"type": "Feature", "geometry": {"type": "Polygon", "coordinates": [[[-84.3938, 47.0042], [-84.3938, 47.0083], [-84.4, 47.0083], [-84.4, 47.0042], [-84.3938, 47.0042]]]}, "properties": {"company_id": "rupert-resources", "jurisdiction": "Ontario", "claim_id": "979308", "claim_name": null, "holder": "(50) ROY JOHN RUPERT, (50) DANIEL IAN SHELLY", "status": "Active", "recorded_date": "2025-10-27", "anniversary_or_expiry": "2027-10-27", "area_ha": null, "tenure_type": "Single Cell Mining Claim", "source": "Ontario MLAS operational claims (OGSEarth / LIO MapServer). Unofficial viewing data, not legal title.", "as_of": "2026-09-20", "role": "focus", "color": "#e8b040"}}, {"type": "Feature", "geometry": {"type": "Polygon", "coordinates": [[[-84.3813, 47.0083], [-84.3813, 47.0125], [-84.3875, 47.0125], [-84.3875, 47.0083], [-84.3813, 47.0083]]]}, "properties": {"company_id": "rupert-resources", "jurisdiction": "Ontario", "claim_id": "979309", "claim_name": null, "holder": "(50) ROY JOHN RUPERT, (50) DANIEL IAN SHELLY", "status": "Active", "recorded_date": "2025-10-27", "anniversary_or_expiry": "2027-10-27", "area_ha": null, "tenure_type": "Single Cell Mining Claim", "source": "Ontario MLAS operational claims (OGSEarth / LIO MapServer). Unofficial viewing data, not legal title.", "as_of": "2026-09-20", "role": "focus", "color": "#e8b040"}}, {"type": "Feature", "geometry": {"type": "Polygon", "coordinates": [[[-84.3813, 47.0167], [-84.3813, 47.0208], [-84.3875, 47.0208], [-84.3875, 47.0167], [-84.3813, 47.0167]]]}, "properties": {"company_id": "rupert-resources", "jurisdiction": "Ontario", "claim_id": "979310", "claim_name": null, "holder": "(50) ROY JOHN RUPERT, (50) DANIEL IAN SHELLY", "status": "Active", "recorded_date": "2025-10-27", "anniversary_or_expiry": "2027-10-27", "area_ha": null, "tenure_type": "Single Cell Mining Claim", "source": "Ontario MLAS operational claims (OGSEarth / LIO MapServer). Unofficial viewing data, not legal title.", "as_of": "2026-09-20", "role": "focus", "color": "#e8b040"}}, {"type": "Feature", "geometry": {"type": "Polygon", "coordinates": [[[-84.4, 47.0125], [-84.4, 47.0167], [-84.4063, 47.0167], [-84.4063, 47.0125], [-84.4, 47.0125]]]}, "properties": {"company_id": "rupert-resources", "jurisdiction": "Ontario", "claim_id": "979311", "claim_name": null, "holder": "(50) ROY JOHN RUPERT, (50) DANIEL IAN SHELLY", "status": "Active", "recorded_date": "2025-10-27", "anniversary_or_expiry": "2027-10-27", "area_ha": null, "tenure_type": "Single Cell Mining Claim", "source": "Ontario MLAS operational claims (OGSEarth / LIO MapServer). Unofficial viewing data, not legal title.", "as_of": "2026-09-20", "role": "focus", "color": "#e8b040"}}, {"type": "Feature", "geometry": {"type": "Polygon", "coordinates": [[[-84.3625, 47.0167], [-84.3625, 47.0208], [-84.3688, 47.0208], [-84.3688, 47.0167], [-84.3625, 47.0167]]]}, "properties": {"company_id": "rupert-resources", "jurisdiction": "Ontario", "claim_id": "979312", "claim_name": null, "holder": "(50) ROY JOHN RUPERT, (50) DANIEL IAN SHELLY", "status": "Active", "recorded_date": "2025-10-27", "anniversary_or_expiry": "2027-10-27", "area_ha": null, "tenure_type": "Single Cell Mining Claim", "source": "Ontario MLAS operational claims (OGSEarth / LIO MapServer). Unofficial viewing data, not legal title.", "as_of": "2026-09-20", "role": "focus", "color": "#e8b040"}}, {"type": "Feature", "geometry": {"type": "Polygon", "coordinates": [[[-84.3625, 47.0042], [-84.3625, 47.0083], [-84.3688, 47.0083], [-84.3688, 47.0042], [-84.3625, 47.0042]]]}, "properties": {"company_id": "rupert-resources", "jurisdiction": "Ontario", "claim_id": "979313", "claim_name": null, "holder": "(50) ROY JOHN RUPERT, (50) DANIEL IAN SHELLY", "status": "Active", "recorded_date": "2025-10-27", "anniversary_or_expiry": "2027-10-27", "area_ha": null, "tenure_type": "Single Cell Mining Claim", "source": "Ontario MLAS operational claims (OGSEarth / LIO MapServer). Unofficial viewing data, not legal title.", "as_of": "2026-09-20", "role": "focus", "color": "#e8b040"}}]}