{"type": "FeatureCollection", "features": [{"type": "Feature", "geometry": {"type": "Polygon", "coordinates": [[[-130.0513, 56.2498], [-130.0743, 56.2498], [-130.0743, 56.2456], [-130.0786, 56.2456], [-130.0786, 56.2327], [-130.0469, 56.233], [-130.0469, 56.2498], [-130.0513, 56.2498]]]}, "properties": {"company_id": "scottie-resources", "jurisdiction": "British Columbia", "claim_id": 251148, "claim_name": "BOW 1", "holder": "SCOTTIE RESOURCES CORP.", "status": "Mineral", "recorded_date": "4438368000", "anniversary_or_expiry": "2034-06-02", "area_ha": 400, "tenure_type": "Mineral", "source": "BC MTA Mineral, Placer and Coal Tenure Spatial View (BCGW). Open Government Licence - British Columbia. Not legal title.", "as_of": "2026-09-20", "role": "focus", "color": "#e8b040"}}, {"type": "Feature", "geometry": {"type": "Polygon", "coordinates": [[[-130.045, 55.7923], [-130.046, 55.7934], [-130.0489, 55.7921], [-130.0458, 55.7894], [-130.0413, 55.7876], [-130.0377, 55.7905], [-130.0434, 55.7928], [-130.045, 55.7923]]]}, "properties": {"company_id": "scottie-resources", "jurisdiction": "British Columbia", "claim_id": 250721, "claim_name": "REFER TO LOT TABLE", "holder": "SCOTTIE RESOURCES CORP.", "status": "Mineral", "recorded_date": "3024000000", "anniversary_or_expiry": "2031-11-22", "area_ha": 25, "tenure_type": "Mineral", "source": "BC MTA Mineral, Placer and Coal Tenure Spatial View (BCGW). Open Government Licence - British Columbia. Not legal title.", "as_of": "2026-09-20", "role": "focus", "color": "#e8b040"}}, {"type": "Feature", "geometry": {"type": "Polygon", "coordinates": [[[-130.0524, 55.7876], [-130.055, 55.7898], [-130.0505, 55.7914], [-130.0564, 55.7958], [-130.054, 55.7932], [-130.0606, 55.7915], [-130.0585, 55.7889], [-130.0524, 55.7876]]]}, "properties": {"company_id": "scottie-resources", "jurisdiction": "British Columbia", "claim_id": 250723, "claim_name": "REFER TO LOT TABLE", "holder": "SCOTTIE RESOURCES CORP.", "status": "Mineral", "recorded_date": "3024000000", "anniversary_or_expiry": "2031-11-22", "area_ha": 25, "tenure_type": "Mineral", "source": "BC MTA Mineral, Placer and Coal Tenure Spatial View (BCGW). Open Government Licence - British Columbia. Not legal title.", "as_of": "2026-09-20", "role": "focus", "color": "#e8b040"}}, {"type": "Feature", "geometry": {"type": "Polygon", "coordinates": [[[-130.0564, 55.7958], [-130.0577, 55.7969], [-130.0639, 55.795], [-130.0606, 55.7915], [-130.054, 55.7932], [-130.0564, 55.7958]]]}, "properties": {"company_id": "scottie-resources", "jurisdiction": "British Columbia", "claim_id": 250725, "claim_name": "REFER TO LOT TABLE", "holder": "SCOTTIE RESOURCES CORP.", "status": "Mineral", "recorded_date": "3024000000", "anniversary_or_expiry": "2031-11-22", "area_ha": 25, "tenure_type": "Mineral", "source": "BC MTA Mineral, Placer and Coal Tenure Spatial View (BCGW). Open Government Licence - British Columbia. Not legal title.", "as_of": "2026-09-20", "role": "focus", "color": "#e8b040"}}, {"type": "Feature", "geometry": {"type": "Polygon", "coordinates": [[[-130.0493, 55.7849], [-130.0494, 55.7854], [-130.0526, 55.7852], [-130.0537, 55.7835], [-130.0564, 55.7841], [-130.0556, 55.7808], [-130.0483, 55.7814], [-130.0493, 55.7849]]]}, "properties": {"company_id": "scottie-resources", "jurisdiction": "British Columbia", "claim_id": 250736, "claim_name": "REFER TO LOT TABLE", "holder": "SCOTTIE RESOURCES CORP.", "status": "Mineral", "recorded_date": "3024000000", "anniversary_or_expiry": "2031-11-22", "area_ha": 25, "tenure_type": "Mineral", "source": "BC MTA Mineral, Placer and Coal Tenure Spatial View (BCGW). Open Government Licence - British Columbia. Not legal title.", "as_of": "2026-09-20", "role": "focus", "color": "#e8b040"}}, {"type": "Feature", "geometry": {"type": "Polygon", "coordinates": [[[-130.0401, 55.7959], [-130.0416, 55.7976], [-130.0475, 55.7959], [-130.0447, 55.7939], [-130.046, 55.7934], [-130.045, 55.7923], [-130.0385, 55.7942], [-130.0401, 55.7959]]]}, "properties": {"company_id": "scottie-resources", "jurisdiction": "British Columbia", "claim_id": 250737, "claim_name": "REFER TO LOT TABLE", "holder": "SCOTTIE RESOURCES CORP.", "status": "Mineral", "recorded_date": "3024000000", "anniversary_or_expiry": "2031-11-22", "area_ha": 25, "tenure_type": "Mineral", "source": "BC MTA Mineral, Placer and Coal Tenure Spatial View (BCGW). Open Government Licence - British Columbia. Not legal title.", "as_of": "2026-09-20", "role": "focus", "color": "#e8b040"}}, {"type": "Feature", "geometry": {"type": "Polygon", "coordinates": [[[-130.0843, 56.226], [-130.0861, 56.226], [-130.082, 56.2256], [-130.0825, 56.2238], [-130.0768, 56.2238], [-130.0767, 56.226], [-130.0843, 56.226]]]}, "properties": {"company_id": "scottie-resources", "jurisdiction": "British Columbia", "claim_id": 250851, "claim_name": "SCOT #4", "holder": "SCOTTIE RESOURCES CORP.", "status": "Mineral", "recorded_date": "3192480000", "anniversary_or_expiry": "2034-06-02", "area_ha": 150, "tenure_type": "Mineral", "source": "BC MTA Mineral, Placer and Coal Tenure Spatial View (BCGW). Open Government Licence - British Columbia. Not legal title.", "as_of": "2026-09-20", "role": "focus", "color": "#e8b040"}}, {"type": "Feature", "geometry": {"type": "Polygon", "coordinates": [[[-129.9187, 55.7765], [-129.9439, 55.7765], [-129.9439, 55.7541], [-129.9187, 55.7541], [-129.9187, 55.7765]]]}, "properties": {"company_id": "scottie-resources", "jurisdiction": "British Columbia", "claim_id": 318194, "claim_name": "BROWN #1", "holder": "SCOTTIE RESOURCES CORP.", "status": "Mineral", "recorded_date": "7394976000", "anniversary_or_expiry": "2031-11-22", "area_ha": 500, "tenure_type": "Mineral", "source": "BC MTA Mineral, Placer and Coal Tenure Spatial View (BCGW). Open Government Licence - British Columbia. Not legal title.", "as_of": "2026-09-20", "role": "focus", "color": "#e8b040"}}, {"type": "Feature", "geometry": {"type": "Polygon", "coordinates": [[[-129.9187, 55.7541], [-129.9028, 55.7541], [-129.9028, 55.7765], [-129.9187, 55.7765], [-129.9187, 55.7541]]]}, "properties": {"company_id": "scottie-resources", "jurisdiction": "British Columbia", "claim_id": 318195, "claim_name": "BROWN #2", "holder": "SCOTTIE RESOURCES CORP.", "status": "Mineral", "recorded_date": "7394976000", "anniversary_or_expiry": "2031-11-22", "area_ha": 250, "tenure_type": "Mineral", "source": "BC MTA Mineral, Placer and Coal Tenure Spatial View (BCGW). Open Government Licence - British Columbia. Not legal title.", "as_of": "2026-09-20", "role": "focus", "color": "#e8b040"}}, {"type": "Feature", "geometry": {"type": "Polygon", "coordinates": [[[-129.9187, 55.7541], [-129.9586, 55.7541], [-129.9585, 55.7361], [-129.9216, 55.7361], [-129.9216, 55.748], [-129.9187, 55.748], [-129.9187, 55.7541]]]}, "properties": {"company_id": "scottie-resources", "jurisdiction": "British Columbia", "claim_id": 318196, "claim_name": "BROWN #3", "holder": "SCOTTIE RESOURCES CORP.", "status": "Mineral", "recorded_date": "7394976000", "anniversary_or_expiry": "2031-11-22", "area_ha": 500, "tenure_type": "Mineral", "source": "BC MTA Mineral, Placer and Coal Tenure Spatial View (BCGW). Open Government Licence - British Columbia. Not legal title.", "as_of": "2026-09-20", "role": "focus", "color": "#e8b040"}}, {"type": "Feature", "geometry": {"type": "Polygon", "coordinates": [[[-129.9216, 55.7271], [-129.9216, 55.7361], [-129.9615, 55.7361], [-129.9614, 55.7271], [-129.9216, 55.7271]]]}, "properties": {"company_id": "scottie-resources", "jurisdiction": "British Columbia", "claim_id": 331396, "claim_name": "ARK", "holder": "SCOTTIE RESOURCES CORP.", "status": "Mineral", "recorded_date": "7802784000", "anniversary_or_expiry": "2031-11-22", "area_ha": 250, "tenure_type": "Mineral", "source": "BC MTA Mineral, Placer and Coal Tenure Spatial View (BCGW). Open Government Licence - British Columbia. Not legal title.", "as_of": "2026-09-20", "role": "focus", "color": "#e8b040"}}, {"type": "Feature", "geometry": {"type": "Polygon", "coordinates": [[[-130.0685, 56.224], [-130.0685, 56.2328], [-130.0786, 56.2327], [-130.0786, 56.237], [-130.0843, 56.2357], [-130.0843, 56.226], [-130.0767, 56.226], [-130.0768, 56.2238], [-130.0685, 56.224]]]}, "properties": {"company_id": "scottie-resources", "jurisdiction": "British Columbia", "claim_id": 338685, "claim_name": "SUM #1", "holder": "SCOTTIE RESOURCES CORP.", "status": "Mineral", "recorded_date": "8074944000", "anniversary_or_expiry": "2034-06-02", "area_ha": 150, "tenure_type": "Mineral", "source": "BC MTA Mineral, Placer and Coal Tenure Spatial View (BCGW). Open Government Licence - British Columbia. Not legal title.", "as_of": "2026-09-20", "role": "focus", "color": "#e8b040"}}, {"type": "Feature", "geometry": {"type": "Polygon", "coordinates": [[[-129.8785, 56.1525], [-129.8785, 56.1706], [-129.9107, 56.1706], [-129.9107, 56.152], [-129.8941, 56.152], [-129.8941, 56.1481], [-129.8785, 56.1481], [-129.8785, 56.1525]]]}, "properties": {"company_id": "scottie-resources", "jurisdiction": "British Columbia", "claim_id": 356330, "claim_name": "DOROTHY 2", "holder": "SCOTTIE RESOURCES CORP.", "status": "Mineral", "recorded_date": "8649504000", "anniversary_or_expiry": "2026-01-17", "area_ha": 500, "tenure_type": "Mineral", "source": "BC MTA Mineral, Placer and Coal Tenure Spatial View (BCGW). Open Government Licence - British Columbia. Not legal title.", "as_of": "2026-09-20", "role": "focus", "color": "#e8b040"}}, {"type": "Feature", "geometry": {"type": "Polygon", "coordinates": [[[-129.8636, 55.9493], [-129.866, 55.9527], [-129.8728, 55.9512], [-129.87, 55.9474], [-129.8633, 55.9489], [-129.8636, 55.9493]]]}, "properties": {"company_id": "scottie-resources", "jurisdiction": "British Columbia", "claim_id": 404165, "claim_name": "REFER TO LOT TABLE", "holder": "SCOTTIE RESOURCES CORP.", "status": "Mineral", "recorded_date": "2003-07-21", "anniversary_or_expiry": "2026-01-17", "area_ha": 25, "tenure_type": "Mineral", "source": "BC MTA Mineral, Placer and Coal Tenure Spatial View (BCGW). Open Government Licence - British Columbia. Not legal title.", "as_of": "2026-09-20", "role": "focus", "color": "#e8b040"}}, {"type": "Feature", "geometry": {"type": "Polygon", "coordinates": [[[-129.8614, 55.9449], [-129.8605, 55.9451], [-129.8633, 55.9489], [-129.87, 55.9474], [-129.8673, 55.9436], [-129.8614, 55.9449]]]}, "properties": {"company_id": "scottie-resources", "jurisdiction": "British Columbia", "claim_id": 404166, "claim_name": "REFER TO LOT TABLE", "holder": "SCOTTIE RESOURCES CORP.", "status": "Mineral", "recorded_date": "2003-07-21", "anniversary_or_expiry": "2026-01-17", "area_ha": 25, "tenure_type": "Mineral", "source": "BC MTA Mineral, Placer and Coal Tenure Spatial View (BCGW). Open Government Licence - British Columbia. Not legal title.", "as_of": "2026-09-20", "role": "focus", "color": "#e8b040"}}, {"type": "Feature", "geometry": {"type": "Polygon", "coordinates": [[[-129.8687, 55.9539], [-129.8708, 55.954], [-129.8708, 55.9516], [-129.866, 55.9527], [-129.8636, 55.9493], [-129.8625, 55.9533], [-129.8687, 55.9539]]]}, "properties": {"company_id": "scottie-resources", "jurisdiction": "British Columbia", "claim_id": 404167, "claim_name": "REFER TO LOT TABLE", "holder": "SCOTTIE RESOURCES CORP.", "status": "Mineral", "recorded_date": "2003-07-21", "anniversary_or_expiry": "2026-01-17", "area_ha": 25, "tenure_type": "Mineral", "source": "BC MTA Mineral, Placer and Coal Tenure Spatial View (BCGW). Open Government Licence - British Columbia. Not legal title.", "as_of": "2026-09-20", "role": "focus", "color": "#e8b040"}}, {"type": "Feature", "geometry": {"type": "Polygon", "coordinates": [[[-129.8895, 56.1331], [-129.8895, 56.129], [-129.877, 56.129], [-129.877, 56.1373], [-129.852, 56.1373], [-129.852, 56.1498], [-129.8458, 56.1498], [-129.8458, 56.154], [-129.877, 56.154], [-129.877, 56.1456], [-129.8895, 56.1456], [-129.8895, 56.1331]]]}, "properties": {"company_id": "scottie-resources", "jurisdiction": "British Columbia", "claim_id": 508879, "claim_name": "Ruby-10", "holder": "SCOTTIE RESOURCES CORP.", "status": "Mineral", "recorded_date": "2005-03-14", "anniversary_or_expiry": "2026-01-17", "area_ha": 450.684, "tenure_type": "Mineral", "source": "BC MTA Mineral, Placer and Coal Tenure Spatial View (BCGW). Open Government Licence - British Columbia. Not legal title.", "as_of": "2026-09-20", "role": "focus", "color": "#e8b040"}}, {"type": "Feature", "geometry": {"type": "Polygon", "coordinates": [[[-129.877, 56.1581], [-129.877, 56.154], [-129.8458, 56.154], [-129.8458, 56.1581], [-129.852, 56.1581], [-129.852, 56.179], [-129.877, 56.179], [-129.877, 56.1581]]]}, "properties": {"company_id": "scottie-resources", "jurisdiction": "British Columbia", "claim_id": 511583, "claim_name": "RUBY 14", "holder": "SCOTTIE RESOURCES CORP.", "status": "Mineral", "recorded_date": "2005-04-25", "anniversary_or_expiry": "2026-01-17", "area_ha": 450.389, "tenure_type": "Mineral", "source": "BC MTA Mineral, Placer and Coal Tenure Spatial View (BCGW). Open Government Licence - British Columbia. Not legal title.", "as_of": "2026-09-20", "role": "focus", "color": "#e8b040"}}, {"type": "Feature", "geometry": {"type": "Polygon", "coordinates": [[[-129.9957, 55.9873], [-129.9957, 55.9831], [-129.9707, 55.9831], [-129.9708, 56.004], [-129.9958, 56.004], [-129.9957, 55.9873]], [[-129.9832, 55.9956], [-129.9833, 55.9998], [-129.977, 55.9998], [-129.977, 55.9956], [-129.9832, 55.9956]]]}, "properties": {"company_id": "scottie-resources", "jurisdiction": "British Columbia", "claim_id": 508231, "claim_name": null, "holder": "SCOTTIE RESOURCES CORP.", "status": "Mineral", "recorded_date": "2005-03-03", "anniversary_or_expiry": "2026-01-17", "area_ha": 343.89, "tenure_type": "Mineral", "source": "BC MTA Mineral, Placer and Coal Tenure Spatial View (BCGW). Open Government Licence - British Columbia. Not legal title.", "as_of": "2026-09-20", "role": "focus", "color": "#e8b040"}}, {"type": "Feature", "geometry": {"type": "Polygon", "coordinates": [[[-129.902, 56.0623], [-129.8707, 56.0623], [-129.8707, 56.0956], [-129.877, 56.0956], [-129.877, 56.0915], [-129.8895, 56.0915], [-129.8895, 56.0665], [-129.9082, 56.0665], [-129.9082, 56.0623], [-129.902, 56.0623]]]}, "properties": {"company_id": "scottie-resources", "jurisdiction": "British Columbia", "claim_id": 508288, "claim_name": "Ruby 3", "holder": "SCOTTIE RESOURCES CORP.", "status": "Mineral", "recorded_date": "2005-03-05", "anniversary_or_expiry": "2026-01-17", "area_ha": 451.488, "tenure_type": "Mineral", "source": "BC MTA Mineral, Placer and Coal Tenure Spatial View (BCGW). Open Government Licence - British Columbia. Not legal title.", "as_of": "2026-09-20", "role": "focus", "color": "#e8b040"}}, {"type": "Feature", "geometry": {"type": "Polygon", "coordinates": [[[-130.002, 55.979], [-130.002, 55.9748], [-129.9832, 55.9748], [-129.9832, 55.9706], [-129.9644, 55.9706], [-129.9645, 56.0081], [-129.977, 56.0081], [-129.977, 56.004], [-129.9708, 56.004], [-129.9707, 55.9831], [-129.9957, 55.9831], [-129.9957, 55.9956], [-130.002, 55.9956], [-130.002, 55.979]]]}, "properties": {"company_id": "scottie-resources", "jurisdiction": "British Columbia", "claim_id": 508320, "claim_name": "Bay Silver New1", "holder": "SCOTTIE RESOURCES CORP.", "status": "Mineral", "recorded_date": "2005-03-06", "anniversary_or_expiry": "2026-01-17", "area_ha": 452.594, "tenure_type": "Mineral", "source": "BC MTA Mineral, Placer and Coal Tenure Spatial View (BCGW). Open Government Licence - British Columbia. Not legal title.", "as_of": "2026-09-20", "role": "focus", "color": "#e8b040"}}, {"type": "Feature", "geometry": {"type": "Polygon", "coordinates": [[[-129.9958, 56.0123], [-129.9958, 56.0081], [-129.9645, 56.0081], [-129.9645, 56.029], [-129.9958, 56.029], [-129.9958, 56.0123]]]}, "properties": {"company_id": "scottie-resources", "jurisdiction": "British Columbia", "claim_id": 508340, "claim_name": "Bay Silver North", "holder": "SCOTTIE RESOURCES CORP.", "status": "Mineral", "recorded_date": "2005-03-07", "anniversary_or_expiry": "2026-01-17", "area_ha": 452.113, "tenure_type": "Mineral", "source": "BC MTA Mineral, Placer and Coal Tenure Spatial View (BCGW). Open Government Licence - British Columbia. Not legal title.", "as_of": "2026-09-20", "role": "focus", "color": "#e8b040"}}, {"type": "Feature", "geometry": {"type": "Polygon", "coordinates": [[[-130.002, 55.9998], [-130.002, 55.9956], [-129.9957, 55.9956], [-129.9958, 56.004], [-129.977, 56.004], [-129.977, 56.0081], [-129.9958, 56.0081], [-129.9958, 56.0165], [-130.002, 56.0165], [-130.002, 55.9998]]]}, "properties": {"company_id": "scottie-resources", "jurisdiction": "British Columbia", "claim_id": 508341, "claim_name": "Bay Silver West", "holder": "SCOTTIE RESOURCES CORP.", "status": "Mineral", "recorded_date": "2005-03-07", "anniversary_or_expiry": "2026-01-17", "area_ha": 144.727, "tenure_type": "Mineral", "source": "BC MTA Mineral, Placer and Coal Tenure Spatial View (BCGW). Open Government Licence - British Columbia. Not legal title.", "as_of": "2026-09-20", "role": "focus", "color": "#e8b040"}}, {"type": "Feature", "geometry": {"type": "Polygon", "coordinates": [[[-130.1083, 56.2998], [-130.0833, 56.2998], [-130.0833, 56.304], [-130.1145, 56.304], [-130.1145, 56.2998], [-130.1083, 56.2998]]]}, "properties": {"company_id": "scottie-resources", "jurisdiction": "British Columbia", "claim_id": 517633, "claim_name": "TIDE NORTH 1", "holder": "SCOTTIE RESOURCES CORP.", "status": "Mineral", "recorded_date": "2005-07-13", "anniversary_or_expiry": "2034-06-02", "area_ha": 89.759, "tenure_type": "Mineral", "source": "BC MTA Mineral, Placer and Coal Tenure Spatial View (BCGW). Open Government Licence - British Columbia. Not legal title.", "as_of": "2026-09-20", "role": "focus", "color": "#e8b040"}}, {"type": "Feature", "geometry": {"type": "Polygon", "coordinates": [[[-130.1083, 56.3123], [-130.0958, 56.3123], [-130.0958, 56.3248], [-130.1145, 56.3248], [-130.1145, 56.3206], [-130.102, 56.3206], [-130.102, 56.3165], [-130.1145, 56.3165], [-130.1145, 56.3123], [-130.1083, 56.3123]]]}, "properties": {"company_id": "scottie-resources", "jurisdiction": "British Columbia", "claim_id": 517634, "claim_name": "TIDE NORTH 2", "holder": "SCOTTIE RESOURCES CORP.", "status": "Mineral", "recorded_date": "2005-07-13", "anniversary_or_expiry": "2034-06-02", "area_ha": 125.60600000000001, "tenure_type": "Mineral", "source": "BC MTA Mineral, Placer and Coal Tenure Spatial View (BCGW). Open Government Licence - British Columbia. Not legal title.", "as_of": "2026-09-20", "role": "focus", "color": "#e8b040"}}, {"type": "Feature", "geometry": {"type": "Polygon", "coordinates": [[[-129.8957, 56.0873], [-129.8957, 56.0831], [-129.8895, 56.0831], [-129.8895, 56.0956], [-129.8645, 56.0956], [-129.8645, 56.104], [-129.8707, 56.104], [-129.8707, 56.0998], [-129.877, 56.0998], [-129.8832, 56.0998], [-129.8832, 56.104], [-129.8958, 56.104], [-129.8957, 56.0956], [-129.902, 56.0956], [-129.902, 56.0915], [-129.8957, 56.0915], [-129.8957, 56.0873]]]}, "properties": {"company_id": "scottie-resources", "jurisdiction": "British Columbia", "claim_id": 517320, "claim_name": "RUBY 20", "holder": "SCOTTIE RESOURCES CORP.", "status": "Mineral", "recorded_date": "2005-07-12", "anniversary_or_expiry": "2026-01-17", "area_ha": 216.61, "tenure_type": "Mineral", "source": "BC MTA Mineral, Placer and Coal Tenure Spatial View (BCGW). Open Government Licence - British Columbia. Not legal title.", "as_of": "2026-09-20", "role": "focus", "color": "#e8b040"}}, {"type": "Feature", "geometry": {"type": "Polygon", "coordinates": [[[-129.9645, 56.1873], [-129.8833, 56.1873], [-129.8833, 56.1706], [-129.877, 56.1706], [-129.877, 56.1873], [-129.8708, 56.1873], [-129.8708, 56.1915], [-129.9708, 56.1915], [-129.9708, 56.1873], [-129.9645, 56.1873]]]}, "properties": {"company_id": "scottie-resources", "jurisdiction": "British Columbia", "claim_id": 517340, "claim_name": "RUBY 22", "holder": "SCOTTIE RESOURCES CORP.", "status": "Mineral", "recorded_date": "2005-07-12", "anniversary_or_expiry": "2026-01-17", "area_ha": 360.089, "tenure_type": "Mineral", "source": "BC MTA Mineral, Placer and Coal Tenure Spatial View (BCGW). Open Government Licence - British Columbia. Not legal title.", "as_of": "2026-09-20", "role": "focus", "color": "#e8b040"}}, {"type": "Feature", "geometry": {"type": "Polygon", "coordinates": [[[-129.8207, 56.0915], [-129.8207, 56.0873], [-129.7895, 56.0873], [-129.7895, 56.0915], [-129.8145, 56.0915], [-129.8145, 56.1373], [-129.8208, 56.1373], [-129.8207, 56.0915]]]}, "properties": {"company_id": "scottie-resources", "jurisdiction": "British Columbia", "claim_id": 517343, "claim_name": "RUBY 23", "holder": "SCOTTIE RESOURCES CORP.", "status": "Mineral", "recorded_date": "2005-07-12", "anniversary_or_expiry": "2026-01-17", "area_ha": 288.678, "tenure_type": "Mineral", "source": "BC MTA Mineral, Placer and Coal Tenure Spatial View (BCGW). Open Government Licence - British Columbia. Not legal title.", "as_of": "2026-09-20", "role": "focus", "color": "#e8b040"}}, {"type": "Feature", "geometry": {"type": "Polygon", "coordinates": [[[-129.902, 56.129], [-129.8958, 56.129], [-129.8958, 56.1248], [-129.902, 56.1248], [-129.902, 56.1206], [-129.8895, 56.1206], [-129.8895, 56.1456], [-129.877, 56.1456], [-129.877, 56.1706], [-129.8833, 56.1706], [-129.8833, 56.1498], [-129.8958, 56.1498], [-129.8958, 56.1373], [-129.902, 56.1373], [-129.902, 56.129]]]}, "properties": {"company_id": "scottie-resources", "jurisdiction": "British Columbia", "claim_id": 517354, "claim_name": "RUBY 24", "holder": "SCOTTIE RESOURCES CORP.", "status": "Mineral", "recorded_date": "2005-07-12", "anniversary_or_expiry": "2026-01-17", "area_ha": 306.462, "tenure_type": "Mineral", "source": "BC MTA Mineral, Placer and Coal Tenure Spatial View (BCGW). Open Government Licence - British Columbia. Not legal title.", "as_of": "2026-09-20", "role": "focus", "color": "#e8b040"}}, {"type": "Feature", "geometry": {"type": "Polygon", "coordinates": [[[-129.9645, 55.9748], [-129.9644, 55.9706], [-129.9457, 55.9706], [-129.9458, 56.0081], [-129.952, 56.0081], [-129.952, 56.004], [-129.9645, 56.004], [-129.9645, 55.9748]]]}, "properties": {"company_id": "scottie-resources", "jurisdiction": "British Columbia", "claim_id": 529044, "claim_name": "RUBY 45", "holder": "SCOTTIE RESOURCES CORP.", "status": "Mineral", "recorded_date": "2006-02-27", "anniversary_or_expiry": "2026-01-17", "area_ha": 452.548, "tenure_type": "Mineral", "source": "BC MTA Mineral, Placer and Coal Tenure Spatial View (BCGW). Open Government Licence - British Columbia. Not legal title.", "as_of": "2026-09-20", "role": "focus", "color": "#e8b040"}}, {"type": "Feature", "geometry": {"type": "Polygon", "coordinates": [[[-129.9769, 55.9373], [-129.9769, 55.9331], [-129.9706, 55.9331], [-129.9706, 55.9373], [-129.9581, 55.9373], [-129.9581, 55.9331], [-129.9519, 55.9331], [-129.9519, 55.9373], [-129.9456, 55.9373], [-129.9456, 55.9414], [-129.9519, 55.9414], [-129.9519, 55.954], [-129.9707, 55.954], [-129.9707, 55.9665], [-129.9582, 55.9665], [-129.9582, 55.9706], [-129.9769, 55.9706], [-129.9769, 55.9373]]]}, "properties": {"company_id": "scottie-resources", "jurisdiction": "British Columbia", "claim_id": 529046, "claim_name": "RUBY 46", "holder": "SCOTTIE RESOURCES CORP.", "status": "Mineral", "recorded_date": "2006-02-27", "anniversary_or_expiry": "2026-01-17", "area_ha": 452.995, "tenure_type": "Mineral", "source": "BC MTA Mineral, Placer and Coal Tenure Spatial View (BCGW). Open Government Licence - British Columbia. Not legal title.", "as_of": "2026-09-20", "role": "focus", "color": "#e8b040"}}, {"type": "Feature", "geometry": {"type": "Polygon", "coordinates": [[[-129.6832, 56.1123], [-129.6832, 56.1081], [-129.677, 56.1081], [-129.677, 56.104], [-129.6582, 56.104], [-129.6582, 56.1206], [-129.6832, 56.1206], [-129.6832, 56.1123]]]}, "properties": {"company_id": "scottie-resources", "jurisdiction": "British Columbia", "claim_id": 524176, "claim_name": "ICE BEAR 5", "holder": "SCOTTIE RESOURCES CORP.", "status": "Mineral", "recorded_date": "2005-12-21", "anniversary_or_expiry": "2026-01-20", "area_ha": 270.588, "tenure_type": "Mineral", "source": "BC MTA Mineral, Placer and Coal Tenure Spatial View (BCGW). Open Government Licence - British Columbia. Not legal title.", "as_of": "2026-09-20", "role": "focus", "color": "#e8b040"}}, {"type": "Feature", "geometry": {"type": "Polygon", "coordinates": [[[-130.1145, 56.3081], [-130.1145, 56.304], [-130.0708, 56.304], [-130.0708, 56.3206], [-130.077, 56.3206], [-130.077, 56.3248], [-130.0958, 56.3248], [-130.0958, 56.3123], [-130.1145, 56.3123], [-130.1145, 56.3081]]]}, "properties": {"company_id": "scottie-resources", "jurisdiction": "British Columbia", "claim_id": 524181, "claim_name": "TIDE NORTH 4", "holder": "SCOTTIE RESOURCES CORP.", "status": "Mineral", "recorded_date": "2005-12-21", "anniversary_or_expiry": "2025-07-20", "area_ha": 448.665, "tenure_type": "Mineral", "source": "BC MTA Mineral, Placer and Coal Tenure Spatial View (BCGW). Open Government Licence - British Columbia. Not legal title.", "as_of": "2026-09-20", "role": "focus", "color": "#e8b040"}}, {"type": "Feature", "geometry": {"type": "Polygon", "coordinates": [[[-130.1083, 56.3248], [-130.077, 56.3248], [-130.077, 56.3206], [-130.0583, 56.3206], [-130.0583, 56.3373], [-130.0645, 56.3373], [-130.0645, 56.3415], [-130.077, 56.3415], [-130.077, 56.3331], [-130.1083, 56.3331], [-130.1083, 56.329], [-130.1145, 56.329], [-130.1145, 56.3248], [-130.1083, 56.3248]]]}, "properties": {"company_id": "scottie-resources", "jurisdiction": "British Columbia", "claim_id": 524183, "claim_name": "TIDE NORTH 5", "holder": "SCOTTIE RESOURCES CORP.", "status": "Mineral", "recorded_date": "2005-12-21", "anniversary_or_expiry": "2025-07-20", "area_ha": 448.464, "tenure_type": "Mineral", "source": "BC MTA Mineral, Placer and Coal Tenure Spatial View (BCGW). Open Government Licence - British Columbia. Not legal title.", "as_of": "2026-09-20", "role": "focus", "color": "#e8b040"}}, {"type": "Feature", "geometry": {"type": "Polygon", "coordinates": [[[-130.077, 56.3415], [-130.0645, 56.3415], [-130.0645, 56.3373], [-130.0583, 56.3373], [-130.0583, 56.3331], [-130.0395, 56.3331], [-130.0395, 56.3581], [-130.0458, 56.3581], [-130.0458, 56.3623], [-130.0583, 56.3623], [-130.0583, 56.3456], [-130.0833, 56.3456], [-130.0833, 56.3415], [-130.077, 56.3415]]]}, "properties": {"company_id": "scottie-resources", "jurisdiction": "British Columbia", "claim_id": 524186, "claim_name": "TIDE NORTH 6", "holder": "SCOTTIE RESOURCES CORP.", "status": "Mineral", "recorded_date": "2005-12-21", "anniversary_or_expiry": "2034-06-02", "area_ha": 448.279, "tenure_type": "Mineral", "source": "BC MTA Mineral, Placer and Coal Tenure Spatial View (BCGW). Open Government Licence - British Columbia. Not legal title.", "as_of": "2026-09-20", "role": "focus", "color": "#e8b040"}}, {"type": "Feature", "geometry": {"type": "Polygon", "coordinates": [[[-130.1392, 55.7456], [-130.1392, 55.7414], [-130.133, 55.7414], [-130.133, 55.7331], [-130.1205, 55.7331], [-130.1205, 55.7623], [-130.1267, 55.7623], [-130.1267, 55.7706], [-130.133, 55.7706], [-130.133, 55.7539], [-130.1393, 55.7539], [-130.1392, 55.7456]]]}, "properties": {"company_id": "scottie-resources", "jurisdiction": "British Columbia", "claim_id": 525950, "claim_name": "GEORGIE GIRL 3", "holder": "SCOTTIE RESOURCES CORP.", "status": "Mineral", "recorded_date": "2006-01-20", "anniversary_or_expiry": "2031-11-22", "area_ha": 345.951, "tenure_type": "Mineral", "source": "BC MTA Mineral, Placer and Coal Tenure Spatial View (BCGW). Open Government Licence - British Columbia. Not legal title.", "as_of": "2026-09-20", "role": "focus", "color": "#e8b040"}}, {"type": "Feature", "geometry": {"type": "Polygon", "coordinates": [[[-129.9645, 56.0081], [-129.9645, 56.004], [-129.952, 56.004], [-129.952, 56.0081], [-129.9458, 56.0081], [-129.9458, 56.004], [-129.9332, 56.004], [-129.9332, 56.0123], [-129.9395, 56.0123], [-129.9395, 56.0165], [-129.9458, 56.0165], [-129.9458, 56.029], [-129.952, 56.029], [-129.952, 56.0331], [-129.9583, 56.0331], [-129.9583, 56.0373], [-129.9645, 56.0373], [-129.9645, 56.0081]]]}, "properties": {"company_id": "scottie-resources", "jurisdiction": "British Columbia", "claim_id": 523618, "claim_name": "RUBY 31", "holder": "SCOTTIE RESOURCES CORP.", "status": "Mineral", "recorded_date": "2005-12-08", "anniversary_or_expiry": "2026-01-17", "area_ha": 452.12600000000003, "tenure_type": "Mineral", "source": "BC MTA Mineral, Placer and Coal Tenure Spatial View (BCGW). Open Government Licence - British Columbia. Not legal title.", "as_of": "2026-09-20", "role": "focus", "color": "#e8b040"}}, {"type": "Feature", "geometry": {"type": "Polygon", "coordinates": [[[-129.9333, 56.029], [-129.9333, 56.0248], [-129.927, 56.0248], [-129.927, 56.0123], [-129.8957, 56.0123], [-129.8957, 56.0206], [-129.9082, 56.0206], [-129.9082, 56.029], [-129.9145, 56.029], [-129.9145, 56.0373], [-129.9207, 56.0373], [-129.9207, 56.0415], [-129.9333, 56.0415], [-129.9333, 56.029]]]}, "properties": {"company_id": "scottie-resources", "jurisdiction": "British Columbia", "claim_id": 523487, "claim_name": null, "holder": "SCOTTIE RESOURCES CORP.", "status": "Mineral", "recorded_date": "2005-12-05", "anniversary_or_expiry": "2026-01-17", "area_ha": 452.04200000000003, "tenure_type": "Mineral", "source": "BC MTA Mineral, Placer and Coal Tenure Spatial View (BCGW). Open Government Licence - British Columbia. Not legal title.", "as_of": "2026-09-20", "role": "focus", "color": "#e8b040"}}, {"type": "Feature", "geometry": {"type": "Polygon", "coordinates": [[[-129.9645, 56.0373], [-129.9583, 56.0373], [-129.9583, 56.0331], [-129.952, 56.0331], [-129.952, 56.029], [-129.9458, 56.029], [-129.9458, 56.0165], [-129.9395, 56.0165], [-129.9395, 56.0123], [-129.927, 56.0123], [-129.927, 56.0248], [-129.9333, 56.0248], [-129.9333, 56.0415], [-129.9458, 56.0415], [-129.9458, 56.0456], [-129.9645, 56.0456], [-129.9645, 56.0373]]]}, "properties": {"company_id": "scottie-resources", "jurisdiction": "British Columbia", "claim_id": 523489, "claim_name": "RUBY 30", "holder": "SCOTTIE RESOURCES CORP.", "status": "Mineral", "recorded_date": "2005-12-05", "anniversary_or_expiry": "2026-01-17", "area_ha": 451.973, "tenure_type": "Mineral", "source": "BC MTA Mineral, Placer and Coal Tenure Spatial View (BCGW). Open Government Licence - British Columbia. Not legal title.", "as_of": "2026-09-20", "role": "focus", "color": "#e8b040"}}, {"type": "Feature", "geometry": {"type": "Polygon", "coordinates": [[[-129.8458, 56.1915], [-129.8458, 56.1873], [-129.8395, 56.1873], [-129.8395, 56.1831], [-129.8333, 56.1831], [-129.8333, 56.2373], [-129.8458, 56.2373], [-129.8458, 56.1915]]]}, "properties": {"company_id": "scottie-resources", "jurisdiction": "British Columbia", "claim_id": 533155, "claim_name": "RUBY 42", "holder": "SCOTTIE RESOURCES CORP.", "status": "Mineral", "recorded_date": "2006-04-27", "anniversary_or_expiry": "2026-01-17", "area_ha": 449.86, "tenure_type": "Mineral", "source": "BC MTA Mineral, Placer and Coal Tenure Spatial View (BCGW). Open Government Licence - British Columbia. Not legal title.", "as_of": "2026-09-20", "role": "focus", "color": "#e8b040"}}, {"type": "Feature", "geometry": {"type": "Polygon", "coordinates": [[[-129.8333, 56.1748], [-129.8333, 56.1706], [-129.827, 56.1706], [-129.827, 56.1498], [-129.8208, 56.1498], [-129.8208, 56.1623], [-129.8083, 56.1623], [-129.8083, 56.1873], [-129.8333, 56.1873], [-129.8333, 56.1748]]]}, "properties": {"company_id": "scottie-resources", "jurisdiction": "British Columbia", "claim_id": 533157, "claim_name": "RUBY 44", "holder": "SCOTTIE RESOURCES CORP.", "status": "Mineral", "recorded_date": "2006-04-27", "anniversary_or_expiry": "2026-01-17", "area_ha": 450.339, "tenure_type": "Mineral", "source": "BC MTA Mineral, Placer and Coal Tenure Spatial View (BCGW). Open Government Licence - British Columbia. Not legal title.", "as_of": "2026-09-20", "role": "focus", "color": "#e8b040"}}, {"type": "Feature", "geometry": {"type": "Polygon", "coordinates": [[[-129.8208, 56.154], [-129.8208, 56.1498], [-129.8083, 56.1498], [-129.8083, 56.1456], [-129.7895, 56.1456], [-129.7895, 56.1581], [-129.7583, 56.1581], [-129.7583, 56.154], [-129.752, 56.154], [-129.752, 56.1623], [-129.8208, 56.1623], [-129.8208, 56.154]]]}, "properties": {"company_id": "scottie-resources", "jurisdiction": "British Columbia", "claim_id": 533159, "claim_name": "RUBY 49", "holder": "SCOTTIE RESOURCES CORP.", "status": "Mineral", "recorded_date": "2006-04-27", "anniversary_or_expiry": "2026-01-17", "area_ha": 450.53000000000003, "tenure_type": "Mineral", "source": "BC MTA Mineral, Placer and Coal Tenure Spatial View (BCGW). Open Government Licence - British Columbia. Not legal title.", "as_of": "2026-09-20", "role": "focus", "color": "#e8b040"}}, {"type": "Feature", "geometry": {"type": "Polygon", "coordinates": [[[-129.8895, 56.1206], [-129.8895, 56.1165], [-129.8645, 56.1165], [-129.8645, 56.129], [-129.8895, 56.129], [-129.8895, 56.1206]]]}, "properties": {"company_id": "scottie-resources", "jurisdiction": "British Columbia", "claim_id": 508271, "claim_name": null, "holder": "SCOTTIE RESOURCES CORP.", "status": "Mineral", "recorded_date": "2005-03-04", "anniversary_or_expiry": "2026-01-17", "area_ha": 216.45100000000002, "tenure_type": "Mineral", "source": "BC MTA Mineral, Placer and Coal Tenure Spatial View (BCGW). Open Government Licence - British Columbia. Not legal title.", "as_of": "2026-09-20", "role": "focus", "color": "#e8b040"}}, {"type": "Feature", "geometry": {"type": "Polygon", "coordinates": [[[-129.8832, 56.0915], [-129.877, 56.0915], [-129.877, 56.0956], [-129.8895, 56.0956], [-129.8895, 56.0915], [-129.8832, 56.0915]]]}, "properties": {"company_id": "scottie-resources", "jurisdiction": "British Columbia", "claim_id": 516862, "claim_name": "RUBY 19", "holder": "SCOTTIE RESOURCES CORP.", "status": "Mineral", "recorded_date": "2005-07-11", "anniversary_or_expiry": "2026-01-17", "area_ha": 36.105000000000004, "tenure_type": "Mineral", "source": "BC MTA Mineral, Placer and Coal Tenure Spatial View (BCGW). Open Government Licence - British Columbia. Not legal title.", "as_of": "2026-09-20", "role": "focus", "color": "#e8b040"}}, {"type": "Feature", "geometry": {"type": "Polygon", "coordinates": [[[-129.8145, 56.0956], [-129.8145, 56.0915], [-129.7832, 56.0915], [-129.7832, 56.0956], [-129.802, 56.0956], [-129.802, 56.1081], [-129.8082, 56.1081], [-129.8082, 56.1165], [-129.8145, 56.1165], [-129.8145, 56.0956]]]}, "properties": {"company_id": "scottie-resources", "jurisdiction": "British Columbia", "claim_id": 536758, "claim_name": "RUBY 50", "holder": "SCOTTIE RESOURCES CORP.", "status": "Mineral", "recorded_date": "2006-07-07", "anniversary_or_expiry": "2026-01-17", "area_ha": 234.583, "tenure_type": "Mineral", "source": "BC MTA Mineral, Placer and Coal Tenure Spatial View (BCGW). Open Government Licence - British Columbia. Not legal title.", "as_of": "2026-09-20", "role": "focus", "color": "#e8b040"}}, {"type": "Feature", "geometry": {"type": "Polygon", "coordinates": [[[-129.7832, 56.1123], [-129.777, 56.1123], [-129.777, 56.1165], [-129.7895, 56.1165], [-129.7895, 56.1123], [-129.7832, 56.1123]]]}, "properties": {"company_id": "scottie-resources", "jurisdiction": "British Columbia", "claim_id": 536762, "claim_name": "LAUREN 8", "holder": "SCOTTIE RESOURCES CORP.", "status": "Mineral", "recorded_date": "2006-07-07", "anniversary_or_expiry": "2026-01-17", "area_ha": 36.077, "tenure_type": "Mineral", "source": "BC MTA Mineral, Placer and Coal Tenure Spatial View (BCGW). Open Government Licence - British Columbia. Not legal title.", "as_of": "2026-09-20", "role": "focus", "color": "#e8b040"}}, {"type": "Feature", "geometry": {"type": "Polygon", "coordinates": [[[-130.0395, 56.3581], [-130.0083, 56.3581], [-130.0083, 56.3623], [-130.0458, 56.3623], [-130.0458, 56.3581], [-130.0395, 56.3581]]]}, "properties": {"company_id": "scottie-resources", "jurisdiction": "British Columbia", "claim_id": 537229, "claim_name": "TIDE NORTH 8", "holder": "SCOTTIE RESOURCES CORP.", "status": "Mineral", "recorded_date": "2006-07-14", "anniversary_or_expiry": "2034-06-02", "area_ha": 107.548, "tenure_type": "Mineral", "source": "BC MTA Mineral, Placer and Coal Tenure Spatial View (BCGW). Open Government Licence - British Columbia. Not legal title.", "as_of": "2026-09-20", "role": "focus", "color": "#e8b040"}}, {"type": "Feature", "geometry": {"type": "Polygon", "coordinates": [[[-129.7145, 56.104], [-129.7145, 56.1081], [-129.7207, 56.1081], [-129.7207, 56.104], [-129.7145, 56.104]]]}, "properties": {"company_id": "scottie-resources", "jurisdiction": "British Columbia", "claim_id": 538818, "claim_name": "RUBY 56", "holder": "SCOTTIE RESOURCES CORP.", "status": "Mineral", "recorded_date": "2006-08-06", "anniversary_or_expiry": "2026-01-20", "area_ha": 18.043, "tenure_type": "Mineral", "source": "BC MTA Mineral, Placer and Coal Tenure Spatial View (BCGW). Open Government Licence - British Columbia. Not legal title.", "as_of": "2026-09-20", "role": "focus", "color": "#e8b040"}}, {"type": "Feature", "geometry": {"type": "Polygon", "coordinates": [[[-129.802, 56.0998], [-129.802, 56.0956], [-129.7832, 56.0956], [-129.7832, 56.104], [-129.7707, 56.104], [-129.7707, 56.1165], [-129.777, 56.1165], [-129.777, 56.1123], [-129.8082, 56.1123], [-129.8082, 56.1081], [-129.7957, 56.1081], [-129.7957, 56.104], [-129.802, 56.104], [-129.802, 56.0998]]]}, "properties": {"company_id": "scottie-resources", "jurisdiction": "British Columbia", "claim_id": 537558, "claim_name": "RUBY 54", "holder": "SCOTTIE RESOURCES CORP.", "status": "Mineral", "recorded_date": "2006-07-21", "anniversary_or_expiry": "2026-01-17", "area_ha": 306.719, "tenure_type": "Mineral", "source": "BC MTA Mineral, Placer and Coal Tenure Spatial View (BCGW). Open Government Licence - British Columbia. Not legal title.", "as_of": "2026-09-20", "role": "focus", "color": "#e8b040"}}]}