{"type": "FeatureCollection", "features": [{"type": "Feature", "geometry": {"type": "Polygon", "coordinates": [[[-80.7688, 48.4333], [-80.7688, 48.4375], [-80.775, 48.4375], [-80.775, 48.4333], [-80.7688, 48.4333]]]}, "properties": {"company_id": "selkirk-copper-mines", "jurisdiction": "Ontario", "claim_id": "551458", "claim_name": null, "holder": "(100) SELKIRK METALS CORP.", "status": "Active", "recorded_date": "2019-06-14", "anniversary_or_expiry": "2027-06-14", "area_ha": null, "tenure_type": "Single Cell Mining Claim", "source": "Ontario MLAS operational claims (OGSEarth / LIO MapServer). Unofficial viewing data, not legal title.", "as_of": "2026-09-20", "role": "focus", "color": "#e8b040"}}, {"type": "Feature", "geometry": {"type": "Polygon", "coordinates": [[[-80.775, 48.425], [-80.775, 48.4292], [-80.7813, 48.4292], [-80.7813, 48.425], [-80.775, 48.425]]]}, "properties": {"company_id": "selkirk-copper-mines", "jurisdiction": "Ontario", "claim_id": "551459", "claim_name": null, "holder": "(100) SELKIRK METALS CORP.", "status": "Active", "recorded_date": "2019-06-14", "anniversary_or_expiry": "2027-06-14", "area_ha": null, "tenure_type": "Single Cell Mining Claim", "source": "Ontario MLAS operational claims (OGSEarth / LIO MapServer). Unofficial viewing data, not legal title.", "as_of": "2026-09-20", "role": "focus", "color": "#e8b040"}}, {"type": "Feature", "geometry": {"type": "Polygon", "coordinates": [[[-80.775, 48.4333], [-80.775, 48.4375], [-80.7813, 48.4375], [-80.7813, 48.4333], [-80.775, 48.4333]]]}, "properties": {"company_id": "selkirk-copper-mines", "jurisdiction": "Ontario", "claim_id": "551460", "claim_name": null, "holder": "(100) SELKIRK METALS CORP.", "status": "Active", "recorded_date": "2019-06-14", "anniversary_or_expiry": "2027-06-14", "area_ha": null, "tenure_type": "Single Cell Mining Claim", "source": "Ontario MLAS operational claims (OGSEarth / LIO MapServer). Unofficial viewing data, not legal title.", "as_of": "2026-09-20", "role": "focus", "color": "#e8b040"}}, {"type": "Feature", "geometry": {"type": "Polygon", "coordinates": [[[-80.7688, 48.4292], [-80.7688, 48.4333], [-80.775, 48.4333], [-80.775, 48.4292], [-80.7688, 48.4292]]]}, "properties": {"company_id": "selkirk-copper-mines", "jurisdiction": "Ontario", "claim_id": "551461", "claim_name": null, "holder": "(100) SELKIRK METALS CORP.", "status": "Active", "recorded_date": "2019-06-14", "anniversary_or_expiry": "2027-06-14", "area_ha": null, "tenure_type": "Single Cell Mining Claim", "source": "Ontario MLAS operational claims (OGSEarth / LIO MapServer). Unofficial viewing data, not legal title.", "as_of": "2026-09-20", "role": "focus", "color": "#e8b040"}}, {"type": "Feature", "geometry": {"type": "Polygon", "coordinates": [[[-80.7688, 48.425], [-80.7688, 48.4292], [-80.775, 48.4292], [-80.775, 48.425], [-80.7688, 48.425]]]}, "properties": {"company_id": "selkirk-copper-mines", "jurisdiction": "Ontario", "claim_id": "551462", "claim_name": null, "holder": "(100) SELKIRK METALS CORP.", "status": "Active", "recorded_date": "2019-06-14", "anniversary_or_expiry": "2027-06-14", "area_ha": null, "tenure_type": "Single Cell Mining Claim", "source": "Ontario MLAS operational claims (OGSEarth / LIO MapServer). Unofficial viewing data, not legal title.", "as_of": "2026-09-20", "role": "focus", "color": "#e8b040"}}, {"type": "Feature", "geometry": {"type": "Polygon", "coordinates": [[[-80.775, 48.4292], [-80.775, 48.4333], [-80.7813, 48.4333], [-80.7813, 48.4292], [-80.775, 48.4292]]]}, "properties": {"company_id": "selkirk-copper-mines", "jurisdiction": "Ontario", "claim_id": "551463", "claim_name": null, "holder": "(100) SELKIRK METALS CORP.", "status": "Active", "recorded_date": "2019-06-14", "anniversary_or_expiry": "2027-06-14", "area_ha": null, "tenure_type": "Single Cell Mining Claim", "source": "Ontario MLAS operational claims (OGSEarth / LIO MapServer). Unofficial viewing data, not legal title.", "as_of": "2026-09-20", "role": "focus", "color": "#e8b040"}}, {"type": "Feature", "geometry": {"type": "Polygon", "coordinates": [[[-80.7813, 48.4375], [-80.7813, 48.4417], [-80.7875, 48.4417], [-80.7875, 48.4375], [-80.7813, 48.4375]]]}, "properties": {"company_id": "selkirk-copper-mines", "jurisdiction": "Ontario", "claim_id": "551468", "claim_name": null, "holder": "(100) SELKIRK METALS CORP.", "status": "Active", "recorded_date": "2019-06-14", "anniversary_or_expiry": "2027-06-14", "area_ha": null, "tenure_type": "Single Cell Mining Claim", "source": "Ontario MLAS operational claims (OGSEarth / LIO MapServer). Unofficial viewing data, not legal title.", "as_of": "2026-09-20", "role": "focus", "color": "#e8b040"}}, {"type": "Feature", "geometry": {"type": "Polygon", "coordinates": [[[-80.775, 48.4375], [-80.775, 48.4417], [-80.7813, 48.4417], [-80.7813, 48.4375], [-80.775, 48.4375]]]}, "properties": {"company_id": "selkirk-copper-mines", "jurisdiction": "Ontario", "claim_id": "551469", "claim_name": null, "holder": "(100) SELKIRK METALS CORP.", "status": "Active", "recorded_date": "2019-06-14", "anniversary_or_expiry": "2027-06-14", "area_ha": null, "tenure_type": "Single Cell Mining Claim", "source": "Ontario MLAS operational claims (OGSEarth / LIO MapServer). Unofficial viewing data, not legal title.", "as_of": "2026-09-20", "role": "focus", "color": "#e8b040"}}, {"type": "Feature", "geometry": {"type": "Polygon", "coordinates": [[[-80.7688, 48.4375], [-80.7688, 48.4417], [-80.775, 48.4417], [-80.775, 48.4375], [-80.7688, 48.4375]]]}, "properties": {"company_id": "selkirk-copper-mines", "jurisdiction": "Ontario", "claim_id": "551470", "claim_name": null, "holder": "(100) SELKIRK METALS CORP.", "status": "Active", "recorded_date": "2019-06-14", "anniversary_or_expiry": "2027-06-14", "area_ha": null, "tenure_type": "Single Cell Mining Claim", "source": "Ontario MLAS operational claims (OGSEarth / LIO MapServer). Unofficial viewing data, not legal title.", "as_of": "2026-09-20", "role": "focus", "color": "#e8b040"}}, {"type": "Feature", "geometry": {"type": "Polygon", "coordinates": [[[-80.7813, 48.4333], [-80.7813, 48.4375], [-80.7875, 48.4375], [-80.7875, 48.4333], [-80.7813, 48.4333]]]}, "properties": {"company_id": "selkirk-copper-mines", "jurisdiction": "Ontario", "claim_id": "551472", "claim_name": null, "holder": "(100) SELKIRK METALS CORP.", "status": "Active", "recorded_date": "2019-06-14", "anniversary_or_expiry": "2027-06-14", "area_ha": null, "tenure_type": "Single Cell Mining Claim", "source": "Ontario MLAS operational claims (OGSEarth / LIO MapServer). Unofficial viewing data, not legal title.", "as_of": "2026-09-20", "role": "focus", "color": "#e8b040"}}, {"type": "Feature", "geometry": {"type": "Polygon", "coordinates": [[[-80.7813, 48.4292], [-80.7813, 48.4333], [-80.7875, 48.4333], [-80.7875, 48.4292], [-80.7813, 48.4292]]]}, "properties": {"company_id": "selkirk-copper-mines", "jurisdiction": "Ontario", "claim_id": "551474", "claim_name": null, "holder": "(100) SELKIRK METALS CORP.", "status": "Active", "recorded_date": "2019-06-14", "anniversary_or_expiry": "2027-06-14", "area_ha": null, "tenure_type": "Single Cell Mining Claim", "source": "Ontario MLAS operational claims (OGSEarth / LIO MapServer). Unofficial viewing data, not legal title.", "as_of": "2026-09-20", "role": "focus", "color": "#e8b040"}}, {"type": "Feature", "geometry": {"type": "Polygon", "coordinates": [[[-80.7813, 48.425], [-80.7813, 48.4292], [-80.7875, 48.4292], [-80.7875, 48.425], [-80.7813, 48.425]]]}, "properties": {"company_id": "selkirk-copper-mines", "jurisdiction": "Ontario", "claim_id": "551476", "claim_name": null, "holder": "(100) SELKIRK METALS CORP.", "status": "Active", "recorded_date": "2019-06-14", "anniversary_or_expiry": "2027-06-14", "area_ha": null, "tenure_type": "Single Cell Mining Claim", "source": "Ontario MLAS operational claims (OGSEarth / LIO MapServer). Unofficial viewing data, not legal title.", "as_of": "2026-09-20", "role": "focus", "color": "#e8b040"}}]}