{"type": "FeatureCollection", "features": [{"type": "Feature", "geometry": {"type": "Polygon", "coordinates": [[[-126.6621, 56.5978], [-126.6621, 56.6157], [-126.6784, 56.6157], [-126.6784, 56.5978], [-126.6621, 56.5978]]]}, "properties": {"company_id": "selkirk-copper-mines", "jurisdiction": "British Columbia", "claim_id": 315076, "claim_name": null, "holder": "SELKIRK METALS CORP.", "status": "Mineral", "recorded_date": "7401024000", "anniversary_or_expiry": "2025-06-15", "area_ha": 200, "tenure_type": "Mineral", "source": "BC MTA Mineral, Placer and Coal Tenure Spatial View (BCGW). Open Government Licence - British Columbia. Not legal title.", "as_of": "2026-09-20", "role": "focus", "color": "#e8b040"}}, {"type": "Feature", "geometry": {"type": "Polygon", "coordinates": [[[-117.9972, 50.9216], [-118.0257, 50.9216], [-118.0257, 50.9036], [-118.0, 50.9036], [-118.0, 50.9048], [-117.9972, 50.9048], [-117.9972, 50.9216]]]}, "properties": {"company_id": "selkirk-copper-mines", "jurisdiction": "British Columbia", "claim_id": 405663, "claim_name": "G 3", "holder": "SELKIRK METALS CORP.", "status": "Mineral", "recorded_date": "2003-10-01", "anniversary_or_expiry": "2026-03-31", "area_ha": 400, "tenure_type": "Mineral", "source": "BC MTA Mineral, Placer and Coal Tenure Spatial View (BCGW). Open Government Licence - British Columbia. Not legal title.", "as_of": "2026-09-20", "role": "focus", "color": "#e8b040"}}, {"type": "Feature", "geometry": {"type": "Polygon", "coordinates": [[[-118.7387, 51.5333], [-118.7387, 51.5208], [-118.7199, 51.5208], [-118.7199, 51.5374], [-118.7387, 51.5374], [-118.7387, 51.5333]]]}, "properties": {"company_id": "selkirk-copper-mines", "jurisdiction": "British Columbia", "claim_id": 502980, "claim_name": null, "holder": "SELKIRK METALS CORP.", "status": "Mineral", "recorded_date": "2005-01-13", "anniversary_or_expiry": "2026-11-01", "area_ha": 241.2956, "tenure_type": "Mineral", "source": "BC MTA Mineral, Placer and Coal Tenure Spatial View (BCGW). Open Government Licence - British Columbia. Not legal title.", "as_of": "2026-09-20", "role": "focus", "color": "#e8b040"}}, {"type": "Feature", "geometry": {"type": "Polygon", "coordinates": [[[-118.0762, 51.2999], [-118.0762, 51.2666], [-118.0199, 51.2666], [-118.0199, 51.2874], [-118.0324, 51.2874], [-118.0324, 51.3083], [-118.0574, 51.3083], [-118.0574, 51.3041], [-118.0762, 51.3041], [-118.0762, 51.2999]]]}, "properties": {"company_id": "selkirk-copper-mines", "jurisdiction": "British Columbia", "claim_id": 503027, "claim_name": null, "holder": "SELKIRK METALS CORP.", "status": "Mineral", "recorded_date": "2005-01-13", "anniversary_or_expiry": "2025-12-20", "area_ha": 1556.505, "tenure_type": "Mineral", "source": "BC MTA Mineral, Placer and Coal Tenure Spatial View (BCGW). Open Government Licence - British Columbia. Not legal title.", "as_of": "2026-09-20", "role": "focus", "color": "#e8b040"}}, {"type": "Feature", "geometry": {"type": "Polygon", "coordinates": [[[-125.0204, 56.1082], [-125.0204, 56.0999], [-125.0141, 56.0999], [-125.0141, 56.0957], [-125.0016, 56.0957], [-125.0016, 56.1124], [-125.0204, 56.1124], [-125.0204, 56.1082]]]}, "properties": {"company_id": "selkirk-copper-mines", "jurisdiction": "British Columbia", "claim_id": 503533, "claim_name": null, "holder": "SELKIRK METALS CORP.", "status": "Mineral", "recorded_date": "2005-01-14", "anniversary_or_expiry": "2029-10-15", "area_ha": 198.47570000000002, "tenure_type": "Mineral", "source": "BC MTA Mineral, Placer and Coal Tenure Spatial View (BCGW). Open Government Licence - British Columbia. Not legal title.", "as_of": "2026-09-20", "role": "focus", "color": "#e8b040"}}, {"type": "Feature", "geometry": {"type": "Polygon", "coordinates": [[[-126.8703, 50.329], [-126.8703, 50.3248], [-126.8516, 50.3248], [-126.8516, 50.3207], [-126.8328, 50.3207], [-126.8328, 50.329], [-126.839, 50.329], [-126.839, 50.3332], [-126.8453, 50.3332], [-126.8453, 50.3373], [-126.8578, 50.3373], [-126.8578, 50.3415], [-126.864, 50.3415], [-126.8641, 50.3373], [-126.8703, 50.3373], [-126.8703, 50.329]]]}, "properties": {"company_id": "selkirk-copper-mines", "jurisdiction": "British Columbia", "claim_id": 508808, "claim_name": null, "holder": "SELKIRK METALS CORP.", "status": "Mineral", "recorded_date": "2005-03-11", "anniversary_or_expiry": "2025-09-30", "area_ha": 391.945, "tenure_type": "Mineral", "source": "BC MTA Mineral, Placer and Coal Tenure Spatial View (BCGW). Open Government Licence - British Columbia. Not legal title.", "as_of": "2026-09-20", "role": "focus", "color": "#e8b040"}}, {"type": "Feature", "geometry": {"type": "Polygon", "coordinates": [[[-123.7078, 56.9291], [-123.7141, 56.9291], [-123.7141, 56.9249], [-123.6953, 56.9249], [-123.6953, 56.9291], [-123.7078, 56.9291]]]}, "properties": {"company_id": "selkirk-copper-mines", "jurisdiction": "British Columbia", "claim_id": 508829, "claim_name": null, "holder": "SELKIRK METALS CORP.", "status": "Mineral", "recorded_date": "2005-03-11", "anniversary_or_expiry": "2025-03-31", "area_ha": 52.970400000000005, "tenure_type": "Mineral", "source": "BC MTA Mineral, Placer and Coal Tenure Spatial View (BCGW). Open Government Licence - British Columbia. Not legal title.", "as_of": "2026-09-20", "role": "focus", "color": "#e8b040"}}, {"type": "Feature", "geometry": {"type": "Polygon", "coordinates": [[[-126.839, 50.0706], [-126.839, 50.0665], [-126.8265, 50.0665], [-126.8265, 50.0748], [-126.839, 50.0748], [-126.839, 50.0706]]]}, "properties": {"company_id": "selkirk-copper-mines", "jurisdiction": "British Columbia", "claim_id": 508840, "claim_name": null, "holder": "SELKIRK METALS CORP.", "status": "Mineral", "recorded_date": "2005-03-11", "anniversary_or_expiry": "2025-09-01", "area_ha": 82.956, "tenure_type": "Mineral", "source": "BC MTA Mineral, Placer and Coal Tenure Spatial View (BCGW). Open Government Licence - British Columbia. Not legal title.", "as_of": "2026-09-20", "role": "focus", "color": "#e8b040"}}, {"type": "Feature", "geometry": {"type": "Polygon", "coordinates": [[[-125.0329, 56.1082], [-125.0329, 56.1041], [-125.0204, 56.1041], [-125.0204, 56.1124], [-125.0329, 56.1124], [-125.0329, 56.1082]]]}, "properties": {"company_id": "selkirk-copper-mines", "jurisdiction": "British Columbia", "claim_id": 512685, "claim_name": null, "holder": "SELKIRK METALS CORP.", "status": "Mineral", "recorded_date": "2005-05-16", "anniversary_or_expiry": "2029-10-15", "area_ha": 72.1663, "tenure_type": "Mineral", "source": "BC MTA Mineral, Placer and Coal Tenure Spatial View (BCGW). Open Government Licence - British Columbia. Not legal title.", "as_of": "2026-09-20", "role": "focus", "color": "#e8b040"}}, {"type": "Feature", "geometry": {"type": "Polygon", "coordinates": [[[-125.0329, 56.1291], [-125.0329, 56.1124], [-125.0016, 56.1124], [-125.0017, 56.1332], [-125.0329, 56.1332], [-125.0329, 56.1291]]]}, "properties": {"company_id": "selkirk-copper-mines", "jurisdiction": "British Columbia", "claim_id": 512686, "claim_name": null, "holder": "SELKIRK METALS CORP.", "status": "Mineral", "recorded_date": "2005-05-16", "anniversary_or_expiry": "2029-10-15", "area_ha": 450.87190000000004, "tenure_type": "Mineral", "source": "BC MTA Mineral, Placer and Coal Tenure Spatial View (BCGW). Open Government Licence - British Columbia. Not legal title.", "as_of": "2026-09-20", "role": "focus", "color": "#e8b040"}}, {"type": "Feature", "geometry": {"type": "Polygon", "coordinates": [[[-125.689, 49.254], [-125.689, 49.229], [-125.664, 49.229], [-125.664, 49.2373], [-125.6577, 49.2373], [-125.6577, 49.2498], [-125.664, 49.2498], [-125.664, 49.2581], [-125.689, 49.2581], [-125.689, 49.254]]]}, "properties": {"company_id": "selkirk-copper-mines", "jurisdiction": "British Columbia", "claim_id": 508912, "claim_name": null, "holder": "SELKIRK METALS CORP.", "status": "Mineral", "recorded_date": "2005-03-14", "anniversary_or_expiry": "2027-02-17", "area_ha": 653.721, "tenure_type": "Mineral", "source": "BC MTA Mineral, Placer and Coal Tenure Spatial View (BCGW). Open Government Licence - British Columbia. Not legal title.", "as_of": "2026-09-20", "role": "focus", "color": "#e8b040"}}, {"type": "Feature", "geometry": {"type": "Polygon", "coordinates": [[[-125.0266, 56.1041], [-125.0329, 56.1041], [-125.0329, 56.0999], [-125.0204, 56.0999], [-125.0204, 56.1041], [-125.0266, 56.1041]]]}, "properties": {"company_id": "selkirk-copper-mines", "jurisdiction": "British Columbia", "claim_id": 511313, "claim_name": null, "holder": "SELKIRK METALS CORP.", "status": "Mineral", "recorded_date": "2005-04-21", "anniversary_or_expiry": "2029-10-15", "area_ha": 36.0889, "tenure_type": "Mineral", "source": "BC MTA Mineral, Placer and Coal Tenure Spatial View (BCGW). Open Government Licence - British Columbia. Not legal title.", "as_of": "2026-09-20", "role": "focus", "color": "#e8b040"}}, {"type": "Feature", "geometry": {"type": "Polygon", "coordinates": [[[-123.7516, 56.9457], [-123.7578, 56.9457], [-123.7578, 56.9416], [-123.7391, 56.9416], [-123.7391, 56.9457], [-123.7266, 56.9457], [-123.7266, 56.9249], [-123.7141, 56.9249], [-123.7141, 56.9291], [-123.6891, 56.9291], [-123.6891, 56.9332], [-123.6953, 56.9332], [-123.6953, 56.9374], [-123.7203, 56.9374], [-123.7203, 56.9499], [-123.7516, 56.9499], [-123.7516, 56.9457]]]}, "properties": {"company_id": "selkirk-copper-mines", "jurisdiction": "British Columbia", "claim_id": 509595, "claim_name": null, "holder": "SELKIRK METALS CORP.", "status": "Mineral", "recorded_date": "2005-03-24", "anniversary_or_expiry": "2025-03-31", "area_ha": 405.99080000000004, "tenure_type": "Mineral", "source": "BC MTA Mineral, Placer and Coal Tenure Spatial View (BCGW). Open Government Licence - British Columbia. Not legal title.", "as_of": "2026-09-20", "role": "focus", "color": "#e8b040"}}, {"type": "Feature", "geometry": {"type": "Polygon", "coordinates": [[[-123.6891, 56.9291], [-123.6953, 56.9291], [-123.6953, 56.9249], [-123.6828, 56.9249], [-123.6828, 56.9291], [-123.6891, 56.9291]]]}, "properties": {"company_id": "selkirk-copper-mines", "jurisdiction": "British Columbia", "claim_id": 509608, "claim_name": "Robb Lake Centre", "holder": "SELKIRK METALS CORP.", "status": "Mineral", "recorded_date": "2005-03-24", "anniversary_or_expiry": "2025-03-31", "area_ha": 35.313500000000005, "tenure_type": "Mineral", "source": "BC MTA Mineral, Placer and Coal Tenure Spatial View (BCGW). Open Government Licence - British Columbia. Not legal title.", "as_of": "2026-09-20", "role": "focus", "color": "#e8b040"}}, {"type": "Feature", "geometry": {"type": "Polygon", "coordinates": [[[-118.0324, 51.3041], [-118.0324, 51.2874], [-118.0199, 51.2874], [-118.0199, 51.3083], [-118.0324, 51.3083], [-118.0324, 51.3041]]]}, "properties": {"company_id": "selkirk-copper-mines", "jurisdiction": "British Columbia", "claim_id": 506424, "claim_name": "LJ 7", "holder": "SELKIRK METALS CORP.", "status": "Mineral", "recorded_date": "2005-02-09", "anniversary_or_expiry": "2025-12-20", "area_ha": 202.089, "tenure_type": "Mineral", "source": "BC MTA Mineral, Placer and Coal Tenure Spatial View (BCGW). Open Government Licence - British Columbia. Not legal title.", "as_of": "2026-09-20", "role": "focus", "color": "#e8b040"}}, {"type": "Feature", "geometry": {"type": "Polygon", "coordinates": [[[-118.0199, 51.2916], [-118.0199, 51.2791], [-117.9824, 51.2791], [-117.9824, 51.2958], [-118.0199, 51.2958], [-118.0199, 51.2916]]]}, "properties": {"company_id": "selkirk-copper-mines", "jurisdiction": "British Columbia", "claim_id": 520443, "claim_name": "LJ 9", "holder": "SELKIRK METALS CORP.", "status": "Mineral", "recorded_date": "2005-09-26", "anniversary_or_expiry": "2025-12-20", "area_ha": 485.125, "tenure_type": "Mineral", "source": "BC MTA Mineral, Placer and Coal Tenure Spatial View (BCGW). Open Government Licence - British Columbia. Not legal title.", "as_of": "2026-09-20", "role": "focus", "color": "#e8b040"}}, {"type": "Feature", "geometry": {"type": "Polygon", "coordinates": [[[-118.0199, 51.2749], [-118.0199, 51.2624], [-117.9824, 51.2624], [-117.9824, 51.2791], [-118.0199, 51.2791], [-118.0199, 51.2749]]]}, "properties": {"company_id": "selkirk-copper-mines", "jurisdiction": "British Columbia", "claim_id": 520445, "claim_name": "LJ 10", "holder": "SELKIRK METALS CORP.", "status": "Mineral", "recorded_date": "2005-09-26", "anniversary_or_expiry": "2025-12-20", "area_ha": 485.3, "tenure_type": "Mineral", "source": "BC MTA Mineral, Placer and Coal Tenure Spatial View (BCGW). Open Government Licence - British Columbia. Not legal title.", "as_of": "2026-09-20", "role": "focus", "color": "#e8b040"}}, {"type": "Feature", "geometry": {"type": "Polygon", "coordinates": [[[-118.0574, 51.2624], [-118.0574, 51.2499], [-118.0199, 51.2499], [-118.0199, 51.2666], [-118.0574, 51.2666], [-118.0574, 51.2624]]]}, "properties": {"company_id": "selkirk-copper-mines", "jurisdiction": "British Columbia", "claim_id": 520447, "claim_name": "LJ 12", "holder": "SELKIRK METALS CORP.", "status": "Mineral", "recorded_date": "2005-09-26", "anniversary_or_expiry": "2025-12-20", "area_ha": 485.428, "tenure_type": "Mineral", "source": "BC MTA Mineral, Placer and Coal Tenure Spatial View (BCGW). Open Government Licence - British Columbia. Not legal title.", "as_of": "2026-09-20", "role": "focus", "color": "#e8b040"}}, {"type": "Feature", "geometry": {"type": "Polygon", "coordinates": [[[-118.0949, 51.2624], [-118.0949, 51.2499], [-118.0574, 51.2499], [-118.0574, 51.2666], [-118.0949, 51.2666], [-118.0949, 51.2624]]]}, "properties": {"company_id": "selkirk-copper-mines", "jurisdiction": "British Columbia", "claim_id": 520448, "claim_name": "LJ 13", "holder": "SELKIRK METALS CORP.", "status": "Mineral", "recorded_date": "2005-09-26", "anniversary_or_expiry": "2025-12-20", "area_ha": 485.42600000000004, "tenure_type": "Mineral", "source": "BC MTA Mineral, Placer and Coal Tenure Spatial View (BCGW). Open Government Licence - British Columbia. Not legal title.", "as_of": "2026-09-20", "role": "focus", "color": "#e8b040"}}, {"type": "Feature", "geometry": {"type": "Polygon", "coordinates": [[[-118.1262, 51.2583], [-118.1262, 51.2541], [-118.0949, 51.2541], [-118.0949, 51.2624], [-118.1262, 51.2624], [-118.1262, 51.2583]]]}, "properties": {"company_id": "selkirk-copper-mines", "jurisdiction": "British Columbia", "claim_id": 520449, "claim_name": "LJ 14", "holder": "SELKIRK METALS CORP.", "status": "Mineral", "recorded_date": "2005-09-26", "anniversary_or_expiry": "2025-12-20", "area_ha": 202.25900000000001, "tenure_type": "Mineral", "source": "BC MTA Mineral, Placer and Coal Tenure Spatial View (BCGW). Open Government Licence - British Columbia. Not legal title.", "as_of": "2026-09-20", "role": "focus", "color": "#e8b040"}}, {"type": "Feature", "geometry": {"type": "Polygon", "coordinates": [[[-118.1074, 51.2791], [-118.1137, 51.2791], [-118.1137, 51.2749], [-118.0949, 51.2749], [-118.0949, 51.2708], [-118.0887, 51.2708], [-118.0887, 51.2666], [-118.0762, 51.2666], [-118.0762, 51.2791], [-118.1074, 51.2791]]]}, "properties": {"company_id": "selkirk-copper-mines", "jurisdiction": "British Columbia", "claim_id": 520450, "claim_name": "LJ 15", "holder": "SELKIRK METALS CORP.", "status": "Mineral", "recorded_date": "2005-09-26", "anniversary_or_expiry": "2025-12-20", "area_ha": 222.40900000000002, "tenure_type": "Mineral", "source": "BC MTA Mineral, Placer and Coal Tenure Spatial View (BCGW). Open Government Licence - British Columbia. Not legal title.", "as_of": "2026-09-20", "role": "focus", "color": "#e8b040"}}, {"type": "Feature", "geometry": {"type": "Polygon", "coordinates": [[[-118.1137, 51.2874], [-118.1137, 51.2791], [-118.0762, 51.2791], [-118.0762, 51.2958], [-118.1074, 51.2958], [-118.1074, 51.2916], [-118.1137, 51.2916], [-118.1137, 51.2874]]]}, "properties": {"company_id": "selkirk-copper-mines", "jurisdiction": "British Columbia", "claim_id": 520451, "claim_name": "LJ 16", "holder": "SELKIRK METALS CORP.", "status": "Mineral", "recorded_date": "2005-09-26", "anniversary_or_expiry": "2025-12-20", "area_ha": 464.908, "tenure_type": "Mineral", "source": "BC MTA Mineral, Placer and Coal Tenure Spatial View (BCGW). Open Government Licence - British Columbia. Not legal title.", "as_of": "2026-09-20", "role": "focus", "color": "#e8b040"}}, {"type": "Feature", "geometry": {"type": "Polygon", "coordinates": [[[-118.0762, 51.3083], [-118.0762, 51.3041], [-118.0574, 51.3041], [-118.0574, 51.3083], [-118.0199, 51.3083], [-118.0199, 51.3124], [-118.0762, 51.3124], [-118.0762, 51.3083]]]}, "properties": {"company_id": "selkirk-copper-mines", "jurisdiction": "British Columbia", "claim_id": 520453, "claim_name": "LJ 18", "holder": "SELKIRK METALS CORP.", "status": "Mineral", "recorded_date": "2005-09-26", "anniversary_or_expiry": "2025-12-20", "area_ha": 242.447, "tenure_type": "Mineral", "source": "BC MTA Mineral, Placer and Coal Tenure Spatial View (BCGW). Open Government Licence - British Columbia. Not legal title.", "as_of": "2026-09-20", "role": "focus", "color": "#e8b040"}}, {"type": "Feature", "geometry": {"type": "Polygon", "coordinates": [[[-118.1324, 51.2624], [-118.1324, 51.2458], [-118.1262, 51.2458], [-118.1262, 51.2499], [-118.1137, 51.2499], [-118.1137, 51.2541], [-118.1262, 51.2541], [-118.1262, 51.2666], [-118.1324, 51.2666], [-118.1324, 51.2624]]]}, "properties": {"company_id": "selkirk-copper-mines", "jurisdiction": "British Columbia", "claim_id": 520638, "claim_name": "LJ 19", "holder": "SELKIRK METALS CORP.", "status": "Mineral", "recorded_date": "2005-09-30", "anniversary_or_expiry": "2025-12-20", "area_ha": 141.591, "tenure_type": "Mineral", "source": "BC MTA Mineral, Placer and Coal Tenure Spatial View (BCGW). Open Government Licence - British Columbia. Not legal title.", "as_of": "2026-09-20", "role": "focus", "color": "#e8b040"}}, {"type": "Feature", "geometry": {"type": "Polygon", "coordinates": [[[-126.9266, 50.3623], [-126.9266, 50.3582], [-126.9203, 50.3582], [-126.9203, 50.354], [-126.9141, 50.354], [-126.9141, 50.3582], [-126.9078, 50.3582], [-126.9078, 50.3623], [-126.9016, 50.3623], [-126.9016, 50.3707], [-126.8953, 50.3707], [-126.8953, 50.3748], [-126.8891, 50.3748], [-126.889, 50.3873], [-126.9203, 50.3873], [-126.9203, 50.3665], [-126.9266, 50.3665], [-126.9266, 50.3623]]]}, "properties": {"company_id": "selkirk-copper-mines", "jurisdiction": "British Columbia", "claim_id": 508806, "claim_name": null, "holder": "SELKIRK METALS CORP.", "status": "Mineral", "recorded_date": "2005-03-11", "anniversary_or_expiry": "2025-09-30", "area_ha": 618.28, "tenure_type": "Mineral", "source": "BC MTA Mineral, Placer and Coal Tenure Spatial View (BCGW). Open Government Licence - British Columbia. Not legal title.", "as_of": "2026-09-20", "role": "focus", "color": "#e8b040"}}, {"type": "Feature", "geometry": {"type": "Polygon", "coordinates": [[[-125.7265, 49.2581], [-125.7265, 49.2498], [-125.689, 49.2498], [-125.689, 49.2581], [-125.7202, 49.2581], [-125.7202, 49.2623], [-125.7265, 49.2623], [-125.7265, 49.2581]]]}, "properties": {"company_id": "selkirk-copper-mines", "jurisdiction": "British Columbia", "claim_id": 536689, "claim_name": "FREE GOLD 2", "holder": "SELKIRK METALS CORP.", "status": "Mineral", "recorded_date": "2006-07-07", "anniversary_or_expiry": "2027-02-17", "area_ha": 274.1048, "tenure_type": "Mineral", "source": "BC MTA Mineral, Placer and Coal Tenure Spatial View (BCGW). Open Government Licence - British Columbia. Not legal title.", "as_of": "2026-09-20", "role": "focus", "color": "#e8b040"}}, {"type": "Feature", "geometry": {"type": "Polygon", "coordinates": [[[-125.7202, 49.2665], [-125.7202, 49.2581], [-125.7015, 49.2581], [-125.7015, 49.2706], [-125.7202, 49.2706], [-125.7202, 49.2665]]]}, "properties": {"company_id": "selkirk-copper-mines", "jurisdiction": "British Columbia", "claim_id": 536690, "claim_name": "FREE GOLD 1", "holder": "SELKIRK METALS CORP.", "status": "Mineral", "recorded_date": "2006-07-07", "anniversary_or_expiry": "2027-02-17", "area_ha": 189.728, "tenure_type": "Mineral", "source": "BC MTA Mineral, Placer and Coal Tenure Spatial View (BCGW). Open Government Licence - British Columbia. Not legal title.", "as_of": "2026-09-20", "role": "focus", "color": "#e8b040"}}, {"type": "Feature", "geometry": {"type": "Polygon", "coordinates": [[[-125.664, 49.254], [-125.664, 49.2498], [-125.6577, 49.2498], [-125.6577, 49.2581], [-125.664, 49.2581], [-125.664, 49.254]]]}, "properties": {"company_id": "selkirk-copper-mines", "jurisdiction": "British Columbia", "claim_id": 537994, "claim_name": "FANDORA", "holder": "SELKIRK METALS CORP.", "status": "Mineral", "recorded_date": "2006-07-27", "anniversary_or_expiry": "2027-02-17", "area_ha": 42.1708, "tenure_type": "Mineral", "source": "BC MTA Mineral, Placer and Coal Tenure Spatial View (BCGW). Open Government Licence - British Columbia. Not legal title.", "as_of": "2026-09-20", "role": "focus", "color": "#e8b040"}}, {"type": "Feature", "geometry": {"type": "Polygon", "coordinates": [[[-125.7265, 49.2456], [-125.7265, 49.2373], [-125.689, 49.2373], [-125.689, 49.2498], [-125.7265, 49.2498], [-125.7265, 49.2456]]]}, "properties": {"company_id": "selkirk-copper-mines", "jurisdiction": "British Columbia", "claim_id": 537995, "claim_name": "FANDORA", "holder": "SELKIRK METALS CORP.", "status": "Mineral", "recorded_date": "2006-07-27", "anniversary_or_expiry": "2027-02-17", "area_ha": 379.58700000000005, "tenure_type": "Mineral", "source": "BC MTA Mineral, Placer and Coal Tenure Spatial View (BCGW). Open Government Licence - British Columbia. Not legal title.", "as_of": "2026-09-20", "role": "focus", "color": "#e8b040"}}]}