{"type": "FeatureCollection", "features": [{"type": "Feature", "geometry": {"type": "Polygon", "coordinates": [[[-84.625, 47.9833], [-84.625, 47.9875], [-84.6313, 47.9875], [-84.6313, 47.9833], [-84.625, 47.9833]]]}, "properties": {"company_id": "sierra-madre-gold-and-silver", "jurisdiction": "Ontario", "claim_id": "870036", "claim_name": null, "holder": "(100) SIERRA DEVELOPMENT SERVICES INC.", "status": "Active", "recorded_date": "2023-12-10", "anniversary_or_expiry": "2032-12-10", "area_ha": null, "tenure_type": "Single Cell Mining Claim", "source": "Ontario MLAS operational claims (OGSEarth / LIO MapServer). Unofficial viewing data, not legal title.", "as_of": "2026-09-20", "role": "focus", "color": "#e8b040"}}, {"type": "Feature", "geometry": {"type": "Polygon", "coordinates": [[[-84.6313, 47.9792], [-84.6313, 47.9833], [-84.6375, 47.9833], [-84.6375, 47.9792], [-84.6313, 47.9792]]]}, "properties": {"company_id": "sierra-madre-gold-and-silver", "jurisdiction": "Ontario", "claim_id": "870037", "claim_name": null, "holder": "(100) SIERRA DEVELOPMENT SERVICES INC.", "status": "Active", "recorded_date": "2023-12-10", "anniversary_or_expiry": "2032-12-10", "area_ha": null, "tenure_type": "Single Cell Mining Claim", "source": "Ontario MLAS operational claims (OGSEarth / LIO MapServer). Unofficial viewing data, not legal title.", "as_of": "2026-09-20", "role": "focus", "color": "#e8b040"}}, {"type": "Feature", "geometry": {"type": "Polygon", "coordinates": [[[-84.625, 47.9792], [-84.625, 47.9833], [-84.6313, 47.9833], [-84.6313, 47.9792], [-84.625, 47.9792]]]}, "properties": {"company_id": "sierra-madre-gold-and-silver", "jurisdiction": "Ontario", "claim_id": "870038", "claim_name": null, "holder": "(100) SIERRA DEVELOPMENT SERVICES INC.", "status": "Active", "recorded_date": "2023-12-10", "anniversary_or_expiry": "2032-12-10", "area_ha": null, "tenure_type": "Single Cell Mining Claim", "source": "Ontario MLAS operational claims (OGSEarth / LIO MapServer). Unofficial viewing data, not legal title.", "as_of": "2026-09-20", "role": "focus", "color": "#e8b040"}}, {"type": "Feature", "geometry": {"type": "Polygon", "coordinates": [[[-84.6188, 47.9833], [-84.6188, 47.9875], [-84.625, 47.9875], [-84.625, 47.9833], [-84.6188, 47.9833]]]}, "properties": {"company_id": "sierra-madre-gold-and-silver", "jurisdiction": "Ontario", "claim_id": "870039", "claim_name": null, "holder": "(100) SIERRA DEVELOPMENT SERVICES INC.", "status": "Active", "recorded_date": "2023-12-10", "anniversary_or_expiry": "2032-12-10", "area_ha": null, "tenure_type": "Single Cell Mining Claim", "source": "Ontario MLAS operational claims (OGSEarth / LIO MapServer). Unofficial viewing data, not legal title.", "as_of": "2026-09-20", "role": "focus", "color": "#e8b040"}}, {"type": "Feature", "geometry": {"type": "Polygon", "coordinates": [[[-84.6188, 47.9792], [-84.6188, 47.9833], [-84.625, 47.9833], [-84.625, 47.9792], [-84.6188, 47.9792]]]}, "properties": {"company_id": "sierra-madre-gold-and-silver", "jurisdiction": "Ontario", "claim_id": "870040", "claim_name": null, "holder": "(100) SIERRA DEVELOPMENT SERVICES INC.", "status": "Active", "recorded_date": "2023-12-10", "anniversary_or_expiry": "2032-12-10", "area_ha": null, "tenure_type": "Single Cell Mining Claim", "source": "Ontario MLAS operational claims (OGSEarth / LIO MapServer). Unofficial viewing data, not legal title.", "as_of": "2026-09-20", "role": "focus", "color": "#e8b040"}}, {"type": "Feature", "geometry": {"type": "Polygon", "coordinates": [[[-84.6125, 47.9833], [-84.6125, 47.9875], [-84.6188, 47.9875], [-84.6188, 47.9833], [-84.6125, 47.9833]]]}, "properties": {"company_id": "sierra-madre-gold-and-silver", "jurisdiction": "Ontario", "claim_id": "870041", "claim_name": null, "holder": "(100) SIERRA DEVELOPMENT SERVICES INC.", "status": "Active", "recorded_date": "2023-12-10", "anniversary_or_expiry": "2032-12-10", "area_ha": null, "tenure_type": "Single Cell Mining Claim", "source": "Ontario MLAS operational claims (OGSEarth / LIO MapServer). Unofficial viewing data, not legal title.", "as_of": "2026-09-20", "role": "focus", "color": "#e8b040"}}, {"type": "Feature", "geometry": {"type": "Polygon", "coordinates": [[[-84.6063, 47.9833], [-84.6063, 47.9875], [-84.6125, 47.9875], [-84.6125, 47.9833], [-84.6063, 47.9833]]]}, "properties": {"company_id": "sierra-madre-gold-and-silver", "jurisdiction": "Ontario", "claim_id": "870042", "claim_name": null, "holder": "(100) SIERRA DEVELOPMENT SERVICES INC.", "status": "Active", "recorded_date": "2023-12-10", "anniversary_or_expiry": "2032-12-10", "area_ha": null, "tenure_type": "Single Cell Mining Claim", "source": "Ontario MLAS operational claims (OGSEarth / LIO MapServer). Unofficial viewing data, not legal title.", "as_of": "2026-09-20", "role": "focus", "color": "#e8b040"}}, {"type": "Feature", "geometry": {"type": "Polygon", "coordinates": [[[-84.6063, 47.9875], [-84.6063, 47.9917], [-84.6125, 47.9917], [-84.6125, 47.9875], [-84.6063, 47.9875]]]}, "properties": {"company_id": "sierra-madre-gold-and-silver", "jurisdiction": "Ontario", "claim_id": "870043", "claim_name": null, "holder": "(100) SIERRA DEVELOPMENT SERVICES INC.", "status": "Active", "recorded_date": "2023-12-10", "anniversary_or_expiry": "2032-12-10", "area_ha": null, "tenure_type": "Single Cell Mining Claim", "source": "Ontario MLAS operational claims (OGSEarth / LIO MapServer). Unofficial viewing data, not legal title.", "as_of": "2026-09-20", "role": "focus", "color": "#e8b040"}}, {"type": "Feature", "geometry": {"type": "Polygon", "coordinates": [[[-84.6125, 47.9875], [-84.6125, 47.9917], [-84.6188, 47.9917], [-84.6188, 47.9875], [-84.6125, 47.9875]]]}, "properties": {"company_id": "sierra-madre-gold-and-silver", "jurisdiction": "Ontario", "claim_id": "874728", "claim_name": null, "holder": "(100) SIERRA DEVELOPMENT SERVICES INC.", "status": "Active", "recorded_date": "2024-01-08", "anniversary_or_expiry": "2033-01-08", "area_ha": null, "tenure_type": "Single Cell Mining Claim", "source": "Ontario MLAS operational claims (OGSEarth / LIO MapServer). Unofficial viewing data, not legal title.", "as_of": "2026-09-20", "role": "focus", "color": "#e8b040"}}, {"type": "Feature", "geometry": {"type": "Polygon", "coordinates": [[[-84.6063, 47.9917], [-84.6063, 47.9958], [-84.6125, 47.9958], [-84.6125, 47.9917], [-84.6063, 47.9917]]]}, "properties": {"company_id": "sierra-madre-gold-and-silver", "jurisdiction": "Ontario", "claim_id": "874729", "claim_name": null, "holder": "(100) SIERRA DEVELOPMENT SERVICES INC.", "status": "Active", "recorded_date": "2024-01-08", "anniversary_or_expiry": "2033-01-08", "area_ha": null, "tenure_type": "Single Cell Mining Claim", "source": "Ontario MLAS operational claims (OGSEarth / LIO MapServer). Unofficial viewing data, not legal title.", "as_of": "2026-09-20", "role": "focus", "color": "#e8b040"}}, {"type": "Feature", "geometry": {"type": "Polygon", "coordinates": [[[-84.6375, 47.975], [-84.6375, 47.9792], [-84.6438, 47.9792], [-84.6438, 47.975], [-84.6375, 47.975]]]}, "properties": {"company_id": "sierra-madre-gold-and-silver", "jurisdiction": "Ontario", "claim_id": "876624", "claim_name": null, "holder": "(100) SIERRA DEVELOPMENT SERVICES INC.", "status": "Active", "recorded_date": "2024-01-22", "anniversary_or_expiry": "2032-01-22", "area_ha": null, "tenure_type": "Single Cell Mining Claim", "source": "Ontario MLAS operational claims (OGSEarth / LIO MapServer). Unofficial viewing data, not legal title.", "as_of": "2026-09-20", "role": "focus", "color": "#e8b040"}}, {"type": "Feature", "geometry": {"type": "Polygon", "coordinates": [[[-84.6313, 47.975], [-84.6313, 47.9792], [-84.6375, 47.9792], [-84.6375, 47.975], [-84.6313, 47.975]]]}, "properties": {"company_id": "sierra-madre-gold-and-silver", "jurisdiction": "Ontario", "claim_id": "876625", "claim_name": null, "holder": "(100) SIERRA DEVELOPMENT SERVICES INC.", "status": "Active", "recorded_date": "2024-01-22", "anniversary_or_expiry": "2033-01-22", "area_ha": null, "tenure_type": "Single Cell Mining Claim", "source": "Ontario MLAS operational claims (OGSEarth / LIO MapServer). Unofficial viewing data, not legal title.", "as_of": "2026-09-20", "role": "focus", "color": "#e8b040"}}, {"type": "Feature", "geometry": {"type": "Polygon", "coordinates": [[[-84.625, 47.975], [-84.625, 47.9792], [-84.6313, 47.9792], [-84.6313, 47.975], [-84.625, 47.975]]]}, "properties": {"company_id": "sierra-madre-gold-and-silver", "jurisdiction": "Ontario", "claim_id": "876626", "claim_name": null, "holder": "(100) SIERRA DEVELOPMENT SERVICES INC.", "status": "Active", "recorded_date": "2024-01-22", "anniversary_or_expiry": "2033-01-22", "area_ha": null, "tenure_type": "Single Cell Mining Claim", "source": "Ontario MLAS operational claims (OGSEarth / LIO MapServer). Unofficial viewing data, not legal title.", "as_of": "2026-09-20", "role": "focus", "color": "#e8b040"}}, {"type": "Feature", "geometry": {"type": "Polygon", "coordinates": [[[-84.6188, 47.975], [-84.6188, 47.9792], [-84.625, 47.9792], [-84.625, 47.975], [-84.6188, 47.975]]]}, "properties": {"company_id": "sierra-madre-gold-and-silver", "jurisdiction": "Ontario", "claim_id": "876627", "claim_name": null, "holder": "(100) SIERRA DEVELOPMENT SERVICES INC.", "status": "Active", "recorded_date": "2024-01-22", "anniversary_or_expiry": "2033-01-22", "area_ha": null, "tenure_type": "Single Cell Mining Claim", "source": "Ontario MLAS operational claims (OGSEarth / LIO MapServer). Unofficial viewing data, not legal title.", "as_of": "2026-09-20", "role": "focus", "color": "#e8b040"}}, {"type": "Feature", "geometry": {"type": "Polygon", "coordinates": [[[-84.6375, 47.9708], [-84.6375, 47.975], [-84.6438, 47.975], [-84.6438, 47.9708], [-84.6375, 47.9708]]]}, "properties": {"company_id": "sierra-madre-gold-and-silver", "jurisdiction": "Ontario", "claim_id": "876628", "claim_name": null, "holder": "(100) SIERRA DEVELOPMENT SERVICES INC.", "status": "Active", "recorded_date": "2024-01-22", "anniversary_or_expiry": "2033-01-22", "area_ha": null, "tenure_type": "Single Cell Mining Claim", "source": "Ontario MLAS operational claims (OGSEarth / LIO MapServer). Unofficial viewing data, not legal title.", "as_of": "2026-09-20", "role": "focus", "color": "#e8b040"}}, {"type": "Feature", "geometry": {"type": "Polygon", "coordinates": [[[-84.6313, 47.9708], [-84.6313, 47.975], [-84.6375, 47.975], [-84.6375, 47.9708], [-84.6313, 47.9708]]]}, "properties": {"company_id": "sierra-madre-gold-and-silver", "jurisdiction": "Ontario", "claim_id": "876629", "claim_name": null, "holder": "(100) SIERRA DEVELOPMENT SERVICES INC.", "status": "Active", "recorded_date": "2024-01-22", "anniversary_or_expiry": "2033-01-22", "area_ha": null, "tenure_type": "Single Cell Mining Claim", "source": "Ontario MLAS operational claims (OGSEarth / LIO MapServer). Unofficial viewing data, not legal title.", "as_of": "2026-09-20", "role": "focus", "color": "#e8b040"}}, {"type": "Feature", "geometry": {"type": "Polygon", "coordinates": [[[-84.625, 47.9708], [-84.625, 47.975], [-84.6313, 47.975], [-84.6313, 47.9708], [-84.625, 47.9708]]]}, "properties": {"company_id": "sierra-madre-gold-and-silver", "jurisdiction": "Ontario", "claim_id": "876630", "claim_name": null, "holder": "(100) SIERRA DEVELOPMENT SERVICES INC.", "status": "Active", "recorded_date": "2024-01-22", "anniversary_or_expiry": "2033-01-22", "area_ha": null, "tenure_type": "Single Cell Mining Claim", "source": "Ontario MLAS operational claims (OGSEarth / LIO MapServer). Unofficial viewing data, not legal title.", "as_of": "2026-09-20", "role": "focus", "color": "#e8b040"}}, {"type": "Feature", "geometry": {"type": "Polygon", "coordinates": [[[-84.6438, 47.9667], [-84.6438, 47.9708], [-84.65, 47.9708], [-84.65, 47.9667], [-84.6438, 47.9667]]]}, "properties": {"company_id": "sierra-madre-gold-and-silver", "jurisdiction": "Ontario", "claim_id": "876631", "claim_name": null, "holder": "(100) SIERRA DEVELOPMENT SERVICES INC.", "status": "Active", "recorded_date": "2024-01-22", "anniversary_or_expiry": "2033-01-22", "area_ha": null, "tenure_type": "Single Cell Mining Claim", "source": "Ontario MLAS operational claims (OGSEarth / LIO MapServer). Unofficial viewing data, not legal title.", "as_of": "2026-09-20", "role": "focus", "color": "#e8b040"}}, {"type": "Feature", "geometry": {"type": "Polygon", "coordinates": [[[-84.6375, 47.9667], [-84.6375, 47.9708], [-84.6438, 47.9708], [-84.6438, 47.9667], [-84.6375, 47.9667]]]}, "properties": {"company_id": "sierra-madre-gold-and-silver", "jurisdiction": "Ontario", "claim_id": "876632", "claim_name": null, "holder": "(100) SIERRA DEVELOPMENT SERVICES INC.", "status": "Active", "recorded_date": "2024-01-22", "anniversary_or_expiry": "2033-01-22", "area_ha": null, "tenure_type": "Single Cell Mining Claim", "source": "Ontario MLAS operational claims (OGSEarth / LIO MapServer). Unofficial viewing data, not legal title.", "as_of": "2026-09-20", "role": "focus", "color": "#e8b040"}}, {"type": "Feature", "geometry": {"type": "Polygon", "coordinates": [[[-84.6313, 47.9667], [-84.6313, 47.9708], [-84.6375, 47.9708], [-84.6375, 47.9667], [-84.6313, 47.9667]]]}, "properties": {"company_id": "sierra-madre-gold-and-silver", "jurisdiction": "Ontario", "claim_id": "876633", "claim_name": null, "holder": "(100) SIERRA DEVELOPMENT SERVICES INC.", "status": "Active", "recorded_date": "2024-01-22", "anniversary_or_expiry": "2033-01-22", "area_ha": null, "tenure_type": "Single Cell Mining Claim", "source": "Ontario MLAS operational claims (OGSEarth / LIO MapServer). Unofficial viewing data, not legal title.", "as_of": "2026-09-20", "role": "focus", "color": "#e8b040"}}, {"type": "Feature", "geometry": {"type": "Polygon", "coordinates": [[[-84.65, 47.9625], [-84.65, 47.9667], [-84.6563, 47.9667], [-84.6563, 47.9625], [-84.65, 47.9625]]]}, "properties": {"company_id": "sierra-madre-gold-and-silver", "jurisdiction": "Ontario", "claim_id": "876634", "claim_name": null, "holder": "(100) SIERRA DEVELOPMENT SERVICES INC.", "status": "Active", "recorded_date": "2024-01-22", "anniversary_or_expiry": "2033-01-22", "area_ha": null, "tenure_type": "Single Cell Mining Claim", "source": "Ontario MLAS operational claims (OGSEarth / LIO MapServer). Unofficial viewing data, not legal title.", "as_of": "2026-09-20", "role": "focus", "color": "#e8b040"}}, {"type": "Feature", "geometry": {"type": "Polygon", "coordinates": [[[-84.6438, 47.9625], [-84.6438, 47.9667], [-84.65, 47.9667], [-84.65, 47.9625], [-84.6438, 47.9625]]]}, "properties": {"company_id": "sierra-madre-gold-and-silver", "jurisdiction": "Ontario", "claim_id": "876635", "claim_name": null, "holder": "(100) SIERRA DEVELOPMENT SERVICES INC.", "status": "Active", "recorded_date": "2024-01-22", "anniversary_or_expiry": "2033-01-22", "area_ha": null, "tenure_type": "Single Cell Mining Claim", "source": "Ontario MLAS operational claims (OGSEarth / LIO MapServer). Unofficial viewing data, not legal title.", "as_of": "2026-09-20", "role": "focus", "color": "#e8b040"}}, {"type": "Feature", "geometry": {"type": "Polygon", "coordinates": [[[-84.6563, 47.9583], [-84.6563, 47.9625], [-84.6625, 47.9625], [-84.6625, 47.9583], [-84.6563, 47.9583]]]}, "properties": {"company_id": "sierra-madre-gold-and-silver", "jurisdiction": "Ontario", "claim_id": "876636", "claim_name": null, "holder": "(100) SIERRA DEVELOPMENT SERVICES INC.", "status": "Active", "recorded_date": "2024-01-22", "anniversary_or_expiry": "2033-01-22", "area_ha": null, "tenure_type": "Single Cell Mining Claim", "source": "Ontario MLAS operational claims (OGSEarth / LIO MapServer). Unofficial viewing data, not legal title.", "as_of": "2026-09-20", "role": "focus", "color": "#e8b040"}}, {"type": "Feature", "geometry": {"type": "Polygon", "coordinates": [[[-84.65, 47.9583], [-84.65, 47.9625], [-84.6563, 47.9625], [-84.6563, 47.9583], [-84.65, 47.9583]]]}, "properties": {"company_id": "sierra-madre-gold-and-silver", "jurisdiction": "Ontario", "claim_id": "876637", "claim_name": null, "holder": "(100) SIERRA DEVELOPMENT SERVICES INC.", "status": "Active", "recorded_date": "2024-01-22", "anniversary_or_expiry": "2033-01-22", "area_ha": null, "tenure_type": "Single Cell Mining Claim", "source": "Ontario MLAS operational claims (OGSEarth / LIO MapServer). Unofficial viewing data, not legal title.", "as_of": "2026-09-20", "role": "focus", "color": "#e8b040"}}, {"type": "Feature", "geometry": {"type": "Polygon", "coordinates": [[[-84.6438, 47.9583], [-84.6438, 47.9625], [-84.65, 47.9625], [-84.65, 47.9583], [-84.6438, 47.9583]]]}, "properties": {"company_id": "sierra-madre-gold-and-silver", "jurisdiction": "Ontario", "claim_id": "876638", "claim_name": null, "holder": "(100) SIERRA DEVELOPMENT SERVICES INC.", "status": "Active", "recorded_date": "2024-01-22", "anniversary_or_expiry": "2033-01-22", "area_ha": null, "tenure_type": "Single Cell Mining Claim", "source": "Ontario MLAS operational claims (OGSEarth / LIO MapServer). Unofficial viewing data, not legal title.", "as_of": "2026-09-20", "role": "focus", "color": "#e8b040"}}, {"type": "Feature", "geometry": {"type": "Polygon", "coordinates": [[[-84.6125, 47.9792], [-84.6125, 47.9833], [-84.6188, 47.9833], [-84.6188, 47.9792], [-84.6125, 47.9792]]]}, "properties": {"company_id": "sierra-madre-gold-and-silver", "jurisdiction": "Ontario", "claim_id": "876639", "claim_name": null, "holder": "(100) SIERRA DEVELOPMENT SERVICES INC.", "status": "Active", "recorded_date": "2024-01-22", "anniversary_or_expiry": "2033-01-22", "area_ha": null, "tenure_type": "Single Cell Mining Claim", "source": "Ontario MLAS operational claims (OGSEarth / LIO MapServer). Unofficial viewing data, not legal title.", "as_of": "2026-09-20", "role": "focus", "color": "#e8b040"}}, {"type": "Feature", "geometry": {"type": "Polygon", "coordinates": [[[-84.6063, 47.9792], [-84.6063, 47.9833], [-84.6125, 47.9833], [-84.6125, 47.9792], [-84.6063, 47.9792]]]}, "properties": {"company_id": "sierra-madre-gold-and-silver", "jurisdiction": "Ontario", "claim_id": "876640", "claim_name": null, "holder": "(100) SIERRA DEVELOPMENT SERVICES INC.", "status": "Active", "recorded_date": "2024-01-22", "anniversary_or_expiry": "2033-01-22", "area_ha": null, "tenure_type": "Single Cell Mining Claim", "source": "Ontario MLAS operational claims (OGSEarth / LIO MapServer). Unofficial viewing data, not legal title.", "as_of": "2026-09-20", "role": "focus", "color": "#e8b040"}}, {"type": "Feature", "geometry": {"type": "Polygon", "coordinates": [[[-84.6188, 47.9875], [-84.6188, 47.9917], [-84.625, 47.9917], [-84.625, 47.9875], [-84.6188, 47.9875]]]}, "properties": {"company_id": "sierra-madre-gold-and-silver", "jurisdiction": "Ontario", "claim_id": "878089", "claim_name": null, "holder": "(100) SIERRA DEVELOPMENT SERVICES INC.", "status": "Active", "recorded_date": "2024-01-29", "anniversary_or_expiry": "2033-01-29", "area_ha": null, "tenure_type": "Single Cell Mining Claim", "source": "Ontario MLAS operational claims (OGSEarth / LIO MapServer). Unofficial viewing data, not legal title.", "as_of": "2026-09-20", "role": "focus", "color": "#e8b040"}}, {"type": "Feature", "geometry": {"type": "Polygon", "coordinates": [[[-84.6188, 47.9917], [-84.6188, 47.9958], [-84.625, 47.9958], [-84.625, 47.9917], [-84.6188, 47.9917]]]}, "properties": {"company_id": "sierra-madre-gold-and-silver", "jurisdiction": "Ontario", "claim_id": "878091", "claim_name": null, "holder": "(100) SIERRA DEVELOPMENT SERVICES INC.", "status": "Active", "recorded_date": "2024-01-29", "anniversary_or_expiry": "2033-01-29", "area_ha": null, "tenure_type": "Single Cell Mining Claim", "source": "Ontario MLAS operational claims (OGSEarth / LIO MapServer). Unofficial viewing data, not legal title.", "as_of": "2026-09-20", "role": "focus", "color": "#e8b040"}}, {"type": "Feature", "geometry": {"type": "Polygon", "coordinates": [[[-84.6063, 47.9958], [-84.6063, 48.0], [-84.6125, 48.0], [-84.6125, 47.9958], [-84.6063, 47.9958]]]}, "properties": {"company_id": "sierra-madre-gold-and-silver", "jurisdiction": "Ontario", "claim_id": "878092", "claim_name": null, "holder": "(100) SIERRA DEVELOPMENT SERVICES INC.", "status": "Active", "recorded_date": "2024-01-29", "anniversary_or_expiry": "2033-01-29", "area_ha": null, "tenure_type": "Single Cell Mining Claim", "source": "Ontario MLAS operational claims (OGSEarth / LIO MapServer). Unofficial viewing data, not legal title.", "as_of": "2026-09-20", "role": "focus", "color": "#e8b040"}}, {"type": "Feature", "geometry": {"type": "Polygon", "coordinates": [[[-84.625, 47.9875], [-84.625, 47.9917], [-84.6313, 47.9917], [-84.6313, 47.9875], [-84.625, 47.9875]]]}, "properties": {"company_id": "sierra-madre-gold-and-silver", "jurisdiction": "Ontario", "claim_id": "878093", "claim_name": null, "holder": "(100) SIERRA DEVELOPMENT SERVICES INC.", "status": "Active", "recorded_date": "2024-01-29", "anniversary_or_expiry": "2033-01-29", "area_ha": null, "tenure_type": "Single Cell Mining Claim", "source": "Ontario MLAS operational claims (OGSEarth / LIO MapServer). Unofficial viewing data, not legal title.", "as_of": "2026-09-20", "role": "focus", "color": "#e8b040"}}, {"type": "Feature", "geometry": {"type": "Polygon", "coordinates": [[[-84.6, 47.9917], [-84.6, 47.9958], [-84.6063, 47.9958], [-84.6063, 47.9917], [-84.6, 47.9917]]]}, "properties": {"company_id": "sierra-madre-gold-and-silver", "jurisdiction": "Ontario", "claim_id": "879661", "claim_name": null, "holder": "(100) SIERRA DEVELOPMENT SERVICES INC.", "status": "Active", "recorded_date": "2024-02-07", "anniversary_or_expiry": "2033-02-07", "area_ha": null, "tenure_type": "Single Cell Mining Claim", "source": "Ontario MLAS operational claims (OGSEarth / LIO MapServer). Unofficial viewing data, not legal title.", "as_of": "2026-09-20", "role": "focus", "color": "#e8b040"}}, {"type": "Feature", "geometry": {"type": "Polygon", "coordinates": [[[-84.5938, 47.9917], [-84.5938, 47.9958], [-84.6, 47.9958], [-84.6, 47.9917], [-84.5938, 47.9917]]]}, "properties": {"company_id": "sierra-madre-gold-and-silver", "jurisdiction": "Ontario", "claim_id": "879662", "claim_name": null, "holder": "(100) SIERRA DEVELOPMENT SERVICES INC.", "status": "Active", "recorded_date": "2024-02-07", "anniversary_or_expiry": "2033-02-07", "area_ha": null, "tenure_type": "Single Cell Mining Claim", "source": "Ontario MLAS operational claims (OGSEarth / LIO MapServer). Unofficial viewing data, not legal title.", "as_of": "2026-09-20", "role": "focus", "color": "#e8b040"}}]}