{"type": "FeatureCollection", "features": [{"type": "Feature", "geometry": {"type": "Polygon", "coordinates": [[[-130.2911, 59.908], [-130.3268, 59.908], [-130.3269, 59.8945], [-130.2911, 59.8945], [-130.2911, 59.908]]]}, "properties": {"company_id": "silver-spruce-resources", "jurisdiction": "British Columbia", "claim_id": 221908, "claim_name": "RENEE 1", "holder": "COEUR SILVERTIP HOLDINGS LTD.", "status": "Mineral", "recorded_date": "3103488000", "anniversary_or_expiry": "2027-10-15", "area_ha": 300, "tenure_type": "Mineral", "source": "BC MTA Mineral, Placer and Coal Tenure Spatial View (BCGW). Open Government Licence - British Columbia. Not legal title.", "as_of": "2026-09-20", "role": "focus", "color": "#e8b040"}}, {"type": "Feature", "geometry": {"type": "Polygon", "coordinates": [[[-130.3536, 59.8945], [-130.3537, 59.8766], [-130.309, 59.8766], [-130.309, 59.8945], [-130.3536, 59.8945]]]}, "properties": {"company_id": "silver-spruce-resources", "jurisdiction": "British Columbia", "claim_id": 222005, "claim_name": "BETH 2", "holder": "COEUR SILVERTIP HOLDINGS LTD.", "status": "Mineral", "recorded_date": "3345408000", "anniversary_or_expiry": "2027-10-15", "area_ha": 500, "tenure_type": "Mineral", "source": "BC MTA Mineral, Placer and Coal Tenure Spatial View (BCGW). Open Government Licence - British Columbia. Not legal title.", "as_of": "2026-09-20", "role": "focus", "color": "#e8b040"}}, {"type": "Feature", "geometry": {"type": "Polygon", "coordinates": [[[-130.2643, 59.8945], [-130.309, 59.8945], [-130.309, 59.8766], [-130.2644, 59.8765], [-130.2643, 59.8945]]]}, "properties": {"company_id": "silver-spruce-resources", "jurisdiction": "British Columbia", "claim_id": 222006, "claim_name": "BETH 3", "holder": "COEUR SILVERTIP HOLDINGS LTD.", "status": "Mineral", "recorded_date": "3345408000", "anniversary_or_expiry": "2027-10-15", "area_ha": 500, "tenure_type": "Mineral", "source": "BC MTA Mineral, Placer and Coal Tenure Spatial View (BCGW). Open Government Licence - British Columbia. Not legal title.", "as_of": "2026-09-20", "role": "focus", "color": "#e8b040"}}, {"type": "Feature", "geometry": {"type": "Polygon", "coordinates": [[[-130.2643, 59.9214], [-130.2911, 59.9215], [-130.2911, 59.8945], [-130.2643, 59.8945], [-130.2643, 59.9214]]]}, "properties": {"company_id": "silver-spruce-resources", "jurisdiction": "British Columbia", "claim_id": 222007, "claim_name": "BETH 4", "holder": "COEUR SILVERTIP HOLDINGS LTD.", "status": "Mineral", "recorded_date": "3345408000", "anniversary_or_expiry": "2027-10-15", "area_ha": 450, "tenure_type": "Mineral", "source": "BC MTA Mineral, Placer and Coal Tenure Spatial View (BCGW). Open Government Licence - British Columbia. Not legal title.", "as_of": "2026-09-20", "role": "focus", "color": "#e8b040"}}, {"type": "Feature", "geometry": {"type": "Polygon", "coordinates": [[[-130.2911, 59.9289], [-130.2911, 59.9304], [-130.3269, 59.9305], [-130.3269, 59.908], [-130.2911, 59.908], [-130.2911, 59.9289]]]}, "properties": {"company_id": "silver-spruce-resources", "jurisdiction": "British Columbia", "claim_id": 221837, "claim_name": "TOOTS 4", "holder": "COEUR SILVERTIP HOLDINGS LTD.", "status": "Mineral", "recorded_date": "3000672000", "anniversary_or_expiry": "2027-10-15", "area_ha": 500, "tenure_type": "Mineral", "source": "BC MTA Mineral, Placer and Coal Tenure Spatial View (BCGW). Open Government Licence - British Columbia. Not legal title.", "as_of": "2026-09-20", "role": "focus", "color": "#e8b040"}}, {"type": "Feature", "geometry": {"type": "Polygon", "coordinates": [[[-129.334, 55.6669], [-129.3598, 55.6669], [-129.3597, 55.6489], [-129.328, 55.6489], [-129.328, 55.6669], [-129.334, 55.6669]]]}, "properties": {"company_id": "silver-spruce-resources", "jurisdiction": "British Columbia", "claim_id": 250684, "claim_name": "BIG BULK", "holder": "DOLLY VARDEN SILVER CORP", "status": "Mineral", "recorded_date": "2954880000", "anniversary_or_expiry": "2027-05-03", "area_ha": 400, "tenure_type": "Mineral", "source": "BC MTA Mineral, Placer and Coal Tenure Spatial View (BCGW). Open Government Licence - British Columbia. Not legal title.", "as_of": "2026-09-20", "role": "focus", "color": "#e8b040"}}, {"type": "Feature", "geometry": {"type": "Polygon", "coordinates": [[[-129.3597, 55.6326], [-129.3598, 55.6362], [-129.3755, 55.6363], [-129.3755, 55.6316], [-129.3727, 55.6316], [-129.3727, 55.6246], [-129.3517, 55.6246], [-129.3517, 55.6256], [-129.3595, 55.6256], [-129.3597, 55.6326]]]}, "properties": {"company_id": "silver-spruce-resources", "jurisdiction": "British Columbia", "claim_id": 254242, "claim_name": "SKUCH 12", "holder": "DOLLY VARDEN SILVER CORP", "status": "Mineral", "recorded_date": "6481728000", "anniversary_or_expiry": "2027-05-03", "area_ha": 225, "tenure_type": "Mineral", "source": "BC MTA Mineral, Placer and Coal Tenure Spatial View (BCGW). Open Government Licence - British Columbia. Not legal title.", "as_of": "2026-09-20", "role": "focus", "color": "#e8b040"}}, {"type": "Feature", "geometry": {"type": "Polygon", "coordinates": [[[-129.3517, 55.6246], [-129.3726, 55.6246], [-129.3725, 55.6136], [-129.3487, 55.6136], [-129.3487, 55.6111], [-129.3479, 55.6111], [-129.3479, 55.6246], [-129.3517, 55.6246]]]}, "properties": {"company_id": "silver-spruce-resources", "jurisdiction": "British Columbia", "claim_id": 254243, "claim_name": "SKUCH 13", "holder": "DOLLY VARDEN SILVER CORP", "status": "Mineral", "recorded_date": "6481728000", "anniversary_or_expiry": "2027-05-03", "area_ha": 300, "tenure_type": "Mineral", "source": "BC MTA Mineral, Placer and Coal Tenure Spatial View (BCGW). Open Government Licence - British Columbia. Not legal title.", "as_of": "2026-09-20", "role": "focus", "color": "#e8b040"}}, {"type": "Feature", "geometry": {"type": "Polygon", "coordinates": [[[-129.5068, 55.7176], [-129.5212, 55.7188], [-129.5216, 55.7172], [-129.5282, 55.7155], [-129.5253, 55.7119], [-129.5187, 55.7137], [-129.5194, 55.7145], [-129.5167, 55.7143], [-129.51, 55.7158], [-129.5086, 55.7137], [-129.5078, 55.7136], [-129.5068, 55.7176]]]}, "properties": {"company_id": "silver-spruce-resources", "jurisdiction": "British Columbia", "claim_id": 254534, "claim_name": null, "holder": "DOLLY VARDEN SILVER CORP", "status": "Mineral", "recorded_date": "-236390400", "anniversary_or_expiry": "2025-07-06", "area_ha": 53.31, "tenure_type": "Mineral", "source": "BC MTA Mineral, Placer and Coal Tenure Spatial View (BCGW). Open Government Licence - British Columbia. Not legal title.", "as_of": "2026-09-20", "role": "focus", "color": "#e8b040"}}, {"type": "Feature", "geometry": {"type": "Polygon", "coordinates": [[[-129.5237, 55.71], [-129.5271, 55.7141], [-129.5292, 55.7137], [-129.5273, 55.7098], [-129.5237, 55.71]]]}, "properties": {"company_id": "silver-spruce-resources", "jurisdiction": "British Columbia", "claim_id": 254535, "claim_name": null, "holder": "DOLLY VARDEN SILVER CORP", "status": "Mineral", "recorded_date": "-217987200", "anniversary_or_expiry": "2025-02-04", "area_ha": 8.73, "tenure_type": "Mineral", "source": "BC MTA Mineral, Placer and Coal Tenure Spatial View (BCGW). Open Government Licence - British Columbia. Not legal title.", "as_of": "2026-09-20", "role": "focus", "color": "#e8b040"}}, {"type": "Feature", "geometry": {"type": "Polygon", "coordinates": [[[-129.5, 55.7176], [-129.5053, 55.7184], [-129.5058, 55.7173], [-129.5068, 55.7176], [-129.5077, 55.7141], [-129.5021, 55.7136], [-129.4978, 55.7117], [-129.4933, 55.7149], [-129.5, 55.7176]]]}, "properties": {"company_id": "silver-spruce-resources", "jurisdiction": "British Columbia", "claim_id": 254536, "claim_name": null, "holder": "DOLLY VARDEN SILVER CORP", "status": "Mineral", "recorded_date": "-212803200", "anniversary_or_expiry": "2025-04-05", "area_ha": 37.2, "tenure_type": "Mineral", "source": "BC MTA Mineral, Placer and Coal Tenure Spatial View (BCGW). Open Government Licence - British Columbia. Not legal title.", "as_of": "2026-09-20", "role": "focus", "color": "#e8b040"}}, {"type": "Feature", "geometry": {"type": "Polygon", "coordinates": [[[-129.5281, 55.7002], [-129.532, 55.704], [-129.5375, 55.7018], [-129.5333, 55.7002], [-129.5328, 55.7011], [-129.5281, 55.7002]]]}, "properties": {"company_id": "silver-spruce-resources", "jurisdiction": "British Columbia", "claim_id": 254537, "claim_name": null, "holder": "DOLLY VARDEN SILVER CORP", "status": "Mineral", "recorded_date": "-212803200", "anniversary_or_expiry": "2025-04-05", "area_ha": 11.89, "tenure_type": "Mineral", "source": "BC MTA Mineral, Placer and Coal Tenure Spatial View (BCGW). Open Government Licence - British Columbia. Not legal title.", "as_of": "2026-09-20", "role": "focus", "color": "#e8b040"}}, {"type": "Feature", "geometry": {"type": "Polygon", "coordinates": [[[-129.5035, 55.6993], [-129.502, 55.6995], [-129.5037, 55.7035], [-129.5101, 55.7027], [-129.5096, 55.7026], [-129.5098, 55.6995], [-129.5035, 55.6993]]]}, "properties": {"company_id": "silver-spruce-resources", "jurisdiction": "British Columbia", "claim_id": 254538, "claim_name": null, "holder": "DOLLY VARDEN SILVER CORP", "status": "Mineral", "recorded_date": "-212803200", "anniversary_or_expiry": "2025-04-05", "area_ha": 17.28, "tenure_type": "Mineral", "source": "BC MTA Mineral, Placer and Coal Tenure Spatial View (BCGW). Open Government Licence - British Columbia. Not legal title.", "as_of": "2026-09-20", "role": "focus", "color": "#e8b040"}}, {"type": "Feature", "geometry": {"type": "Polygon", "coordinates": [[[-129.51, 55.7158], [-129.5167, 55.7143], [-129.5194, 55.7145], [-129.5187, 55.7137], [-129.5253, 55.7119], [-129.5226, 55.7087], [-129.5216, 55.7085], [-129.5111, 55.7128], [-129.5094, 55.7116], [-129.5075, 55.712], [-129.51, 55.7158]]]}, "properties": {"company_id": "silver-spruce-resources", "jurisdiction": "British Columbia", "claim_id": 254542, "claim_name": null, "holder": "DOLLY VARDEN SILVER CORP", "status": "Mineral", "recorded_date": "-204681600", "anniversary_or_expiry": "2025-07-08", "area_ha": 41, "tenure_type": "Mineral", "source": "BC MTA Mineral, Placer and Coal Tenure Spatial View (BCGW). Open Government Licence - British Columbia. Not legal title.", "as_of": "2026-09-20", "role": "focus", "color": "#e8b040"}}, {"type": "Feature", "geometry": {"type": "Polygon", "coordinates": [[[-129.5037, 55.7035], [-129.5053, 55.7075], [-129.506, 55.7078], [-129.5107, 55.7046], [-129.5101, 55.7027], [-129.5037, 55.7035]]]}, "properties": {"company_id": "silver-spruce-resources", "jurisdiction": "British Columbia", "claim_id": 254579, "claim_name": null, "holder": "DOLLY VARDEN SILVER CORP", "status": "Mineral", "recorded_date": "5633280000", "anniversary_or_expiry": "2025-10-15", "area_ha": 13.98, "tenure_type": "Mineral", "source": "BC MTA Mineral, Placer and Coal Tenure Spatial View (BCGW). Open Government Licence - British Columbia. Not legal title.", "as_of": "2026-09-20", "role": "focus", "color": "#e8b040"}}, {"type": "Feature", "geometry": {"type": "Polygon", "coordinates": [[[-117.2499, 49.9702], [-117.2484, 49.9701], [-117.2487, 49.9713], [-117.2473, 49.9715], [-117.2483, 49.9741], [-117.2517, 49.9744], [-117.2513, 49.9769], [-117.2529, 49.9745], [-117.2578, 49.976], [-117.2595, 49.9735], [-117.2619, 49.9741], [-117.2626, 49.9722], [-117.257, 49.9712], [-117.2562, 49.9737], [-117.2498, 49.9736], [-117.2499, 49.9702]]]}, "properties": {"company_id": "silver-spruce-resources", "jurisdiction": "British Columbia", "claim_id": 257273, "claim_name": null, "holder": "KLONDIKE SILVER CORP.", "status": "Mineral", "recorded_date": "-649728000", "anniversary_or_expiry": "2025-12-11", "area_ha": 28.57, "tenure_type": "Mineral", "source": "BC MTA Mineral, Placer and Coal Tenure Spatial View (BCGW). Open Government Licence - British Columbia. Not legal title.", "as_of": "2026-09-20", "role": "focus", "color": "#e8b040"}}, {"type": "Feature", "geometry": {"type": "Polygon", "coordinates": [[[-131.8486, 57.7922], [-131.8486, 57.8108], [-131.8822, 57.8108], [-131.8822, 57.7884], [-131.8486, 57.7884], [-131.8486, 57.7922]]]}, "properties": {"company_id": "silver-spruce-resources", "jurisdiction": "British Columbia", "claim_id": 324704, "claim_name": "BOB 1", "holder": "BIG TARGETS GOLD & SILVER MINING LTD.", "status": "Mineral", "recorded_date": "7657632000", "anniversary_or_expiry": "2030-02-02", "area_ha": 500, "tenure_type": "Mineral", "source": "BC MTA Mineral, Placer and Coal Tenure Spatial View (BCGW). Open Government Licence - British Columbia. Not legal title.", "as_of": "2026-09-20", "role": "focus", "color": "#e8b040"}}, {"type": "Feature", "geometry": {"type": "Polygon", "coordinates": [[[-129.5164, 55.6798], [-129.5164, 55.6584], [-129.4846, 55.6584], [-129.4846, 55.6802], [-129.5008, 55.6802], [-129.4985, 55.6778], [-129.5113, 55.6739], [-129.5137, 55.6764], [-129.5103, 55.6775], [-129.512, 55.6792], [-129.5164, 55.6798]], [[-129.5035, 55.6754], [-129.4995, 55.6728], [-129.4966, 55.666], [-129.5037, 55.6651], [-129.5062, 55.6711], [-129.508, 55.6721], [-129.5071, 55.672], [-129.5064, 55.6738], [-129.5035, 55.6754]]]}, "properties": {"company_id": "silver-spruce-resources", "jurisdiction": "British Columbia", "claim_id": 384022, "claim_name": "EVINDSON 2", "holder": "DOLLY VARDEN SILVER CORP", "status": "Mineral", "recorded_date": "9819360000", "anniversary_or_expiry": "2034-10-21", "area_ha": 500, "tenure_type": "Mineral", "source": "BC MTA Mineral, Placer and Coal Tenure Spatial View (BCGW). Open Government Licence - British Columbia. Not legal title.", "as_of": "2026-09-20", "role": "focus", "color": "#e8b040"}}, {"type": "Feature", "geometry": {"type": "MultiPolygon", "coordinates": [[[[-129.5035, 55.6981], [-129.4893, 55.6981], [-129.4893, 55.7206], [-129.501, 55.7206], [-129.4981, 55.7198], [-129.5, 55.7176], [-129.4933, 55.7149], [-129.4978, 55.7117], [-129.5021, 55.7136], [-129.5061, 55.7142], [-129.5086, 55.7137], [-129.5075, 55.712], [-129.5094, 55.7116], [-129.5067, 55.7096], [-129.5063, 55.71], [-129.506, 55.7078], [-129.5053, 55.7075], [-129.502, 55.6995], [-129.5035, 55.6993], [-129.5035, 55.6981]]], [[[-129.5165, 55.7206], [-129.5154, 55.7184], [-129.5212, 55.7188], [-129.5068, 55.7177], [-129.5078, 55.7179], [-129.5055, 55.7206], [-129.5165, 55.7206]]], [[[-129.5211, 55.7044], [-129.5211, 55.6981], [-129.5192, 55.6981], [-129.521, 55.7017], [-129.5204, 55.7047], [-129.5211, 55.7044]]]]}, "properties": {"company_id": "silver-spruce-resources", "jurisdiction": "British Columbia", "claim_id": 383279, "claim_name": "TIGER 2", "holder": "DOLLY VARDEN SILVER CORP", "status": "Mineral", "recorded_date": "9771840000", "anniversary_or_expiry": "2034-10-21", "area_ha": 500, "tenure_type": "Mineral", "source": "BC MTA Mineral, Placer and Coal Tenure Spatial View (BCGW). Open Government Licence - British Columbia. Not legal title.", "as_of": "2026-09-20", "role": "focus", "color": "#e8b040"}}, {"type": "Feature", "geometry": {"type": "MultiPolygon", "coordinates": [[[[-129.5035, 55.6981], [-129.5027, 55.6981], [-129.4992, 55.6945], [-129.5034, 55.6927], [-129.4974, 55.6911], [-129.4974, 55.6931], [-129.4901, 55.693], [-129.4902, 55.6889], [-129.4975, 55.689], [-129.4975, 55.6906], [-129.4981, 55.6899], [-129.4958, 55.6863], [-129.5023, 55.6853], [-129.4956, 55.6858], [-129.4894, 55.6852], [-129.4906, 55.6812], [-129.4955, 55.6816], [-129.5007, 55.6813], [-129.5038, 55.6807], [-129.5037, 55.6802], [-129.4814, 55.6802], [-129.4814, 55.6981], [-129.5035, 55.6981]]], [[[-129.5211, 55.6853], [-129.512, 55.6834], [-129.5149, 55.6863], [-129.5143, 55.6864], [-129.5211, 55.6853]]], [[[-129.5211, 55.6974], [-129.519, 55.6981], [-129.5211, 55.6981], [-129.5211, 55.6974]]], [[[-129.5211, 55.6807], [-129.5206, 55.6806], [-129.5211, 55.6802], [-129.5176, 55.6802], [-129.5211, 55.6807]]]]}, "properties": {"company_id": "silver-spruce-resources", "jurisdiction": "British Columbia", "claim_id": 383281, "claim_name": "TIGER 4", "holder": "DOLLY VARDEN SILVER CORP", "status": "Mineral", "recorded_date": "9771840000", "anniversary_or_expiry": "2034-10-21", "area_ha": 500, "tenure_type": "Mineral", "source": "BC MTA Mineral, Placer and Coal Tenure Spatial View (BCGW). Open Government Licence - British Columbia. Not legal title.", "as_of": "2026-09-20", "role": "focus", "color": "#e8b040"}}, {"type": "Feature", "geometry": {"type": "Polygon", "coordinates": [[[-117.1839, 49.9901], [-117.1841, 49.9905], [-117.1839, 49.9901], [-117.1859, 49.989], [-117.1877, 49.99], [-117.1893, 49.9868], [-117.1881, 49.985], [-117.1817, 49.9868], [-117.1839, 49.9901]]]}, "properties": {"company_id": "silver-spruce-resources", "jurisdiction": "British Columbia", "claim_id": 387664, "claim_name": "IDAHO", "holder": "KLONDIKE SILVER CORP.", "status": "Mineral", "recorded_date": "9933408000", "anniversary_or_expiry": "2032-03-15", "area_ha": 25, "tenure_type": "Mineral", "source": "BC MTA Mineral, Placer and Coal Tenure Spatial View (BCGW). Open Government Licence - British Columbia. Not legal title.", "as_of": "2026-09-20", "role": "focus", "color": "#e8b040"}}, {"type": "Feature", "geometry": {"type": "Polygon", "coordinates": [[[-117.2013, 50.0019], [-117.1993, 49.9994], [-117.1956, 49.9992], [-117.197, 50.0013], [-117.1992, 50.0006], [-117.2002, 50.002], [-117.1982, 50.003], [-117.2013, 50.0019]]]}, "properties": {"company_id": "silver-spruce-resources", "jurisdiction": "British Columbia", "claim_id": 394719, "claim_name": "OGEMA", "holder": "KLONDIKE SILVER CORP.", "status": "Mineral", "recorded_date": "2002-07-07", "anniversary_or_expiry": "2031-07-31", "area_ha": 25, "tenure_type": "Mineral", "source": "BC MTA Mineral, Placer and Coal Tenure Spatial View (BCGW). Open Government Licence - British Columbia. Not legal title.", "as_of": "2026-09-20", "role": "focus", "color": "#e8b040"}}, {"type": "Feature", "geometry": {"type": "MultiPolygon", "coordinates": [[[[-117.191, 49.9894], [-117.1929, 49.9922], [-117.1963, 49.9928], [-117.198, 49.9905], [-117.1917, 49.9885], [-117.191, 49.9894]]], [[[-117.1906, 49.9931], [-117.1923, 49.9937], [-117.1926, 49.9926], [-117.1906, 49.9931]]]]}, "properties": {"company_id": "silver-spruce-resources", "jurisdiction": "British Columbia", "claim_id": 395031, "claim_name": "DEADMAN", "holder": "KLONDIKE SILVER CORP.", "status": "Mineral", "recorded_date": "2002-07-14", "anniversary_or_expiry": "2032-03-16", "area_ha": 25, "tenure_type": "Mineral", "source": "BC MTA Mineral, Placer and Coal Tenure Spatial View (BCGW). Open Government Licence - British Columbia. Not legal title.", "as_of": "2026-09-20", "role": "focus", "color": "#e8b040"}}, {"type": "Feature", "geometry": {"type": "Polygon", "coordinates": [[[-117.2, 50.0046], [-117.2005, 50.005], [-117.2026, 50.0046], [-117.2076, 50.0049], [-117.2068, 50.0039], [-117.2055, 50.0039], [-117.2038, 50.0011], [-117.1982, 50.0029], [-117.2, 50.0046]]]}, "properties": {"company_id": "silver-spruce-resources", "jurisdiction": "British Columbia", "claim_id": 395046, "claim_name": "OLD TOM MOORE", "holder": "KLONDIKE SILVER CORP.", "status": "Mineral", "recorded_date": "2002-07-21", "anniversary_or_expiry": "2031-07-31", "area_ha": 25, "tenure_type": "Mineral", "source": "BC MTA Mineral, Placer and Coal Tenure Spatial View (BCGW). Open Government Licence - British Columbia. Not legal title.", "as_of": "2026-09-20", "role": "focus", "color": "#e8b040"}}, {"type": "Feature", "geometry": {"type": "Polygon", "coordinates": [[[-122.7639, 50.8666], [-122.7639, 50.8624], [-122.7577, 50.8624], [-122.7577, 50.8707], [-122.7639, 50.8707], [-122.7639, 50.8666]]]}, "properties": {"company_id": "silver-spruce-resources", "jurisdiction": "British Columbia", "claim_id": 510647, "claim_name": "LEVON 5", "holder": "AVINO SILVER & GOLD MINES LTD.", "status": "Mineral", "recorded_date": "2005-04-12", "anniversary_or_expiry": "2033-12-01", "area_ha": 40.799, "tenure_type": "Mineral", "source": "BC MTA Mineral, Placer and Coal Tenure Spatial View (BCGW). Open Government Licence - British Columbia. Not legal title.", "as_of": "2026-09-20", "role": "focus", "color": "#e8b040"}}, {"type": "Feature", "geometry": {"type": "Polygon", "coordinates": [[[-122.7452, 50.8916], [-122.7514, 50.8916], [-122.7514, 50.8874], [-122.7452, 50.8874], [-122.7452, 50.8832], [-122.7389, 50.8832], [-122.7389, 50.8874], [-122.7327, 50.8874], [-122.7327, 50.8916], [-122.7452, 50.8916]]]}, "properties": {"company_id": "silver-spruce-resources", "jurisdiction": "British Columbia", "claim_id": 510885, "claim_name": null, "holder": "AVINO SILVER & GOLD MINES LTD.", "status": "Mineral", "recorded_date": "2005-04-18", "anniversary_or_expiry": "2033-12-01", "area_ha": 81.557, "tenure_type": "Mineral", "source": "BC MTA Mineral, Placer and Coal Tenure Spatial View (BCGW). Open Government Licence - British Columbia. Not legal title.", "as_of": "2026-09-20", "role": "focus", "color": "#e8b040"}}, {"type": "Feature", "geometry": {"type": "Polygon", "coordinates": [[[-122.7577, 50.8999], [-122.7577, 50.8916], [-122.7327, 50.8916], [-122.7327, 50.8957], [-122.7264, 50.8957], [-122.7264, 50.9041], [-122.7327, 50.9041], [-122.7327, 50.9082], [-122.7514, 50.9082], [-122.7514, 50.9041], [-122.7577, 50.9041], [-122.7577, 50.8999]]]}, "properties": {"company_id": "silver-spruce-resources", "jurisdiction": "British Columbia", "claim_id": 510886, "claim_name": null, "holder": "AVINO SILVER & GOLD MINES LTD.", "status": "Mineral", "recorded_date": "2005-04-18", "anniversary_or_expiry": "2033-12-01", "area_ha": 346.53900000000004, "tenure_type": "Mineral", "source": "BC MTA Mineral, Placer and Coal Tenure Spatial View (BCGW). Open Government Licence - British Columbia. Not legal title.", "as_of": "2026-09-20", "role": "focus", "color": "#e8b040"}}, {"type": "Feature", "geometry": {"type": "Polygon", "coordinates": [[[-130.233, 59.9789], [-130.233, 59.9748], [-130.1517, 59.9748], [-130.1517, 59.9998], [-130.233, 59.9998], [-130.233, 59.9789]]]}, "properties": {"company_id": "silver-spruce-resources", "jurisdiction": "British Columbia", "claim_id": 509654, "claim_name": null, "holder": "COEUR SILVERTIP HOLDINGS LTD.", "status": "Mineral", "recorded_date": "2005-03-24", "anniversary_or_expiry": "2027-10-15", "area_ha": 1263.252, "tenure_type": "Mineral", "source": "BC MTA Mineral, Placer and Coal Tenure Spatial View (BCGW). Open Government Licence - British Columbia. Not legal title.", "as_of": "2026-09-20", "role": "focus", "color": "#e8b040"}}, {"type": "Feature", "geometry": {"type": "Polygon", "coordinates": [[[-130.3017, 59.9789], [-130.3017, 59.9748], [-130.233, 59.9748], [-130.233, 59.9998], [-130.3017, 59.9998], [-130.3017, 59.9789]]]}, "properties": {"company_id": "silver-spruce-resources", "jurisdiction": "British Columbia", "claim_id": 509655, "claim_name": null, "holder": "COEUR SILVERTIP HOLDINGS LTD.", "status": "Mineral", "recorded_date": "2005-03-24", "anniversary_or_expiry": "2027-10-15", "area_ha": 1068.893, "tenure_type": "Mineral", "source": "BC MTA Mineral, Placer and Coal Tenure Spatial View (BCGW). Open Government Licence - British Columbia. Not legal title.", "as_of": "2026-09-20", "role": "focus", "color": "#e8b040"}}, {"type": "Feature", "geometry": {"type": "Polygon", "coordinates": [[[-130.233, 59.9539], [-130.233, 59.9498], [-130.1517, 59.9498], [-130.1517, 59.9748], [-130.233, 59.9748], [-130.233, 59.9539]]]}, "properties": {"company_id": "silver-spruce-resources", "jurisdiction": "British Columbia", "claim_id": 509657, "claim_name": null, "holder": "COEUR SILVERTIP HOLDINGS LTD.", "status": "Mineral", "recorded_date": "2005-03-24", "anniversary_or_expiry": "2027-10-15", "area_ha": 1264.2140000000002, "tenure_type": "Mineral", "source": "BC MTA Mineral, Placer and Coal Tenure Spatial View (BCGW). Open Government Licence - British Columbia. Not legal title.", "as_of": "2026-09-20", "role": "focus", "color": "#e8b040"}}, {"type": "Feature", "geometry": {"type": "Polygon", "coordinates": [[[-130.3017, 59.9539], [-130.2955, 59.9539], [-130.2955, 59.9498], [-130.233, 59.9498], [-130.233, 59.9748], [-130.3017, 59.9748], [-130.3017, 59.9539]]]}, "properties": {"company_id": "silver-spruce-resources", "jurisdiction": "British Columbia", "claim_id": 509808, "claim_name": null, "holder": "COEUR SILVERTIP HOLDINGS LTD.", "status": "Mineral", "recorded_date": "2005-03-30", "anniversary_or_expiry": "2027-10-15", "area_ha": 1053.5040000000001, "tenure_type": "Mineral", "source": "BC MTA Mineral, Placer and Coal Tenure Spatial View (BCGW). Open Government Licence - British Columbia. Not legal title.", "as_of": "2026-09-20", "role": "focus", "color": "#e8b040"}}, {"type": "Feature", "geometry": {"type": "Polygon", "coordinates": [[[-130.2892, 59.9331], [-130.2892, 59.9289], [-130.1892, 59.9289], [-130.1892, 59.9498], [-130.2892, 59.9498], [-130.2892, 59.9331]]]}, "properties": {"company_id": "silver-spruce-resources", "jurisdiction": "British Columbia", "claim_id": 509809, "claim_name": null, "holder": "COEUR SILVERTIP HOLDINGS LTD.", "status": "Mineral", "recorded_date": "2005-03-30", "anniversary_or_expiry": "2027-10-15", "area_ha": 1297.5410000000002, "tenure_type": "Mineral", "source": "BC MTA Mineral, Placer and Coal Tenure Spatial View (BCGW). Open Government Licence - British Columbia. Not legal title.", "as_of": "2026-09-20", "role": "focus", "color": "#e8b040"}}, {"type": "Feature", "geometry": {"type": "Polygon", "coordinates": [[[-130.3642, 59.9706], [-130.3642, 59.9664], [-130.358, 59.9664], [-130.358, 59.9539], [-130.3017, 59.9539], [-130.3017, 59.9748], [-130.3642, 59.9748], [-130.3642, 59.9706]]]}, "properties": {"company_id": "silver-spruce-resources", "jurisdiction": "British Columbia", "claim_id": 509810, "claim_name": null, "holder": "COEUR SILVERTIP HOLDINGS LTD.", "status": "Mineral", "recorded_date": "2005-03-30", "anniversary_or_expiry": "2027-10-15", "area_ha": 761.6940000000001, "tenure_type": "Mineral", "source": "BC MTA Mineral, Placer and Coal Tenure Spatial View (BCGW). Open Government Licence - British Columbia. Not legal title.", "as_of": "2026-09-20", "role": "focus", "color": "#e8b040"}}, {"type": "Feature", "geometry": {"type": "Polygon", "coordinates": [[[-130.3142, 59.8081], [-130.3142, 59.8039], [-130.2642, 59.8039], [-130.2642, 59.8414], [-130.3142, 59.8414], [-130.3142, 59.8081]]]}, "properties": {"company_id": "silver-spruce-resources", "jurisdiction": "British Columbia", "claim_id": 509812, "claim_name": null, "holder": "COEUR SILVERTIP HOLDINGS LTD.", "status": "Mineral", "recorded_date": "2005-03-30", "anniversary_or_expiry": "2027-10-15", "area_ha": 1171.8790000000001, "tenure_type": "Mineral", "source": "BC MTA Mineral, Placer and Coal Tenure Spatial View (BCGW). Open Government Licence - British Columbia. Not legal title.", "as_of": "2026-09-20", "role": "focus", "color": "#e8b040"}}, {"type": "Feature", "geometry": {"type": "Polygon", "coordinates": [[[-122.7577, 50.8874], [-122.7577, 50.8749], [-122.7264, 50.8749], [-122.7264, 50.8791], [-122.7389, 50.8791], [-122.7389, 50.8832], [-122.7452, 50.8832], [-122.7452, 50.8874], [-122.7514, 50.8874], [-122.7514, 50.8916], [-122.7577, 50.8916], [-122.7577, 50.8874]]]}, "properties": {"company_id": "silver-spruce-resources", "jurisdiction": "British Columbia", "claim_id": 509832, "claim_name": null, "holder": "AVINO SILVER & GOLD MINES LTD.", "status": "Mineral", "recorded_date": "2005-03-30", "anniversary_or_expiry": "2033-12-01", "area_ha": 224.318, "tenure_type": "Mineral", "source": "BC MTA Mineral, Placer and Coal Tenure Spatial View (BCGW). Open Government Licence - British Columbia. Not legal title.", "as_of": "2026-09-20", "role": "focus", "color": "#e8b040"}}, {"type": "Feature", "geometry": {"type": "Polygon", "coordinates": [[[-130.4205, 59.8414], [-130.4205, 59.8373], [-130.4017, 59.8373], [-130.4017, 59.8248], [-130.3517, 59.8248], [-130.3517, 59.8581], [-130.4017, 59.8581], [-130.4017, 59.8456], [-130.4205, 59.8456], [-130.4205, 59.8414]]]}, "properties": {"company_id": "silver-spruce-resources", "jurisdiction": "British Columbia", "claim_id": 509840, "claim_name": null, "holder": "COEUR SILVERTIP HOLDINGS LTD.", "status": "Mineral", "recorded_date": "2005-03-30", "anniversary_or_expiry": "2027-10-15", "area_ha": 1138.671, "tenure_type": "Mineral", "source": "BC MTA Mineral, Placer and Coal Tenure Spatial View (BCGW). Open Government Licence - British Columbia. Not legal title.", "as_of": "2026-09-20", "role": "focus", "color": "#e8b040"}}, {"type": "Feature", "geometry": {"type": "Polygon", "coordinates": [[[-130.3142, 59.8456], [-130.3142, 59.8414], [-130.2642, 59.8414], [-130.2642, 59.8789], [-130.3142, 59.8789], [-130.3142, 59.8456]]]}, "properties": {"company_id": "silver-spruce-resources", "jurisdiction": "British Columbia", "claim_id": 509841, "claim_name": null, "holder": "COEUR SILVERTIP HOLDINGS LTD.", "status": "Mineral", "recorded_date": "2005-03-30", "anniversary_or_expiry": "2027-10-15", "area_ha": 1170.563, "tenure_type": "Mineral", "source": "BC MTA Mineral, Placer and Coal Tenure Spatial View (BCGW). Open Government Licence - British Columbia. Not legal title.", "as_of": "2026-09-20", "role": "focus", "color": "#e8b040"}}, {"type": "Feature", "geometry": {"type": "Polygon", "coordinates": [[[-130.358, 59.8164], [-130.358, 59.8123], [-130.3142, 59.8123], [-130.3142, 59.8623], [-130.3517, 59.8623], [-130.3517, 59.8248], [-130.358, 59.8248], [-130.358, 59.8164]]]}, "properties": {"company_id": "silver-spruce-resources", "jurisdiction": "British Columbia", "claim_id": 509843, "claim_name": null, "holder": "COEUR SILVERTIP HOLDINGS LTD.", "status": "Mineral", "recorded_date": "2005-03-30", "anniversary_or_expiry": "2027-10-15", "area_ha": 1220.191, "tenure_type": "Mineral", "source": "BC MTA Mineral, Placer and Coal Tenure Spatial View (BCGW). Open Government Licence - British Columbia. Not legal title.", "as_of": "2026-09-20", "role": "focus", "color": "#e8b040"}}, {"type": "Feature", "geometry": {"type": "Polygon", "coordinates": [[[-130.4017, 59.8789], [-130.4017, 59.8748], [-130.3517, 59.8748], [-130.3517, 59.9081], [-130.3642, 59.9081], [-130.3642, 59.9123], [-130.3705, 59.9123], [-130.3705, 59.9206], [-130.4017, 59.9206], [-130.4017, 59.8789]]]}, "properties": {"company_id": "silver-spruce-resources", "jurisdiction": "British Columbia", "claim_id": 509865, "claim_name": null, "holder": "COEUR SILVERTIP HOLDINGS LTD.", "status": "Mineral", "recorded_date": "2005-03-30", "anniversary_or_expiry": "2027-10-15", "area_ha": 1299.2820000000002, "tenure_type": "Mineral", "source": "BC MTA Mineral, Placer and Coal Tenure Spatial View (BCGW). Open Government Licence - British Columbia. Not legal title.", "as_of": "2026-09-20", "role": "focus", "color": "#e8b040"}}, {"type": "Feature", "geometry": {"type": "Polygon", "coordinates": [[[-130.1955, 59.9123], [-130.1955, 59.9081], [-130.1142, 59.9081], [-130.1142, 59.9331], [-130.1892, 59.9331], [-130.1892, 59.9289], [-130.1955, 59.9289], [-130.1955, 59.9123]]]}, "properties": {"company_id": "silver-spruce-resources", "jurisdiction": "British Columbia", "claim_id": 509868, "claim_name": null, "holder": "COEUR SILVERTIP HOLDINGS LTD.", "status": "Mineral", "recorded_date": "2005-03-30", "anniversary_or_expiry": "2027-10-15", "area_ha": 1249.576, "tenure_type": "Mineral", "source": "BC MTA Mineral, Placer and Coal Tenure Spatial View (BCGW). Open Government Licence - British Columbia. Not legal title.", "as_of": "2026-09-20", "role": "focus", "color": "#e8b040"}}, {"type": "Feature", "geometry": {"type": "Polygon", "coordinates": [[[-130.2955, 59.9248], [-130.2955, 59.9206], [-130.2705, 59.9206], [-130.2705, 59.8789], [-130.2642, 59.8789], [-130.2642, 59.8706], [-130.2392, 59.8706], [-130.2392, 59.9081], [-130.2455, 59.9081], [-130.2455, 59.9289], [-130.2955, 59.9289], [-130.2955, 59.9248]]]}, "properties": {"company_id": "silver-spruce-resources", "jurisdiction": "British Columbia", "claim_id": 509876, "claim_name": null, "holder": "COEUR SILVERTIP HOLDINGS LTD.", "status": "Mineral", "recorded_date": "2005-03-30", "anniversary_or_expiry": "2027-10-15", "area_ha": 1152.875, "tenure_type": "Mineral", "source": "BC MTA Mineral, Placer and Coal Tenure Spatial View (BCGW). Open Government Licence - British Columbia. Not legal title.", "as_of": "2026-09-20", "role": "focus", "color": "#e8b040"}}, {"type": "Feature", "geometry": {"type": "Polygon", "coordinates": [[[-130.4017, 59.8581], [-130.3517, 59.8581], [-130.3517, 59.8623], [-130.3142, 59.8623], [-130.3142, 59.8789], [-130.3517, 59.8789], [-130.3517, 59.8748], [-130.4017, 59.8748], [-130.4017, 59.8581]]]}, "properties": {"company_id": "silver-spruce-resources", "jurisdiction": "British Columbia", "claim_id": 509883, "claim_name": null, "holder": "COEUR SILVERTIP HOLDINGS LTD.", "status": "Mineral", "recorded_date": "2005-03-30", "anniversary_or_expiry": "2027-10-15", "area_ha": 910.231, "tenure_type": "Mineral", "source": "BC MTA Mineral, Placer and Coal Tenure Spatial View (BCGW). Open Government Licence - British Columbia. Not legal title.", "as_of": "2026-09-20", "role": "focus", "color": "#e8b040"}}, {"type": "Feature", "geometry": {"type": "Polygon", "coordinates": [[[-130.4017, 59.9456], [-130.4017, 59.9414], [-130.3892, 59.9414], [-130.3892, 59.9498], [-130.358, 59.9498], [-130.358, 59.9664], [-130.4017, 59.9664], [-130.4017, 59.9456]]]}, "properties": {"company_id": "silver-spruce-resources", "jurisdiction": "British Columbia", "claim_id": 509885, "claim_name": null, "holder": "COEUR SILVERTIP HOLDINGS LTD.", "status": "Mineral", "recorded_date": "2005-03-30", "anniversary_or_expiry": "2027-10-15", "area_ha": 518.7180000000001, "tenure_type": "Mineral", "source": "BC MTA Mineral, Placer and Coal Tenure Spatial View (BCGW). Open Government Licence - British Columbia. Not legal title.", "as_of": "2026-09-20", "role": "focus", "color": "#e8b040"}}, {"type": "Feature", "geometry": {"type": "Polygon", "coordinates": [[[-122.7639, 50.8957], [-122.7702, 50.8957], [-122.7702, 50.8916], [-122.7639, 50.8916], [-122.7639, 50.8791], [-122.7577, 50.8791], [-122.7577, 50.8957], [-122.7639, 50.8957]]]}, "properties": {"company_id": "silver-spruce-resources", "jurisdiction": "British Columbia", "claim_id": 510228, "claim_name": "LEVON 3", "holder": "AVINO SILVER & GOLD MINES LTD.", "status": "Mineral", "recorded_date": "2005-04-05", "anniversary_or_expiry": "2033-12-01", "area_ha": 101.946, "tenure_type": "Mineral", "source": "BC MTA Mineral, Placer and Coal Tenure Spatial View (BCGW). Open Government Licence - British Columbia. Not legal title.", "as_of": "2026-09-20", "role": "focus", "color": "#e8b040"}}, {"type": "Feature", "geometry": {"type": "Polygon", "coordinates": [[[-122.7577, 50.8707], [-122.7577, 50.8624], [-122.7514, 50.8624], [-122.7514, 50.8749], [-122.7577, 50.8749], [-122.7577, 50.8707]]]}, "properties": {"company_id": "silver-spruce-resources", "jurisdiction": "British Columbia", "claim_id": 510229, "claim_name": "LEVON 4", "holder": "AVINO SILVER & GOLD MINES LTD.", "status": "Mineral", "recorded_date": "2005-04-05", "anniversary_or_expiry": "2033-12-01", "area_ha": 61.195, "tenure_type": "Mineral", "source": "BC MTA Mineral, Placer and Coal Tenure Spatial View (BCGW). Open Government Licence - British Columbia. Not legal title.", "as_of": "2026-09-20", "role": "focus", "color": "#e8b040"}}, {"type": "Feature", "geometry": {"type": "Polygon", "coordinates": [[[-126.8953, 50.1165], [-126.8828, 50.1165], [-126.8828, 50.1206], [-126.9015, 50.1206], [-126.9015, 50.1165], [-126.8953, 50.1165]]]}, "properties": {"company_id": "silver-spruce-resources", "jurisdiction": "British Columbia", "claim_id": 524846, "claim_name": null, "holder": "NORTH AMERICAN GOLD & SILVER MINING LTD.", "status": "Mineral", "recorded_date": "2006-01-06", "anniversary_or_expiry": "2027-07-04", "area_ha": 62.154500000000006, "tenure_type": "Mineral", "source": "BC MTA Mineral, Placer and Coal Tenure Spatial View (BCGW). Open Government Licence - British Columbia. Not legal title.", "as_of": "2026-09-20", "role": "focus", "color": "#e8b040"}}, {"type": "Feature", "geometry": {"type": "Polygon", "coordinates": [[[-129.408, 55.6623], [-129.408, 55.6581], [-129.3642, 55.6581], [-129.3642, 55.6623], [-129.3705, 55.6623], [-129.3705, 55.6664], [-129.383, 55.6664], [-129.383, 55.6789], [-129.408, 55.6789], [-129.408, 55.6623]]]}, "properties": {"company_id": "silver-spruce-resources", "jurisdiction": "British Columbia", "claim_id": 526114, "claim_name": "BIG BULK 1", "holder": "DOLLY VARDEN SILVER CORP", "status": "Mineral", "recorded_date": "2006-01-24", "anniversary_or_expiry": "2027-05-03", "area_ha": 456.161, "tenure_type": "Mineral", "source": "BC MTA Mineral, Placer and Coal Tenure Spatial View (BCGW). Open Government Licence - British Columbia. Not legal title.", "as_of": "2026-09-20", "role": "focus", "color": "#e8b040"}}, {"type": "Feature", "geometry": {"type": "Polygon", "coordinates": [[[-129.4892, 55.6623], [-129.4892, 55.6581], [-129.483, 55.6581], [-129.483, 55.6789], [-129.4767, 55.6789], [-129.4767, 55.6998], [-129.4892, 55.6998], [-129.4892, 55.6956], [-129.483, 55.6956], [-129.483, 55.6873], [-129.483, 55.6831], [-129.4892, 55.6831], [-129.4892, 55.6623]]]}, "properties": {"company_id": "silver-spruce-resources", "jurisdiction": "British Columbia", "claim_id": 523825, "claim_name": "DOLLY 2", "holder": "DOLLY VARDEN SILVER CORP", "status": "Mineral", "recorded_date": "2005-12-12", "anniversary_or_expiry": "2034-10-21", "area_ha": 218.88400000000001, "tenure_type": "Mineral", "source": "BC MTA Mineral, Placer and Coal Tenure Spatial View (BCGW). Open Government Licence - British Columbia. Not legal title.", "as_of": "2026-09-20", "role": "focus", "color": "#e8b040"}}, {"type": "Feature", "geometry": {"type": "Polygon", "coordinates": [[[-129.4267, 55.6373], [-129.4267, 55.6331], [-129.408, 55.6331], [-129.408, 55.6414], [-129.4017, 55.6414], [-129.4017, 55.6498], [-129.4142, 55.6498], [-129.4142, 55.6456], [-129.4267, 55.6456], [-129.4267, 55.6414], [-129.433, 55.6414], [-129.433, 55.6373], [-129.4267, 55.6373]]]}, "properties": {"company_id": "silver-spruce-resources", "jurisdiction": "British Columbia", "claim_id": 523826, "claim_name": "DOLLY 3", "holder": "DOLLY VARDEN SILVER CORP", "status": "Mineral", "recorded_date": "2005-12-12", "anniversary_or_expiry": "2027-05-03", "area_ha": 237.364, "tenure_type": "Mineral", "source": "BC MTA Mineral, Placer and Coal Tenure Spatial View (BCGW). Open Government Licence - British Columbia. Not legal title.", "as_of": "2026-09-20", "role": "focus", "color": "#e8b040"}}, {"type": "Feature", "geometry": {"type": "Polygon", "coordinates": [[[-129.3455, 55.6998], [-129.3455, 55.7039], [-129.3517, 55.7039], [-129.3517, 55.6998], [-129.3455, 55.6998]]]}, "properties": {"company_id": "silver-spruce-resources", "jurisdiction": "British Columbia", "claim_id": 523830, "claim_name": "DOLLY 7", "holder": "DOLLY VARDEN SILVER CORP", "status": "Mineral", "recorded_date": "2005-12-12", "anniversary_or_expiry": "2027-05-03", "area_ha": 18.23, "tenure_type": "Mineral", "source": "BC MTA Mineral, Placer and Coal Tenure Spatial View (BCGW). Open Government Licence - British Columbia. Not legal title.", "as_of": "2026-09-20", "role": "focus", "color": "#e8b040"}}, {"type": "Feature", "geometry": {"type": "Polygon", "coordinates": [[[-130.2455, 59.9123], [-130.2455, 59.9081], [-130.1955, 59.9081], [-130.1955, 59.9289], [-130.2455, 59.9289], [-130.2455, 59.9123]]]}, "properties": {"company_id": "silver-spruce-resources", "jurisdiction": "British Columbia", "claim_id": 509875, "claim_name": null, "holder": "COEUR SILVERTIP HOLDINGS LTD.", "status": "Mineral", "recorded_date": "2005-03-30", "anniversary_or_expiry": "2027-10-15", "area_ha": 649.177, "tenure_type": "Mineral", "source": "BC MTA Mineral, Placer and Coal Tenure Spatial View (BCGW). Open Government Licence - British Columbia. Not legal title.", "as_of": "2026-09-20", "role": "focus", "color": "#e8b040"}}, {"type": "Feature", "geometry": {"type": "Polygon", "coordinates": [[[-122.7389, 50.8832], [-122.7389, 50.8791], [-122.7264, 50.8791], [-122.7264, 50.8749], [-122.7139, 50.8749], [-122.7139, 50.8791], [-122.7076, 50.8791], [-122.7077, 50.8874], [-122.7139, 50.8874], [-122.7139, 50.8957], [-122.7202, 50.8957], [-122.7202, 50.8999], [-122.7264, 50.8999], [-122.7264, 50.8957], [-122.7327, 50.8957], [-122.7327, 50.8874], [-122.7389, 50.8874], [-122.7389, 50.8832]]]}, "properties": {"company_id": "silver-spruce-resources", "jurisdiction": "British Columbia", "claim_id": 510884, "claim_name": null, "holder": "AVINO SILVER & GOLD MINES LTD.", "status": "Mineral", "recorded_date": "2005-04-18", "anniversary_or_expiry": "2033-12-01", "area_ha": 387.41400000000004, "tenure_type": "Mineral", "source": "BC MTA Mineral, Placer and Coal Tenure Spatial View (BCGW). Open Government Licence - British Columbia. Not legal title.", "as_of": "2026-09-20", "role": "focus", "color": "#e8b040"}}, {"type": "Feature", "geometry": {"type": "Polygon", "coordinates": [[[-129.5517, 55.7123], [-129.5455, 55.7123], [-129.5455, 55.7081], [-129.533, 55.7081], [-129.533, 55.7164], [-129.5392, 55.7164], [-129.5392, 55.7206], [-129.5517, 55.7206], [-129.5517, 55.7123]]]}, "properties": {"company_id": "silver-spruce-resources", "jurisdiction": "British Columbia", "claim_id": 538780, "claim_name": "DOLLY CROWN 3", "holder": "DOLLY VARDEN SILVER CORP", "status": "Mineral", "recorded_date": "2006-08-05", "anniversary_or_expiry": "2034-10-21", "area_ha": 127.57400000000001, "tenure_type": "Mineral", "source": "BC MTA Mineral, Placer and Coal Tenure Spatial View (BCGW). Open Government Licence - British Columbia. Not legal title.", "as_of": "2026-09-20", "role": "focus", "color": "#e8b040"}}, {"type": "Feature", "geometry": {"type": "Polygon", "coordinates": [[[-129.533, 55.7164], [-129.533, 55.7123], [-129.5267, 55.7123], [-129.5267, 55.7164], [-129.5142, 55.7164], [-129.5142, 55.7206], [-129.5017, 55.7206], [-129.5017, 55.7248], [-129.533, 55.7248], [-129.533, 55.7164]]]}, "properties": {"company_id": "silver-spruce-resources", "jurisdiction": "British Columbia", "claim_id": 538781, "claim_name": "DOLLY CROWN 4", "holder": "DOLLY VARDEN SILVER CORP", "status": "Mineral", "recorded_date": "2006-08-05", "anniversary_or_expiry": "2034-10-21", "area_ha": 163.99800000000002, "tenure_type": "Mineral", "source": "BC MTA Mineral, Placer and Coal Tenure Spatial View (BCGW). Open Government Licence - British Columbia. Not legal title.", "as_of": "2026-09-20", "role": "focus", "color": "#e8b040"}}, {"type": "Feature", "geometry": {"type": "Polygon", "coordinates": [[[-129.4955, 55.7164], [-129.4955, 55.7206], [-129.5017, 55.7206], [-129.5017, 55.7164], [-129.4955, 55.7164]]]}, "properties": {"company_id": "silver-spruce-resources", "jurisdiction": "British Columbia", "claim_id": 538782, "claim_name": "DOLLY CROWN 5", "holder": "DOLLY VARDEN SILVER CORP", "status": "Mineral", "recorded_date": "2006-08-05", "anniversary_or_expiry": "2034-10-21", "area_ha": 18.223000000000003, "tenure_type": "Mineral", "source": "BC MTA Mineral, Placer and Coal Tenure Spatial View (BCGW). Open Government Licence - British Columbia. Not legal title.", "as_of": "2026-09-20", "role": "focus", "color": "#e8b040"}}, {"type": "Feature", "geometry": {"type": "Polygon", "coordinates": [[[-129.5455, 55.6998], [-129.5455, 55.6956], [-129.5392, 55.6956], [-129.5392, 55.6914], [-129.533, 55.6914], [-129.533, 55.7039], [-129.5455, 55.7039], [-129.5455, 55.6998]]]}, "properties": {"company_id": "silver-spruce-resources", "jurisdiction": "British Columbia", "claim_id": 538783, "claim_name": "DOLLY CROWN 6", "holder": "DOLLY VARDEN SILVER CORP", "status": "Mineral", "recorded_date": "2006-08-05", "anniversary_or_expiry": "2034-10-21", "area_ha": 91.161, "tenure_type": "Mineral", "source": "BC MTA Mineral, Placer and Coal Tenure Spatial View (BCGW). Open Government Licence - British Columbia. Not legal title.", "as_of": "2026-09-20", "role": "focus", "color": "#e8b040"}}, {"type": "Feature", "geometry": {"type": "Polygon", "coordinates": [[[-129.5267, 55.7039], [-129.5205, 55.7039], [-129.5205, 55.6998], [-129.508, 55.6998], [-129.508, 55.7039], [-129.5017, 55.7039], [-129.5017, 55.7123], [-129.5267, 55.7123], [-129.5267, 55.7039]]]}, "properties": {"company_id": "silver-spruce-resources", "jurisdiction": "British Columbia", "claim_id": 538784, "claim_name": "DOLLY CROWN 7", "holder": "DOLLY VARDEN SILVER CORP", "status": "Mineral", "recorded_date": "2006-08-05", "anniversary_or_expiry": "2034-10-21", "area_ha": 182.28300000000002, "tenure_type": "Mineral", "source": "BC MTA Mineral, Placer and Coal Tenure Spatial View (BCGW). Open Government Licence - British Columbia. Not legal title.", "as_of": "2026-09-20", "role": "focus", "color": "#e8b040"}}, {"type": "Feature", "geometry": {"type": "Polygon", "coordinates": [[[-129.533, 55.6873], [-129.508, 55.6873], [-129.508, 55.6831], [-129.5017, 55.6831], [-129.5017, 55.6789], [-129.4892, 55.6789], [-129.4892, 55.6956], [-129.5017, 55.6956], [-129.5017, 55.6998], [-129.5267, 55.6998], [-129.5267, 55.6956], [-129.533, 55.6956], [-129.533, 55.6914], [-129.5392, 55.6914], [-129.5392, 55.6873], [-129.533, 55.6873]]]}, "properties": {"company_id": "silver-spruce-resources", "jurisdiction": "British Columbia", "claim_id": 538785, "claim_name": "DOLLY CROWN 8", "holder": "DOLLY VARDEN SILVER CORP", "status": "Mineral", "recorded_date": "2006-08-05", "anniversary_or_expiry": "2034-10-21", "area_ha": 437.658, "tenure_type": "Mineral", "source": "BC MTA Mineral, Placer and Coal Tenure Spatial View (BCGW). Open Government Licence - British Columbia. Not legal title.", "as_of": "2026-09-20", "role": "focus", "color": "#e8b040"}}, {"type": "Feature", "geometry": {"type": "Polygon", "coordinates": [[[-129.5142, 55.6748], [-129.5142, 55.6706], [-129.508, 55.6706], [-129.508, 55.6748], [-129.4955, 55.6748], [-129.4955, 55.6789], [-129.5142, 55.6789], [-129.5142, 55.6748]]]}, "properties": {"company_id": "silver-spruce-resources", "jurisdiction": "British Columbia", "claim_id": 538786, "claim_name": "DOLLY CROWN 9", "holder": "DOLLY VARDEN SILVER CORP", "status": "Mineral", "recorded_date": "2006-08-05", "anniversary_or_expiry": "2034-10-21", "area_ha": 72.971, "tenure_type": "Mineral", "source": "BC MTA Mineral, Placer and Coal Tenure Spatial View (BCGW). Open Government Licence - British Columbia. Not legal title.", "as_of": "2026-09-20", "role": "focus", "color": "#e8b040"}}, {"type": "Feature", "geometry": {"type": "Polygon", "coordinates": [[[-129.5267, 55.6706], [-129.5267, 55.6664], [-129.5142, 55.6664], [-129.5142, 55.6789], [-129.5267, 55.6789], [-129.5267, 55.6748], [-129.533, 55.6748], [-129.533, 55.6706], [-129.5267, 55.6706]]]}, "properties": {"company_id": "silver-spruce-resources", "jurisdiction": "British Columbia", "claim_id": 538787, "claim_name": "DOLLY CROWN 10", "holder": "DOLLY VARDEN SILVER CORP", "status": "Mineral", "recorded_date": "2006-08-05", "anniversary_or_expiry": "2034-10-21", "area_ha": 127.709, "tenure_type": "Mineral", "source": "BC MTA Mineral, Placer and Coal Tenure Spatial View (BCGW). Open Government Licence - British Columbia. Not legal title.", "as_of": "2026-09-20", "role": "focus", "color": "#e8b040"}}, {"type": "Feature", "geometry": {"type": "Polygon", "coordinates": [[[-129.508, 55.6664], [-129.508, 55.6623], [-129.4955, 55.6623], [-129.4955, 55.6748], [-129.508, 55.6748], [-129.508, 55.6664]]]}, "properties": {"company_id": "silver-spruce-resources", "jurisdiction": "British Columbia", "claim_id": 538788, "claim_name": "DOLLY CROWN 11", "holder": "DOLLY VARDEN SILVER CORP", "status": "Mineral", "recorded_date": "2006-08-05", "anniversary_or_expiry": "2034-10-21", "area_ha": 109.477, "tenure_type": "Mineral", "source": "BC MTA Mineral, Placer and Coal Tenure Spatial View (BCGW). Open Government Licence - British Columbia. Not legal title.", "as_of": "2026-09-20", "role": "focus", "color": "#e8b040"}}, {"type": "Feature", "geometry": {"type": "Polygon", "coordinates": [[[-129.4955, 55.7206], [-129.4892, 55.7206], [-129.4892, 55.7248], [-129.5017, 55.7248], [-129.5017, 55.7206], [-129.4955, 55.7206]]]}, "properties": {"company_id": "silver-spruce-resources", "jurisdiction": "British Columbia", "claim_id": 538804, "claim_name": "DOLLY CROWN 15", "holder": "DOLLY VARDEN SILVER CORP", "status": "Mineral", "recorded_date": "2006-08-06", "anniversary_or_expiry": "2034-10-21", "area_ha": 36.442, "tenure_type": "Mineral", "source": "BC MTA Mineral, Placer and Coal Tenure Spatial View (BCGW). Open Government Licence - British Columbia. Not legal title.", "as_of": "2026-09-20", "role": "focus", "color": "#e8b040"}}, {"type": "Feature", "geometry": {"type": "Polygon", "coordinates": [[[-129.4955, 55.6956], [-129.4955, 55.6998], [-129.5017, 55.6998], [-129.5017, 55.6956], [-129.4955, 55.6956]]]}, "properties": {"company_id": "silver-spruce-resources", "jurisdiction": "British Columbia", "claim_id": 538805, "claim_name": "DOLLY CROWN 16", "holder": "DOLLY VARDEN SILVER CORP", "status": "Mineral", "recorded_date": "2006-08-06", "anniversary_or_expiry": "2034-10-21", "area_ha": 18.232, "tenure_type": "Mineral", "source": "BC MTA Mineral, Placer and Coal Tenure Spatial View (BCGW). Open Government Licence - British Columbia. Not legal title.", "as_of": "2026-09-20", "role": "focus", "color": "#e8b040"}}, {"type": "Feature", "geometry": {"type": "Polygon", "coordinates": [[[-129.5392, 55.6581], [-129.4892, 55.6581], [-129.4892, 55.6623], [-129.5455, 55.6623], [-129.5455, 55.6581], [-129.5392, 55.6581]]]}, "properties": {"company_id": "silver-spruce-resources", "jurisdiction": "British Columbia", "claim_id": 538806, "claim_name": "DOLLY CROWN 17", "holder": "DOLLY VARDEN SILVER CORP", "status": "Mineral", "recorded_date": "2006-08-06", "anniversary_or_expiry": "2034-10-21", "area_ha": 164.25, "tenure_type": "Mineral", "source": "BC MTA Mineral, Placer and Coal Tenure Spatial View (BCGW). Open Government Licence - British Columbia. Not legal title.", "as_of": "2026-09-20", "role": "focus", "color": "#e8b040"}}, {"type": "Feature", "geometry": {"type": "Polygon", "coordinates": [[[-129.5455, 55.7081], [-129.5455, 55.7123], [-129.5517, 55.7123], [-129.5517, 55.7081], [-129.5455, 55.7081]]]}, "properties": {"company_id": "silver-spruce-resources", "jurisdiction": "British Columbia", "claim_id": 538899, "claim_name": "DOLLY CROWN 19", "holder": "DOLLY VARDEN SILVER CORP", "status": "Mineral", "recorded_date": "2006-08-08", "anniversary_or_expiry": "2034-10-21", "area_ha": 18.2268, "tenure_type": "Mineral", "source": "BC MTA Mineral, Placer and Coal Tenure Spatial View (BCGW). Open Government Licence - British Columbia. Not legal title.", "as_of": "2026-09-20", "role": "focus", "color": "#e8b040"}}, {"type": "Feature", "geometry": {"type": "Polygon", "coordinates": [[[-129.5205, 55.7123], [-129.5205, 55.7164], [-129.5267, 55.7164], [-129.5267, 55.7123], [-129.5205, 55.7123]]]}, "properties": {"company_id": "silver-spruce-resources", "jurisdiction": "British Columbia", "claim_id": 538900, "claim_name": "DOLLY CROWN 20", "holder": "DOLLY VARDEN SILVER CORP", "status": "Mineral", "recorded_date": "2006-08-08", "anniversary_or_expiry": "2034-10-21", "area_ha": 18.224800000000002, "tenure_type": "Mineral", "source": "BC MTA Mineral, Placer and Coal Tenure Spatial View (BCGW). Open Government Licence - British Columbia. Not legal title.", "as_of": "2026-09-20", "role": "focus", "color": "#e8b040"}}, {"type": "Feature", "geometry": {"type": "Polygon", "coordinates": [[[-129.508, 55.7123], [-129.508, 55.7164], [-129.5142, 55.7164], [-129.5142, 55.7123], [-129.508, 55.7123]]]}, "properties": {"company_id": "silver-spruce-resources", "jurisdiction": "British Columbia", "claim_id": 538901, "claim_name": "DOLLY CROWN 21", "holder": "DOLLY VARDEN SILVER CORP", "status": "Mineral", "recorded_date": "2006-08-08", "anniversary_or_expiry": "2034-10-21", "area_ha": 18.2249, "tenure_type": "Mineral", "source": "BC MTA Mineral, Placer and Coal Tenure Spatial View (BCGW). Open Government Licence - British Columbia. Not legal title.", "as_of": "2026-09-20", "role": "focus", "color": "#e8b040"}}, {"type": "Feature", "geometry": {"type": "Polygon", "coordinates": [[[-129.5017, 55.7164], [-129.5017, 55.7206], [-129.508, 55.7206], [-129.508, 55.7164], [-129.5017, 55.7164]]]}, "properties": {"company_id": "silver-spruce-resources", "jurisdiction": "British Columbia", "claim_id": 538902, "claim_name": "DOLLY CROWN 22", "holder": "DOLLY VARDEN SILVER CORP", "status": "Mineral", "recorded_date": "2006-08-08", "anniversary_or_expiry": "2034-10-21", "area_ha": 18.2229, "tenure_type": "Mineral", "source": "BC MTA Mineral, Placer and Coal Tenure Spatial View (BCGW). Open Government Licence - British Columbia. Not legal title.", "as_of": "2026-09-20", "role": "focus", "color": "#e8b040"}}, {"type": "Feature", "geometry": {"type": "Polygon", "coordinates": [[[-129.5205, 55.6998], [-129.5205, 55.7039], [-129.5267, 55.7039], [-129.5267, 55.6998], [-129.5205, 55.6998]]]}, "properties": {"company_id": "silver-spruce-resources", "jurisdiction": "British Columbia", "claim_id": 538904, "claim_name": "DOLLY CROWN 24", "holder": "DOLLY VARDEN SILVER CORP", "status": "Mineral", "recorded_date": "2006-08-08", "anniversary_or_expiry": "2034-10-21", "area_ha": 18.230700000000002, "tenure_type": "Mineral", "source": "BC MTA Mineral, Placer and Coal Tenure Spatial View (BCGW). Open Government Licence - British Columbia. Not legal title.", "as_of": "2026-09-20", "role": "focus", "color": "#e8b040"}}, {"type": "Feature", "geometry": {"type": "Polygon", "coordinates": [[[-129.5205, 55.6789], [-129.5205, 55.6831], [-129.5267, 55.6831], [-129.5267, 55.6789], [-129.5205, 55.6789]]]}, "properties": {"company_id": "silver-spruce-resources", "jurisdiction": "British Columbia", "claim_id": 538906, "claim_name": "DOLLY CROWN 26", "holder": "DOLLY VARDEN SILVER CORP", "status": "Mineral", "recorded_date": "2006-08-08", "anniversary_or_expiry": "2034-10-21", "area_ha": 18.2403, "tenure_type": "Mineral", "source": "BC MTA Mineral, Placer and Coal Tenure Spatial View (BCGW). Open Government Licence - British Columbia. Not legal title.", "as_of": "2026-09-20", "role": "focus", "color": "#e8b040"}}, {"type": "Feature", "geometry": {"type": "Polygon", "coordinates": [[[-117.1949, 49.9916], [-117.1949, 49.9874], [-117.1824, 49.9874], [-117.1824, 49.9958], [-117.1949, 49.9958], [-117.1949, 49.9916]]]}, "properties": {"company_id": "silver-spruce-resources", "jurisdiction": "British Columbia", "claim_id": 542785, "claim_name": "RECO", "holder": "KLONDIKE SILVER CORP.", "status": "Mineral", "recorded_date": "2006-10-08", "anniversary_or_expiry": "2032-01-15", "area_ha": 83.0888, "tenure_type": "Mineral", "source": "BC MTA Mineral, Placer and Coal Tenure Spatial View (BCGW). Open Government Licence - British Columbia. Not legal title.", "as_of": "2026-09-20", "role": "focus", "color": "#e8b040"}}]}