{"type": "FeatureCollection", "features": [{"type": "Feature", "geometry": {"type": "Polygon", "coordinates": [[[-63.49166666808572, 50.5750000076146], [-63.491666664465676, 50.58333333775427], [-63.48333333371531, 50.583333338251364], [-63.48333333892762, 50.57500000109693], [-63.49166666808572, 50.5750000076146]]]}, "properties": {"company_id": "silver-spruce-resources", "jurisdiction": "Quebec", "claim_id": "", "claim_name": null, "holder": "Silverwater Capital Corp", "status": "Active", "recorded_date": null, "anniversary_or_expiry": null, "area_ha": null, "tenure_type": null, "source": "GESTIM active titles (MRNF digital data dump). Not legal title.", "as_of": "2026-09-20", "role": "focus", "color": "#e8b040"}}, {"type": "Feature", "geometry": {"type": "Polygon", "coordinates": [[[-63.475000004907436, 50.583333336098804], [-63.4749999939967, 50.59166666841219], [-63.46666666533159, 50.59166667069124], [-63.46666666397376, 50.58333334034758], [-63.475000004907436, 50.583333336098804]]]}, "properties": {"company_id": "silver-spruce-resources", "jurisdiction": "Quebec", "claim_id": "", "claim_name": null, "holder": "Silverwater Capital Corp", "status": "Active", "recorded_date": null, "anniversary_or_expiry": null, "area_ha": null, "tenure_type": null, "source": "GESTIM active titles (MRNF digital data dump). Not legal title.", "as_of": "2026-09-20", "role": "focus", "color": "#e8b040"}}, {"type": "Feature", "geometry": {"type": "Polygon", "coordinates": [[[-63.55000000143951, 50.54166666828321], [-63.55000000503168, 50.5500000067953], [-63.541666665226145, 50.55000000774936], [-63.54166666263327, 50.54166667144157], [-63.55000000143951, 50.54166666828321]]]}, "properties": {"company_id": "silver-spruce-resources", "jurisdiction": "Quebec", "claim_id": "", "claim_name": null, "holder": "Silverwater Capital Corp", "status": "Active", "recorded_date": null, "anniversary_or_expiry": null, "area_ha": null, "tenure_type": null, "source": "GESTIM active titles (MRNF digital data dump). Not legal title.", "as_of": "2026-09-20", "role": "focus", "color": "#e8b040"}}, {"type": "Feature", "geometry": {"type": "Polygon", "coordinates": [[[-63.541666665226145, 50.55000000774936], [-63.54166666523511, 50.55833334117811], [-63.53333332641902, 50.55833333716261], [-63.533333327582696, 50.5500000059072], [-63.541666665226145, 50.55000000774936]]]}, "properties": {"company_id": "silver-spruce-resources", "jurisdiction": "Quebec", "claim_id": "", "claim_name": null, "holder": "Silverwater Capital Corp", "status": "Active", "recorded_date": null, "anniversary_or_expiry": null, "area_ha": null, "tenure_type": null, "source": "GESTIM active titles (MRNF digital data dump). Not legal title.", "as_of": "2026-09-20", "role": "focus", "color": "#e8b040"}}, {"type": "Feature", "geometry": {"type": "Polygon", "coordinates": [[[-63.53333332641902, 50.55833333716261], [-63.53333333671118, 50.56666667446517], [-63.524999998781496, 50.56666667454034], [-63.525000003953984, 50.55833333931545], [-63.53333332641902, 50.55833333716261]]]}, "properties": {"company_id": "silver-spruce-resources", "jurisdiction": "Quebec", "claim_id": "", "claim_name": null, "holder": "Silverwater Capital Corp", "status": "Active", "recorded_date": null, "anniversary_or_expiry": null, "area_ha": null, "tenure_type": null, "source": "GESTIM active titles (MRNF digital data dump). Not legal title.", "as_of": "2026-09-20", "role": "focus", "color": "#e8b040"}}, {"type": "Feature", "geometry": {"type": "Polygon", "coordinates": [[[-63.51666666743654, 50.57500000205818], [-63.516666668893805, 50.5833333383342], [-63.50833333202079, 50.583333337797335], [-63.50833333226009, 50.57500000360046], [-63.51666666743654, 50.57500000205818]]]}, "properties": {"company_id": "silver-spruce-resources", "jurisdiction": "Quebec", "claim_id": "", "claim_name": null, "holder": "Silverwater Capital Corp", "status": "Active", "recorded_date": null, "anniversary_or_expiry": null, "area_ha": null, "tenure_type": null, "source": "GESTIM active titles (MRNF digital data dump). Not legal title.", "as_of": "2026-09-20", "role": "focus", "color": "#e8b040"}}, {"type": "Feature", "geometry": {"type": "Polygon", "coordinates": [[[-63.50833333202079, 50.583333337797335], [-63.50833332847702, 50.59166666910752], [-63.50000000599908, 50.59166667280025], [-63.49999999719104, 50.58333333460589], [-63.50833333202079, 50.583333337797335]]]}, "properties": {"company_id": "silver-spruce-resources", "jurisdiction": "Quebec", "claim_id": "", "claim_name": null, "holder": "Silverwater Capital Corp", "status": "Active", "recorded_date": null, "anniversary_or_expiry": null, "area_ha": null, "tenure_type": null, "source": "GESTIM active titles (MRNF digital data dump). Not legal title.", "as_of": "2026-09-20", "role": "focus", "color": "#e8b040"}}, {"type": "Feature", "geometry": {"type": "Polygon", "coordinates": [[[-70.10833332769285, 57.50000000576353], [-70.10833333641818, 57.508333344350966], [-70.09999999972206, 57.5083333403361], [-70.10000000495374, 57.500000011492524], [-70.10833332769285, 57.50000000576353]]]}, "properties": {"company_id": "silver-spruce-resources", "jurisdiction": "Quebec", "claim_id": "", "claim_name": null, "holder": "SILVER CANADA MINES LTD.", "status": "Active", "recorded_date": null, "anniversary_or_expiry": null, "area_ha": null, "tenure_type": null, "source": "GESTIM active titles (MRNF digital data dump). Not legal title.", "as_of": "2026-09-20", "role": "focus", "color": "#e8b040"}}, {"type": "Feature", "geometry": {"type": "Polygon", "coordinates": [[[-68.18333358092997, 52.00000000790051], [-68.18333357452978, 52.0083333411222], [-68.17500024542319, 52.00833333898026], [-68.17500024095528, 52.00000000149458], [-68.18333358092997, 52.00000000790051]]]}, "properties": {"company_id": "silver-spruce-resources", "jurisdiction": "Quebec", "claim_id": "", "claim_name": null, "holder": "Cartier Silver Corporation", "status": "Active", "recorded_date": null, "anniversary_or_expiry": null, "area_ha": null, "tenure_type": null, "source": "GESTIM active titles (MRNF digital data dump). Not legal title.", "as_of": "2026-09-20", "role": "focus", "color": "#e8b040"}}, {"type": "Feature", "geometry": {"type": "Polygon", "coordinates": [[[-68.17500024095528, 52.00000000149458], [-68.17500024542319, 52.00833333898026], [-68.16666691206089, 52.00833334065787], [-68.16666691113035, 52.00000000795718], [-68.17500024095528, 52.00000000149458]]]}, "properties": {"company_id": "silver-spruce-resources", "jurisdiction": "Quebec", "claim_id": "", "claim_name": null, "holder": "Cartier Silver Corporation", "status": "Active", "recorded_date": null, "anniversary_or_expiry": null, "area_ha": null, "tenure_type": null, "source": "GESTIM active titles (MRNF digital data dump). Not legal title.", "as_of": "2026-09-20", "role": "focus", "color": "#e8b040"}}, {"type": "Feature", "geometry": {"type": "Polygon", "coordinates": [[[-68.16666691113035, 52.00000000795718], [-68.16666691206089, 52.00833334065787], [-68.15833357456678, 52.00833333716222], [-68.1583335771775, 52.00000000920452], [-68.16666691113035, 52.00000000795718]]]}, "properties": {"company_id": "silver-spruce-resources", "jurisdiction": "Quebec", "claim_id": "", "claim_name": null, "holder": "Cartier Silver Corporation", "status": "Active", "recorded_date": null, "anniversary_or_expiry": null, "area_ha": null, "tenure_type": null, "source": "GESTIM active titles (MRNF digital data dump). Not legal title.", "as_of": "2026-09-20", "role": "focus", "color": "#e8b040"}}, {"type": "Feature", "geometry": {"type": "Polygon", "coordinates": [[[-68.1333335622471, 52.0750000027282], [-68.13333355691137, 52.08333333838249], [-68.1250002340807, 52.08333333664776], [-68.12500022999235, 52.075000005424336], [-68.1333335622471, 52.0750000027282]]]}, "properties": {"company_id": "silver-spruce-resources", "jurisdiction": "Quebec", "claim_id": "", "claim_name": null, "holder": "Cartier Silver Corporation", "status": "Active", "recorded_date": null, "anniversary_or_expiry": null, "area_ha": null, "tenure_type": null, "source": "GESTIM active titles (MRNF digital data dump). Not legal title.", "as_of": "2026-09-20", "role": "focus", "color": "#e8b040"}}, {"type": "Feature", "geometry": {"type": "Polygon", "coordinates": [[[-68.12500022999235, 52.075000005424336], [-68.1250002340807, 52.08333333664776], [-68.11666689208667, 52.08333333899545], [-68.116666893348, 52.07500000327818], [-68.12500022999235, 52.075000005424336]]]}, "properties": {"company_id": "silver-spruce-resources", "jurisdiction": "Quebec", "claim_id": "", "claim_name": null, "holder": "Cartier Silver Corporation", "status": "Active", "recorded_date": null, "anniversary_or_expiry": null, "area_ha": null, "tenure_type": null, "source": "GESTIM active titles (MRNF digital data dump). Not legal title.", "as_of": "2026-09-20", "role": "focus", "color": "#e8b040"}}, {"type": "Feature", "geometry": {"type": "Polygon", "coordinates": [[[-68.1083335520945, 52.07500000527659], [-68.10833356024675, 52.083333336650554], [-68.10000022374754, 52.08333333849154], [-68.10000022095635, 52.07500000253825], [-68.1083335520945, 52.07500000527659]]]}, "properties": {"company_id": "silver-spruce-resources", "jurisdiction": "Quebec", "claim_id": "", "claim_name": null, "holder": "Cartier Silver Corporation", "status": "Active", "recorded_date": null, "anniversary_or_expiry": null, "area_ha": null, "tenure_type": null, "source": "GESTIM active titles (MRNF digital data dump). Not legal title.", "as_of": "2026-09-20", "role": "focus", "color": "#e8b040"}}, {"type": "Feature", "geometry": {"type": "Polygon", "coordinates": [[[-68.10000022095635, 52.07500000253825], [-68.10000022374754, 52.08333333849154], [-68.09166688272614, 52.08333333552561], [-68.09166688512141, 52.075000003940495], [-68.10000022095635, 52.07500000253825]]]}, "properties": {"company_id": "silver-spruce-resources", "jurisdiction": "Quebec", "claim_id": "", "claim_name": null, "holder": "Cartier Silver Corporation", "status": "Active", "recorded_date": null, "anniversary_or_expiry": null, "area_ha": null, "tenure_type": null, "source": "GESTIM active titles (MRNF digital data dump). Not legal title.", "as_of": "2026-09-20", "role": "focus", "color": "#e8b040"}}, {"type": "Feature", "geometry": {"type": "Polygon", "coordinates": [[[-68.09166688512141, 52.075000003940495], [-68.09166688272614, 52.08333333552561], [-68.08333355154957, 52.08333333685301], [-68.08333354454423, 52.075000009480334], [-68.09166688512141, 52.075000003940495]]]}, "properties": {"company_id": "silver-spruce-resources", "jurisdiction": "Quebec", "claim_id": "", "claim_name": null, "holder": "Cartier Silver Corporation", "status": "Active", "recorded_date": null, "anniversary_or_expiry": null, "area_ha": null, "tenure_type": null, "source": "GESTIM active titles (MRNF digital data dump). Not legal title.", "as_of": "2026-09-20", "role": "focus", "color": "#e8b040"}}, {"type": "Feature", "geometry": {"type": "Polygon", "coordinates": [[[-68.14166690457252, 52.08333333553472], [-68.14166690071193, 52.091666673149156], [-68.13333356229971, 52.091666671526376], [-68.13333355691137, 52.08333333838249], [-68.14166690457252, 52.08333333553472]]]}, "properties": {"company_id": "silver-spruce-resources", "jurisdiction": "Quebec", "claim_id": "", "claim_name": null, "holder": "Cartier Silver Corporation", "status": "Active", "recorded_date": null, "anniversary_or_expiry": null, "area_ha": null, "tenure_type": null, "source": "GESTIM active titles (MRNF digital data dump). Not legal title.", "as_of": "2026-09-20", "role": "focus", "color": "#e8b040"}}, {"type": "Feature", "geometry": {"type": "Polygon", "coordinates": [[[-68.13333355691137, 52.08333333838249], [-68.13333356229971, 52.091666671526376], [-68.12500023394861, 52.091666674246866], [-68.1250002340807, 52.08333333664776], [-68.13333355691137, 52.08333333838249]]]}, "properties": {"company_id": "silver-spruce-resources", "jurisdiction": "Quebec", "claim_id": "", "claim_name": null, "holder": "Cartier Silver Corporation", "status": "Active", "recorded_date": null, "anniversary_or_expiry": null, "area_ha": null, "tenure_type": null, "source": "GESTIM active titles (MRNF digital data dump). Not legal title.", "as_of": "2026-09-20", "role": "focus", "color": "#e8b040"}}, {"type": "Feature", "geometry": {"type": "Polygon", "coordinates": [[[-68.1250002340807, 52.08333333664776], [-68.12500023394861, 52.091666674246866], [-68.1166668866012, 52.09166667210226], [-68.11666689208667, 52.08333333899545], [-68.1250002340807, 52.08333333664776]]]}, "properties": {"company_id": "silver-spruce-resources", "jurisdiction": "Quebec", "claim_id": "", "claim_name": null, "holder": "Cartier Silver Corporation", "status": "Active", "recorded_date": null, "anniversary_or_expiry": null, "area_ha": null, "tenure_type": null, "source": "GESTIM active titles (MRNF digital data dump). Not legal title.", "as_of": "2026-09-20", "role": "focus", "color": "#e8b040"}}, {"type": "Feature", "geometry": {"type": "Polygon", "coordinates": [[[-68.11666689208667, 52.08333333899545], [-68.1166668866012, 52.09166667210226], [-68.10833354922693, 52.09166667429705], [-68.10833356024675, 52.083333336650554], [-68.11666689208667, 52.08333333899545]]]}, "properties": {"company_id": "silver-spruce-resources", "jurisdiction": "Quebec", "claim_id": "", "claim_name": null, "holder": "Cartier Silver Corporation", "status": "Active", "recorded_date": null, "anniversary_or_expiry": null, "area_ha": null, "tenure_type": null, "source": "GESTIM active titles (MRNF digital data dump). Not legal title.", "as_of": "2026-09-20", "role": "focus", "color": "#e8b040"}}, {"type": "Feature", "geometry": {"type": "Polygon", "coordinates": [[[-68.10833356024675, 52.083333336650554], [-68.10833354922693, 52.09166667429705], [-68.100000221961, 52.09166667184172], [-68.10000022374754, 52.08333333849154], [-68.10833356024675, 52.083333336650554]]]}, "properties": {"company_id": "silver-spruce-resources", "jurisdiction": "Quebec", "claim_id": "", "claim_name": null, "holder": "Cartier Silver Corporation", "status": "Active", "recorded_date": null, "anniversary_or_expiry": null, "area_ha": null, "tenure_type": null, "source": "GESTIM active titles (MRNF digital data dump). Not legal title.", "as_of": "2026-09-20", "role": "focus", "color": "#e8b040"}}, {"type": "Feature", "geometry": {"type": "Polygon", "coordinates": [[[-68.10000022374754, 52.08333333849154], [-68.100000221961, 52.09166667184172], [-68.09166688998566, 52.091666673613496], [-68.09166688272614, 52.08333333552561], [-68.10000022374754, 52.08333333849154]]]}, "properties": {"company_id": "silver-spruce-resources", "jurisdiction": "Quebec", "claim_id": "", "claim_name": null, "holder": "Cartier Silver Corporation", "status": "Active", "recorded_date": null, "anniversary_or_expiry": null, "area_ha": null, "tenure_type": null, "source": "GESTIM active titles (MRNF digital data dump). Not legal title.", "as_of": "2026-09-20", "role": "focus", "color": "#e8b040"}}, {"type": "Feature", "geometry": {"type": "Polygon", "coordinates": [[[-68.09166688272614, 52.08333333552561], [-68.09166688998566, 52.091666673613496], [-68.08333355343946, 52.0916666706197], [-68.08333355154957, 52.08333333685301], [-68.09166688272614, 52.08333333552561]]]}, "properties": {"company_id": "silver-spruce-resources", "jurisdiction": "Quebec", "claim_id": "", "claim_name": null, "holder": "Cartier Silver Corporation", "status": "Active", "recorded_date": null, "anniversary_or_expiry": null, "area_ha": null, "tenure_type": null, "source": "GESTIM active titles (MRNF digital data dump). Not legal title.", "as_of": "2026-09-20", "role": "focus", "color": "#e8b040"}}, {"type": "Feature", "geometry": {"type": "Polygon", "coordinates": [[[-68.08333355154957, 52.08333333685301], [-68.08333355343946, 52.0916666706197], [-68.07500021209601, 52.09166667184695], [-68.0750002155805, 52.08333334235914], [-68.08333355154957, 52.08333333685301]]]}, "properties": {"company_id": "silver-spruce-resources", "jurisdiction": "Quebec", "claim_id": "", "claim_name": null, "holder": "Cartier Silver Corporation", "status": "Active", "recorded_date": null, "anniversary_or_expiry": null, "area_ha": null, "tenure_type": null, "source": "GESTIM active titles (MRNF digital data dump). Not legal title.", "as_of": "2026-09-20", "role": "focus", "color": "#e8b040"}}, {"type": "Feature", "geometry": {"type": "Polygon", "coordinates": [[[-68.0750002155805, 52.08333334235914], [-68.07500021209601, 52.09166667184695], [-68.06666688050409, 52.09166667740767], [-68.06666687496089, 52.0833333430513], [-68.0750002155805, 52.08333334235914]]]}, "properties": {"company_id": "silver-spruce-resources", "jurisdiction": "Quebec", "claim_id": "", "claim_name": null, "holder": "Cartier Silver Corporation", "status": "Active", "recorded_date": null, "anniversary_or_expiry": null, "area_ha": null, "tenure_type": null, "source": "GESTIM active titles (MRNF digital data dump). Not legal title.", "as_of": "2026-09-20", "role": "focus", "color": "#e8b040"}}, {"type": "Feature", "geometry": {"type": "Polygon", "coordinates": [[[-68.06666687496089, 52.0833333430513], [-68.06666688050409, 52.09166667740767], [-68.05833354440207, 52.09166666920601], [-68.05833354424193, 52.083333339042966], [-68.06666687496089, 52.0833333430513]]]}, "properties": {"company_id": "silver-spruce-resources", "jurisdiction": "Quebec", "claim_id": "", "claim_name": null, "holder": "Cartier Silver Corporation", "status": "Active", "recorded_date": null, "anniversary_or_expiry": null, "area_ha": null, "tenure_type": null, "source": "GESTIM active titles (MRNF digital data dump). Not legal title.", "as_of": "2026-09-20", "role": "focus", "color": "#e8b040"}}, {"type": "Feature", "geometry": {"type": "Polygon", "coordinates": [[[-68.14166690071193, 52.091666673149156], [-68.14166689316143, 52.1000000081431], [-68.13333356382412, 52.10000000205334], [-68.13333356229971, 52.091666671526376], [-68.14166690071193, 52.091666673149156]]]}, "properties": {"company_id": "silver-spruce-resources", "jurisdiction": "Quebec", "claim_id": "", "claim_name": null, "holder": "Cartier Silver Corporation", "status": "Active", "recorded_date": null, "anniversary_or_expiry": null, "area_ha": null, "tenure_type": null, "source": "GESTIM active titles (MRNF digital data dump). Not legal title.", "as_of": "2026-09-20", "role": "focus", "color": "#e8b040"}}, {"type": "Feature", "geometry": {"type": "Polygon", "coordinates": [[[-68.13333356229971, 52.091666671526376], [-68.13333356382412, 52.10000000205334], [-68.12500022977298, 52.100000009232666], [-68.12500023394861, 52.091666674246866], [-68.13333356229971, 52.091666671526376]]]}, "properties": {"company_id": "silver-spruce-resources", "jurisdiction": "Quebec", "claim_id": "", "claim_name": null, "holder": "Cartier Silver Corporation", "status": "Active", "recorded_date": null, "anniversary_or_expiry": null, "area_ha": null, "tenure_type": null, "source": "GESTIM active titles (MRNF digital data dump). Not legal title.", "as_of": "2026-09-20", "role": "focus", "color": "#e8b040"}}, {"type": "Feature", "geometry": {"type": "Polygon", "coordinates": [[[-68.12500023394861, 52.091666674246866], [-68.12500022977298, 52.100000009232666], [-68.11666689149, 52.10000000270876], [-68.1166668866012, 52.09166667210226], [-68.12500023394861, 52.091666674246866]]]}, "properties": {"company_id": "silver-spruce-resources", "jurisdiction": "Quebec", "claim_id": "", "claim_name": null, "holder": "Cartier Silver Corporation", "status": "Active", "recorded_date": null, "anniversary_or_expiry": null, "area_ha": null, "tenure_type": null, "source": "GESTIM active titles (MRNF digital data dump). Not legal title.", "as_of": "2026-09-20", "role": "focus", "color": "#e8b040"}}, {"type": "Feature", "geometry": {"type": "Polygon", "coordinates": [[[-68.1166668866012, 52.09166667210226], [-68.11666689149, 52.10000000270876], [-68.10833354840179, 52.100000009448], [-68.10833354922693, 52.09166667429705], [-68.1166668866012, 52.09166667210226]]]}, "properties": {"company_id": "silver-spruce-resources", "jurisdiction": "Quebec", "claim_id": "", "claim_name": null, "holder": "Cartier Silver Corporation", "status": "Active", "recorded_date": null, "anniversary_or_expiry": null, "area_ha": null, "tenure_type": null, "source": "GESTIM active titles (MRNF digital data dump). Not legal title.", "as_of": "2026-09-20", "role": "focus", "color": "#e8b040"}}, {"type": "Feature", "geometry": {"type": "Polygon", "coordinates": [[[-68.10833354922693, 52.09166667429705], [-68.10833354840179, 52.100000009448], [-68.10000021559773, 52.10000000258962], [-68.100000221961, 52.09166667184172], [-68.10833354922693, 52.09166667429705]]]}, "properties": {"company_id": "silver-spruce-resources", "jurisdiction": "Quebec", "claim_id": "", "claim_name": null, "holder": "Cartier Silver Corporation", "status": "Active", "recorded_date": null, "anniversary_or_expiry": null, "area_ha": null, "tenure_type": null, "source": "GESTIM active titles (MRNF digital data dump). Not legal title.", "as_of": "2026-09-20", "role": "focus", "color": "#e8b040"}}, {"type": "Feature", "geometry": {"type": "Polygon", "coordinates": [[[-68.100000221961, 52.09166667184172], [-68.10000021559773, 52.10000000258962], [-68.09166687789696, 52.10000000899035], [-68.09166688998566, 52.091666673613496], [-68.100000221961, 52.09166667184172]]]}, "properties": {"company_id": "silver-spruce-resources", "jurisdiction": "Quebec", "claim_id": "", "claim_name": null, "holder": "Cartier Silver Corporation", "status": "Active", "recorded_date": null, "anniversary_or_expiry": null, "area_ha": null, "tenure_type": null, "source": "GESTIM active titles (MRNF digital data dump). Not legal title.", "as_of": "2026-09-20", "role": "focus", "color": "#e8b040"}}, {"type": "Feature", "geometry": {"type": "Polygon", "coordinates": [[[-68.09166688998566, 52.091666673613496], [-68.09166687789696, 52.10000000899035], [-68.08333355021462, 52.10000001078127], [-68.08333355343946, 52.0916666706197], [-68.09166688998566, 52.091666673613496]]]}, "properties": {"company_id": "silver-spruce-resources", "jurisdiction": "Quebec", "claim_id": "", "claim_name": null, "holder": "Cartier Silver Corporation", "status": "Active", "recorded_date": null, "anniversary_or_expiry": null, "area_ha": null, "tenure_type": null, "source": "GESTIM active titles (MRNF digital data dump). Not legal title.", "as_of": "2026-09-20", "role": "focus", "color": "#e8b040"}}, {"type": "Feature", "geometry": {"type": "Polygon", "coordinates": [[[-68.08333355343946, 52.0916666706197], [-68.08333355021462, 52.10000001078127], [-68.07500021791274, 52.10000000784792], [-68.07500021209601, 52.09166667184695], [-68.08333355343946, 52.0916666706197]]]}, "properties": {"company_id": "silver-spruce-resources", "jurisdiction": "Quebec", "claim_id": "", "claim_name": null, "holder": "Cartier Silver Corporation", "status": "Active", "recorded_date": null, "anniversary_or_expiry": null, "area_ha": null, "tenure_type": null, "source": "GESTIM active titles (MRNF digital data dump). Not legal title.", "as_of": "2026-09-20", "role": "focus", "color": "#e8b040"}}, {"type": "Feature", "geometry": {"type": "Polygon", "coordinates": [[[-68.07500021209601, 52.09166667184695], [-68.07500021791274, 52.10000000784792], [-68.06666688076308, 52.10000000917684], [-68.06666688050409, 52.09166667740767], [-68.07500021209601, 52.09166667184695]]]}, "properties": {"company_id": "silver-spruce-resources", "jurisdiction": "Quebec", "claim_id": "", "claim_name": null, "holder": "Cartier Silver Corporation", "status": "Active", "recorded_date": null, "anniversary_or_expiry": null, "area_ha": null, "tenure_type": null, "source": "GESTIM active titles (MRNF digital data dump). Not legal title.", "as_of": "2026-09-20", "role": "focus", "color": "#e8b040"}}, {"type": "Feature", "geometry": {"type": "Polygon", "coordinates": [[[-68.06666688050409, 52.09166667740767], [-68.06666688076308, 52.10000000917684], [-68.05833353890922, 52.10000000577529], [-68.05833354440207, 52.09166666920601], [-68.06666688050409, 52.09166667740767]]]}, "properties": {"company_id": "silver-spruce-resources", "jurisdiction": "Quebec", "claim_id": "", "claim_name": null, "holder": "Cartier Silver Corporation", "status": "Active", "recorded_date": null, "anniversary_or_expiry": null, "area_ha": null, "tenure_type": null, "source": "GESTIM active titles (MRNF digital data dump). Not legal title.", "as_of": "2026-09-20", "role": "focus", "color": "#e8b040"}}, {"type": "Feature", "geometry": {"type": "Polygon", "coordinates": [[[-68.14166689316143, 52.1000000081431], [-68.14166689652255, 52.10833334062365], [-68.13333356131156, 52.10833333895404], [-68.13333356382412, 52.10000000205334], [-68.14166689316143, 52.1000000081431]]]}, "properties": {"company_id": "silver-spruce-resources", "jurisdiction": "Quebec", "claim_id": "", "claim_name": null, "holder": "Cartier Silver Corporation", "status": "Active", "recorded_date": null, "anniversary_or_expiry": null, "area_ha": null, "tenure_type": null, "source": "GESTIM active titles (MRNF digital data dump). Not legal title.", "as_of": "2026-09-20", "role": "focus", "color": "#e8b040"}}, {"type": "Feature", "geometry": {"type": "Polygon", "coordinates": [[[-68.12500022977298, 52.100000009232666], [-68.12500022155493, 52.10833334160599], [-68.11666689198461, 52.10833333969625], [-68.11666689149, 52.10000000270876], [-68.12500022977298, 52.100000009232666]]]}, "properties": {"company_id": "silver-spruce-resources", "jurisdiction": "Quebec", "claim_id": "", "claim_name": null, "holder": "Cartier Silver Corporation", "status": "Active", "recorded_date": null, "anniversary_or_expiry": null, "area_ha": null, "tenure_type": null, "source": "GESTIM active titles (MRNF digital data dump). Not legal title.", "as_of": "2026-09-20", "role": "focus", "color": "#e8b040"}}, {"type": "Feature", "geometry": {"type": "Polygon", "coordinates": [[[-68.11666689149, 52.10000000270876], [-68.11666689198461, 52.10833333969625], [-68.10833355778045, 52.10833334210421], [-68.10833354840179, 52.100000009448], [-68.11666689149, 52.10000000270876]]]}, "properties": {"company_id": "silver-spruce-resources", "jurisdiction": "Quebec", "claim_id": "", "claim_name": null, "holder": "Cartier Silver Corporation", "status": "Active", "recorded_date": null, "anniversary_or_expiry": null, "area_ha": null, "tenure_type": null, "source": "GESTIM active titles (MRNF digital data dump). Not legal title.", "as_of": "2026-09-20", "role": "focus", "color": "#e8b040"}}, {"type": "Feature", "geometry": {"type": "Polygon", "coordinates": [[[-68.10833354840179, 52.100000009448], [-68.10833355778045, 52.10833334210421], [-68.10000021907761, 52.10833333983723], [-68.10000021559773, 52.10000000258962], [-68.10833354840179, 52.100000009448]]]}, "properties": {"company_id": "silver-spruce-resources", "jurisdiction": "Quebec", "claim_id": "", "claim_name": null, "holder": "Cartier Silver Corporation", "status": "Active", "recorded_date": null, "anniversary_or_expiry": null, "area_ha": null, "tenure_type": null, "source": "GESTIM active titles (MRNF digital data dump). Not legal title.", "as_of": "2026-09-20", "role": "focus", "color": "#e8b040"}}, {"type": "Feature", "geometry": {"type": "Polygon", "coordinates": [[[-68.10000021559773, 52.10000000258962], [-68.10000021907761, 52.10833333983723], [-68.09166689025271, 52.10833334199445], [-68.09166687789696, 52.10000000899035], [-68.10000021559773, 52.10000000258962]]]}, "properties": {"company_id": "silver-spruce-resources", "jurisdiction": "Quebec", "claim_id": "", "claim_name": null, "holder": "Cartier Silver Corporation", "status": "Active", "recorded_date": null, "anniversary_or_expiry": null, "area_ha": null, "tenure_type": null, "source": "GESTIM active titles (MRNF digital data dump). Not legal title.", "as_of": "2026-09-20", "role": "focus", "color": "#e8b040"}}, {"type": "Feature", "geometry": {"type": "Polygon", "coordinates": [[[-68.09166687789696, 52.10000000899035], [-68.09166689025271, 52.10833334199445], [-68.08333354224436, 52.10833333935924], [-68.08333355021462, 52.10000001078127], [-68.09166687789696, 52.10000000899035]]]}, "properties": {"company_id": "silver-spruce-resources", "jurisdiction": "Quebec", "claim_id": "", "claim_name": null, "holder": "Cartier Silver Corporation", "status": "Active", "recorded_date": null, "anniversary_or_expiry": null, "area_ha": null, "tenure_type": null, "source": "GESTIM active titles (MRNF digital data dump). Not legal title.", "as_of": "2026-09-20", "role": "focus", "color": "#e8b040"}}, {"type": "Feature", "geometry": {"type": "Polygon", "coordinates": [[[-68.08333355021462, 52.10000001078127], [-68.08333354224436, 52.10833333935924], [-68.07500021862559, 52.10833334125871], [-68.07500021791274, 52.10000000784792], [-68.08333355021462, 52.10000001078127]]]}, "properties": {"company_id": "silver-spruce-resources", "jurisdiction": "Quebec", "claim_id": "", "claim_name": null, "holder": "Cartier Silver Corporation", "status": "Active", "recorded_date": null, "anniversary_or_expiry": null, "area_ha": null, "tenure_type": null, "source": "GESTIM active titles (MRNF digital data dump). Not legal title.", "as_of": "2026-09-20", "role": "focus", "color": "#e8b040"}}, {"type": "Feature", "geometry": {"type": "Polygon", "coordinates": [[[-68.07500021791274, 52.10000000784792], [-68.07500021862559, 52.10833334125871], [-68.06666687573858, 52.10833333835965], [-68.06666688076308, 52.10000000917684], [-68.07500021791274, 52.10000000784792]]]}, "properties": {"company_id": "silver-spruce-resources", "jurisdiction": "Quebec", "claim_id": "", "claim_name": null, "holder": "Cartier Silver Corporation", "status": "Active", "recorded_date": null, "anniversary_or_expiry": null, "area_ha": null, "tenure_type": null, "source": "GESTIM active titles (MRNF digital data dump). Not legal title.", "as_of": "2026-09-20", "role": "focus", "color": "#e8b040"}}, {"type": "Feature", "geometry": {"type": "Polygon", "coordinates": [[[-68.06666688076308, 52.10000000917684], [-68.06666687573858, 52.10833333835965], [-68.05833354255297, 52.1083333398786], [-68.05833353890922, 52.10000000577529], [-68.06666688076308, 52.10000000917684]]]}, "properties": {"company_id": "silver-spruce-resources", "jurisdiction": "Quebec", "claim_id": "", "claim_name": null, "holder": "Cartier Silver Corporation", "status": "Active", "recorded_date": null, "anniversary_or_expiry": null, "area_ha": null, "tenure_type": null, "source": "GESTIM active titles (MRNF digital data dump). Not legal title.", "as_of": "2026-09-20", "role": "focus", "color": "#e8b040"}}, {"type": "Feature", "geometry": {"type": "Polygon", "coordinates": [[[-68.14166689652255, 52.10833334062365], [-68.14166689620184, 52.11666667048542], [-68.13333356954023, 52.11666667334688], [-68.13333356131156, 52.10833333895404], [-68.14166689652255, 52.10833334062365]]]}, "properties": {"company_id": "silver-spruce-resources", "jurisdiction": "Quebec", "claim_id": "", "claim_name": null, "holder": "Cartier Silver Corporation", "status": "Active", "recorded_date": null, "anniversary_or_expiry": null, "area_ha": null, "tenure_type": null, "source": "GESTIM active titles (MRNF digital data dump). Not legal title.", "as_of": "2026-09-20", "role": "focus", "color": "#e8b040"}}, {"type": "Feature", "geometry": {"type": "Polygon", "coordinates": [[[-68.13333356131156, 52.10833333895404], [-68.13333356954023, 52.11666667334688], [-68.12500022389848, 52.11666667147615], [-68.12500022155493, 52.10833334160599], [-68.13333356131156, 52.10833333895404]]]}, "properties": {"company_id": "silver-spruce-resources", "jurisdiction": "Quebec", "claim_id": "", "claim_name": null, "holder": "Cartier Silver Corporation", "status": "Active", "recorded_date": null, "anniversary_or_expiry": null, "area_ha": null, "tenure_type": null, "source": "GESTIM active titles (MRNF digital data dump). Not legal title.", "as_of": "2026-09-20", "role": "focus", "color": "#e8b040"}}, {"type": "Feature", "geometry": {"type": "Polygon", "coordinates": [[[-68.12500022155493, 52.10833334160599], [-68.12500022389848, 52.11666667147615], [-68.11666688826372, 52.11666667407582], [-68.11666689198461, 52.10833333969625], [-68.12500022155493, 52.10833334160599]]]}, "properties": {"company_id": "silver-spruce-resources", "jurisdiction": "Quebec", "claim_id": "", "claim_name": null, "holder": "Cartier Silver Corporation", "status": "Active", "recorded_date": null, "anniversary_or_expiry": null, "area_ha": null, "tenure_type": null, "source": "GESTIM active titles (MRNF digital data dump). Not legal title.", "as_of": "2026-09-20", "role": "focus", "color": "#e8b040"}}, {"type": "Feature", "geometry": {"type": "Polygon", "coordinates": [[[-68.11666689198461, 52.10833333969625], [-68.11666688826372, 52.11666667407582], [-68.10833356276933, 52.11666667215622], [-68.10833355778045, 52.10833334210421], [-68.11666689198461, 52.10833333969625]]]}, "properties": {"company_id": "silver-spruce-resources", "jurisdiction": "Quebec", "claim_id": "", "claim_name": null, "holder": "Cartier Silver Corporation", "status": "Active", "recorded_date": null, "anniversary_or_expiry": null, "area_ha": null, "tenure_type": null, "source": "GESTIM active titles (MRNF digital data dump). Not legal title.", "as_of": "2026-09-20", "role": "focus", "color": "#e8b040"}}, {"type": "Feature", "geometry": {"type": "Polygon", "coordinates": [[[-68.10833355778045, 52.10833334210421], [-68.10833356276933, 52.11666667215622], [-68.100000217988, 52.116666674484314], [-68.10000021907761, 52.10833333983723], [-68.10833355778045, 52.10833334210421]]]}, "properties": {"company_id": "silver-spruce-resources", "jurisdiction": "Quebec", "claim_id": "", "claim_name": null, "holder": "Cartier Silver Corporation", "status": "Active", "recorded_date": null, "anniversary_or_expiry": null, "area_ha": null, "tenure_type": null, "source": "GESTIM active titles (MRNF digital data dump). Not legal title.", "as_of": "2026-09-20", "role": "focus", "color": "#e8b040"}}, {"type": "Feature", "geometry": {"type": "Polygon", "coordinates": [[[-68.10000021907761, 52.10833333983723], [-68.100000217988, 52.116666674484314], [-68.09166688326204, 52.11666667228924], [-68.09166689025271, 52.10833334199445], [-68.10000021907761, 52.10833333983723]]]}, "properties": {"company_id": "silver-spruce-resources", "jurisdiction": "Quebec", "claim_id": "", "claim_name": null, "holder": "Cartier Silver Corporation", "status": "Active", "recorded_date": null, "anniversary_or_expiry": null, "area_ha": null, "tenure_type": null, "source": "GESTIM active titles (MRNF digital data dump). Not legal title.", "as_of": "2026-09-20", "role": "focus", "color": "#e8b040"}}, {"type": "Feature", "geometry": {"type": "Polygon", "coordinates": [[[-68.09166689025271, 52.10833334199445], [-68.09166688326204, 52.11666667228924], [-68.08333354376349, 52.11666667444726], [-68.08333354224436, 52.10833333935924], [-68.09166689025271, 52.10833334199445]]]}, "properties": {"company_id": "silver-spruce-resources", "jurisdiction": "Quebec", "claim_id": "", "claim_name": null, "holder": "Cartier Silver Corporation", "status": "Active", "recorded_date": null, "anniversary_or_expiry": null, "area_ha": null, "tenure_type": null, "source": "GESTIM active titles (MRNF digital data dump). Not legal title.", "as_of": "2026-09-20", "role": "focus", "color": "#e8b040"}}, {"type": "Feature", "geometry": {"type": "Polygon", "coordinates": [[[-68.08333354224436, 52.10833333935924], [-68.08333354376349, 52.11666667444726], [-68.07500021423529, 52.11666667208017], [-68.07500021862559, 52.10833334125871], [-68.08333354224436, 52.10833333935924]]]}, "properties": {"company_id": "silver-spruce-resources", "jurisdiction": "Quebec", "claim_id": "", "claim_name": null, "holder": "Cartier Silver Corporation", "status": "Active", "recorded_date": null, "anniversary_or_expiry": null, "area_ha": null, "tenure_type": null, "source": "GESTIM active titles (MRNF digital data dump). Not legal title.", "as_of": "2026-09-20", "role": "focus", "color": "#e8b040"}}, {"type": "Feature", "geometry": {"type": "Polygon", "coordinates": [[[-68.07500021862559, 52.10833334125871], [-68.07500021423529, 52.11666667208017], [-68.06666687984611, 52.11666667406206], [-68.06666687573858, 52.10833333835965], [-68.07500021862559, 52.10833334125871]]]}, "properties": {"company_id": "silver-spruce-resources", "jurisdiction": "Quebec", "claim_id": "", "claim_name": null, "holder": "Cartier Silver Corporation", "status": "Active", "recorded_date": null, "anniversary_or_expiry": null, "area_ha": null, "tenure_type": null, "source": "GESTIM active titles (MRNF digital data dump). Not legal title.", "as_of": "2026-09-20", "role": "focus", "color": "#e8b040"}}, {"type": "Feature", "geometry": {"type": "Polygon", "coordinates": [[[-68.06666687573858, 52.10833333835965], [-68.06666687984611, 52.11666667406206], [-68.05833354073958, 52.11666667140022], [-68.05833354255297, 52.1083333398786], [-68.06666687573858, 52.10833333835965]]]}, "properties": {"company_id": "silver-spruce-resources", "jurisdiction": "Quebec", "claim_id": "", "claim_name": null, "holder": "Cartier Silver Corporation", "status": "Active", "recorded_date": null, "anniversary_or_expiry": null, "area_ha": null, "tenure_type": null, "source": "GESTIM active titles (MRNF digital data dump). Not legal title.", "as_of": "2026-09-20", "role": "focus", "color": "#e8b040"}}, {"type": "Feature", "geometry": {"type": "Polygon", "coordinates": [[[-68.14166689620184, 52.11666667048542], [-68.14166689202783, 52.125000006719006], [-68.13333355930844, 52.125000005018], [-68.13333356954023, 52.11666667334688], [-68.14166689620184, 52.11666667048542]]]}, "properties": {"company_id": "silver-spruce-resources", "jurisdiction": "Quebec", "claim_id": "", "claim_name": null, "holder": "Cartier Silver Corporation", "status": "Active", "recorded_date": null, "anniversary_or_expiry": null, "area_ha": null, "tenure_type": null, "source": "GESTIM active titles (MRNF digital data dump). Not legal title.", "as_of": "2026-09-20", "role": "focus", "color": "#e8b040"}}, {"type": "Feature", "geometry": {"type": "Polygon", "coordinates": [[[-68.13333356954023, 52.11666667334688], [-68.13333355930844, 52.125000005018], [-68.12500022203132, 52.12500000772533], [-68.12500022389848, 52.11666667147615], [-68.13333356954023, 52.11666667334688]]]}, "properties": {"company_id": "silver-spruce-resources", "jurisdiction": "Quebec", "claim_id": "", "claim_name": null, "holder": "Cartier Silver Corporation", "status": "Active", "recorded_date": null, "anniversary_or_expiry": null, "area_ha": null, "tenure_type": null, "source": "GESTIM active titles (MRNF digital data dump). Not legal title.", "as_of": "2026-09-20", "role": "focus", "color": "#e8b040"}}, {"type": "Feature", "geometry": {"type": "Polygon", "coordinates": [[[-68.12500022389848, 52.11666667147615], [-68.12500022203132, 52.12500000772533], [-68.11666689493383, 52.12500000595768], [-68.11666688826372, 52.11666667407582], [-68.12500022389848, 52.11666667147615]]]}, "properties": {"company_id": "silver-spruce-resources", "jurisdiction": "Quebec", "claim_id": "", "claim_name": null, "holder": "Cartier Silver Corporation", "status": "Active", "recorded_date": null, "anniversary_or_expiry": null, "area_ha": null, "tenure_type": null, "source": "GESTIM active titles (MRNF digital data dump). Not legal title.", "as_of": "2026-09-20", "role": "focus", "color": "#e8b040"}}, {"type": "Feature", "geometry": {"type": "Polygon", "coordinates": [[[-68.10833356276933, 52.11666667215622], [-68.10833354858458, 52.12500000848406], [-68.10000022693525, 52.125000006643106], [-68.100000217988, 52.116666674484314], [-68.10833356276933, 52.11666667215622]]]}, "properties": {"company_id": "silver-spruce-resources", "jurisdiction": "Quebec", "claim_id": "", "claim_name": null, "holder": "Cartier Silver Corporation", "status": "Active", "recorded_date": null, "anniversary_or_expiry": null, "area_ha": null, "tenure_type": null, "source": "GESTIM active titles (MRNF digital data dump). Not legal title.", "as_of": "2026-09-20", "role": "focus", "color": "#e8b040"}}, {"type": "Feature", "geometry": {"type": "Polygon", "coordinates": [[[-68.100000217988, 52.116666674484314], [-68.10000022693525, 52.125000006643106], [-68.0916668859457, 52.12500000909019], [-68.09166688326204, 52.11666667228924], [-68.100000217988, 52.116666674484314]]]}, "properties": {"company_id": "silver-spruce-resources", "jurisdiction": "Quebec", "claim_id": "", "claim_name": null, "holder": "Cartier Silver Corporation", "status": "Active", "recorded_date": null, "anniversary_or_expiry": null, "area_ha": null, "tenure_type": null, "source": "GESTIM active titles (MRNF digital data dump). Not legal title.", "as_of": "2026-09-20", "role": "focus", "color": "#e8b040"}}, {"type": "Feature", "geometry": {"type": "Polygon", "coordinates": [[[-68.09166688326204, 52.11666667228924], [-68.0916668859457, 52.12500000909019], [-68.08333355496538, 52.125000007056556], [-68.08333354376349, 52.11666667444726], [-68.09166688326204, 52.11666667228924]]]}, "properties": {"company_id": "silver-spruce-resources", "jurisdiction": "Quebec", "claim_id": "", "claim_name": null, "holder": "Cartier Silver Corporation", "status": "Active", "recorded_date": null, "anniversary_or_expiry": null, "area_ha": null, "tenure_type": null, "source": "GESTIM active titles (MRNF digital data dump). Not legal title.", "as_of": "2026-09-20", "role": "focus", "color": "#e8b040"}}, {"type": "Feature", "geometry": {"type": "Polygon", "coordinates": [[[-68.08333354376349, 52.11666667444726], [-68.08333355496538, 52.125000007056556], [-68.07500021916178, 52.12500000941734], [-68.07500021423529, 52.11666667208017], [-68.08333354376349, 52.11666667444726]]]}, "properties": {"company_id": "silver-spruce-resources", "jurisdiction": "Quebec", "claim_id": "", "claim_name": null, "holder": "Cartier Silver Corporation", "status": "Active", "recorded_date": null, "anniversary_or_expiry": null, "area_ha": null, "tenure_type": null, "source": "GESTIM active titles (MRNF digital data dump). Not legal title.", "as_of": "2026-09-20", "role": "focus", "color": "#e8b040"}}, {"type": "Feature", "geometry": {"type": "Polygon", "coordinates": [[[-68.07500021423529, 52.11666667208017], [-68.07500021916178, 52.12500000941734], [-68.06666687867683, 52.125000007179835], [-68.06666687984611, 52.11666667406206], [-68.07500021423529, 52.11666667208017]]]}, "properties": {"company_id": "silver-spruce-resources", "jurisdiction": "Quebec", "claim_id": "", "claim_name": null, "holder": "Cartier Silver Corporation", "status": "Active", "recorded_date": null, "anniversary_or_expiry": null, "area_ha": null, "tenure_type": null, "source": "GESTIM active titles (MRNF digital data dump). Not legal title.", "as_of": "2026-09-20", "role": "focus", "color": "#e8b040"}}, {"type": "Feature", "geometry": {"type": "Polygon", "coordinates": [[[-68.10000021340576, 52.066666672970754], [-68.10000022095635, 52.07500000253825], [-68.09166688512141, 52.075000003940495], [-68.09166688275864, 52.0666666697552], [-68.10000021340576, 52.066666672970754]]]}, "properties": {"company_id": "silver-spruce-resources", "jurisdiction": "Quebec", "claim_id": "", "claim_name": null, "holder": "Cartier Silver Corporation", "status": "Active", "recorded_date": null, "anniversary_or_expiry": null, "area_ha": null, "tenure_type": null, "source": "GESTIM active titles (MRNF digital data dump). Not legal title.", "as_of": "2026-09-20", "role": "focus", "color": "#e8b040"}}, {"type": "Feature", "geometry": {"type": "Polygon", "coordinates": [[[-68.09166688275864, 52.0666666697552], [-68.09166688512141, 52.075000003940495], [-68.08333354454423, 52.075000009480334], [-68.08333354737734, 52.066666670635016], [-68.09166688275864, 52.0666666697552]]]}, "properties": {"company_id": "silver-spruce-resources", "jurisdiction": "Quebec", "claim_id": "", "claim_name": null, "holder": "Cartier Silver Corporation", "status": "Active", "recorded_date": null, "anniversary_or_expiry": null, "area_ha": null, "tenure_type": null, "source": "GESTIM active titles (MRNF digital data dump). Not legal title.", "as_of": "2026-09-20", "role": "focus", "color": "#e8b040"}}, {"type": "Feature", "geometry": {"type": "Polygon", "coordinates": [[[-68.14166689202783, 52.125000006719006], [-68.1416668987828, 52.13333334044182], [-68.13333355965132, 52.133333343172744], [-68.13333355930844, 52.125000005018], [-68.14166689202783, 52.125000006719006]]]}, "properties": {"company_id": "silver-spruce-resources", "jurisdiction": "Quebec", "claim_id": "", "claim_name": null, "holder": "Cartier Silver Corporation", "status": "Active", "recorded_date": null, "anniversary_or_expiry": null, "area_ha": null, "tenure_type": null, "source": "GESTIM active titles (MRNF digital data dump). Not legal title.", "as_of": "2026-09-20", "role": "focus", "color": "#e8b040"}}, {"type": "Feature", "geometry": {"type": "Polygon", "coordinates": [[[-68.13333355930844, 52.125000005018], [-68.13333355965132, 52.133333343172744], [-68.12500023073883, 52.13333334147295], [-68.12500022203132, 52.12500000772533], [-68.13333355930844, 52.125000005018]]]}, "properties": {"company_id": "silver-spruce-resources", "jurisdiction": "Quebec", "claim_id": "", "claim_name": null, "holder": "Cartier Silver Corporation", "status": "Active", "recorded_date": null, "anniversary_or_expiry": null, "area_ha": null, "tenure_type": null, "source": "GESTIM active titles (MRNF digital data dump). Not legal title.", "as_of": "2026-09-20", "role": "focus", "color": "#e8b040"}}, {"type": "Feature", "geometry": {"type": "Polygon", "coordinates": [[[-68.12500022203132, 52.12500000772533], [-68.12500023073883, 52.13333334147295], [-68.11666689721822, 52.13333334422302], [-68.11666689493383, 52.12500000595768], [-68.12500022203132, 52.12500000772533]]]}, "properties": {"company_id": "silver-spruce-resources", "jurisdiction": "Quebec", "claim_id": "", "claim_name": null, "holder": "Cartier Silver Corporation", "status": "Active", "recorded_date": null, "anniversary_or_expiry": null, "area_ha": null, "tenure_type": null, "source": "GESTIM active titles (MRNF digital data dump). Not legal title.", "as_of": "2026-09-20", "role": "focus", "color": "#e8b040"}}, {"type": "Feature", "geometry": {"type": "Polygon", "coordinates": [[[-68.11666689493383, 52.12500000595768], [-68.11666689721822, 52.13333334422302], [-68.10833355922298, 52.13333334243023], [-68.10833354858458, 52.12500000848406], [-68.11666689493383, 52.12500000595768]]]}, "properties": {"company_id": "silver-spruce-resources", "jurisdiction": "Quebec", "claim_id": "", "claim_name": null, "holder": "Cartier Silver Corporation", "status": "Active", "recorded_date": null, "anniversary_or_expiry": null, "area_ha": null, "tenure_type": null, "source": "GESTIM active titles (MRNF digital data dump). Not legal title.", "as_of": "2026-09-20", "role": "focus", "color": "#e8b040"}}, {"type": "Feature", "geometry": {"type": "Polygon", "coordinates": [[[-68.10833354858458, 52.12500000848406], [-68.10833355922298, 52.13333334243023], [-68.10000021671217, 52.13333333609161], [-68.10000022693525, 52.125000006643106], [-68.10833354858458, 52.12500000848406]]]}, "properties": {"company_id": "silver-spruce-resources", "jurisdiction": "Quebec", "claim_id": "", "claim_name": null, "holder": "Cartier Silver Corporation", "status": "Active", "recorded_date": null, "anniversary_or_expiry": null, "area_ha": null, "tenure_type": null, "source": "GESTIM active titles (MRNF digital data dump). Not legal title.", "as_of": "2026-09-20", "role": "focus", "color": "#e8b040"}}, {"type": "Feature", "geometry": {"type": "Polygon", "coordinates": [[[-68.10000022693525, 52.125000006643106], [-68.10000021671217, 52.13333333609161], [-68.09166688388731, 52.13333334329601], [-68.0916668859457, 52.12500000909019], [-68.10000022693525, 52.125000006643106]]]}, "properties": {"company_id": "silver-spruce-resources", "jurisdiction": "Quebec", "claim_id": "", "claim_name": null, "holder": "Cartier Silver Corporation", "status": "Active", "recorded_date": null, "anniversary_or_expiry": null, "area_ha": null, "tenure_type": null, "source": "GESTIM active titles (MRNF digital data dump). Not legal title.", "as_of": "2026-09-20", "role": "focus", "color": "#e8b040"}}, {"type": "Feature", "geometry": {"type": "Polygon", "coordinates": [[[-68.0916668859457, 52.12500000909019], [-68.09166688388731, 52.13333334329601], [-68.08333354664273, 52.13333333696097], [-68.08333355496538, 52.125000007056556], [-68.0916668859457, 52.12500000909019]]]}, "properties": {"company_id": "silver-spruce-resources", "jurisdiction": "Quebec", "claim_id": "", "claim_name": null, "holder": "Cartier Silver Corporation", "status": "Active", "recorded_date": null, "anniversary_or_expiry": null, "area_ha": null, "tenure_type": null, "source": "GESTIM active titles (MRNF digital data dump). Not legal title.", "as_of": "2026-09-20", "role": "focus", "color": "#e8b040"}}, {"type": "Feature", "geometry": {"type": "Polygon", "coordinates": [[[-68.08333355496538, 52.125000007056556], [-68.08333354664273, 52.13333333696097], [-68.07500021899196, 52.133333344166914], [-68.07500021916178, 52.12500000941734], [-68.08333355496538, 52.125000007056556]]]}, "properties": {"company_id": "silver-spruce-resources", "jurisdiction": "Quebec", "claim_id": "", "claim_name": null, "holder": "Cartier Silver Corporation", "status": "Active", "recorded_date": null, "anniversary_or_expiry": null, "area_ha": null, "tenure_type": null, "source": "GESTIM active titles (MRNF digital data dump). Not legal title.", "as_of": "2026-09-20", "role": "focus", "color": "#e8b040"}}, {"type": "Feature", "geometry": {"type": "Polygon", "coordinates": [[[-68.12500023073883, 52.13333334147295], [-68.12500022080839, 52.141666672503256], [-68.11666689547356, 52.14166667089331], [-68.11666689721822, 52.13333334422302], [-68.12500023073883, 52.13333334147295]]]}, "properties": {"company_id": "silver-spruce-resources", "jurisdiction": "Quebec", "claim_id": "", "claim_name": null, "holder": "Cartier Silver Corporation", "status": "Active", "recorded_date": null, "anniversary_or_expiry": null, "area_ha": null, "tenure_type": null, "source": "GESTIM active titles (MRNF digital data dump). Not legal title.", "as_of": "2026-09-20", "role": "focus", "color": "#e8b040"}}, {"type": "Feature", "geometry": {"type": "Polygon", "coordinates": [[[-68.11666689721822, 52.13333334422302], [-68.11666689547356, 52.14166667089331], [-68.10833355086913, 52.14166667366425], [-68.10833355922298, 52.13333334243023], [-68.11666689721822, 52.13333334422302]]]}, "properties": {"company_id": "silver-spruce-resources", "jurisdiction": "Quebec", "claim_id": "", "claim_name": null, "holder": "Cartier Silver Corporation", "status": "Active", "recorded_date": null, "anniversary_or_expiry": null, "area_ha": null, "tenure_type": null, "source": "GESTIM active titles (MRNF digital data dump). Not legal title.", "as_of": "2026-09-20", "role": "focus", "color": "#e8b040"}}, {"type": "Feature", "geometry": {"type": "Polygon", "coordinates": [[[-68.10833355922298, 52.13333334243023], [-68.10833355086913, 52.14166667366425], [-68.10000021635216, 52.14166667204322], [-68.10000021671217, 52.13333333609161], [-68.10833355922298, 52.13333334243023]]]}, "properties": {"company_id": "silver-spruce-resources", "jurisdiction": "Quebec", "claim_id": "", "claim_name": null, "holder": "Cartier Silver Corporation", "status": "Active", "recorded_date": null, "anniversary_or_expiry": null, "area_ha": null, "tenure_type": null, "source": "GESTIM active titles (MRNF digital data dump). Not legal title.", "as_of": "2026-09-20", "role": "focus", "color": "#e8b040"}}, {"type": "Feature", "geometry": {"type": "Polygon", "coordinates": [[[-68.12500022080839, 52.141666672503256], [-68.1250002212842, 52.15000001002344], [-68.11666688934525, 52.150000003948776], [-68.11666689547356, 52.14166667089331], [-68.12500022080839, 52.141666672503256]]]}, "properties": {"company_id": "silver-spruce-resources", "jurisdiction": "Quebec", "claim_id": "", "claim_name": null, "holder": "Cartier Silver Corporation", "status": "Active", "recorded_date": null, "anniversary_or_expiry": null, "area_ha": null, "tenure_type": null, "source": "GESTIM active titles (MRNF digital data dump). Not legal title.", "as_of": "2026-09-20", "role": "focus", "color": "#e8b040"}}, {"type": "Feature", "geometry": {"type": "Polygon", "coordinates": [[[-68.11666689547356, 52.14166667089331], [-68.11666688934525, 52.150000003948776], [-68.10833355274316, 52.150000002407864], [-68.10833355086913, 52.14166667366425], [-68.11666689547356, 52.14166667089331]]]}, "properties": {"company_id": "silver-spruce-resources", "jurisdiction": "Quebec", "claim_id": "", "claim_name": null, "holder": "Cartier Silver Corporation", "status": "Active", "recorded_date": null, "anniversary_or_expiry": null, "area_ha": null, "tenure_type": null, "source": "GESTIM active titles (MRNF digital data dump). Not legal title.", "as_of": "2026-09-20", "role": "focus", "color": "#e8b040"}}, {"type": "Feature", "geometry": {"type": "Polygon", "coordinates": [[[-68.10833355086913, 52.14166667366425], [-68.10833355274316, 52.150000002407864], [-68.10000022604544, 52.15000000550917], [-68.10000021635216, 52.14166667204322], [-68.10833355086913, 52.14166667366425]]]}, "properties": {"company_id": "silver-spruce-resources", "jurisdiction": "Quebec", "claim_id": "", "claim_name": null, "holder": "Cartier Silver Corporation", "status": "Active", "recorded_date": null, "anniversary_or_expiry": null, "area_ha": null, "tenure_type": null, "source": "GESTIM active titles (MRNF digital data dump). Not legal title.", "as_of": "2026-09-20", "role": "focus", "color": "#e8b040"}}, {"type": "Feature", "geometry": {"type": "Polygon", "coordinates": [[[-68.1750002478799, 51.991666670457015], [-68.17500024095528, 52.00000000149458], [-68.16666691113035, 52.00000000795718], [-68.16666690701643, 51.99166667261611], [-68.1750002478799, 51.991666670457015]]]}, "properties": {"company_id": "silver-spruce-resources", "jurisdiction": "Quebec", "claim_id": "", "claim_name": null, "holder": "Cartier Silver Corporation", "status": "Active", "recorded_date": null, "anniversary_or_expiry": null, "area_ha": null, "tenure_type": null, "source": "GESTIM active titles (MRNF digital data dump). Not legal title.", "as_of": "2026-09-20", "role": "focus", "color": "#e8b040"}}, {"type": "Feature", "geometry": {"type": "Polygon", "coordinates": [[[-68.16666690701643, 51.99166667261611], [-68.16666691113035, 52.00000000795718], [-68.1583335771775, 52.00000000920452], [-68.1583335765947, 51.99166666961992], [-68.16666690701643, 51.99166667261611]]]}, "properties": {"company_id": "silver-spruce-resources", "jurisdiction": "Quebec", "claim_id": "", "claim_name": null, "holder": "Cartier Silver Corporation", "status": "Active", "recorded_date": null, "anniversary_or_expiry": null, "area_ha": null, "tenure_type": null, "source": "GESTIM active titles (MRNF digital data dump). Not legal title.", "as_of": "2026-09-20", "role": "focus", "color": "#e8b040"}}, {"type": "Feature", "geometry": {"type": "Polygon", "coordinates": [[[-63.49999999836481, 50.55000000658297], [-63.500000006765774, 50.55833333841333], [-63.49166666435929, 50.55833333865731], [-63.4916666711349, 50.549999999778755], [-63.49999999836481, 50.55000000658297]]]}, "properties": {"company_id": "silver-spruce-resources", "jurisdiction": "Quebec", "claim_id": "", "claim_name": null, "holder": "Silverwater Capital Corp", "status": "Active", "recorded_date": null, "anniversary_or_expiry": null, "area_ha": null, "tenure_type": null, "source": "GESTIM active titles (MRNF digital data dump). Not legal title.", "as_of": "2026-09-20", "role": "focus", "color": "#e8b040"}}, {"type": "Feature", "geometry": {"type": "Polygon", "coordinates": [[[-63.500000006765774, 50.55833333841333], [-63.49999999757575, 50.56666666741307], [-63.491666668049, 50.56666667458249], [-63.49166666435929, 50.55833333865731], [-63.500000006765774, 50.55833333841333]]]}, "properties": {"company_id": "silver-spruce-resources", "jurisdiction": "Quebec", "claim_id": "", "claim_name": null, "holder": "Silverwater Capital Corp", "status": "Active", "recorded_date": null, "anniversary_or_expiry": null, "area_ha": null, "tenure_type": null, "source": "GESTIM active titles (MRNF digital data dump). Not legal title.", "as_of": "2026-09-20", "role": "focus", "color": "#e8b040"}}, {"type": "Feature", "geometry": {"type": "Polygon", "coordinates": [[[-63.49999999757575, 50.56666666741307], [-63.499999999122785, 50.57500000245446], [-63.49166666808572, 50.5750000076146], [-63.491666668049, 50.56666667458249], [-63.49999999757575, 50.56666666741307]]]}, "properties": {"company_id": "silver-spruce-resources", "jurisdiction": "Quebec", "claim_id": "", "claim_name": null, "holder": "Silverwater Capital Corp", "status": "Active", "recorded_date": null, "anniversary_or_expiry": null, "area_ha": null, "tenure_type": null, "source": "GESTIM active titles (MRNF digital data dump). Not legal title.", "as_of": "2026-09-20", "role": "focus", "color": "#e8b040"}}, {"type": "Feature", "geometry": {"type": "Polygon", "coordinates": [[[-63.499999999122785, 50.57500000245446], [-63.49999999719104, 50.58333333460589], [-63.491666664465676, 50.58333333775427], [-63.49166666808572, 50.5750000076146], [-63.499999999122785, 50.57500000245446]]]}, "properties": {"company_id": "silver-spruce-resources", "jurisdiction": "Quebec", "claim_id": "", "claim_name": null, "holder": "Silverwater Capital Corp", "status": "Active", "recorded_date": null, "anniversary_or_expiry": null, "area_ha": null, "tenure_type": null, "source": "GESTIM active titles (MRNF digital data dump). Not legal title.", "as_of": "2026-09-20", "role": "focus", "color": "#e8b040"}}, {"type": "Feature", "geometry": {"type": "Polygon", "coordinates": [[[-63.49999999719104, 50.58333333460589], [-63.50000000599908, 50.59166667280025], [-63.49166667140581, 50.59166667393541], [-63.491666664465676, 50.58333333775427], [-63.49999999719104, 50.58333333460589]]]}, "properties": {"company_id": "silver-spruce-resources", "jurisdiction": "Quebec", "claim_id": "", "claim_name": null, "holder": "Silverwater Capital Corp", "status": "Active", "recorded_date": null, "anniversary_or_expiry": null, "area_ha": null, "tenure_type": null, "source": "GESTIM active titles (MRNF digital data dump). Not legal title.", "as_of": "2026-09-20", "role": "focus", "color": "#e8b040"}}, {"type": "Feature", "geometry": {"type": "Polygon", "coordinates": [[[-63.491666664465676, 50.58333333775427], [-63.49166667140581, 50.59166667393541], [-63.48333333879156, 50.59166667245296], [-63.48333333371531, 50.583333338251364], [-63.491666664465676, 50.58333333775427]]]}, "properties": {"company_id": "silver-spruce-resources", "jurisdiction": "Quebec", "claim_id": "", "claim_name": null, "holder": "Silverwater Capital Corp", "status": "Active", "recorded_date": null, "anniversary_or_expiry": null, "area_ha": null, "tenure_type": null, "source": "GESTIM active titles (MRNF digital data dump). Not legal title.", "as_of": "2026-09-20", "role": "focus", "color": "#e8b040"}}, {"type": "Feature", "geometry": {"type": "Polygon", "coordinates": [[[-63.48333333371531, 50.583333338251364], [-63.48333333879156, 50.59166667245296], [-63.4749999939967, 50.59166666841219], [-63.475000004907436, 50.583333336098804], [-63.48333333371531, 50.583333338251364]]]}, "properties": {"company_id": "silver-spruce-resources", "jurisdiction": "Quebec", "claim_id": "", "claim_name": null, "holder": "Silverwater Capital Corp", "status": "Active", "recorded_date": null, "anniversary_or_expiry": null, "area_ha": null, "tenure_type": null, "source": "GESTIM active titles (MRNF digital data dump). Not legal title.", "as_of": "2026-09-20", "role": "focus", "color": "#e8b040"}}, {"type": "Feature", "geometry": {"type": "Polygon", "coordinates": [[[-63.46666666397376, 50.58333334034758], [-63.46666666533159, 50.59166667069124], [-63.45833333854447, 50.59166667035751], [-63.458333338951554, 50.583333332899386], [-63.46666666397376, 50.58333334034758]]]}, "properties": {"company_id": "silver-spruce-resources", "jurisdiction": "Quebec", "claim_id": "", "claim_name": null, "holder": "Silverwater Capital Corp", "status": "Active", "recorded_date": null, "anniversary_or_expiry": null, "area_ha": null, "tenure_type": null, "source": "GESTIM active titles (MRNF digital data dump). Not legal title.", "as_of": "2026-09-20", "role": "focus", "color": "#e8b040"}}, {"type": "Feature", "geometry": {"type": "Polygon", "coordinates": [[[-63.458333338951554, 50.583333332899386], [-63.45833333854447, 50.59166667035751], [-63.449999999475665, 50.5916666674671], [-63.45000000182095, 50.58333334084648], [-63.458333338951554, 50.583333332899386]]]}, "properties": {"company_id": "silver-spruce-resources", "jurisdiction": "Quebec", "claim_id": "", "claim_name": null, "holder": "Silverwater Capital Corp", "status": "Active", "recorded_date": null, "anniversary_or_expiry": null, "area_ha": null, "tenure_type": null, "source": "GESTIM active titles (MRNF digital data dump). Not legal title.", "as_of": "2026-09-20", "role": "focus", "color": "#e8b040"}}, {"type": "Feature", "geometry": {"type": "Polygon", "coordinates": [[[-63.54999999554907, 50.53333333588689], [-63.55000000143951, 50.54166666828321], [-63.54166666263327, 50.54166667144157], [-63.54166667167229, 50.5333333411813], [-63.54999999554907, 50.53333333588689]]]}, "properties": {"company_id": "silver-spruce-resources", "jurisdiction": "Quebec", "claim_id": "", "claim_name": null, "holder": "Silverwater Capital Corp", "status": "Active", "recorded_date": null, "anniversary_or_expiry": null, "area_ha": null, "tenure_type": null, "source": "GESTIM active titles (MRNF digital data dump). Not legal title.", "as_of": "2026-09-20", "role": "focus", "color": "#e8b040"}}, {"type": "Feature", "geometry": {"type": "Polygon", "coordinates": [[[-63.54166667167229, 50.5333333411813], [-63.54166666263327, 50.54166667144157], [-63.533333340096654, 50.54166667170552], [-63.53333333573789, 50.53333333468613], [-63.54166667167229, 50.5333333411813]]]}, "properties": {"company_id": "silver-spruce-resources", "jurisdiction": "Quebec", "claim_id": "", "claim_name": null, "holder": "Silverwater Capital Corp", "status": "Active", "recorded_date": null, "anniversary_or_expiry": null, "area_ha": null, "tenure_type": null, "source": "GESTIM active titles (MRNF digital data dump). Not legal title.", "as_of": "2026-09-20", "role": "focus", "color": "#e8b040"}}, {"type": "Feature", "geometry": {"type": "Polygon", "coordinates": [[[-63.53333333573789, 50.53333333468613], [-63.533333340096654, 50.54166667170552], [-63.52500000557356, 50.54166666920703], [-63.52500000202756, 50.5333333343222], [-63.53333333573789, 50.53333333468613]]]}, "properties": {"company_id": "silver-spruce-resources", "jurisdiction": "Quebec", "claim_id": "", "claim_name": null, "holder": "Silverwater Capital Corp", "status": "Active", "recorded_date": null, "anniversary_or_expiry": null, "area_ha": null, "tenure_type": null, "source": "GESTIM active titles (MRNF digital data dump). Not legal title.", "as_of": "2026-09-20", "role": "focus", "color": "#e8b040"}}, {"type": "Feature", "geometry": {"type": "Polygon", "coordinates": [[[-63.54166666263327, 50.54166667144157], [-63.541666665226145, 50.55000000774936], [-63.533333327582696, 50.5500000059072], [-63.533333340096654, 50.54166667170552], [-63.54166666263327, 50.54166667144157]]]}, "properties": {"company_id": "silver-spruce-resources", "jurisdiction": "Quebec", "claim_id": "", "claim_name": null, "holder": "Silverwater Capital Corp", "status": "Active", "recorded_date": null, "anniversary_or_expiry": null, "area_ha": null, "tenure_type": null, "source": "GESTIM active titles (MRNF digital data dump). Not legal title.", "as_of": "2026-09-20", "role": "focus", "color": "#e8b040"}}, {"type": "Feature", "geometry": {"type": "Polygon", "coordinates": [[[-63.533333340096654, 50.54166667170552], [-63.533333327582696, 50.5500000059072], [-63.52500000618356, 50.55000000120696], [-63.52500000557356, 50.54166666920703], [-63.533333340096654, 50.54166667170552]]]}, "properties": {"company_id": "silver-spruce-resources", "jurisdiction": "Quebec", "claim_id": "", "claim_name": null, "holder": "Silverwater Capital Corp", "status": "Active", "recorded_date": null, "anniversary_or_expiry": null, "area_ha": null, "tenure_type": null, "source": "GESTIM active titles (MRNF digital data dump). Not legal title.", "as_of": "2026-09-20", "role": "focus", "color": "#e8b040"}}, {"type": "Feature", "geometry": {"type": "Polygon", "coordinates": [[[-63.55000000503168, 50.5500000067953], [-63.550000006113066, 50.55833333343822], [-63.54166666523511, 50.55833334117811], [-63.541666665226145, 50.55000000774936], [-63.55000000503168, 50.5500000067953]]]}, "properties": {"company_id": "silver-spruce-resources", "jurisdiction": "Quebec", "claim_id": "", "claim_name": null, "holder": "Silverwater Capital Corp", "status": "Active", "recorded_date": null, "anniversary_or_expiry": null, "area_ha": null, "tenure_type": null, "source": "GESTIM active titles (MRNF digital data dump). Not legal title.", "as_of": "2026-09-20", "role": "focus", "color": "#e8b040"}}, {"type": "Feature", "geometry": {"type": "Polygon", "coordinates": [[[-63.533333327582696, 50.5500000059072], [-63.53333332641902, 50.55833333716261], [-63.525000003953984, 50.55833333931545], [-63.52500000618356, 50.55000000120696], [-63.533333327582696, 50.5500000059072]]]}, "properties": {"company_id": "silver-spruce-resources", "jurisdiction": "Quebec", "claim_id": "", "claim_name": null, "holder": "Silverwater Capital Corp", "status": "Active", "recorded_date": null, "anniversary_or_expiry": null, "area_ha": null, "tenure_type": null, "source": "GESTIM active titles (MRNF digital data dump). Not legal title.", "as_of": "2026-09-20", "role": "focus", "color": "#e8b040"}}, {"type": "Feature", "geometry": {"type": "Polygon", "coordinates": [[[-63.52500000618356, 50.55000000120696], [-63.525000003953984, 50.55833333931545], [-63.51666666947066, 50.558333338773906], [-63.51666667286579, 50.55000000277156], [-63.52500000618356, 50.55000000120696]]]}, "properties": {"company_id": "silver-spruce-resources", "jurisdiction": "Quebec", "claim_id": "", "claim_name": null, "holder": "Silverwater Capital Corp", "status": "Active", "recorded_date": null, "anniversary_or_expiry": null, "area_ha": null, "tenure_type": null, "source": "GESTIM active titles (MRNF digital data dump). Not legal title.", "as_of": "2026-09-20", "role": "focus", "color": "#e8b040"}}, {"type": "Feature", "geometry": {"type": "Polygon", "coordinates": [[[-63.51666667286579, 50.55000000277156], [-63.51666666947066, 50.558333338773906], [-63.50833333705365, 50.558333335475005], [-63.50833332749555, 50.55000000160675], [-63.51666667286579, 50.55000000277156]]]}, "properties": {"company_id": "silver-spruce-resources", "jurisdiction": "Quebec", "claim_id": "", "claim_name": null, "holder": "Silverwater Capital Corp", "status": "Active", "recorded_date": null, "anniversary_or_expiry": null, "area_ha": null, "tenure_type": null, "source": "GESTIM active titles (MRNF digital data dump). Not legal title.", "as_of": "2026-09-20", "role": "focus", "color": "#e8b040"}}, {"type": "Feature", "geometry": {"type": "Polygon", "coordinates": [[[-63.50833332749555, 50.55000000160675], [-63.50833333705365, 50.558333335475005], [-63.500000006765774, 50.55833333841333], [-63.49999999836481, 50.55000000658297], [-63.50833332749555, 50.55000000160675]]]}, "properties": {"company_id": "silver-spruce-resources", "jurisdiction": "Quebec", "claim_id": "", "claim_name": null, "holder": "Silverwater Capital Corp", "status": "Active", "recorded_date": null, "anniversary_or_expiry": null, "area_ha": null, "tenure_type": null, "source": "GESTIM active titles (MRNF digital data dump). Not legal title.", "as_of": "2026-09-20", "role": "focus", "color": "#e8b040"}}, {"type": "Feature", "geometry": {"type": "Polygon", "coordinates": [[[-63.550000006113066, 50.55833333343822], [-63.55000000488965, 50.56666666619824], [-63.54166666265677, 50.566666671728505], [-63.54166666523511, 50.55833334117811], [-63.550000006113066, 50.55833333343822]]]}, "properties": {"company_id": "silver-spruce-resources", "jurisdiction": "Quebec", "claim_id": "", "claim_name": null, "holder": "Silverwater Capital Corp", "status": "Active", "recorded_date": null, "anniversary_or_expiry": null, "area_ha": null, "tenure_type": null, "source": "GESTIM active titles (MRNF digital data dump). Not legal title.", "as_of": "2026-09-20", "role": "focus", "color": "#e8b040"}}, {"type": "Feature", "geometry": {"type": "Polygon", "coordinates": [[[-63.54166666523511, 50.55833334117811], [-63.54166666265677, 50.566666671728505], [-63.53333333671118, 50.56666667446517], [-63.53333332641902, 50.55833333716261], [-63.54166666523511, 50.55833334117811]]]}, "properties": {"company_id": "silver-spruce-resources", "jurisdiction": "Quebec", "claim_id": "", "claim_name": null, "holder": "Silverwater Capital Corp", "status": "Active", "recorded_date": null, "anniversary_or_expiry": null, "area_ha": null, "tenure_type": null, "source": "GESTIM active titles (MRNF digital data dump). Not legal title.", "as_of": "2026-09-20", "role": "focus", "color": "#e8b040"}}, {"type": "Feature", "geometry": {"type": "Polygon", "coordinates": [[[-63.525000003953984, 50.55833333931545], [-63.524999998781496, 50.56666667454034], [-63.51666666295478, 50.56666667189011], [-63.51666666947066, 50.558333338773906], [-63.525000003953984, 50.55833333931545]]]}, "properties": {"company_id": "silver-spruce-resources", "jurisdiction": "Quebec", "claim_id": "", "claim_name": null, "holder": "Silverwater Capital Corp", "status": "Active", "recorded_date": null, "anniversary_or_expiry": null, "area_ha": null, "tenure_type": null, "source": "GESTIM active titles (MRNF digital data dump). Not legal title.", "as_of": "2026-09-20", "role": "focus", "color": "#e8b040"}}, {"type": "Feature", "geometry": {"type": "Polygon", "coordinates": [[[-63.51666666947066, 50.558333338773906], [-63.51666666295478, 50.56666667189011], [-63.5083333291986, 50.56666666651616], [-63.50833333705365, 50.558333335475005], [-63.51666666947066, 50.558333338773906]]]}, "properties": {"company_id": "silver-spruce-resources", "jurisdiction": "Quebec", "claim_id": "", "claim_name": null, "holder": "Silverwater Capital Corp", "status": "Active", "recorded_date": null, "anniversary_or_expiry": null, "area_ha": null, "tenure_type": null, "source": "GESTIM active titles (MRNF digital data dump). Not legal title.", "as_of": "2026-09-20", "role": "focus", "color": "#e8b040"}}, {"type": "Feature", "geometry": {"type": "Polygon", "coordinates": [[[-63.50833333705365, 50.558333335475005], [-63.5083333291986, 50.56666666651616], [-63.49999999757575, 50.56666666741307], [-63.500000006765774, 50.55833333841333], [-63.50833333705365, 50.558333335475005]]]}, "properties": {"company_id": "silver-spruce-resources", "jurisdiction": "Quebec", "claim_id": "", "claim_name": null, "holder": "Silverwater Capital Corp", "status": "Active", "recorded_date": null, "anniversary_or_expiry": null, "area_ha": null, "tenure_type": null, "source": "GESTIM active titles (MRNF digital data dump). Not legal title.", "as_of": "2026-09-20", "role": "focus", "color": "#e8b040"}}, {"type": "Feature", "geometry": {"type": "Polygon", "coordinates": [[[-63.54166666265677, 50.566666671728505], [-63.54166667160976, 50.57499999933555], [-63.533333330016326, 50.57499999995929], [-63.53333333671118, 50.56666667446517], [-63.54166666265677, 50.566666671728505]]]}, "properties": {"company_id": "silver-spruce-resources", "jurisdiction": "Quebec", "claim_id": "", "claim_name": null, "holder": "Silverwater Capital Corp", "status": "Active", "recorded_date": null, "anniversary_or_expiry": null, "area_ha": null, "tenure_type": null, "source": "GESTIM active titles (MRNF digital data dump). Not legal title.", "as_of": "2026-09-20", "role": "focus", "color": "#e8b040"}}, {"type": "Feature", "geometry": {"type": "Polygon", "coordinates": [[[-63.53333333671118, 50.56666667446517], [-63.533333330016326, 50.57499999995929], [-63.525000004784566, 50.57500000681865], [-63.524999998781496, 50.56666667454034], [-63.53333333671118, 50.56666667446517]]]}, "properties": {"company_id": "silver-spruce-resources", "jurisdiction": "Quebec", "claim_id": "", "claim_name": null, "holder": "Silverwater Capital Corp", "status": "Active", "recorded_date": null, "anniversary_or_expiry": null, "area_ha": null, "tenure_type": null, "source": "GESTIM active titles (MRNF digital data dump). Not legal title.", "as_of": "2026-09-20", "role": "focus", "color": "#e8b040"}}, {"type": "Feature", "geometry": {"type": "Polygon", "coordinates": [[[-63.524999998781496, 50.56666667454034], [-63.525000004784566, 50.57500000681865], [-63.51666666743654, 50.57500000205818], [-63.51666666295478, 50.56666667189011], [-63.524999998781496, 50.56666667454034]]]}, "properties": {"company_id": "silver-spruce-resources", "jurisdiction": "Quebec", "claim_id": "", "claim_name": null, "holder": "Silverwater Capital Corp", "status": "Active", "recorded_date": null, "anniversary_or_expiry": null, "area_ha": null, "tenure_type": null, "source": "GESTIM active titles (MRNF digital data dump). Not legal title.", "as_of": "2026-09-20", "role": "focus", "color": "#e8b040"}}, {"type": "Feature", "geometry": {"type": "Polygon", "coordinates": [[[-63.51666666295478, 50.56666667189011], [-63.51666666743654, 50.57500000205818], [-63.50833333226009, 50.57500000360046], [-63.5083333291986, 50.56666666651616], [-63.51666666295478, 50.56666667189011]]]}, "properties": {"company_id": "silver-spruce-resources", "jurisdiction": "Quebec", "claim_id": "", "claim_name": null, "holder": "Silverwater Capital Corp", "status": "Active", "recorded_date": null, "anniversary_or_expiry": null, "area_ha": null, "tenure_type": null, "source": "GESTIM active titles (MRNF digital data dump). Not legal title.", "as_of": "2026-09-20", "role": "focus", "color": "#e8b040"}}, {"type": "Feature", "geometry": {"type": "Polygon", "coordinates": [[[-63.5083333291986, 50.56666666651616], [-63.50833333226009, 50.57500000360046], [-63.499999999122785, 50.57500000245446], [-63.49999999757575, 50.56666666741307], [-63.5083333291986, 50.56666666651616]]]}, "properties": {"company_id": "silver-spruce-resources", "jurisdiction": "Quebec", "claim_id": "", "claim_name": null, "holder": "Silverwater Capital Corp", "status": "Active", "recorded_date": null, "anniversary_or_expiry": null, "area_ha": null, "tenure_type": null, "source": "GESTIM active titles (MRNF digital data dump). Not legal title.", "as_of": "2026-09-20", "role": "focus", "color": "#e8b040"}}, {"type": "Feature", "geometry": {"type": "Polygon", "coordinates": [[[-63.525000004784566, 50.57500000681865], [-63.52499999371822, 50.58333333627838], [-63.516666668893805, 50.5833333383342], [-63.51666666743654, 50.57500000205818], [-63.525000004784566, 50.57500000681865]]]}, "properties": {"company_id": "silver-spruce-resources", "jurisdiction": "Quebec", "claim_id": "", "claim_name": null, "holder": "Silverwater Capital Corp", "status": "Active", "recorded_date": null, "anniversary_or_expiry": null, "area_ha": null, "tenure_type": null, "source": "GESTIM active titles (MRNF digital data dump). Not legal title.", "as_of": "2026-09-20", "role": "focus", "color": "#e8b040"}}, {"type": "Feature", "geometry": {"type": "Polygon", "coordinates": [[[-63.50833333226009, 50.57500000360046], [-63.50833333202079, 50.583333337797335], [-63.49999999719104, 50.58333333460589], [-63.499999999122785, 50.57500000245446], [-63.50833333226009, 50.57500000360046]]]}, "properties": {"company_id": "silver-spruce-resources", "jurisdiction": "Quebec", "claim_id": "", "claim_name": null, "holder": "Silverwater Capital Corp", "status": "Active", "recorded_date": null, "anniversary_or_expiry": null, "area_ha": null, "tenure_type": null, "source": "GESTIM active titles (MRNF digital data dump). Not legal title.", "as_of": "2026-09-20", "role": "focus", "color": "#e8b040"}}, {"type": "Feature", "geometry": {"type": "Polygon", "coordinates": [[[-63.52499999371822, 50.58333333627838], [-63.52499999392546, 50.59166667178564], [-63.51666666722469, 50.59166667172605], [-63.516666668893805, 50.5833333383342], [-63.52499999371822, 50.58333333627838]]]}, "properties": {"company_id": "silver-spruce-resources", "jurisdiction": "Quebec", "claim_id": "", "claim_name": null, "holder": "Silverwater Capital Corp", "status": "Active", "recorded_date": null, "anniversary_or_expiry": null, "area_ha": null, "tenure_type": null, "source": "GESTIM active titles (MRNF digital data dump). Not legal title.", "as_of": "2026-09-20", "role": "focus", "color": "#e8b040"}}, {"type": "Feature", "geometry": {"type": "Polygon", "coordinates": [[[-63.516666668893805, 50.5833333383342], [-63.51666666722469, 50.59166667172605], [-63.50833332847702, 50.59166666910752], [-63.50833333202079, 50.583333337797335], [-63.516666668893805, 50.5833333383342]]]}, "properties": {"company_id": "silver-spruce-resources", "jurisdiction": "Quebec", "claim_id": "", "claim_name": null, "holder": "Silverwater Capital Corp", "status": "Active", "recorded_date": null, "anniversary_or_expiry": null, "area_ha": null, "tenure_type": null, "source": "GESTIM active titles (MRNF digital data dump). Not legal title.", "as_of": "2026-09-20", "role": "focus", "color": "#e8b040"}}, {"type": "Feature", "geometry": {"type": "Polygon", "coordinates": [[[-75.98333333953701, 49.15833333685944], [-75.98333333721082, 49.166666672579105], [-75.97500000316387, 49.166666668681394], [-75.97500000504527, 49.15833333594245], [-75.98333333953701, 49.15833333685944]]]}, "properties": {"company_id": "silver-spruce-resources", "jurisdiction": "Quebec", "claim_id": "", "claim_name": null, "holder": "Canadian Silver Hunter inc.", "status": "Active", "recorded_date": null, "anniversary_or_expiry": null, "area_ha": null, "tenure_type": null, "source": "GESTIM active titles (MRNF digital data dump). Not legal title.", "as_of": "2026-09-20", "role": "focus", "color": "#e8b040"}}, {"type": "Feature", "geometry": {"type": "Polygon", "coordinates": [[[-75.98333333721082, 49.166666672579105], [-75.98333332836957, 49.175000005615495], [-75.97499999476685, 49.17500000772616], [-75.97500000316387, 49.166666668681394], [-75.98333333721082, 49.166666672579105]]]}, "properties": {"company_id": "silver-spruce-resources", "jurisdiction": "Quebec", "claim_id": "", "claim_name": null, "holder": "Canadian Silver Hunter inc.", "status": "Active", "recorded_date": null, "anniversary_or_expiry": null, "area_ha": null, "tenure_type": null, "source": "GESTIM active titles (MRNF digital data dump). Not legal title.", "as_of": "2026-09-20", "role": "focus", "color": "#e8b040"}}, {"type": "Feature", "geometry": {"type": "Polygon", "coordinates": [[[-75.97500000316387, 49.166666668681394], [-75.97499999476685, 49.17500000772616], [-75.96666666398478, 49.17500000204842], [-75.96666667210827, 49.166666665963874], [-75.97500000316387, 49.166666668681394]]]}, "properties": {"company_id": "silver-spruce-resources", "jurisdiction": "Quebec", "claim_id": "", "claim_name": null, "holder": "Canadian Silver Hunter inc.", "status": "Active", "recorded_date": null, "anniversary_or_expiry": null, "area_ha": null, "tenure_type": null, "source": "GESTIM active titles (MRNF digital data dump). Not legal title.", "as_of": "2026-09-20", "role": "focus", "color": "#e8b040"}}, {"type": "Feature", "geometry": {"type": "Polygon", "coordinates": [[[-75.96666667210827, 49.166666665963874], [-75.96666666398478, 49.17500000204842], [-75.95833333634918, 49.17500000657353], [-75.95833333047585, 49.16666667353764], [-75.96666667210827, 49.166666665963874]]]}, "properties": {"company_id": "silver-spruce-resources", "jurisdiction": "Quebec", "claim_id": "", "claim_name": null, "holder": "Canadian Silver Hunter inc.", "status": "Active", "recorded_date": null, "anniversary_or_expiry": null, "area_ha": null, "tenure_type": null, "source": "GESTIM active titles (MRNF digital data dump). Not legal title.", "as_of": "2026-09-20", "role": "focus", "color": "#e8b040"}}, {"type": "Feature", "geometry": {"type": "Polygon", "coordinates": [[[-75.95833333047585, 49.16666667353764], [-75.95833333634918, 49.17500000657353], [-75.94999999776704, 49.17500000342941], [-75.95000000532362, 49.16666667318909], [-75.95833333047585, 49.16666667353764]]]}, "properties": {"company_id": "silver-spruce-resources", "jurisdiction": "Quebec", "claim_id": "", "claim_name": null, "holder": "Canadian Silver Hunter inc.", "status": "Active", "recorded_date": null, "anniversary_or_expiry": null, "area_ha": null, "tenure_type": null, "source": "GESTIM active titles (MRNF digital data dump). Not legal title.", "as_of": "2026-09-20", "role": "focus", "color": "#e8b040"}}, {"type": "Feature", "geometry": {"type": "Polygon", "coordinates": [[[-75.98333332836957, 49.175000005615495], [-75.98333332672685, 49.18333333585231], [-75.97499999321452, 49.18333333497335], [-75.97499999476685, 49.17500000772616], [-75.98333332836957, 49.175000005615495]]]}, "properties": {"company_id": "silver-spruce-resources", "jurisdiction": "Quebec", "claim_id": "", "claim_name": null, "holder": "Canadian Silver Hunter inc.", "status": "Active", "recorded_date": null, "anniversary_or_expiry": null, "area_ha": null, "tenure_type": null, "source": "GESTIM active titles (MRNF digital data dump). Not legal title.", "as_of": "2026-09-20", "role": "focus", "color": "#e8b040"}}, {"type": "Feature", "geometry": {"type": "Polygon", "coordinates": [[[-75.97499999476685, 49.17500000772616], [-75.97499999321452, 49.18333333497335], [-75.96666666270549, 49.183333335325464], [-75.96666666398478, 49.17500000204842], [-75.97499999476685, 49.17500000772616]]]}, "properties": {"company_id": "silver-spruce-resources", "jurisdiction": "Quebec", "claim_id": "", "claim_name": null, "holder": "Canadian Silver Hunter inc.", "status": "Active", "recorded_date": null, "anniversary_or_expiry": null, "area_ha": null, "tenure_type": null, "source": "GESTIM active titles (MRNF digital data dump). Not legal title.", "as_of": "2026-09-20", "role": "focus", "color": "#e8b040"}}, {"type": "Feature", "geometry": {"type": "Polygon", "coordinates": [[[-75.94999999580862, 49.11666667015424], [-75.95000000375428, 49.124999998857184], [-75.94166666350354, 49.12500000516803], [-75.94166666773131, 49.11666667021598], [-75.94999999580862, 49.11666667015424]]]}, "properties": {"company_id": "silver-spruce-resources", "jurisdiction": "Quebec", "claim_id": "", "claim_name": null, "holder": "Canadian Silver Hunter inc.", "status": "Active", "recorded_date": null, "anniversary_or_expiry": null, "area_ha": null, "tenure_type": null, "source": "GESTIM active titles (MRNF digital data dump). Not legal title.", "as_of": "2026-09-20", "role": "focus", "color": "#e8b040"}}, {"type": "Feature", "geometry": {"type": "Polygon", "coordinates": [[[-75.95000000375428, 49.124999998857184], [-75.95000000467346, 49.133333333848846], [-75.94166666560272, 49.13333333729798], [-75.94166666350354, 49.12500000516803], [-75.95000000375428, 49.124999998857184]]]}, "properties": {"company_id": "silver-spruce-resources", "jurisdiction": "Quebec", "claim_id": "", "claim_name": null, "holder": "Canadian Silver Hunter inc.", "status": "Active", "recorded_date": null, "anniversary_or_expiry": null, "area_ha": null, "tenure_type": null, "source": "GESTIM active titles (MRNF digital data dump). Not legal title.", "as_of": "2026-09-20", "role": "focus", "color": "#e8b040"}}, {"type": "Feature", "geometry": {"type": "Polygon", "coordinates": [[[-75.98333333553288, 49.15000000745001], [-75.98333333953701, 49.15833333685944], [-75.97500000504527, 49.15833333594245], [-75.9750000002412, 49.15000000051474], [-75.98333333553288, 49.15000000745001]]]}, "properties": {"company_id": "silver-spruce-resources", "jurisdiction": "Quebec", "claim_id": "", "claim_name": null, "holder": "Canadian Silver Hunter inc.", "status": "Active", "recorded_date": null, "anniversary_or_expiry": null, "area_ha": null, "tenure_type": null, "source": "GESTIM active titles (MRNF digital data dump). Not legal title.", "as_of": "2026-09-20", "role": "focus", "color": "#e8b040"}}, {"type": "Feature", "geometry": {"type": "Polygon", "coordinates": [[[-75.79166667142869, 49.14999999969025], [-75.7916666651512, 49.15833333922059], [-75.7833333375015, 49.158333338962464], [-75.78333332930983, 49.15000000191908], [-75.79166667142869, 49.14999999969025]]]}, "properties": {"company_id": "silver-spruce-resources", "jurisdiction": "Quebec", "claim_id": "", "claim_name": null, "holder": "Canadian Silver Hunter inc.", "status": "Active", "recorded_date": null, "anniversary_or_expiry": null, "area_ha": null, "tenure_type": null, "source": "GESTIM active titles (MRNF digital data dump). Not legal title.", "as_of": "2026-09-20", "role": "focus", "color": "#e8b040"}}, {"type": "Feature", "geometry": {"type": "Polygon", "coordinates": [[[-75.78333332930983, 49.15000000191908], [-75.7833333375015, 49.158333338962464], [-75.77499999853472, 49.15833334000969], [-75.77500000329395, 49.15000000524187], [-75.78333332930983, 49.15000000191908]]]}, "properties": {"company_id": "silver-spruce-resources", "jurisdiction": "Quebec", "claim_id": "", "claim_name": null, "holder": "Canadian Silver Hunter inc.", "status": "Active", "recorded_date": null, "anniversary_or_expiry": null, "area_ha": null, "tenure_type": null, "source": "GESTIM active titles (MRNF digital data dump). Not legal title.", "as_of": "2026-09-20", "role": "focus", "color": "#e8b040"}}, {"type": "Feature", "geometry": {"type": "Polygon", "coordinates": [[[-76.01666666213197, 49.16666667328732], [-76.01666666563867, 49.17500000041197], [-76.00833333369471, 49.17500000660476], [-76.00833332976282, 49.166666673572564], [-76.01666666213197, 49.16666667328732]]]}, "properties": {"company_id": "silver-spruce-resources", "jurisdiction": "Quebec", "claim_id": "", "claim_name": null, "holder": "Canadian Silver Hunter inc.", "status": "Active", "recorded_date": null, "anniversary_or_expiry": null, "area_ha": null, "tenure_type": null, "source": "GESTIM active titles (MRNF digital data dump). Not legal title.", "as_of": "2026-09-20", "role": "focus", "color": "#e8b040"}}, {"type": "Feature", "geometry": {"type": "Polygon", "coordinates": [[[-76.12500000345372, 49.19166667100155], [-76.12499999335398, 49.2000000057993], [-76.11666667345088, 49.20000000393041], [-76.11666667021031, 49.19166667269844], [-76.12500000345372, 49.19166667100155]]]}, "properties": {"company_id": "silver-spruce-resources", "jurisdiction": "Quebec", "claim_id": "", "claim_name": null, "holder": "Canadian Silver Hunter inc.", "status": "Active", "recorded_date": null, "anniversary_or_expiry": null, "area_ha": null, "tenure_type": null, "source": "GESTIM active titles (MRNF digital data dump). Not legal title.", "as_of": "2026-09-20", "role": "focus", "color": "#e8b040"}}, {"type": "Feature", "geometry": {"type": "Polygon", "coordinates": [[[-76.11666667021031, 49.19166667269844], [-76.11666667345088, 49.20000000393041], [-76.10833332955379, 49.20000000355846], [-76.10833334021214, 49.191666666607674], [-76.11666667021031, 49.19166667269844]]]}, "properties": {"company_id": "silver-spruce-resources", "jurisdiction": "Quebec", "claim_id": "", "claim_name": null, "holder": "Canadian Silver Hunter inc.", "status": "Active", "recorded_date": null, "anniversary_or_expiry": null, "area_ha": null, "tenure_type": null, "source": "GESTIM active titles (MRNF digital data dump). Not legal title.", "as_of": "2026-09-20", "role": "focus", "color": "#e8b040"}}, {"type": "Feature", "geometry": {"type": "Polygon", "coordinates": [[[-76.11666667345088, 49.20000000393041], [-76.11666667299765, 49.20833333256389], [-76.10833332874635, 49.208333337773645], [-76.10833332955379, 49.20000000355846], [-76.11666667345088, 49.20000000393041]]]}, "properties": {"company_id": "silver-spruce-resources", "jurisdiction": "Quebec", "claim_id": "", "claim_name": null, "holder": "Canadian Silver Hunter inc.", "status": "Active", "recorded_date": null, "anniversary_or_expiry": null, "area_ha": null, "tenure_type": null, "source": "GESTIM active titles (MRNF digital data dump). Not legal title.", "as_of": "2026-09-20", "role": "focus", "color": "#e8b040"}}, {"type": "Feature", "geometry": {"type": "Polygon", "coordinates": [[[-76.10833332955379, 49.20000000355846], [-76.10833332874635, 49.208333337773645], [-76.1000000014562, 49.20833333511776], [-76.10000000280961, 49.20000000428898], [-76.10833332955379, 49.20000000355846]]]}, "properties": {"company_id": "silver-spruce-resources", "jurisdiction": "Quebec", "claim_id": "", "claim_name": null, "holder": "Canadian Silver Hunter inc.", "status": "Active", "recorded_date": null, "anniversary_or_expiry": null, "area_ha": null, "tenure_type": null, "source": "GESTIM active titles (MRNF digital data dump). Not legal title.", "as_of": "2026-09-20", "role": "focus", "color": "#e8b040"}}, {"type": "Feature", "geometry": {"type": "Polygon", "coordinates": [[[-76.11666667299765, 49.20833333256389], [-76.11666666904746, 49.216666667593024], [-76.10833333779091, 49.21666666925377], [-76.10833332874635, 49.208333337773645], [-76.11666667299765, 49.20833333256389]]]}, "properties": {"company_id": "silver-spruce-resources", "jurisdiction": "Quebec", "claim_id": "", "claim_name": null, "holder": "Canadian Silver Hunter inc.", "status": "Active", "recorded_date": null, "anniversary_or_expiry": null, "area_ha": null, "tenure_type": null, "source": "GESTIM active titles (MRNF digital data dump). Not legal title.", "as_of": "2026-09-20", "role": "focus", "color": "#e8b040"}}, {"type": "Feature", "geometry": {"type": "Polygon", "coordinates": [[[-76.10833332874635, 49.208333337773645], [-76.10833333779091, 49.21666666925377], [-76.09999999624779, 49.216666672331556], [-76.1000000014562, 49.20833333511776], [-76.10833332874635, 49.208333337773645]]]}, "properties": {"company_id": "silver-spruce-resources", "jurisdiction": "Quebec", "claim_id": "", "claim_name": null, "holder": "Canadian Silver Hunter inc.", "status": "Active", "recorded_date": null, "anniversary_or_expiry": null, "area_ha": null, "tenure_type": null, "source": "GESTIM active titles (MRNF digital data dump). Not legal title.", "as_of": "2026-09-20", "role": "focus", "color": "#e8b040"}}, {"type": "Feature", "geometry": {"type": "Polygon", "coordinates": [[[-75.84999999795693, 49.15000000009544], [-75.84999999995065, 49.15833333900432], [-75.8416666686682, 49.15833333921932], [-75.84166666595553, 49.15000000288106], [-75.84999999795693, 49.15000000009544]]]}, "properties": {"company_id": "silver-spruce-resources", "jurisdiction": "Quebec", "claim_id": "", "claim_name": null, "holder": "Canadian Silver Hunter inc.", "status": "Active", "recorded_date": null, "anniversary_or_expiry": null, "area_ha": null, "tenure_type": null, "source": "GESTIM active titles (MRNF digital data dump). Not legal title.", "as_of": "2026-09-20", "role": "focus", "color": "#e8b040"}}, {"type": "Feature", "geometry": {"type": "Polygon", "coordinates": [[[-68.116666893348, 52.07500000327818], [-68.11666689208667, 52.08333333899545], [-68.10833356024675, 52.083333336650554], [-68.1083335520945, 52.07500000527659], [-68.116666893348, 52.07500000327818]]]}, "properties": {"company_id": "silver-spruce-resources", "jurisdiction": "Quebec", "claim_id": "", "claim_name": null, "holder": "Cartier Silver Corporation", "status": "Active", "recorded_date": null, "anniversary_or_expiry": null, "area_ha": null, "tenure_type": null, "source": "GESTIM active titles (MRNF digital data dump). Not legal title.", "as_of": "2026-09-20", "role": "focus", "color": "#e8b040"}}, {"type": "Feature", "geometry": {"type": "Polygon", "coordinates": [[[-68.13333356382412, 52.10000000205334], [-68.13333356131156, 52.10833333895404], [-68.12500022155493, 52.10833334160599], [-68.12500022977298, 52.100000009232666], [-68.13333356382412, 52.10000000205334]]]}, "properties": {"company_id": "silver-spruce-resources", "jurisdiction": "Quebec", "claim_id": "", "claim_name": null, "holder": "Cartier Silver Corporation", "status": "Active", "recorded_date": null, "anniversary_or_expiry": null, "area_ha": null, "tenure_type": null, "source": "GESTIM active titles (MRNF digital data dump). Not legal title.", "as_of": "2026-09-20", "role": "focus", "color": "#e8b040"}}, {"type": "Feature", "geometry": {"type": "Polygon", "coordinates": [[[-68.11666688826372, 52.11666667407582], [-68.11666689493383, 52.12500000595768], [-68.10833354858458, 52.12500000848406], [-68.10833356276933, 52.11666667215622], [-68.11666688826372, 52.11666667407582]]]}, "properties": {"company_id": "silver-spruce-resources", "jurisdiction": "Quebec", "claim_id": "", "claim_name": null, "holder": "Cartier Silver Corporation", "status": "Active", "recorded_date": null, "anniversary_or_expiry": null, "area_ha": null, "tenure_type": null, "source": "GESTIM active titles (MRNF digital data dump). Not legal title.", "as_of": "2026-09-20", "role": "focus", "color": "#e8b040"}}, {"type": "Feature", "geometry": {"type": "Polygon", "coordinates": [[[-68.06666687984611, 52.11666667406206], [-68.06666687867683, 52.125000007179835], [-68.05833354788548, 52.125000009447106], [-68.05833354073958, 52.11666667140022], [-68.06666687984611, 52.11666667406206]]]}, "properties": {"company_id": "silver-spruce-resources", "jurisdiction": "Quebec", "claim_id": "", "claim_name": null, "holder": "Cartier Silver Corporation", "status": "Active", "recorded_date": null, "anniversary_or_expiry": null, "area_ha": null, "tenure_type": null, "source": "GESTIM active titles (MRNF digital data dump). Not legal title.", "as_of": "2026-09-20", "role": "focus", "color": "#e8b040"}}, {"type": "Feature", "geometry": {"type": "Polygon", "coordinates": [[[-68.1583335765947, 51.99166666961992], [-68.1583335771775, 52.00000000920452], [-68.150000239057, 52.00000000523376], [-68.15000022728019, 51.99166667024859], [-68.1583335765947, 51.99166666961992]]]}, "properties": {"company_id": "silver-spruce-resources", "jurisdiction": "Quebec", "claim_id": "", "claim_name": null, "holder": "Cartier Silver Corporation", "status": "Active", "recorded_date": null, "anniversary_or_expiry": null, "area_ha": null, "tenure_type": null, "source": "GESTIM active titles (MRNF digital data dump). Not legal title.", "as_of": "2026-09-20", "role": "focus", "color": "#e8b040"}}, {"type": "Feature", "geometry": {"type": "Polygon", "coordinates": [[[-76.00833332976282, 49.166666673572564], [-76.00833333369471, 49.17500000660476], [-76.00000000466645, 49.17500000499817], [-76.00000000030468, 49.16666666603297], [-76.00833332976282, 49.166666673572564]]]}, "properties": {"company_id": "silver-spruce-resources", "jurisdiction": "Quebec", "claim_id": "", "claim_name": null, "holder": "Canadian Silver Hunter inc.", "status": "Active", "recorded_date": null, "anniversary_or_expiry": null, "area_ha": null, "tenure_type": null, "source": "GESTIM active titles (MRNF digital data dump). Not legal title.", "as_of": "2026-09-20", "role": "focus", "color": "#e8b040"}}, {"type": "Feature", "geometry": {"type": "Polygon", "coordinates": [[[-68.10000021585937, 52.0583333409099], [-68.10000021340576, 52.066666672970754], [-68.09166688275864, 52.0666666697552], [-68.09166689003827, 52.05833334207093], [-68.10000021585937, 52.0583333409099]]]}, "properties": {"company_id": "silver-spruce-resources", "jurisdiction": "Quebec", "claim_id": "", "claim_name": null, "holder": "Cartier Silver Corporation", "status": "Active", "recorded_date": null, "anniversary_or_expiry": null, "area_ha": null, "tenure_type": null, "source": "GESTIM active titles (MRNF digital data dump). Not legal title.", "as_of": "2026-09-20", "role": "focus", "color": "#e8b040"}}, {"type": "Feature", "geometry": {"type": "Polygon", "coordinates": [[[-68.09166689003827, 52.05833334207093], [-68.09166688275864, 52.0666666697552], [-68.08333354737734, 52.066666670635016], [-68.08333354508802, 52.05833333818204], [-68.09166689003827, 52.05833334207093]]]}, "properties": {"company_id": "silver-spruce-resources", "jurisdiction": "Quebec", "claim_id": "", "claim_name": null, "holder": "Cartier Silver Corporation", "status": "Active", "recorded_date": null, "anniversary_or_expiry": null, "area_ha": null, "tenure_type": null, "source": "GESTIM active titles (MRNF digital data dump). Not legal title.", "as_of": "2026-09-20", "role": "focus", "color": "#e8b040"}}]}