{"type": "FeatureCollection", "features": [{"type": "Feature", "geometry": {"type": "MultiPolygon", "coordinates": [[[[-131.1427, 56.6583], [-131.1663, 56.6583], [-131.1663, 56.6528], [-131.1486, 56.6528], [-131.1486, 56.6574], [-131.1427, 56.6574], [-131.1427, 56.6583]]], [[[-131.1337, 56.6726], [-131.1337, 56.6742], [-131.1359, 56.6742], [-131.136, 56.661], [-131.1337, 56.661], [-131.1337, 56.6726]]]]}, "properties": {"company_id": "skeena", "jurisdiction": "British Columbia", "claim_id": 222219, "claim_name": "SKY 3", "holder": "SKEENA RESOURCES LIMITED", "status": "Mineral", "recorded_date": "4007232000", "anniversary_or_expiry": "2029-07-15", "area_ha": 500, "tenure_type": "Mineral", "source": "BC MTA Mineral, Placer and Coal Tenure Spatial View (BCGW). Open Government Licence - British Columbia. Not legal title.", "as_of": "2026-09-20", "role": "focus", "color": "#e8b040"}}, {"type": "Feature", "geometry": {"type": "Polygon", "coordinates": [[[-131.1285, 56.6726], [-131.1338, 56.6726], [-131.1337, 56.661], [-131.131, 56.661], [-131.131, 56.6724], [-131.1285, 56.6726]]]}, "properties": {"company_id": "skeena", "jurisdiction": "British Columbia", "claim_id": 222347, "claim_name": "SNIP 3", "holder": "SKEENA RESOURCES LIMITED", "status": "Mineral", "recorded_date": "4354560000", "anniversary_or_expiry": "2029-07-15", "area_ha": 75, "tenure_type": "Mineral", "source": "BC MTA Mineral, Placer and Coal Tenure Spatial View (BCGW). Open Government Licence - British Columbia. Not legal title.", "as_of": "2026-09-20", "role": "focus", "color": "#e8b040"}}, {"type": "Feature", "geometry": {"type": "MultiPolygon", "coordinates": [[[[-131.1021, 56.6741], [-131.1338, 56.6741], [-131.1338, 56.6726], [-131.1285, 56.6726], [-131.131, 56.6724], [-131.1309, 56.6589], [-131.0889, 56.6589], [-131.0884, 56.6596], [-131.0919, 56.6601], [-131.101, 56.6632], [-131.0944, 56.6691], [-131.0809, 56.6646], [-131.0804, 56.6651], [-131.0739, 56.6629], [-131.0739, 56.6724], [-131.083, 56.6724], [-131.083, 56.6741], [-131.1021, 56.6741]]], [[[-131.0789, 56.6599], [-131.0828, 56.6589], [-131.0763, 56.6589], [-131.0789, 56.6599]]]]}, "properties": {"company_id": "skeena", "jurisdiction": "British Columbia", "claim_id": 226132, "claim_name": null, "holder": "SKEENA RESOURCES LIMITED", "status": "Mineral", "recorded_date": "6169824000", "anniversary_or_expiry": "2025-07-21", "area_ha": 482.07, "tenure_type": "Mineral", "source": "BC MTA Mineral, Placer and Coal Tenure Spatial View (BCGW). Open Government Licence - British Columbia. Not legal title.", "as_of": "2026-09-20", "role": "focus", "color": "#e8b040"}}, {"type": "Feature", "geometry": {"type": "Polygon", "coordinates": [[[-130.3888, 56.6913], [-130.3888, 56.6986], [-130.4541, 56.6986], [-130.4541, 56.6896], [-130.3888, 56.6896], [-130.3888, 56.6913]]]}, "properties": {"company_id": "skeena", "jurisdiction": "British Columbia", "claim_id": 252352, "claim_name": "SKOOKUM", "holder": "SKEENA RESOURCES LIMITED", "status": "Mineral", "recorded_date": "6006528000", "anniversary_or_expiry": "2031-12-31", "area_ha": 400, "tenure_type": "Mineral", "source": "BC MTA Mineral, Placer and Coal Tenure Spatial View (BCGW). Open Government Licence - British Columbia. Not legal title.", "as_of": "2026-09-20", "role": "focus", "color": "#e8b040"}}, {"type": "Feature", "geometry": {"type": "Polygon", "coordinates": [[[-130.3849, 56.6468], [-130.3881, 56.6471], [-130.3883, 56.6689], [-130.4175, 56.6689], [-130.4175, 56.6464], [-130.3849, 56.6468]]]}, "properties": {"company_id": "skeena", "jurisdiction": "British Columbia", "claim_id": 252976, "claim_name": "IKS 2", "holder": "SKEENA RESOURCES LIMITED", "status": "Mineral", "recorded_date": "6180192000", "anniversary_or_expiry": "2026-02-12", "area_ha": 500, "tenure_type": "Mineral", "source": "BC MTA Mineral, Placer and Coal Tenure Spatial View (BCGW). Open Government Licence - British Columbia. Not legal title.", "as_of": "2026-09-20", "role": "focus", "color": "#e8b040"}}, {"type": "Feature", "geometry": {"type": "Polygon", "coordinates": [[[-130.4754, 56.6244], [-130.4784, 56.6258], [-130.4832, 56.6227], [-130.4717, 56.6174], [-130.467, 56.6206], [-130.4754, 56.6244]]]}, "properties": {"company_id": "skeena", "jurisdiction": "British Columbia", "claim_id": 254580, "claim_name": null, "holder": "SKEENA RESOURCES LIMITED", "status": "Mineral", "recorded_date": "6613920000", "anniversary_or_expiry": "2025-12-17", "area_ha": 41.800000000000004, "tenure_type": "Mineral", "source": "BC MTA Mineral, Placer and Coal Tenure Spatial View (BCGW). Open Government Licence - British Columbia. Not legal title.", "as_of": "2026-09-20", "role": "focus", "color": "#e8b040"}}, {"type": "Feature", "geometry": {"type": "Polygon", "coordinates": [[[-131.1362, 56.6898], [-131.1767, 56.6898], [-131.1767, 56.6718], [-131.1359, 56.6718], [-131.1362, 56.6898]]]}, "properties": {"company_id": "skeena", "jurisdiction": "British Columbia", "claim_id": 300552, "claim_name": "JIM 1", "holder": "SKEENA RESOURCES LIMITED", "status": "Mineral", "recorded_date": "5223744000", "anniversary_or_expiry": "2029-07-15", "area_ha": 500, "tenure_type": "Mineral", "source": "BC MTA Mineral, Placer and Coal Tenure Spatial View (BCGW). Open Government Licence - British Columbia. Not legal title.", "as_of": "2026-09-20", "role": "focus", "color": "#e8b040"}}, {"type": "Feature", "geometry": {"type": "Polygon", "coordinates": [[[-131.1359, 56.6718], [-131.1767, 56.6718], [-131.1767, 56.6583], [-131.136, 56.6583], [-131.1359, 56.6718]]]}, "properties": {"company_id": "skeena", "jurisdiction": "British Columbia", "claim_id": 300553, "claim_name": "JIM 2", "holder": "SKEENA RESOURCES LIMITED", "status": "Mineral", "recorded_date": "5223744000", "anniversary_or_expiry": "2029-07-15", "area_ha": 375, "tenure_type": "Mineral", "source": "BC MTA Mineral, Placer and Coal Tenure Spatial View (BCGW). Open Government Licence - British Columbia. Not legal title.", "as_of": "2026-09-20", "role": "focus", "color": "#e8b040"}}, {"type": "Feature", "geometry": {"type": "Polygon", "coordinates": [[[-130.4669, 56.8583], [-130.4669, 56.8622], [-130.4751, 56.8623], [-130.4751, 56.8583], [-130.4669, 56.8583]]]}, "properties": {"company_id": "skeena", "jurisdiction": "British Columbia", "claim_id": 300298, "claim_name": "P-1", "holder": "SKEENA RESOURCES LIMITED", "status": "Mineral", "recorded_date": "6765984000", "anniversary_or_expiry": "2025-05-20", "area_ha": 25, "tenure_type": "Mineral", "source": "BC MTA Mineral, Placer and Coal Tenure Spatial View (BCGW). Open Government Licence - British Columbia. Not legal title.", "as_of": "2026-09-20", "role": "focus", "color": "#e8b040"}}, {"type": "Feature", "geometry": {"type": "Polygon", "coordinates": [[[-130.4669, 56.8583], [-130.4751, 56.8583], [-130.4751, 56.8538], [-130.4669, 56.8538], [-130.4669, 56.8583]]]}, "properties": {"company_id": "skeena", "jurisdiction": "British Columbia", "claim_id": 300299, "claim_name": "P-2", "holder": "SKEENA RESOURCES LIMITED", "status": "Mineral", "recorded_date": "6765984000", "anniversary_or_expiry": "2025-05-20", "area_ha": 25, "tenure_type": "Mineral", "source": "BC MTA Mineral, Placer and Coal Tenure Spatial View (BCGW). Open Government Licence - British Columbia. Not legal title.", "as_of": "2026-09-20", "role": "focus", "color": "#e8b040"}}, {"type": "Feature", "geometry": {"type": "Polygon", "coordinates": [[[-130.4751, 56.8623], [-130.4833, 56.8623], [-130.4833, 56.8583], [-130.4751, 56.8583], [-130.4751, 56.8623]]]}, "properties": {"company_id": "skeena", "jurisdiction": "British Columbia", "claim_id": 300300, "claim_name": "P-3", "holder": "SKEENA RESOURCES LIMITED", "status": "Mineral", "recorded_date": "6765984000", "anniversary_or_expiry": "2025-05-20", "area_ha": 25, "tenure_type": "Mineral", "source": "BC MTA Mineral, Placer and Coal Tenure Spatial View (BCGW). Open Government Licence - British Columbia. Not legal title.", "as_of": "2026-09-20", "role": "focus", "color": "#e8b040"}}, {"type": "Feature", "geometry": {"type": "Polygon", "coordinates": [[[-130.4751, 56.8583], [-130.4833, 56.8583], [-130.4833, 56.8538], [-130.4751, 56.8538], [-130.4751, 56.8583]]]}, "properties": {"company_id": "skeena", "jurisdiction": "British Columbia", "claim_id": 300301, "claim_name": "P-4", "holder": "SKEENA RESOURCES LIMITED", "status": "Mineral", "recorded_date": "6765984000", "anniversary_or_expiry": "2025-05-20", "area_ha": 25, "tenure_type": "Mineral", "source": "BC MTA Mineral, Placer and Coal Tenure Spatial View (BCGW). Open Government Licence - British Columbia. Not legal title.", "as_of": "2026-09-20", "role": "focus", "color": "#e8b040"}}, {"type": "Feature", "geometry": {"type": "Polygon", "coordinates": [[[-130.4453, 56.651], [-130.4319, 56.6474], [-130.4261, 56.6539], [-130.4395, 56.6575], [-130.4453, 56.651]]]}, "properties": {"company_id": "skeena", "jurisdiction": "British Columbia", "claim_id": 306286, "claim_name": null, "holder": "SKEENA RESOURCES LIMITED", "status": "Mineral", "recorded_date": "6820416000", "anniversary_or_expiry": "2025-08-13", "area_ha": 73.56, "tenure_type": "Mineral", "source": "BC MTA Mineral, Placer and Coal Tenure Spatial View (BCGW). Open Government Licence - British Columbia. Not legal title.", "as_of": "2026-09-20", "role": "focus", "color": "#e8b040"}}, {"type": "Feature", "geometry": {"type": "Polygon", "coordinates": [[[-130.4613, 56.6244], [-130.4727, 56.6296], [-130.4774, 56.6265], [-130.466, 56.6212], [-130.4613, 56.6244]]]}, "properties": {"company_id": "skeena", "jurisdiction": "British Columbia", "claim_id": 306611, "claim_name": null, "holder": "SKEENA RESOURCES LIMITED", "status": "Mineral", "recorded_date": "7073568000", "anniversary_or_expiry": "2025-06-01", "area_ha": 41.800000000000004, "tenure_type": "Mineral", "source": "BC MTA Mineral, Placer and Coal Tenure Spatial View (BCGW). Open Government Licence - British Columbia. Not legal title.", "as_of": "2026-09-20", "role": "focus", "color": "#e8b040"}}, {"type": "Feature", "geometry": {"type": "Polygon", "coordinates": [[[-130.4456, 56.6506], [-130.4488, 56.6468], [-130.4501, 56.647], [-130.4506, 56.6461], [-130.4555, 56.6495], [-130.461, 56.6471], [-130.4563, 56.6439], [-130.4626, 56.6461], [-130.4664, 56.6428], [-130.4569, 56.6394], [-130.4611, 56.6374], [-130.46, 56.6367], [-130.4696, 56.639], [-130.4756, 56.6316], [-130.4705, 56.6304], [-130.46, 56.6251], [-130.4509, 56.6315], [-130.4459, 56.6337], [-130.4543, 56.6393], [-130.4438, 56.6348], [-130.4394, 56.6378], [-130.4379, 56.6396], [-130.4363, 56.6437], [-130.4352, 56.6434], [-130.4321, 56.6471], [-130.4456, 56.6506]]]}, "properties": {"company_id": "skeena", "jurisdiction": "British Columbia", "claim_id": 306627, "claim_name": null, "holder": "SKEENA RESOURCES LIMITED", "status": "Mineral", "recorded_date": "7073568000", "anniversary_or_expiry": "2025-06-01", "area_ha": 355, "tenure_type": "Mineral", "source": "BC MTA Mineral, Placer and Coal Tenure Spatial View (BCGW). Open Government Licence - British Columbia. Not legal title.", "as_of": "2026-09-20", "role": "focus", "color": "#e8b040"}}, {"type": "Feature", "geometry": {"type": "Polygon", "coordinates": [[[-130.5093, 56.6222], [-130.5161, 56.6246], [-130.5205, 56.6208], [-130.5137, 56.6184], [-130.5093, 56.6222]]]}, "properties": {"company_id": "skeena", "jurisdiction": "British Columbia", "claim_id": 329262, "claim_name": "MACK 19", "holder": "SKEENA RESOURCES LIMITED", "status": "Mineral", "recorded_date": "7747488000", "anniversary_or_expiry": "2027-06-25", "area_ha": 25, "tenure_type": "Mineral", "source": "BC MTA Mineral, Placer and Coal Tenure Spatial View (BCGW). Open Government Licence - British Columbia. Not legal title.", "as_of": "2026-09-20", "role": "focus", "color": "#e8b040"}}, {"type": "Feature", "geometry": {"type": "Polygon", "coordinates": [[[-130.5024, 56.6197], [-130.5093, 56.6222], [-130.5137, 56.6184], [-130.5068, 56.616], [-130.5024, 56.6197]]]}, "properties": {"company_id": "skeena", "jurisdiction": "British Columbia", "claim_id": 329263, "claim_name": "MACK 20", "holder": "SKEENA RESOURCES LIMITED", "status": "Mineral", "recorded_date": "7747488000", "anniversary_or_expiry": "2027-06-25", "area_ha": 25, "tenure_type": "Mineral", "source": "BC MTA Mineral, Placer and Coal Tenure Spatial View (BCGW). Open Government Licence - British Columbia. Not legal title.", "as_of": "2026-09-20", "role": "focus", "color": "#e8b040"}}, {"type": "Feature", "geometry": {"type": "Polygon", "coordinates": [[[-130.5181, 56.6146], [-130.5137, 56.6184], [-130.5205, 56.6208], [-130.5249, 56.617], [-130.5181, 56.6146]]]}, "properties": {"company_id": "skeena", "jurisdiction": "British Columbia", "claim_id": 329264, "claim_name": "MACK 21", "holder": "SKEENA RESOURCES LIMITED", "status": "Mineral", "recorded_date": "7747488000", "anniversary_or_expiry": "2027-06-25", "area_ha": 25, "tenure_type": "Mineral", "source": "BC MTA Mineral, Placer and Coal Tenure Spatial View (BCGW). Open Government Licence - British Columbia. Not legal title.", "as_of": "2026-09-20", "role": "focus", "color": "#e8b040"}}, {"type": "Feature", "geometry": {"type": "Polygon", "coordinates": [[[-130.5068, 56.616], [-130.5137, 56.6184], [-130.5181, 56.6146], [-130.5112, 56.6122], [-130.5068, 56.616]]]}, "properties": {"company_id": "skeena", "jurisdiction": "British Columbia", "claim_id": 329265, "claim_name": "MACK 22", "holder": "SKEENA RESOURCES LIMITED", "status": "Mineral", "recorded_date": "7747488000", "anniversary_or_expiry": "2027-06-25", "area_ha": 25, "tenure_type": "Mineral", "source": "BC MTA Mineral, Placer and Coal Tenure Spatial View (BCGW). Open Government Licence - British Columbia. Not legal title.", "as_of": "2026-09-20", "role": "focus", "color": "#e8b040"}}, {"type": "Feature", "geometry": {"type": "Polygon", "coordinates": [[[-130.5112, 56.6122], [-130.517, 56.6142], [-130.517, 56.6073], [-130.5112, 56.6122]]]}, "properties": {"company_id": "skeena", "jurisdiction": "British Columbia", "claim_id": 329363, "claim_name": "MACK 26 FR.", "holder": "SKEENA RESOURCES LIMITED", "status": "Mineral", "recorded_date": "7758720000", "anniversary_or_expiry": "2027-06-25", "area_ha": 25, "tenure_type": "Mineral", "source": "BC MTA Mineral, Placer and Coal Tenure Spatial View (BCGW). Open Government Licence - British Columbia. Not legal title.", "as_of": "2026-09-20", "role": "focus", "color": "#e8b040"}}, {"type": "Feature", "geometry": {"type": "Polygon", "coordinates": [[[-130.4176, 56.6689], [-130.4502, 56.6689], [-130.4501, 56.6469], [-130.4487, 56.6469], [-130.4456, 56.6506], [-130.4323, 56.6469], [-130.4175, 56.6464], [-130.4176, 56.6689]], [[-130.4453, 56.651], [-130.4395, 56.6575], [-130.4261, 56.6539], [-130.4319, 56.6474], [-130.4453, 56.651]]]}, "properties": {"company_id": "skeena", "jurisdiction": "British Columbia", "claim_id": 329944, "claim_name": null, "holder": "SKEENA RESOURCES LIMITED", "status": "Mineral", "recorded_date": "7866720000", "anniversary_or_expiry": "2025-12-06", "area_ha": 395, "tenure_type": "Mineral", "source": "BC MTA Mineral, Placer and Coal Tenure Spatial View (BCGW). Open Government Licence - British Columbia. Not legal title.", "as_of": "2026-09-20", "role": "focus", "color": "#e8b040"}}, {"type": "Feature", "geometry": {"type": "Polygon", "coordinates": [[[-130.4854, 56.6466], [-130.517, 56.6467], [-130.517, 56.6242], [-130.5117, 56.6284], [-130.4999, 56.6242], [-130.4972, 56.6242], [-130.4907, 56.6298], [-130.4854, 56.6279], [-130.4854, 56.6466]]]}, "properties": {"company_id": "skeena", "jurisdiction": "British Columbia", "claim_id": 329241, "claim_name": "MACK 23", "holder": "SKEENA RESOURCES LIMITED", "status": "Mineral", "recorded_date": "7747488000", "anniversary_or_expiry": "2027-06-25", "area_ha": 500, "tenure_type": "Mineral", "source": "BC MTA Mineral, Placer and Coal Tenure Spatial View (BCGW). Open Government Licence - British Columbia. Not legal title.", "as_of": "2026-09-20", "role": "focus", "color": "#e8b040"}}, {"type": "Feature", "geometry": {"type": "Polygon", "coordinates": [[[-130.4913, 56.6156], [-130.4925, 56.616], [-130.4966, 56.6121], [-130.4954, 56.6117], [-130.4945, 56.6125], [-130.4887, 56.6107], [-130.486, 56.6133], [-130.4918, 56.6151], [-130.4913, 56.6156]]]}, "properties": {"company_id": "skeena", "jurisdiction": "British Columbia", "claim_id": 329244, "claim_name": "MACK 1", "holder": "SKEENA RESOURCES LIMITED", "status": "Mineral", "recorded_date": "7747488000", "anniversary_or_expiry": "2027-06-25", "area_ha": 25, "tenure_type": "Mineral", "source": "BC MTA Mineral, Placer and Coal Tenure Spatial View (BCGW). Open Government Licence - British Columbia. Not legal title.", "as_of": "2026-09-20", "role": "focus", "color": "#e8b040"}}, {"type": "Feature", "geometry": {"type": "Polygon", "coordinates": [[[-130.4854, 56.6131], [-130.486, 56.6133], [-130.4887, 56.6107], [-130.4854, 56.6097], [-130.4854, 56.6131]]]}, "properties": {"company_id": "skeena", "jurisdiction": "British Columbia", "claim_id": 329245, "claim_name": "MACK 2", "holder": "SKEENA RESOURCES LIMITED", "status": "Mineral", "recorded_date": "7747488000", "anniversary_or_expiry": "2027-06-25", "area_ha": 25, "tenure_type": "Mineral", "source": "BC MTA Mineral, Placer and Coal Tenure Spatial View (BCGW). Open Government Licence - British Columbia. Not legal title.", "as_of": "2026-09-20", "role": "focus", "color": "#e8b040"}}, {"type": "Feature", "geometry": {"type": "Polygon", "coordinates": [[[-130.497, 56.6101], [-130.498, 56.6103], [-130.5016, 56.6063], [-130.4926, 56.6062], [-130.4919, 56.607], [-130.4982, 56.609], [-130.497, 56.6101]]]}, "properties": {"company_id": "skeena", "jurisdiction": "British Columbia", "claim_id": 329246, "claim_name": "MACK 3", "holder": "SKEENA RESOURCES LIMITED", "status": "Mineral", "recorded_date": "7747488000", "anniversary_or_expiry": "2027-06-25", "area_ha": 25, "tenure_type": "Mineral", "source": "BC MTA Mineral, Placer and Coal Tenure Spatial View (BCGW). Open Government Licence - British Columbia. Not legal title.", "as_of": "2026-09-20", "role": "focus", "color": "#e8b040"}}, {"type": "Feature", "geometry": {"type": "Polygon", "coordinates": [[[-130.4917, 56.6069], [-130.4926, 56.6062], [-130.4895, 56.6062], [-130.4917, 56.6069]]]}, "properties": {"company_id": "skeena", "jurisdiction": "British Columbia", "claim_id": 329247, "claim_name": "MACK 4", "holder": "SKEENA RESOURCES LIMITED", "status": "Mineral", "recorded_date": "7747488000", "anniversary_or_expiry": "2027-06-25", "area_ha": 25, "tenure_type": "Mineral", "source": "BC MTA Mineral, Placer and Coal Tenure Spatial View (BCGW). Open Government Licence - British Columbia. Not legal title.", "as_of": "2026-09-20", "role": "focus", "color": "#e8b040"}}, {"type": "Feature", "geometry": {"type": "Polygon", "coordinates": [[[-130.4854, 56.6279], [-130.4907, 56.6298], [-130.4951, 56.626], [-130.4883, 56.6236], [-130.4854, 56.626], [-130.4854, 56.6279]]]}, "properties": {"company_id": "skeena", "jurisdiction": "British Columbia", "claim_id": 329248, "claim_name": "MACK 5", "holder": "SKEENA RESOURCES LIMITED", "status": "Mineral", "recorded_date": "7747488000", "anniversary_or_expiry": "2027-06-25", "area_ha": 25, "tenure_type": "Mineral", "source": "BC MTA Mineral, Placer and Coal Tenure Spatial View (BCGW). Open Government Licence - British Columbia. Not legal title.", "as_of": "2026-09-20", "role": "focus", "color": "#e8b040"}}, {"type": "Feature", "geometry": {"type": "Polygon", "coordinates": [[[-130.4854, 56.6244], [-130.4854, 56.626], [-130.4883, 56.6236], [-130.4854, 56.6225], [-130.4854, 56.6244]]]}, "properties": {"company_id": "skeena", "jurisdiction": "British Columbia", "claim_id": 329249, "claim_name": "MACK 6", "holder": "SKEENA RESOURCES LIMITED", "status": "Mineral", "recorded_date": "7747488000", "anniversary_or_expiry": "2027-06-25", "area_ha": 25, "tenure_type": "Mineral", "source": "BC MTA Mineral, Placer and Coal Tenure Spatial View (BCGW). Open Government Licence - British Columbia. Not legal title.", "as_of": "2026-09-20", "role": "focus", "color": "#e8b040"}}, {"type": "Feature", "geometry": {"type": "Polygon", "coordinates": [[[-130.4927, 56.6198], [-130.4995, 56.6222], [-130.5039, 56.6184], [-130.4971, 56.616], [-130.4927, 56.6198]]]}, "properties": {"company_id": "skeena", "jurisdiction": "British Columbia", "claim_id": 329252, "claim_name": "MACK 9", "holder": "SKEENA RESOURCES LIMITED", "status": "Mineral", "recorded_date": "7747488000", "anniversary_or_expiry": "2027-06-25", "area_ha": 25, "tenure_type": "Mineral", "source": "BC MTA Mineral, Placer and Coal Tenure Spatial View (BCGW). Open Government Licence - British Columbia. Not legal title.", "as_of": "2026-09-20", "role": "focus", "color": "#e8b040"}}, {"type": "Feature", "geometry": {"type": "Polygon", "coordinates": [[[-130.4885, 56.6183], [-130.4927, 56.6198], [-130.4971, 56.616], [-130.4937, 56.6148], [-130.4925, 56.616], [-130.4913, 56.6156], [-130.4885, 56.6183]]]}, "properties": {"company_id": "skeena", "jurisdiction": "British Columbia", "claim_id": 329253, "claim_name": "MACK 10", "holder": "SKEENA RESOURCES LIMITED", "status": "Mineral", "recorded_date": "7747488000", "anniversary_or_expiry": "2027-06-25", "area_ha": 25, "tenure_type": "Mineral", "source": "BC MTA Mineral, Placer and Coal Tenure Spatial View (BCGW). Open Government Licence - British Columbia. Not legal title.", "as_of": "2026-09-20", "role": "focus", "color": "#e8b040"}}, {"type": "Feature", "geometry": {"type": "Polygon", "coordinates": [[[-130.4971, 56.616], [-130.5039, 56.6184], [-130.5083, 56.6147], [-130.5015, 56.6122], [-130.4971, 56.616]]]}, "properties": {"company_id": "skeena", "jurisdiction": "British Columbia", "claim_id": 329254, "claim_name": "MACK 11", "holder": "SKEENA RESOURCES LIMITED", "status": "Mineral", "recorded_date": "7747488000", "anniversary_or_expiry": "2027-06-25", "area_ha": 25, "tenure_type": "Mineral", "source": "BC MTA Mineral, Placer and Coal Tenure Spatial View (BCGW). Open Government Licence - British Columbia. Not legal title.", "as_of": "2026-09-20", "role": "focus", "color": "#e8b040"}}, {"type": "Feature", "geometry": {"type": "Polygon", "coordinates": [[[-130.4937, 56.6148], [-130.4971, 56.616], [-130.5015, 56.6122], [-130.4966, 56.6105], [-130.4954, 56.6117], [-130.4966, 56.6121], [-130.4937, 56.6148]]]}, "properties": {"company_id": "skeena", "jurisdiction": "British Columbia", "claim_id": 329255, "claim_name": "MACK 12", "holder": "SKEENA RESOURCES LIMITED", "status": "Mineral", "recorded_date": "7747488000", "anniversary_or_expiry": "2027-06-25", "area_ha": 25, "tenure_type": "Mineral", "source": "BC MTA Mineral, Placer and Coal Tenure Spatial View (BCGW). Open Government Licence - British Columbia. Not legal title.", "as_of": "2026-09-20", "role": "focus", "color": "#e8b040"}}, {"type": "Feature", "geometry": {"type": "Polygon", "coordinates": [[[-130.5015, 56.6122], [-130.5083, 56.6147], [-130.5128, 56.6109], [-130.5059, 56.6085], [-130.5015, 56.6122]]]}, "properties": {"company_id": "skeena", "jurisdiction": "British Columbia", "claim_id": 329256, "claim_name": "MACK 13", "holder": "SKEENA RESOURCES LIMITED", "status": "Mineral", "recorded_date": "7747488000", "anniversary_or_expiry": "2027-06-25", "area_ha": 25, "tenure_type": "Mineral", "source": "BC MTA Mineral, Placer and Coal Tenure Spatial View (BCGW). Open Government Licence - British Columbia. Not legal title.", "as_of": "2026-09-20", "role": "focus", "color": "#e8b040"}}, {"type": "Feature", "geometry": {"type": "Polygon", "coordinates": [[[-130.4966, 56.6105], [-130.5015, 56.6122], [-130.5059, 56.6085], [-130.5012, 56.6068], [-130.498, 56.6103], [-130.4966, 56.6105]]]}, "properties": {"company_id": "skeena", "jurisdiction": "British Columbia", "claim_id": 329257, "claim_name": "MACK 14", "holder": "SKEENA RESOURCES LIMITED", "status": "Mineral", "recorded_date": "7747488000", "anniversary_or_expiry": "2027-06-25", "area_ha": 25, "tenure_type": "Mineral", "source": "BC MTA Mineral, Placer and Coal Tenure Spatial View (BCGW). Open Government Licence - British Columbia. Not legal title.", "as_of": "2026-09-20", "role": "focus", "color": "#e8b040"}}, {"type": "Feature", "geometry": {"type": "Polygon", "coordinates": [[[-130.5059, 56.6085], [-130.5128, 56.6109], [-130.5172, 56.6071], [-130.5147, 56.6062], [-130.5085, 56.6062], [-130.5059, 56.6085]]]}, "properties": {"company_id": "skeena", "jurisdiction": "British Columbia", "claim_id": 329258, "claim_name": "MACK 15", "holder": "SKEENA RESOURCES LIMITED", "status": "Mineral", "recorded_date": "7747488000", "anniversary_or_expiry": "2027-06-25", "area_ha": 25, "tenure_type": "Mineral", "source": "BC MTA Mineral, Placer and Coal Tenure Spatial View (BCGW). Open Government Licence - British Columbia. Not legal title.", "as_of": "2026-09-20", "role": "focus", "color": "#e8b040"}}, {"type": "Feature", "geometry": {"type": "Polygon", "coordinates": [[[-130.5012, 56.6068], [-130.5059, 56.6085], [-130.5085, 56.6062], [-130.502, 56.6062], [-130.5012, 56.6068]]]}, "properties": {"company_id": "skeena", "jurisdiction": "British Columbia", "claim_id": 329259, "claim_name": "MACK 16", "holder": "SKEENA RESOURCES LIMITED", "status": "Mineral", "recorded_date": "7747488000", "anniversary_or_expiry": "2027-06-25", "area_ha": 25, "tenure_type": "Mineral", "source": "BC MTA Mineral, Placer and Coal Tenure Spatial View (BCGW). Open Government Licence - British Columbia. Not legal title.", "as_of": "2026-09-20", "role": "focus", "color": "#e8b040"}}, {"type": "Feature", "geometry": {"type": "Polygon", "coordinates": [[[-130.5049, 56.626], [-130.5117, 56.6284], [-130.5161, 56.6246], [-130.5093, 56.6222], [-130.5049, 56.626]]]}, "properties": {"company_id": "skeena", "jurisdiction": "British Columbia", "claim_id": 329260, "claim_name": "MACK 17", "holder": "SKEENA RESOURCES LIMITED", "status": "Mineral", "recorded_date": "7747488000", "anniversary_or_expiry": "2027-06-25", "area_ha": 25, "tenure_type": "Mineral", "source": "BC MTA Mineral, Placer and Coal Tenure Spatial View (BCGW). Open Government Licence - British Columbia. Not legal title.", "as_of": "2026-09-20", "role": "focus", "color": "#e8b040"}}, {"type": "Feature", "geometry": {"type": "Polygon", "coordinates": [[[-130.4999, 56.6242], [-130.5049, 56.626], [-130.5093, 56.6222], [-130.5024, 56.6197], [-130.498, 56.6235], [-130.4999, 56.6242]]]}, "properties": {"company_id": "skeena", "jurisdiction": "British Columbia", "claim_id": 329261, "claim_name": "MACK 18", "holder": "SKEENA RESOURCES LIMITED", "status": "Mineral", "recorded_date": "7747488000", "anniversary_or_expiry": "2027-06-25", "area_ha": 25, "tenure_type": "Mineral", "source": "BC MTA Mineral, Placer and Coal Tenure Spatial View (BCGW). Open Government Licence - British Columbia. Not legal title.", "as_of": "2026-09-20", "role": "focus", "color": "#e8b040"}}, {"type": "Feature", "geometry": {"type": "MultiPolygon", "coordinates": [[[[-130.465, 56.6063], [-130.4838, 56.6063], [-130.4859, 56.604], [-130.465, 56.604], [-130.465, 56.6063]]], [[[-130.5057, 56.6062], [-130.5057, 56.6042], [-130.5021, 56.6042], [-130.5009, 56.6062], [-130.5002, 56.6062], [-130.5057, 56.6062]]]]}, "properties": {"company_id": "skeena", "jurisdiction": "British Columbia", "claim_id": 352974, "claim_name": "STAR 21", "holder": "SKEENA RESOURCES LIMITED", "status": "Mineral", "recorded_date": "8499168000", "anniversary_or_expiry": "2028-06-22", "area_ha": 250, "tenure_type": "Mineral", "source": "BC MTA Mineral, Placer and Coal Tenure Spatial View (BCGW). Open Government Licence - British Columbia. Not legal title.", "as_of": "2026-09-20", "role": "focus", "color": "#e8b040"}}, {"type": "Feature", "geometry": {"type": "Polygon", "coordinates": [[[-130.517, 56.6071], [-130.517, 56.6062], [-130.5301, 56.6063], [-130.5301, 56.6049], [-130.5207, 56.6049], [-130.5207, 56.6061], [-130.5195, 56.6061], [-130.5196, 56.6042], [-130.5057, 56.6042], [-130.5057, 56.6062], [-130.5147, 56.6062], [-130.517, 56.6071]]]}, "properties": {"company_id": "skeena", "jurisdiction": "British Columbia", "claim_id": 352975, "claim_name": "STAR 22", "holder": "SKEENA RESOURCES LIMITED", "status": "Mineral", "recorded_date": "8499168000", "anniversary_or_expiry": "2027-06-25", "area_ha": 150, "tenure_type": "Mineral", "source": "BC MTA Mineral, Placer and Coal Tenure Spatial View (BCGW). Open Government Licence - British Columbia. Not legal title.", "as_of": "2026-09-20", "role": "focus", "color": "#e8b040"}}, {"type": "Feature", "geometry": {"type": "Polygon", "coordinates": [[[-130.4578, 56.6485], [-130.4626, 56.6485], [-130.4626, 56.6469], [-130.4607, 56.6469], [-130.4578, 56.6485]]]}, "properties": {"company_id": "skeena", "jurisdiction": "British Columbia", "claim_id": 365539, "claim_name": "KAY 1", "holder": "SKEENA RESOURCES LIMITED", "status": "Mineral", "recorded_date": "9055584000", "anniversary_or_expiry": "2025-10-06", "area_ha": 25, "tenure_type": "Mineral", "source": "BC MTA Mineral, Placer and Coal Tenure Spatial View (BCGW). Open Government Licence - British Columbia. Not legal title.", "as_of": "2026-09-20", "role": "focus", "color": "#e8b040"}}, {"type": "Feature", "geometry": {"type": "Polygon", "coordinates": [[[-130.4626, 56.6497], [-130.4626, 56.6485], [-130.4578, 56.6485], [-130.4563, 56.6492], [-130.4563, 56.653], [-130.4618, 56.653], [-130.4618, 56.6497], [-130.4626, 56.6497]]]}, "properties": {"company_id": "skeena", "jurisdiction": "British Columbia", "claim_id": 365541, "claim_name": "KAY 3", "holder": "SKEENA RESOURCES LIMITED", "status": "Mineral", "recorded_date": "9055584000", "anniversary_or_expiry": "2025-10-06", "area_ha": 25, "tenure_type": "Mineral", "source": "BC MTA Mineral, Placer and Coal Tenure Spatial View (BCGW). Open Government Licence - British Columbia. Not legal title.", "as_of": "2026-09-20", "role": "focus", "color": "#e8b040"}}, {"type": "Feature", "geometry": {"type": "Polygon", "coordinates": [[[-130.4502, 56.653], [-130.4563, 56.653], [-130.4563, 56.6492], [-130.4555, 56.6495], [-130.4541, 56.6485], [-130.4501, 56.6485], [-130.4502, 56.653]]]}, "properties": {"company_id": "skeena", "jurisdiction": "British Columbia", "claim_id": 365542, "claim_name": "KAY 4", "holder": "SKEENA RESOURCES LIMITED", "status": "Mineral", "recorded_date": "9055584000", "anniversary_or_expiry": "2025-10-06", "area_ha": 25, "tenure_type": "Mineral", "source": "BC MTA Mineral, Placer and Coal Tenure Spatial View (BCGW). Open Government Licence - British Columbia. Not legal title.", "as_of": "2026-09-20", "role": "focus", "color": "#e8b040"}}, {"type": "Feature", "geometry": {"type": "Polygon", "coordinates": [[[-130.4618, 56.653], [-130.4563, 56.653], [-130.4563, 56.6561], [-130.4618, 56.6561], [-130.4618, 56.653]]]}, "properties": {"company_id": "skeena", "jurisdiction": "British Columbia", "claim_id": 365543, "claim_name": "KAY 5", "holder": "SKEENA RESOURCES LIMITED", "status": "Mineral", "recorded_date": "9055584000", "anniversary_or_expiry": "2025-10-06", "area_ha": 25, "tenure_type": "Mineral", "source": "BC MTA Mineral, Placer and Coal Tenure Spatial View (BCGW). Open Government Licence - British Columbia. Not legal title.", "as_of": "2026-09-20", "role": "focus", "color": "#e8b040"}}, {"type": "Feature", "geometry": {"type": "Polygon", "coordinates": [[[-130.4502, 56.6561], [-130.4563, 56.6561], [-130.4563, 56.653], [-130.4502, 56.653], [-130.4502, 56.6561]]]}, "properties": {"company_id": "skeena", "jurisdiction": "British Columbia", "claim_id": 365544, "claim_name": "KAY 6", "holder": "SKEENA RESOURCES LIMITED", "status": "Mineral", "recorded_date": "9055584000", "anniversary_or_expiry": "2025-10-06", "area_ha": 25, "tenure_type": "Mineral", "source": "BC MTA Mineral, Placer and Coal Tenure Spatial View (BCGW). Open Government Licence - British Columbia. Not legal title.", "as_of": "2026-09-20", "role": "focus", "color": "#e8b040"}}, {"type": "Feature", "geometry": {"type": "Polygon", "coordinates": [[[-130.4618, 56.6587], [-130.4618, 56.6561], [-130.4563, 56.6561], [-130.4563, 56.6606], [-130.4618, 56.6606], [-130.4618, 56.6587]]]}, "properties": {"company_id": "skeena", "jurisdiction": "British Columbia", "claim_id": 365545, "claim_name": "KAY 7", "holder": "SKEENA RESOURCES LIMITED", "status": "Mineral", "recorded_date": "9055584000", "anniversary_or_expiry": "2025-10-06", "area_ha": 25, "tenure_type": "Mineral", "source": "BC MTA Mineral, Placer and Coal Tenure Spatial View (BCGW). Open Government Licence - British Columbia. Not legal title.", "as_of": "2026-09-20", "role": "focus", "color": "#e8b040"}}, {"type": "Feature", "geometry": {"type": "Polygon", "coordinates": [[[-130.4502, 56.6561], [-130.4502, 56.6606], [-130.4563, 56.6606], [-130.4563, 56.6561], [-130.4502, 56.6561]]]}, "properties": {"company_id": "skeena", "jurisdiction": "British Columbia", "claim_id": 365546, "claim_name": "KAY 8", "holder": "SKEENA RESOURCES LIMITED", "status": "Mineral", "recorded_date": "9055584000", "anniversary_or_expiry": "2025-10-06", "area_ha": 25, "tenure_type": "Mineral", "source": "BC MTA Mineral, Placer and Coal Tenure Spatial View (BCGW). Open Government Licence - British Columbia. Not legal title.", "as_of": "2026-09-20", "role": "focus", "color": "#e8b040"}}, {"type": "Feature", "geometry": {"type": "Polygon", "coordinates": [[[-130.4618, 56.6632], [-130.4618, 56.6606], [-130.4563, 56.6606], [-130.4563, 56.6648], [-130.4618, 56.6651], [-130.4618, 56.6632]]]}, "properties": {"company_id": "skeena", "jurisdiction": "British Columbia", "claim_id": 365547, "claim_name": "KAY 9", "holder": "SKEENA RESOURCES LIMITED", "status": "Mineral", "recorded_date": "9055584000", "anniversary_or_expiry": "2025-10-06", "area_ha": 25, "tenure_type": "Mineral", "source": "BC MTA Mineral, Placer and Coal Tenure Spatial View (BCGW). Open Government Licence - British Columbia. Not legal title.", "as_of": "2026-09-20", "role": "focus", "color": "#e8b040"}}, {"type": "Feature", "geometry": {"type": "Polygon", "coordinates": [[[-130.4502, 56.6648], [-130.4563, 56.6648], [-130.4563, 56.6606], [-130.4502, 56.6606], [-130.4502, 56.6648]]]}, "properties": {"company_id": "skeena", "jurisdiction": "British Columbia", "claim_id": 365548, "claim_name": "KAY 10", "holder": "SKEENA RESOURCES LIMITED", "status": "Mineral", "recorded_date": "9055584000", "anniversary_or_expiry": "2025-10-06", "area_ha": 25, "tenure_type": "Mineral", "source": "BC MTA Mineral, Placer and Coal Tenure Spatial View (BCGW). Open Government Licence - British Columbia. Not legal title.", "as_of": "2026-09-20", "role": "focus", "color": "#e8b040"}}, {"type": "Feature", "geometry": {"type": "Polygon", "coordinates": [[[-129.6433, 57.7829], [-129.6769, 57.7829], [-129.6769, 57.7605], [-129.6433, 57.7605], [-129.6433, 57.7829]]]}, "properties": {"company_id": "skeena", "jurisdiction": "British Columbia", "claim_id": 407014, "claim_name": "BONANZA 1", "holder": "SKEENA RESOURCES LIMITED", "status": "Mineral", "recorded_date": "2003-11-27", "anniversary_or_expiry": "2030-06-30", "area_ha": 500, "tenure_type": "Mineral", "source": "BC MTA Mineral, Placer and Coal Tenure Spatial View (BCGW). Open Government Licence - British Columbia. Not legal title.", "as_of": "2026-09-20", "role": "focus", "color": "#e8b040"}}, {"type": "Feature", "geometry": {"type": "Polygon", "coordinates": [[[-129.6096, 57.7605], [-129.6096, 57.7829], [-129.6433, 57.7829], [-129.6433, 57.7605], [-129.6096, 57.7605]]]}, "properties": {"company_id": "skeena", "jurisdiction": "British Columbia", "claim_id": 407018, "claim_name": "BONANZA 2", "holder": "SKEENA RESOURCES LIMITED", "status": "Mineral", "recorded_date": "2003-11-27", "anniversary_or_expiry": "2030-06-30", "area_ha": 500, "tenure_type": "Mineral", "source": "BC MTA Mineral, Placer and Coal Tenure Spatial View (BCGW). Open Government Licence - British Columbia. Not legal title.", "as_of": "2026-09-20", "role": "focus", "color": "#e8b040"}}, {"type": "Feature", "geometry": {"type": "Polygon", "coordinates": [[[-129.6433, 57.7605], [-129.6767, 57.7605], [-129.6767, 57.7384], [-129.6433, 57.738], [-129.6433, 57.7605]]]}, "properties": {"company_id": "skeena", "jurisdiction": "British Columbia", "claim_id": 407019, "claim_name": "BONANZA 3", "holder": "SKEENA RESOURCES LIMITED", "status": "Mineral", "recorded_date": "2003-11-27", "anniversary_or_expiry": "2030-06-30", "area_ha": 500, "tenure_type": "Mineral", "source": "BC MTA Mineral, Placer and Coal Tenure Spatial View (BCGW). Open Government Licence - British Columbia. Not legal title.", "as_of": "2026-09-20", "role": "focus", "color": "#e8b040"}}, {"type": "Feature", "geometry": {"type": "Polygon", "coordinates": [[[-129.6096, 57.7605], [-129.6433, 57.7605], [-129.6433, 57.738], [-129.6097, 57.738], [-129.6096, 57.7605]]]}, "properties": {"company_id": "skeena", "jurisdiction": "British Columbia", "claim_id": 407020, "claim_name": "BONANZA 4", "holder": "SKEENA RESOURCES LIMITED", "status": "Mineral", "recorded_date": "2003-11-27", "anniversary_or_expiry": "2030-06-30", "area_ha": 500, "tenure_type": "Mineral", "source": "BC MTA Mineral, Placer and Coal Tenure Spatial View (BCGW). Open Government Licence - British Columbia. Not legal title.", "as_of": "2026-09-20", "role": "focus", "color": "#e8b040"}}, {"type": "Feature", "geometry": {"type": "Polygon", "coordinates": [[[-130.502, 56.6207], [-130.4958, 56.6207], [-130.4958, 56.6165], [-130.4895, 56.6165], [-130.4895, 56.6207], [-130.4833, 56.6207], [-130.4833, 56.6248], [-130.4895, 56.6248], [-130.4895, 56.629], [-130.502, 56.629], [-130.502, 56.6207]]]}, "properties": {"company_id": "skeena", "jurisdiction": "British Columbia", "claim_id": 512867, "claim_name": null, "holder": "SKEENA RESOURCES LIMITED", "status": "Mineral", "recorded_date": "2005-05-17", "anniversary_or_expiry": "2025-06-25", "area_ha": 106.808, "tenure_type": "Mineral", "source": "BC MTA Mineral, Placer and Coal Tenure Spatial View (BCGW). Open Government Licence - British Columbia. Not legal title.", "as_of": "2026-09-20", "role": "focus", "color": "#e8b040"}}, {"type": "Feature", "geometry": {"type": "Polygon", "coordinates": [[[-130.452, 56.6457], [-130.4458, 56.6457], [-130.4458, 56.6498], [-130.4583, 56.6498], [-130.4583, 56.6457], [-130.452, 56.6457]]]}, "properties": {"company_id": "skeena", "jurisdiction": "British Columbia", "claim_id": 512879, "claim_name": null, "holder": "SKEENA RESOURCES LIMITED", "status": "Mineral", "recorded_date": "2005-05-18", "anniversary_or_expiry": "2025-04-06", "area_ha": 35.58, "tenure_type": "Mineral", "source": "BC MTA Mineral, Placer and Coal Tenure Spatial View (BCGW). Open Government Licence - British Columbia. Not legal title.", "as_of": "2026-09-20", "role": "focus", "color": "#e8b040"}}, {"type": "Feature", "geometry": {"type": "Polygon", "coordinates": [[[-130.4833, 56.6165], [-130.4833, 56.6207], [-130.4895, 56.6207], [-130.4895, 56.6165], [-130.4833, 56.6165]]]}, "properties": {"company_id": "skeena", "jurisdiction": "British Columbia", "claim_id": 512881, "claim_name": null, "holder": "SKEENA RESOURCES LIMITED", "status": "Mineral", "recorded_date": "2005-05-18", "anniversary_or_expiry": "2025-06-25", "area_ha": 17.804000000000002, "tenure_type": "Mineral", "source": "BC MTA Mineral, Placer and Coal Tenure Spatial View (BCGW). Open Government Licence - British Columbia. Not legal title.", "as_of": "2026-09-20", "role": "focus", "color": "#e8b040"}}]}