{"type": "FeatureCollection", "features": [{"type": "Feature", "geometry": {"type": "Polygon", "coordinates": [[[-92.6875, 51.1083], [-92.6875, 51.1125], [-92.6938, 51.1125], [-92.6938, 51.1083], [-92.6875, 51.1083]]]}, "properties": {"company_id": "skyharbour-resources", "jurisdiction": "Ontario", "claim_id": "138127", "claim_name": null, "holder": "(100) SKYHARBOUR RESOURCES LTD.", "status": "Active", "recorded_date": "2018-04-10", "anniversary_or_expiry": "2027-01-18", "area_ha": null, "tenure_type": "Boundary Cell Mining Claim", "source": "Ontario MLAS operational claims (OGSEarth / LIO MapServer). Unofficial viewing data, not legal title.", "as_of": "2026-09-20", "role": "focus", "color": "#e8b040"}}, {"type": "Feature", "geometry": {"type": "Polygon", "coordinates": [[[-92.6813, 51.1167], [-92.6813, 51.1208], [-92.6875, 51.1208], [-92.6875, 51.1167], [-92.6813, 51.1167]]]}, "properties": {"company_id": "skyharbour-resources", "jurisdiction": "Ontario", "claim_id": "200635", "claim_name": null, "holder": "(100) SKYHARBOUR RESOURCES LTD.", "status": "Active", "recorded_date": "2018-04-10", "anniversary_or_expiry": "2027-01-18", "area_ha": null, "tenure_type": "Single Cell Mining Claim", "source": "Ontario MLAS operational claims (OGSEarth / LIO MapServer). Unofficial viewing data, not legal title.", "as_of": "2026-09-20", "role": "focus", "color": "#e8b040"}}, {"type": "Feature", "geometry": {"type": "Polygon", "coordinates": [[[-92.6813, 51.1083], [-92.6813, 51.1125], [-92.6875, 51.1125], [-92.6875, 51.1083], [-92.6813, 51.1083]]]}, "properties": {"company_id": "skyharbour-resources", "jurisdiction": "Ontario", "claim_id": "212419", "claim_name": null, "holder": "(100) SKYHARBOUR RESOURCES LTD.", "status": "Active", "recorded_date": "2018-04-10", "anniversary_or_expiry": "2027-01-18", "area_ha": null, "tenure_type": "Single Cell Mining Claim", "source": "Ontario MLAS operational claims (OGSEarth / LIO MapServer). Unofficial viewing data, not legal title.", "as_of": "2026-09-20", "role": "focus", "color": "#e8b040"}}, {"type": "Feature", "geometry": {"type": "Polygon", "coordinates": [[[-92.6875, 51.1167], [-92.6875, 51.1208], [-92.6938, 51.1208], [-92.6938, 51.1167], [-92.6875, 51.1167]]]}, "properties": {"company_id": "skyharbour-resources", "jurisdiction": "Ontario", "claim_id": "304333", "claim_name": null, "holder": "(100) SKYHARBOUR RESOURCES LTD.", "status": "Active", "recorded_date": "2018-04-10", "anniversary_or_expiry": "2027-01-18", "area_ha": null, "tenure_type": "Single Cell Mining Claim", "source": "Ontario MLAS operational claims (OGSEarth / LIO MapServer). Unofficial viewing data, not legal title.", "as_of": "2026-09-20", "role": "focus", "color": "#e8b040"}}, {"type": "Feature", "geometry": {"type": "Polygon", "coordinates": [[[-92.6813, 51.1125], [-92.6813, 51.1167], [-92.6875, 51.1167], [-92.6875, 51.1125], [-92.6813, 51.1125]]]}, "properties": {"company_id": "skyharbour-resources", "jurisdiction": "Ontario", "claim_id": "334370", "claim_name": null, "holder": "(100) SKYHARBOUR RESOURCES LTD.", "status": "Active", "recorded_date": "2018-04-10", "anniversary_or_expiry": "2027-01-18", "area_ha": null, "tenure_type": "Single Cell Mining Claim", "source": "Ontario MLAS operational claims (OGSEarth / LIO MapServer). Unofficial viewing data, not legal title.", "as_of": "2026-09-20", "role": "focus", "color": "#e8b040"}}, {"type": "Feature", "geometry": {"type": "Polygon", "coordinates": [[[-92.6875, 51.1125], [-92.6875, 51.1167], [-92.6938, 51.1167], [-92.6938, 51.1125], [-92.6875, 51.1125]]]}, "properties": {"company_id": "skyharbour-resources", "jurisdiction": "Ontario", "claim_id": "343137", "claim_name": null, "holder": "(100) SKYHARBOUR RESOURCES LTD.", "status": "Active", "recorded_date": "2018-04-10", "anniversary_or_expiry": "2027-01-18", "area_ha": null, "tenure_type": "Single Cell Mining Claim", "source": "Ontario MLAS operational claims (OGSEarth / LIO MapServer). Unofficial viewing data, not legal title.", "as_of": "2026-09-20", "role": "focus", "color": "#e8b040"}}]}