{"type": "FeatureCollection", "features": [{"type": "Feature", "geometry": {"type": "Polygon", "coordinates": [[[-77.87500000640678, 49.47500000346325], [-77.87499999969744, 49.483333333712494], [-77.86666667655926, 49.48333333934231], [-77.86666666387129, 49.475000001048286], [-77.87500000640678, 49.47500000346325]]]}, "properties": {"company_id": "solstice-minerals", "jurisdiction": "Quebec", "claim_id": "", "claim_name": null, "holder": "Solstice Gold Corp.", "status": "Active", "recorded_date": null, "anniversary_or_expiry": null, "area_ha": null, "tenure_type": null, "source": "GESTIM active titles (MRNF digital data dump). Not legal title.", "as_of": "2026-09-20", "role": "focus", "color": "#e8b040"}}, {"type": "Feature", "geometry": {"type": "Polygon", "coordinates": [[[-77.86666666387129, 49.475000001048286], [-77.86666667655926, 49.48333333934231], [-77.85833333483629, 49.4833333376195], [-77.8583333308355, 49.47499999955198], [-77.86666666387129, 49.475000001048286]]]}, "properties": {"company_id": "solstice-minerals", "jurisdiction": "Quebec", "claim_id": "", "claim_name": null, "holder": "Solstice Gold Corp.", "status": "Active", "recorded_date": null, "anniversary_or_expiry": null, "area_ha": null, "tenure_type": null, "source": "GESTIM active titles (MRNF digital data dump). Not legal title.", "as_of": "2026-09-20", "role": "focus", "color": "#e8b040"}}, {"type": "Feature", "geometry": {"type": "Polygon", "coordinates": [[[-77.87499999969744, 49.483333333712494], [-77.87499999949225, 49.491666672748124], [-77.86666666694697, 49.49166666912688], [-77.86666667655926, 49.48333333934231], [-77.87499999969744, 49.483333333712494]]]}, "properties": {"company_id": "solstice-minerals", "jurisdiction": "Quebec", "claim_id": "", "claim_name": null, "holder": "Solstice Gold Corp.", "status": "Active", "recorded_date": null, "anniversary_or_expiry": null, "area_ha": null, "tenure_type": null, "source": "GESTIM active titles (MRNF digital data dump). Not legal title.", "as_of": "2026-09-20", "role": "focus", "color": "#e8b040"}}, {"type": "Feature", "geometry": {"type": "Polygon", "coordinates": [[[-77.86666667655926, 49.48333333934231], [-77.86666666694697, 49.49166666912688], [-77.85833334394009, 49.49166666648084], [-77.85833333483629, 49.4833333376195], [-77.86666667655926, 49.48333333934231]]]}, "properties": {"company_id": "solstice-minerals", "jurisdiction": "Quebec", "claim_id": "", "claim_name": null, "holder": "Solstice Gold Corp.", "status": "Active", "recorded_date": null, "anniversary_or_expiry": null, "area_ha": null, "tenure_type": null, "source": "GESTIM active titles (MRNF digital data dump). Not legal title.", "as_of": "2026-09-20", "role": "focus", "color": "#e8b040"}}, {"type": "Feature", "geometry": {"type": "Polygon", "coordinates": [[[-77.85833333483629, 49.4833333376195], [-77.85833334394009, 49.49166666648084], [-77.85000000286107, 49.49166666549955], [-77.85000000260423, 49.48333333685113], [-77.85833333483629, 49.4833333376195]]]}, "properties": {"company_id": "solstice-minerals", "jurisdiction": "Quebec", "claim_id": "", "claim_name": null, "holder": "Solstice Gold Corp.", "status": "Active", "recorded_date": null, "anniversary_or_expiry": null, "area_ha": null, "tenure_type": null, "source": "GESTIM active titles (MRNF digital data dump). Not legal title.", "as_of": "2026-09-20", "role": "focus", "color": "#e8b040"}}, {"type": "Feature", "geometry": {"type": "Polygon", "coordinates": [[[-77.8416666660461, 49.483333337385666], [-77.84166667126398, 49.49166666550838], [-77.83333333532939, 49.49166666685478], [-77.83333333892274, 49.48333333889149], [-77.8416666660461, 49.483333337385666]]]}, "properties": {"company_id": "solstice-minerals", "jurisdiction": "Quebec", "claim_id": "", "claim_name": null, "holder": "Solstice Gold Corp.", "status": "Active", "recorded_date": null, "anniversary_or_expiry": null, "area_ha": null, "tenure_type": null, "source": "GESTIM active titles (MRNF digital data dump). Not legal title.", "as_of": "2026-09-20", "role": "focus", "color": "#e8b040"}}, {"type": "Feature", "geometry": {"type": "Polygon", "coordinates": [[[-77.83333333892274, 49.48333333889149], [-77.83333333532939, 49.49166666685478], [-77.82500000882047, 49.49166666920822], [-77.82500000689971, 49.48333333273112], [-77.83333333892274, 49.48333333889149]]]}, "properties": {"company_id": "solstice-minerals", "jurisdiction": "Quebec", "claim_id": "", "claim_name": null, "holder": "Solstice Gold Corp.", "status": "Active", "recorded_date": null, "anniversary_or_expiry": null, "area_ha": null, "tenure_type": null, "source": "GESTIM active titles (MRNF digital data dump). Not legal title.", "as_of": "2026-09-20", "role": "focus", "color": "#e8b040"}}, {"type": "Feature", "geometry": {"type": "Polygon", "coordinates": [[[-77.82500000689971, 49.48333333273112], [-77.82500000882047, 49.49166666920822], [-77.81666666412592, 49.49166667325011], [-77.81666667098482, 49.48333333687876], [-77.82500000689971, 49.48333333273112]]]}, "properties": {"company_id": "solstice-minerals", "jurisdiction": "Quebec", "claim_id": "", "claim_name": null, "holder": "Solstice Gold Corp.", "status": "Active", "recorded_date": null, "anniversary_or_expiry": null, "area_ha": null, "tenure_type": null, "source": "GESTIM active titles (MRNF digital data dump). Not legal title.", "as_of": "2026-09-20", "role": "focus", "color": "#e8b040"}}, {"type": "Feature", "geometry": {"type": "Polygon", "coordinates": [[[-77.77500000496715, 49.48333333977629], [-77.77500000912859, 49.49166666570478], [-77.76666666456015, 49.49166666834668], [-77.76666666856784, 49.48333333337791], [-77.77500000496715, 49.48333333977629]]]}, "properties": {"company_id": "solstice-minerals", "jurisdiction": "Quebec", "claim_id": "", "claim_name": null, "holder": "Solstice Gold Corp.", "status": "Active", "recorded_date": null, "anniversary_or_expiry": null, "area_ha": null, "tenure_type": null, "source": "GESTIM active titles (MRNF digital data dump). Not legal title.", "as_of": "2026-09-20", "role": "focus", "color": "#e8b040"}}, {"type": "Feature", "geometry": {"type": "Polygon", "coordinates": [[[-77.76666666856784, 49.48333333337791], [-77.76666666456015, 49.49166666834668], [-77.7583333429873, 49.491666671728595], [-77.7583333418615, 49.48333333700662], [-77.76666666856784, 49.48333333337791]]]}, "properties": {"company_id": "solstice-minerals", "jurisdiction": "Quebec", "claim_id": "", "claim_name": null, "holder": "Solstice Gold Corp.", "status": "Active", "recorded_date": null, "anniversary_or_expiry": null, "area_ha": null, "tenure_type": null, "source": "GESTIM active titles (MRNF digital data dump). Not legal title.", "as_of": "2026-09-20", "role": "focus", "color": "#e8b040"}}, {"type": "Feature", "geometry": {"type": "Polygon", "coordinates": [[[-77.7583333418615, 49.48333333700662], [-77.7583333429873, 49.491666671728595], [-77.75000000250121, 49.49166666786244], [-77.7499999962283, 49.48333333335895], [-77.7583333418615, 49.48333333700662]]]}, "properties": {"company_id": "solstice-minerals", "jurisdiction": "Quebec", "claim_id": "", "claim_name": null, "holder": "Solstice Gold Corp.", "status": "Active", "recorded_date": null, "anniversary_or_expiry": null, "area_ha": null, "tenure_type": null, "source": "GESTIM active titles (MRNF digital data dump). Not legal title.", "as_of": "2026-09-20", "role": "focus", "color": "#e8b040"}}, {"type": "Feature", "geometry": {"type": "Polygon", "coordinates": [[[-77.87499999949225, 49.491666672748124], [-77.87500000473113, 49.50000000260372], [-77.86666667744333, 49.50000000734382], [-77.86666666694697, 49.49166666912688], [-77.87499999949225, 49.491666672748124]]]}, "properties": {"company_id": "solstice-minerals", "jurisdiction": "Quebec", "claim_id": "", "claim_name": null, "holder": "Solstice Gold Corp.", "status": "Active", "recorded_date": null, "anniversary_or_expiry": null, "area_ha": null, "tenure_type": null, "source": "GESTIM active titles (MRNF digital data dump). Not legal title.", "as_of": "2026-09-20", "role": "focus", "color": "#e8b040"}}, {"type": "Feature", "geometry": {"type": "Polygon", "coordinates": [[[-77.86666666694697, 49.49166666912688], [-77.86666667744333, 49.50000000734382], [-77.85833333159955, 49.50000000478604], [-77.85833334394009, 49.49166666648084], [-77.86666666694697, 49.49166666912688]]]}, "properties": {"company_id": "solstice-minerals", "jurisdiction": "Quebec", "claim_id": "", "claim_name": null, "holder": "Solstice Gold Corp.", "status": "Active", "recorded_date": null, "anniversary_or_expiry": null, "area_ha": null, "tenure_type": null, "source": "GESTIM active titles (MRNF digital data dump). Not legal title.", "as_of": "2026-09-20", "role": "focus", "color": "#e8b040"}}, {"type": "Feature", "geometry": {"type": "Polygon", "coordinates": [[[-77.85833334394009, 49.49166666648084], [-77.85833333159955, 49.50000000478604], [-77.8500000090786, 49.50000000289714], [-77.85000000286107, 49.49166666549955], [-77.85833334394009, 49.49166666648084]]]}, "properties": {"company_id": "solstice-minerals", "jurisdiction": "Quebec", "claim_id": "", "claim_name": null, "holder": "Solstice Gold Corp.", "status": "Active", "recorded_date": null, "anniversary_or_expiry": null, "area_ha": null, "tenure_type": null, "source": "GESTIM active titles (MRNF digital data dump). Not legal title.", "as_of": "2026-09-20", "role": "focus", "color": "#e8b040"}}, {"type": "Feature", "geometry": {"type": "Polygon", "coordinates": [[[-77.85000000286107, 49.49166666549955], [-77.8500000090786, 49.50000000289714], [-77.84166666847162, 49.50000000270678], [-77.84166667126398, 49.49166666550838], [-77.85000000286107, 49.49166666549955]]]}, "properties": {"company_id": "solstice-minerals", "jurisdiction": "Quebec", "claim_id": "", "claim_name": null, "holder": "Solstice Gold Corp.", "status": "Active", "recorded_date": null, "anniversary_or_expiry": null, "area_ha": null, "tenure_type": null, "source": "GESTIM active titles (MRNF digital data dump). Not legal title.", "as_of": "2026-09-20", "role": "focus", "color": "#e8b040"}}, {"type": "Feature", "geometry": {"type": "Polygon", "coordinates": [[[-77.83333333532939, 49.49166666685478], [-77.83333333733755, 49.50000000354229], [-77.82500000185433, 49.50000000575014], [-77.82500000882047, 49.49166666920822], [-77.83333333532939, 49.49166666685478]]]}, "properties": {"company_id": "solstice-minerals", "jurisdiction": "Quebec", "claim_id": "", "claim_name": null, "holder": "Solstice Gold Corp.", "status": "Active", "recorded_date": null, "anniversary_or_expiry": null, "area_ha": null, "tenure_type": null, "source": "GESTIM active titles (MRNF digital data dump). Not legal title.", "as_of": "2026-09-20", "role": "focus", "color": "#e8b040"}}, {"type": "Feature", "geometry": {"type": "Polygon", "coordinates": [[[-77.82500000882047, 49.49166666920822], [-77.82500000185433, 49.50000000575014], [-77.81666667527155, 49.50000000001666], [-77.81666666412592, 49.49166667325011], [-77.82500000882047, 49.49166666920822]]]}, "properties": {"company_id": "solstice-minerals", "jurisdiction": "Quebec", "claim_id": "", "claim_name": null, "holder": "Solstice Gold Corp.", "status": "Active", "recorded_date": null, "anniversary_or_expiry": null, "area_ha": null, "tenure_type": null, "source": "GESTIM active titles (MRNF digital data dump). Not legal title.", "as_of": "2026-09-20", "role": "focus", "color": "#e8b040"}}, {"type": "Feature", "geometry": {"type": "Polygon", "coordinates": [[[-77.81666666412592, 49.49166667325011], [-77.81666667527155, 49.50000000001666], [-77.80833333100652, 49.50000000498923], [-77.80833334207793, 49.49166666899456], [-77.81666666412592, 49.49166667325011]]]}, "properties": {"company_id": "solstice-minerals", "jurisdiction": "Quebec", "claim_id": "", "claim_name": null, "holder": "Solstice Gold Corp.", "status": "Active", "recorded_date": null, "anniversary_or_expiry": null, "area_ha": null, "tenure_type": null, "source": "GESTIM active titles (MRNF digital data dump). Not legal title.", "as_of": "2026-09-20", "role": "focus", "color": "#e8b040"}}, {"type": "Feature", "geometry": {"type": "Polygon", "coordinates": [[[-77.80833334207793, 49.49166666899456], [-77.80833333100652, 49.50000000498923], [-77.8000000093826, 49.50000000170088], [-77.80000000179072, 49.49166666644006], [-77.80833334207793, 49.49166666899456]]]}, "properties": {"company_id": "solstice-minerals", "jurisdiction": "Quebec", "claim_id": "", "claim_name": null, "holder": "Solstice Gold Corp.", "status": "Active", "recorded_date": null, "anniversary_or_expiry": null, "area_ha": null, "tenure_type": null, "source": "GESTIM active titles (MRNF digital data dump). Not legal title.", "as_of": "2026-09-20", "role": "focus", "color": "#e8b040"}}, {"type": "Feature", "geometry": {"type": "Polygon", "coordinates": [[[-77.80000000179072, 49.49166666644006], [-77.8000000093826, 49.50000000170088], [-77.7916666695051, 49.50000000014726], [-77.79166667133083, 49.491666673907865], [-77.80000000179072, 49.49166666644006]]]}, "properties": {"company_id": "solstice-minerals", "jurisdiction": "Quebec", "claim_id": "", "claim_name": null, "holder": "Solstice Gold Corp.", "status": "Active", "recorded_date": null, "anniversary_or_expiry": null, "area_ha": null, "tenure_type": null, "source": "GESTIM active titles (MRNF digital data dump). Not legal title.", "as_of": "2026-09-20", "role": "focus", "color": "#e8b040"}}, {"type": "Feature", "geometry": {"type": "Polygon", "coordinates": [[[-77.79166667133083, 49.491666673907865], [-77.7916666695051, 49.50000000014726], [-77.7833333389341, 49.49999999966735], [-77.78333333585398, 49.49166667377113], [-77.79166667133083, 49.491666673907865]]]}, "properties": {"company_id": "solstice-minerals", "jurisdiction": "Quebec", "claim_id": "", "claim_name": null, "holder": "Solstice Gold Corp.", "status": "Active", "recorded_date": null, "anniversary_or_expiry": null, "area_ha": null, "tenure_type": null, "source": "GESTIM active titles (MRNF digital data dump). Not legal title.", "as_of": "2026-09-20", "role": "focus", "color": "#e8b040"}}, {"type": "Feature", "geometry": {"type": "Polygon", "coordinates": [[[-77.77500000912859, 49.49166666570478], [-77.77500000384704, 49.50000000060153], [-77.7666666642155, 49.500000002956035], [-77.76666666456015, 49.49166666834668], [-77.77500000912859, 49.49166666570478]]]}, "properties": {"company_id": "solstice-minerals", "jurisdiction": "Quebec", "claim_id": "", "claim_name": null, "holder": "Solstice Gold Corp.", "status": "Active", "recorded_date": null, "anniversary_or_expiry": null, "area_ha": null, "tenure_type": null, "source": "GESTIM active titles (MRNF digital data dump). Not legal title.", "as_of": "2026-09-20", "role": "focus", "color": "#e8b040"}}, {"type": "Feature", "geometry": {"type": "Polygon", "coordinates": [[[-77.71666667278407, 49.466666668962276], [-77.71666666701233, 49.475000004391184], [-77.70833333376454, 49.47500000682904], [-77.7083333339514, 49.46666667145474], [-77.71666667278407, 49.466666668962276]]]}, "properties": {"company_id": "solstice-minerals", "jurisdiction": "Quebec", "claim_id": "", "claim_name": null, "holder": "Solstice Gold Corp.", "status": "Active", "recorded_date": null, "anniversary_or_expiry": null, "area_ha": null, "tenure_type": null, "source": "GESTIM active titles (MRNF digital data dump). Not legal title.", "as_of": "2026-09-20", "role": "focus", "color": "#e8b040"}}, {"type": "Feature", "geometry": {"type": "Polygon", "coordinates": [[[-77.7083333339514, 49.46666667145474], [-77.70833333376454, 49.47500000682904], [-77.70000000899553, 49.475000001351994], [-77.70000000357958, 49.466666666003995], [-77.7083333339514, 49.46666667145474]]]}, "properties": {"company_id": "solstice-minerals", "jurisdiction": "Quebec", "claim_id": "", "claim_name": null, "holder": "Solstice Gold Corp.", "status": "Active", "recorded_date": null, "anniversary_or_expiry": null, "area_ha": null, "tenure_type": null, "source": "GESTIM active titles (MRNF digital data dump). Not legal title.", "as_of": "2026-09-20", "role": "focus", "color": "#e8b040"}}, {"type": "Feature", "geometry": {"type": "Polygon", "coordinates": [[[-77.70833333376454, 49.47500000682904], [-77.70833333552251, 49.483333332771906], [-77.70000000288606, 49.48333333656318], [-77.70000000899553, 49.475000001351994], [-77.70833333376454, 49.47500000682904]]]}, "properties": {"company_id": "solstice-minerals", "jurisdiction": "Quebec", "claim_id": "", "claim_name": null, "holder": "Solstice Gold Corp.", "status": "Active", "recorded_date": null, "anniversary_or_expiry": null, "area_ha": null, "tenure_type": null, "source": "GESTIM active titles (MRNF digital data dump). Not legal title.", "as_of": "2026-09-20", "role": "focus", "color": "#e8b040"}}, {"type": "Feature", "geometry": {"type": "Polygon", "coordinates": [[[-77.7499999962283, 49.48333333335895], [-77.75000000250121, 49.49166666786244], [-77.74166667166729, 49.49166667406606], [-77.74166667401884, 49.48333333942569], [-77.7499999962283, 49.48333333335895]]]}, "properties": {"company_id": "solstice-minerals", "jurisdiction": "Quebec", "claim_id": "", "claim_name": null, "holder": "Solstice Gold Corp.", "status": "Active", "recorded_date": null, "anniversary_or_expiry": null, "area_ha": null, "tenure_type": null, "source": "GESTIM active titles (MRNF digital data dump). Not legal title.", "as_of": "2026-09-20", "role": "focus", "color": "#e8b040"}}, {"type": "Feature", "geometry": {"type": "Polygon", "coordinates": [[[-77.733333332829, 49.48333333822817], [-77.73333333565893, 49.49166667270565], [-77.72500000874423, 49.491666672446605], [-77.72500000071452, 49.483333338103805], [-77.733333332829, 49.48333333822817]]]}, "properties": {"company_id": "solstice-minerals", "jurisdiction": "Quebec", "claim_id": "", "claim_name": null, "holder": "Solstice Gold Corp.", "status": "Active", "recorded_date": null, "anniversary_or_expiry": null, "area_ha": null, "tenure_type": null, "source": "GESTIM active titles (MRNF digital data dump). Not legal title.", "as_of": "2026-09-20", "role": "focus", "color": "#e8b040"}}, {"type": "Feature", "geometry": {"type": "Polygon", "coordinates": [[[-77.72500000071452, 49.483333338103805], [-77.72500000874423, 49.491666672446605], [-77.71666666330947, 49.49166667394629], [-77.7166666638569, 49.483333339385645], [-77.72500000071452, 49.483333338103805]]]}, "properties": {"company_id": "solstice-minerals", "jurisdiction": "Quebec", "claim_id": "", "claim_name": null, "holder": "Solstice Gold Corp.", "status": "Active", "recorded_date": null, "anniversary_or_expiry": null, "area_ha": null, "tenure_type": null, "source": "GESTIM active titles (MRNF digital data dump). Not legal title.", "as_of": "2026-09-20", "role": "focus", "color": "#e8b040"}}, {"type": "Feature", "geometry": {"type": "Polygon", "coordinates": [[[-77.7166666638569, 49.483333339385645], [-77.71666666330947, 49.49166667394629], [-77.7083333402087, 49.4916666672535], [-77.70833333552251, 49.483333332771906], [-77.7166666638569, 49.483333339385645]]]}, "properties": {"company_id": "solstice-minerals", "jurisdiction": "Quebec", "claim_id": "", "claim_name": null, "holder": "Solstice Gold Corp.", "status": "Active", "recorded_date": null, "anniversary_or_expiry": null, "area_ha": null, "tenure_type": null, "source": "GESTIM active titles (MRNF digital data dump). Not legal title.", "as_of": "2026-09-20", "role": "focus", "color": "#e8b040"}}, {"type": "Feature", "geometry": {"type": "Polygon", "coordinates": [[[-77.89166667481986, 49.50000000542464], [-77.89166667696496, 49.5083333364391], [-77.88333333499962, 49.50833333850813], [-77.88333334160173, 49.4999999988577], [-77.89166667481986, 49.50000000542464]]]}, "properties": {"company_id": "solstice-minerals", "jurisdiction": "Quebec", "claim_id": "", "claim_name": null, "holder": "Solstice Gold Corp.", "status": "Active", "recorded_date": null, "anniversary_or_expiry": null, "area_ha": null, "tenure_type": null, "source": "GESTIM active titles (MRNF digital data dump). Not legal title.", "as_of": "2026-09-20", "role": "focus", "color": "#e8b040"}}, {"type": "Feature", "geometry": {"type": "Polygon", "coordinates": [[[-77.88333334160173, 49.4999999988577], [-77.88333333499962, 49.50833333850813], [-77.87500000213772, 49.50833333260651], [-77.87500000473113, 49.50000000260372], [-77.88333334160173, 49.4999999988577]]]}, "properties": {"company_id": "solstice-minerals", "jurisdiction": "Quebec", "claim_id": "", "claim_name": null, "holder": "Solstice Gold Corp.", "status": "Active", "recorded_date": null, "anniversary_or_expiry": null, "area_ha": null, "tenure_type": null, "source": "GESTIM active titles (MRNF digital data dump). Not legal title.", "as_of": "2026-09-20", "role": "focus", "color": "#e8b040"}}, {"type": "Feature", "geometry": {"type": "Polygon", "coordinates": [[[-77.87500000473113, 49.50000000260372], [-77.87500000213772, 49.50833333260651], [-77.86666666561065, 49.50833333705278], [-77.86666667744333, 49.50000000734382], [-77.87500000473113, 49.50000000260372]]]}, "properties": {"company_id": "solstice-minerals", "jurisdiction": "Quebec", "claim_id": "", "claim_name": null, "holder": "Solstice Gold Corp.", "status": "Active", "recorded_date": null, "anniversary_or_expiry": null, "area_ha": null, "tenure_type": null, "source": "GESTIM active titles (MRNF digital data dump). Not legal title.", "as_of": "2026-09-20", "role": "focus", "color": "#e8b040"}}, {"type": "Feature", "geometry": {"type": "Polygon", "coordinates": [[[-77.86666667744333, 49.50000000734382], [-77.86666666561065, 49.50833333705278], [-77.85833333813365, 49.50833333354531], [-77.85833333159955, 49.50000000478604], [-77.86666667744333, 49.50000000734382]]]}, "properties": {"company_id": "solstice-minerals", "jurisdiction": "Quebec", "claim_id": "", "claim_name": null, "holder": "Solstice Gold Corp.", "status": "Active", "recorded_date": null, "anniversary_or_expiry": null, "area_ha": null, "tenure_type": null, "source": "GESTIM active titles (MRNF digital data dump). Not legal title.", "as_of": "2026-09-20", "role": "focus", "color": "#e8b040"}}, {"type": "Feature", "geometry": {"type": "Polygon", "coordinates": [[[-77.85833333159955, 49.50000000478604], [-77.85833333813365, 49.50833333354531], [-77.85000000693175, 49.50833334040093], [-77.8500000090786, 49.50000000289714], [-77.85833333159955, 49.50000000478604]]]}, "properties": {"company_id": "solstice-minerals", "jurisdiction": "Quebec", "claim_id": "", "claim_name": null, "holder": "Solstice Gold Corp.", "status": "Active", "recorded_date": null, "anniversary_or_expiry": null, "area_ha": null, "tenure_type": null, "source": "GESTIM active titles (MRNF digital data dump). Not legal title.", "as_of": "2026-09-20", "role": "focus", "color": "#e8b040"}}, {"type": "Feature", "geometry": {"type": "Polygon", "coordinates": [[[-77.8500000090786, 49.50000000289714], [-77.85000000693175, 49.50833334040093], [-77.84166667093034, 49.50833333965874], [-77.84166666847162, 49.50000000270678], [-77.8500000090786, 49.50000000289714]]]}, "properties": {"company_id": "solstice-minerals", "jurisdiction": "Quebec", "claim_id": "", "claim_name": null, "holder": "Solstice Gold Corp.", "status": "Active", "recorded_date": null, "anniversary_or_expiry": null, "area_ha": null, "tenure_type": null, "source": "GESTIM active titles (MRNF digital data dump). Not legal title.", "as_of": "2026-09-20", "role": "focus", "color": "#e8b040"}}, {"type": "Feature", "geometry": {"type": "Polygon", "coordinates": [[[-77.84166666847162, 49.50000000270678], [-77.84166667093034, 49.50833333965874], [-77.83333333062485, 49.50833334030883], [-77.83333333733755, 49.50000000354229], [-77.84166666847162, 49.50000000270678]]]}, "properties": {"company_id": "solstice-minerals", "jurisdiction": "Quebec", "claim_id": "", "claim_name": null, "holder": "Solstice Gold Corp.", "status": "Active", "recorded_date": null, "anniversary_or_expiry": null, "area_ha": null, "tenure_type": null, "source": "GESTIM active titles (MRNF digital data dump). Not legal title.", "as_of": "2026-09-20", "role": "focus", "color": "#e8b040"}}, {"type": "Feature", "geometry": {"type": "Polygon", "coordinates": [[[-77.83333333733755, 49.50000000354229], [-77.83333333062485, 49.50833334030883], [-77.82499999926526, 49.50833333303657], [-77.82500000185433, 49.50000000575014], [-77.83333333733755, 49.50000000354229]]]}, "properties": {"company_id": "solstice-minerals", "jurisdiction": "Quebec", "claim_id": "", "claim_name": null, "holder": "Solstice Gold Corp.", "status": "Active", "recorded_date": null, "anniversary_or_expiry": null, "area_ha": null, "tenure_type": null, "source": "GESTIM active titles (MRNF digital data dump). Not legal title.", "as_of": "2026-09-20", "role": "focus", "color": "#e8b040"}}, {"type": "Feature", "geometry": {"type": "Polygon", "coordinates": [[[-77.82500000185433, 49.50000000575014], [-77.82499999926526, 49.50833333303657], [-77.81666666406412, 49.50833333615522], [-77.81666667527155, 49.50000000001666], [-77.82500000185433, 49.50000000575014]]]}, "properties": {"company_id": "solstice-minerals", "jurisdiction": "Quebec", "claim_id": "", "claim_name": null, "holder": "Solstice Gold Corp.", "status": "Active", "recorded_date": null, "anniversary_or_expiry": null, "area_ha": null, "tenure_type": null, "source": "GESTIM active titles (MRNF digital data dump). Not legal title.", "as_of": "2026-09-20", "role": "focus", "color": "#e8b040"}}, {"type": "Feature", "geometry": {"type": "Polygon", "coordinates": [[[-77.81666667527155, 49.50000000001666], [-77.81666666406412, 49.50833333615522], [-77.80833333827012, 49.50833334035214], [-77.80833333100652, 49.50000000498923], [-77.81666667527155, 49.50000000001666]]]}, "properties": {"company_id": "solstice-minerals", "jurisdiction": "Quebec", "claim_id": "", "claim_name": null, "holder": "Solstice Gold Corp.", "status": "Active", "recorded_date": null, "anniversary_or_expiry": null, "area_ha": null, "tenure_type": null, "source": "GESTIM active titles (MRNF digital data dump). Not legal title.", "as_of": "2026-09-20", "role": "focus", "color": "#e8b040"}}, {"type": "Feature", "geometry": {"type": "Polygon", "coordinates": [[[-77.80833333100652, 49.50000000498923], [-77.80833333827012, 49.50833334035214], [-77.80000000754544, 49.50833333698668], [-77.8000000093826, 49.50000000170088], [-77.80833333100652, 49.50000000498923]]]}, "properties": {"company_id": "solstice-minerals", "jurisdiction": "Quebec", "claim_id": "", "claim_name": null, "holder": "Solstice Gold Corp.", "status": "Active", "recorded_date": null, "anniversary_or_expiry": null, "area_ha": null, "tenure_type": null, "source": "GESTIM active titles (MRNF digital data dump). Not legal title.", "as_of": "2026-09-20", "role": "focus", "color": "#e8b040"}}, {"type": "Feature", "geometry": {"type": "Polygon", "coordinates": [[[-77.8000000093826, 49.50000000170088], [-77.80000000754544, 49.50833333698668], [-77.79166667237772, 49.508333335049215], [-77.7916666695051, 49.50000000014726], [-77.8000000093826, 49.50000000170088]]]}, "properties": {"company_id": "solstice-minerals", "jurisdiction": "Quebec", "claim_id": "", "claim_name": null, "holder": "Solstice Gold Corp.", "status": "Active", "recorded_date": null, "anniversary_or_expiry": null, "area_ha": null, "tenure_type": null, "source": "GESTIM active titles (MRNF digital data dump). Not legal title.", "as_of": "2026-09-20", "role": "focus", "color": "#e8b040"}}, {"type": "Feature", "geometry": {"type": "Polygon", "coordinates": [[[-77.7916666695051, 49.50000000014726], [-77.79166667237772, 49.508333335049215], [-77.78333333273858, 49.50833333454591], [-77.7833333389341, 49.49999999966735], [-77.7916666695051, 49.50000000014726]]]}, "properties": {"company_id": "solstice-minerals", "jurisdiction": "Quebec", "claim_id": "", "claim_name": null, "holder": "Solstice Gold Corp.", "status": "Active", "recorded_date": null, "anniversary_or_expiry": null, "area_ha": null, "tenure_type": null, "source": "GESTIM active titles (MRNF digital data dump). Not legal title.", "as_of": "2026-09-20", "role": "focus", "color": "#e8b040"}}, {"type": "Feature", "geometry": {"type": "Polygon", "coordinates": [[[-77.7833333389341, 49.49999999966735], [-77.78333333273858, 49.50833333454591], [-77.77500000239638, 49.5083333351519], [-77.77500000384704, 49.50000000060153], [-77.7833333389341, 49.49999999966735]]]}, "properties": {"company_id": "solstice-minerals", "jurisdiction": "Quebec", "claim_id": "", "claim_name": null, "holder": "Solstice Gold Corp.", "status": "Active", "recorded_date": null, "anniversary_or_expiry": null, "area_ha": null, "tenure_type": null, "source": "GESTIM active titles (MRNF digital data dump). Not legal title.", "as_of": "2026-09-20", "role": "focus", "color": "#e8b040"}}, {"type": "Feature", "geometry": {"type": "Polygon", "coordinates": [[[-77.9333333385652, 49.50833333686881], [-77.93333333936799, 49.51666667131014], [-77.92500000826195, 49.516666666203676], [-77.92500000320626, 49.50833333260737], [-77.9333333385652, 49.50833333686881]]]}, "properties": {"company_id": "solstice-minerals", "jurisdiction": "Quebec", "claim_id": "", "claim_name": null, "holder": "Solstice Gold Corp.", "status": "Active", "recorded_date": null, "anniversary_or_expiry": null, "area_ha": null, "tenure_type": null, "source": "GESTIM active titles (MRNF digital data dump). Not legal title.", "as_of": "2026-09-20", "role": "focus", "color": "#e8b040"}}, {"type": "Feature", "geometry": {"type": "Polygon", "coordinates": [[[-77.92500000320626, 49.50833333260737], [-77.92500000826195, 49.516666666203676], [-77.91666667368477, 49.51666667142944], [-77.9166666781537, 49.508333338301775], [-77.92500000320626, 49.50833333260737]]]}, "properties": {"company_id": "solstice-minerals", "jurisdiction": "Quebec", "claim_id": "", "claim_name": null, "holder": "Solstice Gold Corp.", "status": "Active", "recorded_date": null, "anniversary_or_expiry": null, "area_ha": null, "tenure_type": null, "source": "GESTIM active titles (MRNF digital data dump). Not legal title.", "as_of": "2026-09-20", "role": "focus", "color": "#e8b040"}}, {"type": "Feature", "geometry": {"type": "Polygon", "coordinates": [[[-77.9166666781537, 49.508333338301775], [-77.91666667368477, 49.51666667142944], [-77.90833333453705, 49.51666666902801], [-77.90833333471835, 49.50833333668964], [-77.9166666781537, 49.508333338301775]]]}, "properties": {"company_id": "solstice-minerals", "jurisdiction": "Quebec", "claim_id": "", "claim_name": null, "holder": "Solstice Gold Corp.", "status": "Active", "recorded_date": null, "anniversary_or_expiry": null, "area_ha": null, "tenure_type": null, "source": "GESTIM active titles (MRNF digital data dump). Not legal title.", "as_of": "2026-09-20", "role": "focus", "color": "#e8b040"}}, {"type": "Feature", "geometry": {"type": "Polygon", "coordinates": [[[-77.90833333471835, 49.50833333668964], [-77.90833333453705, 49.51666666902801], [-77.90000000512421, 49.51666666764288], [-77.90000000099815, 49.50833333606554], [-77.90833333471835, 49.50833333668964]]]}, "properties": {"company_id": "solstice-minerals", "jurisdiction": "Quebec", "claim_id": "", "claim_name": null, "holder": "Solstice Gold Corp.", "status": "Active", "recorded_date": null, "anniversary_or_expiry": null, "area_ha": null, "tenure_type": null, "source": "GESTIM active titles (MRNF digital data dump). Not legal title.", "as_of": "2026-09-20", "role": "focus", "color": "#e8b040"}}, {"type": "Feature", "geometry": {"type": "Polygon", "coordinates": [[[-77.90000000099815, 49.50833333606554], [-77.90000000512421, 49.51666666764288], [-77.89166667162021, 49.5166666676289], [-77.89166667696496, 49.5083333364391], [-77.90000000099815, 49.50833333606554]]]}, "properties": {"company_id": "solstice-minerals", "jurisdiction": "Quebec", "claim_id": "", "claim_name": null, "holder": "Solstice Gold Corp.", "status": "Active", "recorded_date": null, "anniversary_or_expiry": null, "area_ha": null, "tenure_type": null, "source": "GESTIM active titles (MRNF digital data dump). Not legal title.", "as_of": "2026-09-20", "role": "focus", "color": "#e8b040"}}, {"type": "Feature", "geometry": {"type": "Polygon", "coordinates": [[[-77.89166667696496, 49.5083333364391], [-77.89166667162021, 49.5166666676289], [-77.88333333399659, 49.51666666899264], [-77.88333333499962, 49.50833333850813], [-77.89166667696496, 49.5083333364391]]]}, "properties": {"company_id": "solstice-minerals", "jurisdiction": "Quebec", "claim_id": "", "claim_name": null, "holder": "Solstice Gold Corp.", "status": "Active", "recorded_date": null, "anniversary_or_expiry": null, "area_ha": null, "tenure_type": null, "source": "GESTIM active titles (MRNF digital data dump). Not legal title.", "as_of": "2026-09-20", "role": "focus", "color": "#e8b040"}}, {"type": "Feature", "geometry": {"type": "Polygon", "coordinates": [[[-77.88333333499962, 49.50833333850813], [-77.88333333399659, 49.51666666899264], [-77.87500000602279, 49.516666671397545], [-77.87500000213772, 49.50833333260651], [-77.88333333499962, 49.50833333850813]]]}, "properties": {"company_id": "solstice-minerals", "jurisdiction": "Quebec", "claim_id": "", "claim_name": null, "holder": "Solstice Gold Corp.", "status": "Active", "recorded_date": null, "anniversary_or_expiry": null, "area_ha": null, "tenure_type": null, "source": "GESTIM active titles (MRNF digital data dump). Not legal title.", "as_of": "2026-09-20", "role": "focus", "color": "#e8b040"}}, {"type": "Feature", "geometry": {"type": "Polygon", "coordinates": [[[-77.87500000213772, 49.50833333260651], [-77.87500000602279, 49.516666671397545], [-77.86666667334703, 49.51666666621172], [-77.86666666561065, 49.50833333705278], [-77.87500000213772, 49.50833333260651]]]}, "properties": {"company_id": "solstice-minerals", "jurisdiction": "Quebec", "claim_id": "", "claim_name": null, "holder": "Solstice Gold Corp.", "status": "Active", "recorded_date": null, "anniversary_or_expiry": null, "area_ha": null, "tenure_type": null, "source": "GESTIM active titles (MRNF digital data dump). Not legal title.", "as_of": "2026-09-20", "role": "focus", "color": "#e8b040"}}, {"type": "Feature", "geometry": {"type": "Polygon", "coordinates": [[[-77.86666666561065, 49.50833333705278], [-77.86666667334703, 49.51666666621172], [-77.85833333699331, 49.51666667140876], [-77.85833333813365, 49.50833333354531], [-77.86666666561065, 49.50833333705278]]]}, "properties": {"company_id": "solstice-minerals", "jurisdiction": "Quebec", "claim_id": "", "claim_name": null, "holder": "Solstice Gold Corp.", "status": "Active", "recorded_date": null, "anniversary_or_expiry": null, "area_ha": null, "tenure_type": null, "source": "GESTIM active titles (MRNF digital data dump). Not legal title.", "as_of": "2026-09-20", "role": "focus", "color": "#e8b040"}}, {"type": "Feature", "geometry": {"type": "Polygon", "coordinates": [[[-77.85833333813365, 49.50833333354531], [-77.85833333699331, 49.51666667140876], [-77.85000000968192, 49.516666668687805], [-77.85000000693175, 49.50833334040093], [-77.85833333813365, 49.50833333354531]]]}, "properties": {"company_id": "solstice-minerals", "jurisdiction": "Quebec", "claim_id": "", "claim_name": null, "holder": "Solstice Gold Corp.", "status": "Active", "recorded_date": null, "anniversary_or_expiry": null, "area_ha": null, "tenure_type": null, "source": "GESTIM active titles (MRNF digital data dump). Not legal title.", "as_of": "2026-09-20", "role": "focus", "color": "#e8b040"}}, {"type": "Feature", "geometry": {"type": "Polygon", "coordinates": [[[-77.85000000693175, 49.50833334040093], [-77.85000000968192, 49.516666668687805], [-77.84166666431337, 49.51666666772022], [-77.84166667093034, 49.50833333965874], [-77.85000000693175, 49.50833334040093]]]}, "properties": {"company_id": "solstice-minerals", "jurisdiction": "Quebec", "claim_id": "", "claim_name": null, "holder": "Solstice Gold Corp.", "status": "Active", "recorded_date": null, "anniversary_or_expiry": null, "area_ha": null, "tenure_type": null, "source": "GESTIM active titles (MRNF digital data dump). Not legal title.", "as_of": "2026-09-20", "role": "focus", "color": "#e8b040"}}, {"type": "Feature", "geometry": {"type": "Polygon", "coordinates": [[[-77.84166667093034, 49.50833333965874], [-77.84166666431337, 49.51666666772022], [-77.83333334225429, 49.51666666749494], [-77.83333333062485, 49.50833334030883], [-77.84166667093034, 49.50833333965874]]]}, "properties": {"company_id": "solstice-minerals", "jurisdiction": "Quebec", "claim_id": "", "claim_name": null, "holder": "Solstice Gold Corp.", "status": "Active", "recorded_date": null, "anniversary_or_expiry": null, "area_ha": null, "tenure_type": null, "source": "GESTIM active titles (MRNF digital data dump). Not legal title.", "as_of": "2026-09-20", "role": "focus", "color": "#e8b040"}}, {"type": "Feature", "geometry": {"type": "Polygon", "coordinates": [[[-77.82499999926526, 49.50833333303657], [-77.82500000208101, 49.5166666690359], [-77.81666667136211, 49.51666667167411], [-77.81666666406412, 49.50833333615522], [-77.82499999926526, 49.50833333303657]]]}, "properties": {"company_id": "solstice-minerals", "jurisdiction": "Quebec", "claim_id": "", "claim_name": null, "holder": "Solstice Gold Corp.", "status": "Active", "recorded_date": null, "anniversary_or_expiry": null, "area_ha": null, "tenure_type": null, "source": "GESTIM active titles (MRNF digital data dump). Not legal title.", "as_of": "2026-09-20", "role": "focus", "color": "#e8b040"}}, {"type": "Feature", "geometry": {"type": "Polygon", "coordinates": [[[-77.81666666406412, 49.50833333615522], [-77.81666667136211, 49.51666667167411], [-77.80833333575568, 49.516666666770114], [-77.80833333827012, 49.50833334035214], [-77.81666666406412, 49.50833333615522]]]}, "properties": {"company_id": "solstice-minerals", "jurisdiction": "Quebec", "claim_id": "", "claim_name": null, "holder": "Solstice Gold Corp.", "status": "Active", "recorded_date": null, "anniversary_or_expiry": null, "area_ha": null, "tenure_type": null, "source": "GESTIM active titles (MRNF digital data dump). Not legal title.", "as_of": "2026-09-20", "role": "focus", "color": "#e8b040"}}, {"type": "Feature", "geometry": {"type": "Polygon", "coordinates": [[[-77.80833333827012, 49.50833334035214], [-77.80833333575568, 49.516666666770114], [-77.80000001006331, 49.51666667196396], [-77.80000000754544, 49.50833333698668], [-77.80833333827012, 49.50833334035214]]]}, "properties": {"company_id": "solstice-minerals", "jurisdiction": "Quebec", "claim_id": "", "claim_name": null, "holder": "Solstice Gold Corp.", "status": "Active", "recorded_date": null, "anniversary_or_expiry": null, "area_ha": null, "tenure_type": null, "source": "GESTIM active titles (MRNF digital data dump). Not legal title.", "as_of": "2026-09-20", "role": "focus", "color": "#e8b040"}}, {"type": "Feature", "geometry": {"type": "Polygon", "coordinates": [[[-77.80000000754544, 49.50833333698668], [-77.80000001006331, 49.51666667196396], [-77.79166666563063, 49.516666669963364], [-77.79166667237772, 49.508333335049215], [-77.80000000754544, 49.50833333698668]]]}, "properties": {"company_id": "solstice-minerals", "jurisdiction": "Quebec", "claim_id": "", "claim_name": null, "holder": "Solstice Gold Corp.", "status": "Active", "recorded_date": null, "anniversary_or_expiry": null, "area_ha": null, "tenure_type": null, "source": "GESTIM active titles (MRNF digital data dump). Not legal title.", "as_of": "2026-09-20", "role": "focus", "color": "#e8b040"}}, {"type": "Feature", "geometry": {"type": "Polygon", "coordinates": [[[-77.79166667237772, 49.508333335049215], [-77.79166666563063, 49.516666669963364], [-77.78333333054184, 49.516666669091066], [-77.78333333273858, 49.50833333454591], [-77.79166667237772, 49.508333335049215]]]}, "properties": {"company_id": "solstice-minerals", "jurisdiction": "Quebec", "claim_id": "", "claim_name": null, "holder": "Solstice Gold Corp.", "status": "Active", "recorded_date": null, "anniversary_or_expiry": null, "area_ha": null, "tenure_type": null, "source": "GESTIM active titles (MRNF digital data dump). Not legal title.", "as_of": "2026-09-20", "role": "focus", "color": "#e8b040"}}, {"type": "Feature", "geometry": {"type": "Polygon", "coordinates": [[[-77.78333333273858, 49.50833333454591], [-77.78333333054184, 49.516666669091066], [-77.77500000476864, 49.51666666935642], [-77.77500000239638, 49.5083333351519], [-77.78333333273858, 49.50833333454591]]]}, "properties": {"company_id": "solstice-minerals", "jurisdiction": "Quebec", "claim_id": "", "claim_name": null, "holder": "Solstice Gold Corp.", "status": "Active", "recorded_date": null, "anniversary_or_expiry": null, "area_ha": null, "tenure_type": null, "source": "GESTIM active titles (MRNF digital data dump). Not legal title.", "as_of": "2026-09-20", "role": "focus", "color": "#e8b040"}}, {"type": "Feature", "geometry": {"type": "Polygon", "coordinates": [[[-77.93333333936799, 49.51666667131014], [-77.93333333355656, 49.52500000599647], [-77.92500000652733, 49.525000000031085], [-77.92500000826195, 49.516666666203676], [-77.93333333936799, 49.51666667131014]]]}, "properties": {"company_id": "solstice-minerals", "jurisdiction": "Quebec", "claim_id": "", "claim_name": null, "holder": "Solstice Gold Corp.", "status": "Active", "recorded_date": null, "anniversary_or_expiry": null, "area_ha": null, "tenure_type": null, "source": "GESTIM active titles (MRNF digital data dump). Not legal title.", "as_of": "2026-09-20", "role": "focus", "color": "#e8b040"}}, {"type": "Feature", "geometry": {"type": "Polygon", "coordinates": [[[-77.91666667368477, 49.51666667142944], [-77.9166666760446, 49.525000004426325], [-77.90833334100857, 49.52500000122269], [-77.90833333453705, 49.51666666902801], [-77.91666667368477, 49.51666667142944]]]}, "properties": {"company_id": "solstice-minerals", "jurisdiction": "Quebec", "claim_id": "", "claim_name": null, "holder": "Solstice Gold Corp.", "status": "Active", "recorded_date": null, "anniversary_or_expiry": null, "area_ha": null, "tenure_type": null, "source": "GESTIM active titles (MRNF digital data dump). Not legal title.", "as_of": "2026-09-20", "role": "focus", "color": "#e8b040"}}, {"type": "Feature", "geometry": {"type": "Polygon", "coordinates": [[[-77.90833333453705, 49.51666666902801], [-77.90833334100857, 49.52500000122269], [-77.90000000192708, 49.524999999409964], [-77.90000000512421, 49.51666666764288], [-77.90833333453705, 49.51666666902801]]]}, "properties": {"company_id": "solstice-minerals", "jurisdiction": "Quebec", "claim_id": "", "claim_name": null, "holder": "Solstice Gold Corp.", "status": "Active", "recorded_date": null, "anniversary_or_expiry": null, "area_ha": null, "tenure_type": null, "source": "GESTIM active titles (MRNF digital data dump). Not legal title.", "as_of": "2026-09-20", "role": "focus", "color": "#e8b040"}}, {"type": "Feature", "geometry": {"type": "Polygon", "coordinates": [[[-77.90000000512421, 49.51666666764288], [-77.90000000192708, 49.524999999409964], [-77.89166667310194, 49.52500000763286], [-77.89166667162021, 49.5166666676289], [-77.90000000512421, 49.51666666764288]]]}, "properties": {"company_id": "solstice-minerals", "jurisdiction": "Quebec", "claim_id": "", "claim_name": null, "holder": "Solstice Gold Corp.", "status": "Active", "recorded_date": null, "anniversary_or_expiry": null, "area_ha": null, "tenure_type": null, "source": "GESTIM active titles (MRNF digital data dump). Not legal title.", "as_of": "2026-09-20", "role": "focus", "color": "#e8b040"}}, {"type": "Feature", "geometry": {"type": "Polygon", "coordinates": [[[-77.89166667162021, 49.5166666676289], [-77.89166667310194, 49.52500000763286], [-77.88333333911383, 49.524999999295204], [-77.88333333399659, 49.51666666899264], [-77.89166667162021, 49.5166666676289]]]}, "properties": {"company_id": "solstice-minerals", "jurisdiction": "Quebec", "claim_id": "", "claim_name": null, "holder": "Solstice Gold Corp.", "status": "Active", "recorded_date": null, "anniversary_or_expiry": null, "area_ha": null, "tenure_type": null, "source": "GESTIM active titles (MRNF digital data dump). Not legal title.", "as_of": "2026-09-20", "role": "focus", "color": "#e8b040"}}, {"type": "Feature", "geometry": {"type": "Polygon", "coordinates": [[[-77.88333333399659, 49.51666666899264], [-77.88333333911383, 49.524999999295204], [-77.87500000152501, 49.525000001353575], [-77.87500000602279, 49.516666671397545], [-77.88333333399659, 49.51666666899264]]]}, "properties": {"company_id": "solstice-minerals", "jurisdiction": "Quebec", "claim_id": "", "claim_name": null, "holder": "Solstice Gold Corp.", "status": "Active", "recorded_date": null, "anniversary_or_expiry": null, "area_ha": null, "tenure_type": null, "source": "GESTIM active titles (MRNF digital data dump). Not legal title.", "as_of": "2026-09-20", "role": "focus", "color": "#e8b040"}}, {"type": "Feature", "geometry": {"type": "Polygon", "coordinates": [[[-77.86666667334703, 49.51666666621172], [-77.866666673577, 49.52500000448899], [-77.85833334091689, 49.525000000068566], [-77.85833333699331, 49.51666667140876], [-77.86666667334703, 49.51666666621172]]]}, "properties": {"company_id": "solstice-minerals", "jurisdiction": "Quebec", "claim_id": "", "claim_name": null, "holder": "Solstice Gold Corp.", "status": "Active", "recorded_date": null, "anniversary_or_expiry": null, "area_ha": null, "tenure_type": null, "source": "GESTIM active titles (MRNF digital data dump). Not legal title.", "as_of": "2026-09-20", "role": "focus", "color": "#e8b040"}}, {"type": "Feature", "geometry": {"type": "Polygon", "coordinates": [[[-77.85833333699331, 49.51666667140876], [-77.85833334091689, 49.525000000068566], [-77.85000000456591, 49.5250000060659], [-77.85000000968192, 49.516666668687805], [-77.85833333699331, 49.51666667140876]]]}, "properties": {"company_id": "solstice-minerals", "jurisdiction": "Quebec", "claim_id": "", "claim_name": null, "holder": "Solstice Gold Corp.", "status": "Active", "recorded_date": null, "anniversary_or_expiry": null, "area_ha": null, "tenure_type": null, "source": "GESTIM active titles (MRNF digital data dump). Not legal title.", "as_of": "2026-09-20", "role": "focus", "color": "#e8b040"}}, {"type": "Feature", "geometry": {"type": "Polygon", "coordinates": [[[-77.85000000968192, 49.516666668687805], [-77.85000000456591, 49.5250000060659], [-77.84166667724946, 49.52500000418107], [-77.84166666431337, 49.51666666772022], [-77.85000000968192, 49.516666668687805]]]}, "properties": {"company_id": "solstice-minerals", "jurisdiction": "Quebec", "claim_id": "", "claim_name": null, "holder": "Solstice Gold Corp.", "status": "Active", "recorded_date": null, "anniversary_or_expiry": null, "area_ha": null, "tenure_type": null, "source": "GESTIM active titles (MRNF digital data dump). Not legal title.", "as_of": "2026-09-20", "role": "focus", "color": "#e8b040"}}, {"type": "Feature", "geometry": {"type": "Polygon", "coordinates": [[[-77.84166666431337, 49.51666666772022], [-77.84166667724946, 49.52500000418107], [-77.83333333186168, 49.525000004083445], [-77.83333334225429, 49.51666666749494], [-77.84166666431337, 49.51666666772022]]]}, "properties": {"company_id": "solstice-minerals", "jurisdiction": "Quebec", "claim_id": "", "claim_name": null, "holder": "Solstice Gold Corp.", "status": "Active", "recorded_date": null, "anniversary_or_expiry": null, "area_ha": null, "tenure_type": null, "source": "GESTIM active titles (MRNF digital data dump). Not legal title.", "as_of": "2026-09-20", "role": "focus", "color": "#e8b040"}}, {"type": "Feature", "geometry": {"type": "Polygon", "coordinates": [[[-77.83333334225429, 49.51666666749494], [-77.83333333186168, 49.525000004083445], [-77.82500000977656, 49.52500000476482], [-77.82500000208101, 49.5166666690359], [-77.83333334225429, 49.51666666749494]]]}, "properties": {"company_id": "solstice-minerals", "jurisdiction": "Quebec", "claim_id": "", "claim_name": null, "holder": "Solstice Gold Corp.", "status": "Active", "recorded_date": null, "anniversary_or_expiry": null, "area_ha": null, "tenure_type": null, "source": "GESTIM active titles (MRNF digital data dump). Not legal title.", "as_of": "2026-09-20", "role": "focus", "color": "#e8b040"}}, {"type": "Feature", "geometry": {"type": "Polygon", "coordinates": [[[-77.82500000208101, 49.5166666690359], [-77.82500000977656, 49.52500000476482], [-77.81666666956293, 49.52500000724626], [-77.81666667136211, 49.51666667167411], [-77.82500000208101, 49.5166666690359]]]}, "properties": {"company_id": "solstice-minerals", "jurisdiction": "Quebec", "claim_id": "", "claim_name": null, "holder": "Solstice Gold Corp.", "status": "Active", "recorded_date": null, "anniversary_or_expiry": null, "area_ha": null, "tenure_type": null, "source": "GESTIM active titles (MRNF digital data dump). Not legal title.", "as_of": "2026-09-20", "role": "focus", "color": "#e8b040"}}, {"type": "Feature", "geometry": {"type": "Polygon", "coordinates": [[[-77.80833333575568, 49.516666666770114], [-77.80833333827923, 49.52500000187672], [-77.80000000312737, 49.52500000696759], [-77.80000001006331, 49.51666667196396], [-77.80833333575568, 49.516666666770114]]]}, "properties": {"company_id": "solstice-minerals", "jurisdiction": "Quebec", "claim_id": "", "claim_name": null, "holder": "Solstice Gold Corp.", "status": "Active", "recorded_date": null, "anniversary_or_expiry": null, "area_ha": null, "tenure_type": null, "source": "GESTIM active titles (MRNF digital data dump). Not legal title.", "as_of": "2026-09-20", "role": "focus", "color": "#e8b040"}}, {"type": "Feature", "geometry": {"type": "Polygon", "coordinates": [[[-77.83333333062485, 49.50833334030883], [-77.83333334225429, 49.51666666749494], [-77.82500000208101, 49.5166666690359], [-77.82499999926526, 49.50833333303657], [-77.83333333062485, 49.50833334030883]]]}, "properties": {"company_id": "solstice-minerals", "jurisdiction": "Quebec", "claim_id": "", "claim_name": null, "holder": "Solstice Gold Corp.", "status": "Active", "recorded_date": null, "anniversary_or_expiry": null, "area_ha": null, "tenure_type": null, "source": "GESTIM active titles (MRNF digital data dump). Not legal title.", "as_of": "2026-09-20", "role": "focus", "color": "#e8b040"}}, {"type": "Feature", "geometry": {"type": "Polygon", "coordinates": [[[-77.77500000239638, 49.5083333351519], [-77.77500000476864, 49.51666666935642], [-77.76666667448359, 49.51666667109878], [-77.76666666752595, 49.5083333372065], [-77.77500000239638, 49.5083333351519]]]}, "properties": {"company_id": "solstice-minerals", "jurisdiction": "Quebec", "claim_id": "", "claim_name": null, "holder": "Solstice Gold Corp.", "status": "Active", "recorded_date": null, "anniversary_or_expiry": null, "area_ha": null, "tenure_type": null, "source": "GESTIM active titles (MRNF digital data dump). Not legal title.", "as_of": "2026-09-20", "role": "focus", "color": "#e8b040"}}, {"type": "Feature", "geometry": {"type": "Polygon", "coordinates": [[[-77.92500000826195, 49.516666666203676], [-77.92500000652733, 49.525000000031085], [-77.9166666760446, 49.525000004426325], [-77.91666667368477, 49.51666667142944], [-77.92500000826195, 49.516666666203676]]]}, "properties": {"company_id": "solstice-minerals", "jurisdiction": "Quebec", "claim_id": "", "claim_name": null, "holder": "Solstice Gold Corp.", "status": "Active", "recorded_date": null, "anniversary_or_expiry": null, "area_ha": null, "tenure_type": null, "source": "GESTIM active titles (MRNF digital data dump). Not legal title.", "as_of": "2026-09-20", "role": "focus", "color": "#e8b040"}}, {"type": "Feature", "geometry": {"type": "Polygon", "coordinates": [[[-77.87500000602279, 49.516666671397545], [-77.87500000152501, 49.525000001353575], [-77.866666673577, 49.52500000448899], [-77.86666667334703, 49.51666666621172], [-77.87500000602279, 49.516666671397545]]]}, "properties": {"company_id": "solstice-minerals", "jurisdiction": "Quebec", "claim_id": "", "claim_name": null, "holder": "Solstice Gold Corp.", "status": "Active", "recorded_date": null, "anniversary_or_expiry": null, "area_ha": null, "tenure_type": null, "source": "GESTIM active titles (MRNF digital data dump). Not legal title.", "as_of": "2026-09-20", "role": "focus", "color": "#e8b040"}}, {"type": "Feature", "geometry": {"type": "Polygon", "coordinates": [[[-77.81666667136211, 49.51666667167411], [-77.81666666956293, 49.52500000724626], [-77.80833333827923, 49.52500000187672], [-77.80833333575568, 49.516666666770114], [-77.81666667136211, 49.51666667167411]]]}, "properties": {"company_id": "solstice-minerals", "jurisdiction": "Quebec", "claim_id": "", "claim_name": null, "holder": "Solstice Gold Corp.", "status": "Active", "recorded_date": null, "anniversary_or_expiry": null, "area_ha": null, "tenure_type": null, "source": "GESTIM active titles (MRNF digital data dump). Not legal title.", "as_of": "2026-09-20", "role": "focus", "color": "#e8b040"}}, {"type": "Feature", "geometry": {"type": "Polygon", "coordinates": [[[-77.77500000384704, 49.50000000060153], [-77.77500000239638, 49.5083333351519], [-77.76666666752595, 49.5083333372065], [-77.7666666642155, 49.500000002956035], [-77.77500000384704, 49.50000000060153]]]}, "properties": {"company_id": "solstice-minerals", "jurisdiction": "Quebec", "claim_id": "", "claim_name": null, "holder": "Solstice Gold Corp.", "status": "Active", "recorded_date": null, "anniversary_or_expiry": null, "area_ha": null, "tenure_type": null, "source": "GESTIM active titles (MRNF digital data dump). Not legal title.", "as_of": "2026-09-20", "role": "focus", "color": "#e8b040"}}, {"type": "Feature", "geometry": {"type": "Polygon", "coordinates": [[[-77.8583333308355, 49.47499999955198], [-77.85833333483629, 49.4833333376195], [-77.85000000260423, 49.48333333685113], [-77.8500000072716, 49.47499999898393], [-77.8583333308355, 49.47499999955198]]]}, "properties": {"company_id": "solstice-minerals", "jurisdiction": "Quebec", "claim_id": "", "claim_name": null, "holder": "Solstice Gold Corp.", "status": "Active", "recorded_date": null, "anniversary_or_expiry": null, "area_ha": null, "tenure_type": null, "source": "GESTIM active titles (MRNF digital data dump). Not legal title.", "as_of": "2026-09-20", "role": "focus", "color": "#e8b040"}}, {"type": "Feature", "geometry": {"type": "Polygon", "coordinates": [[[-77.71666666701233, 49.475000004391184], [-77.7166666638569, 49.483333339385645], [-77.70833333552251, 49.483333332771906], [-77.70833333376454, 49.47500000682904], [-77.71666666701233, 49.475000004391184]]]}, "properties": {"company_id": "solstice-minerals", "jurisdiction": "Quebec", "claim_id": "", "claim_name": null, "holder": "Solstice Gold Corp.", "status": "Active", "recorded_date": null, "anniversary_or_expiry": null, "area_ha": null, "tenure_type": null, "source": "GESTIM active titles (MRNF digital data dump). Not legal title.", "as_of": "2026-09-20", "role": "focus", "color": "#e8b040"}}, {"type": "Feature", "geometry": {"type": "Polygon", "coordinates": [[[-77.85000000260423, 49.48333333685113], [-77.85000000286107, 49.49166666549955], [-77.84166667126398, 49.49166666550838], [-77.8416666660461, 49.483333337385666], [-77.85000000260423, 49.48333333685113]]]}, "properties": {"company_id": "solstice-minerals", "jurisdiction": "Quebec", "claim_id": "", "claim_name": null, "holder": "Solstice Gold Corp.", "status": "Active", "recorded_date": null, "anniversary_or_expiry": null, "area_ha": null, "tenure_type": null, "source": "GESTIM active titles (MRNF digital data dump). Not legal title.", "as_of": "2026-09-20", "role": "focus", "color": "#e8b040"}}, {"type": "Feature", "geometry": {"type": "Polygon", "coordinates": [[[-77.74166667401884, 49.48333333942569], [-77.74166667166729, 49.49166667406606], [-77.73333333565893, 49.49166667270565], [-77.733333332829, 49.48333333822817], [-77.74166667401884, 49.48333333942569]]]}, "properties": {"company_id": "solstice-minerals", "jurisdiction": "Quebec", "claim_id": "", "claim_name": null, "holder": "Solstice Gold Corp.", "status": "Active", "recorded_date": null, "anniversary_or_expiry": null, "area_ha": null, "tenure_type": null, "source": "GESTIM active titles (MRNF digital data dump). Not legal title.", "as_of": "2026-09-20", "role": "focus", "color": "#e8b040"}}, {"type": "Feature", "geometry": {"type": "Polygon", "coordinates": [[[-77.84166667126398, 49.49166666550838], [-77.84166666847162, 49.50000000270678], [-77.83333333733755, 49.50000000354229], [-77.83333333532939, 49.49166666685478], [-77.84166667126398, 49.49166666550838]]]}, "properties": {"company_id": "solstice-minerals", "jurisdiction": "Quebec", "claim_id": "", "claim_name": null, "holder": "Solstice Gold Corp.", "status": "Active", "recorded_date": null, "anniversary_or_expiry": null, "area_ha": null, "tenure_type": null, "source": "GESTIM active titles (MRNF digital data dump). Not legal title.", "as_of": "2026-09-20", "role": "focus", "color": "#e8b040"}}, {"type": "Feature", "geometry": {"type": "Polygon", "coordinates": [[[-77.78333333585398, 49.49166667377113], [-77.7833333389341, 49.49999999966735], [-77.77500000384704, 49.50000000060153], [-77.77500000912859, 49.49166666570478], [-77.78333333585398, 49.49166667377113]]]}, "properties": {"company_id": "solstice-minerals", "jurisdiction": "Quebec", "claim_id": "", "claim_name": null, "holder": "Solstice Gold Corp.", "status": "Active", "recorded_date": null, "anniversary_or_expiry": null, "area_ha": null, "tenure_type": null, "source": "GESTIM active titles (MRNF digital data dump). Not legal title.", "as_of": "2026-09-20", "role": "focus", "color": "#e8b040"}}]}