{"type": "FeatureCollection", "features": [{"type": "Feature", "geometry": {"type": "Polygon", "coordinates": [[[-121.9524, 52.9829], [-121.9418, 52.9813], [-121.9404, 52.9848], [-121.9515, 52.9865], [-121.9529, 52.9829], [-121.9524, 52.9829]]]}, "properties": {"company_id": "sovereign-metals", "jurisdiction": "British Columbia", "claim_id": 380038, "claim_name": null, "holder": "SOVEREIGN GOLD CORP.", "status": "Placer", "recorded_date": "9704448000", "anniversary_or_expiry": "2025-10-02", "area_ha": 30.900000000000002, "tenure_type": "Placer", "source": "BC MTA Mineral, Placer and Coal Tenure Spatial View (BCGW). Open Government Licence - British Columbia. Not legal title.", "as_of": "2026-09-20", "role": "focus", "color": "#e8b040"}}]}