{"type": "FeatureCollection", "features": [{"type": "Feature", "geometry": {"type": "Polygon", "coordinates": [[[-121.4491, 52.5966], [-121.4469, 52.5989], [-121.4519, 52.6007], [-121.455, 52.5976], [-121.4499, 52.5958], [-121.4491, 52.5966]]]}, "properties": {"company_id": "spanish-mountain-gold", "jurisdiction": "British Columbia", "claim_id": 204224, "claim_name": "DON 1", "holder": "SPANISH MOUNTAIN GOLD LTD.", "status": "Mineral", "recorded_date": "3148416000", "anniversary_or_expiry": "2033-09-10", "area_ha": 25, "tenure_type": "Mineral", "source": "BC MTA Mineral, Placer and Coal Tenure Spatial View (BCGW). Open Government Licence - British Columbia. Not legal title.", "as_of": "2026-09-20", "role": "focus", "color": "#e8b040"}}, {"type": "Feature", "geometry": {"type": "Polygon", "coordinates": [[[-121.4517, 52.5964], [-121.455, 52.5976], [-121.4563, 52.5963], [-121.4499, 52.5958], [-121.4517, 52.5964]]]}, "properties": {"company_id": "spanish-mountain-gold", "jurisdiction": "British Columbia", "claim_id": 204225, "claim_name": "DON 2", "holder": "SPANISH MOUNTAIN GOLD LTD.", "status": "Mineral", "recorded_date": "3148416000", "anniversary_or_expiry": "2033-09-10", "area_ha": 25, "tenure_type": "Mineral", "source": "BC MTA Mineral, Placer and Coal Tenure Spatial View (BCGW). Open Government Licence - British Columbia. Not legal title.", "as_of": "2026-09-20", "role": "focus", "color": "#e8b040"}}, {"type": "Feature", "geometry": {"type": "Polygon", "coordinates": [[[-121.4629, 52.5964], [-121.4563, 52.5963], [-121.455, 52.5976], [-121.4601, 52.5995], [-121.4629, 52.5964]]]}, "properties": {"company_id": "spanish-mountain-gold", "jurisdiction": "British Columbia", "claim_id": 204226, "claim_name": "DON 3", "holder": "SPANISH MOUNTAIN GOLD LTD.", "status": "Mineral", "recorded_date": "3148416000", "anniversary_or_expiry": "2033-09-10", "area_ha": 25, "tenure_type": "Mineral", "source": "BC MTA Mineral, Placer and Coal Tenure Spatial View (BCGW). Open Government Licence - British Columbia. Not legal title.", "as_of": "2026-09-20", "role": "focus", "color": "#e8b040"}}, {"type": "Feature", "geometry": {"type": "Polygon", "coordinates": [[[-121.4547, 52.5979], [-121.4519, 52.6007], [-121.457, 52.6026], [-121.4601, 52.5995], [-121.4547, 52.5979]]]}, "properties": {"company_id": "spanish-mountain-gold", "jurisdiction": "British Columbia", "claim_id": 204227, "claim_name": "DON 4", "holder": "SPANISH MOUNTAIN GOLD LTD.", "status": "Mineral", "recorded_date": "3148416000", "anniversary_or_expiry": "2033-09-10", "area_ha": 25, "tenure_type": "Mineral", "source": "BC MTA Mineral, Placer and Coal Tenure Spatial View (BCGW). Open Government Licence - British Columbia. Not legal title.", "as_of": "2026-09-20", "role": "focus", "color": "#e8b040"}}, {"type": "Feature", "geometry": {"type": "MultiPolygon", "coordinates": [[[[-121.4491, 52.6091], [-121.4491, 52.6181], [-121.4566, 52.6181], [-121.4566, 52.614], [-121.4786, 52.614], [-121.4786, 52.5956], [-121.4671, 52.5956], [-121.4671, 52.5963], [-121.4631, 52.5964], [-121.457, 52.6026], [-121.4491, 52.5997], [-121.4491, 52.6091]]], [[[-121.4491, 52.5956], [-121.4491, 52.5966], [-121.4501, 52.5956], [-121.4491, 52.5956]]]]}, "properties": {"company_id": "spanish-mountain-gold", "jurisdiction": "British Columbia", "claim_id": 204274, "claim_name": "MARCH 1", "holder": "SPANISH MOUNTAIN GOLD LTD.", "status": "Mineral", "recorded_date": "3220992000", "anniversary_or_expiry": "2033-09-10", "area_ha": 500, "tenure_type": "Mineral", "source": "BC MTA Mineral, Placer and Coal Tenure Spatial View (BCGW). Open Government Licence - British Columbia. Not legal title.", "as_of": "2026-09-20", "role": "focus", "color": "#e8b040"}}, {"type": "Feature", "geometry": {"type": "Polygon", "coordinates": [[[-121.4899, 52.5956], [-121.4786, 52.5956], [-121.4786, 52.6046], [-121.4934, 52.6046], [-121.4934, 52.5956], [-121.4899, 52.5956]]]}, "properties": {"company_id": "spanish-mountain-gold", "jurisdiction": "British Columbia", "claim_id": 204275, "claim_name": "MARCH 2", "holder": "SPANISH MOUNTAIN GOLD LTD.", "status": "Mineral", "recorded_date": "3220992000", "anniversary_or_expiry": "2033-09-10", "area_ha": 100, "tenure_type": "Mineral", "source": "BC MTA Mineral, Placer and Coal Tenure Spatial View (BCGW). Open Government Licence - British Columbia. Not legal title.", "as_of": "2026-09-20", "role": "focus", "color": "#e8b040"}}, {"type": "Feature", "geometry": {"type": "Polygon", "coordinates": [[[-121.4473, 52.5956], [-121.427, 52.5956], [-121.427, 52.6091], [-121.4491, 52.6091], [-121.4491, 52.5997], [-121.4469, 52.5989], [-121.4491, 52.5966], [-121.4491, 52.5956], [-121.4473, 52.5956]]]}, "properties": {"company_id": "spanish-mountain-gold", "jurisdiction": "British Columbia", "claim_id": 204334, "claim_name": "JUL 2", "holder": "SPANISH MOUNTAIN GOLD LTD.", "status": "Mineral", "recorded_date": "3345408000", "anniversary_or_expiry": "2033-09-10", "area_ha": 225, "tenure_type": "Mineral", "source": "BC MTA Mineral, Placer and Coal Tenure Spatial View (BCGW). Open Government Licence - British Columbia. Not legal title.", "as_of": "2026-09-20", "role": "focus", "color": "#e8b040"}}, {"type": "Feature", "geometry": {"type": "Polygon", "coordinates": [[[-121.4437, 52.5956], [-121.4523, 52.5956], [-121.4523, 52.5873], [-121.4658, 52.5873], [-121.4658, 52.5821], [-121.4437, 52.5821], [-121.4437, 52.5956]]]}, "properties": {"company_id": "spanish-mountain-gold", "jurisdiction": "British Columbia", "claim_id": 204021, "claim_name": "PESO", "holder": "SPANISH MOUNTAIN GOLD LTD.", "status": "Mineral", "recorded_date": "2436480000", "anniversary_or_expiry": "2033-09-10", "area_ha": 225, "tenure_type": "Mineral", "source": "BC MTA Mineral, Placer and Coal Tenure Spatial View (BCGW). Open Government Licence - British Columbia. Not legal title.", "as_of": "2026-09-20", "role": "focus", "color": "#e8b040"}}, {"type": "Feature", "geometry": {"type": "Polygon", "coordinates": [[[-121.3977, 52.5933], [-121.3977, 52.611], [-121.4346, 52.611], [-121.4346, 52.6091], [-121.427, 52.6091], [-121.427, 52.5956], [-121.4346, 52.5956], [-121.4346, 52.593], [-121.3977, 52.5933]]]}, "properties": {"company_id": "spanish-mountain-gold", "jurisdiction": "British Columbia", "claim_id": 205151, "claim_name": "MEY 1", "holder": "SPANISH MOUNTAIN GOLD LTD.", "status": "Mineral", "recorded_date": "5158944000", "anniversary_or_expiry": "2033-09-10", "area_ha": 500, "tenure_type": "Mineral", "source": "BC MTA Mineral, Placer and Coal Tenure Spatial View (BCGW). Open Government Licence - British Columbia. Not legal title.", "as_of": "2026-09-20", "role": "focus", "color": "#e8b040"}}, {"type": "Feature", "geometry": {"type": "Polygon", "coordinates": [[[-121.4661, 52.5873], [-121.4523, 52.5873], [-121.4523, 52.5963], [-121.4671, 52.5963], [-121.4671, 52.5873], [-121.4661, 52.5873]]]}, "properties": {"company_id": "spanish-mountain-gold", "jurisdiction": "British Columbia", "claim_id": 204667, "claim_name": "CPW", "holder": "SPANISH MOUNTAIN GOLD LTD.", "status": "Mineral", "recorded_date": "4049568000", "anniversary_or_expiry": "2033-09-10", "area_ha": 100, "tenure_type": "Mineral", "source": "BC MTA Mineral, Placer and Coal Tenure Spatial View (BCGW). Open Government Licence - British Columbia. Not legal title.", "as_of": "2026-09-20", "role": "focus", "color": "#e8b040"}}, {"type": "Feature", "geometry": {"type": "Polygon", "coordinates": [[[-121.4671, 52.5894], [-121.4671, 52.5956], [-121.488, 52.5956], [-121.4879, 52.5686], [-121.4658, 52.5686], [-121.4658, 52.5873], [-121.4671, 52.5873], [-121.4671, 52.5894]]]}, "properties": {"company_id": "spanish-mountain-gold", "jurisdiction": "British Columbia", "claim_id": 373355, "claim_name": "ARMADA", "holder": "SPANISH MOUNTAIN GOLD LTD.", "status": "Mineral", "recorded_date": "9423648000", "anniversary_or_expiry": "2033-09-10", "area_ha": 450, "tenure_type": "Mineral", "source": "BC MTA Mineral, Placer and Coal Tenure Spatial View (BCGW). Open Government Licence - British Columbia. Not legal title.", "as_of": "2026-09-20", "role": "focus", "color": "#e8b040"}}, {"type": "Feature", "geometry": {"type": "Polygon", "coordinates": [[[-121.4495, 52.5768], [-121.4495, 52.5776], [-121.4569, 52.5776], [-121.4569, 52.5731], [-121.4495, 52.5731], [-121.4495, 52.5768]]]}, "properties": {"company_id": "spanish-mountain-gold", "jurisdiction": "British Columbia", "claim_id": 373415, "claim_name": "N.R.1", "holder": "SPANISH MOUNTAIN GOLD LTD.", "status": "Mineral", "recorded_date": "9426240000", "anniversary_or_expiry": "2033-09-10", "area_ha": 25, "tenure_type": "Mineral", "source": "BC MTA Mineral, Placer and Coal Tenure Spatial View (BCGW). Open Government Licence - British Columbia. Not legal title.", "as_of": "2026-09-20", "role": "focus", "color": "#e8b040"}}, {"type": "Feature", "geometry": {"type": "Polygon", "coordinates": [[[-121.4495, 52.5686], [-121.4778, 52.5686], [-121.4778, 52.5551], [-121.4806, 52.5551], [-121.4806, 52.5506], [-121.4437, 52.5506], [-121.4437, 52.5678], [-121.4495, 52.5678], [-121.4495, 52.5686]]]}, "properties": {"company_id": "spanish-mountain-gold", "jurisdiction": "British Columbia", "claim_id": 399410, "claim_name": "ARMADA 2", "holder": "SPANISH MOUNTAIN GOLD LTD.", "status": "Mineral", "recorded_date": "2003-01-27", "anniversary_or_expiry": "2033-09-10", "area_ha": 500, "tenure_type": "Mineral", "source": "BC MTA Mineral, Placer and Coal Tenure Spatial View (BCGW). Open Government Licence - British Columbia. Not legal title.", "as_of": "2026-09-20", "role": "focus", "color": "#e8b040"}}, {"type": "Feature", "geometry": {"type": "Polygon", "coordinates": [[[-121.4737, 52.5327], [-121.4437, 52.5327], [-121.4437, 52.5506], [-121.4806, 52.5506], [-121.4806, 52.5327], [-121.4737, 52.5327]]]}, "properties": {"company_id": "spanish-mountain-gold", "jurisdiction": "British Columbia", "claim_id": 399411, "claim_name": "ARMADA 4", "holder": "SPANISH MOUNTAIN GOLD LTD.", "status": "Mineral", "recorded_date": "2003-01-27", "anniversary_or_expiry": "2033-09-10", "area_ha": 500, "tenure_type": "Mineral", "source": "BC MTA Mineral, Placer and Coal Tenure Spatial View (BCGW). Open Government Licence - British Columbia. Not legal title.", "as_of": "2026-09-20", "role": "focus", "color": "#e8b040"}}, {"type": "Feature", "geometry": {"type": "Polygon", "coordinates": [[[-121.4437, 52.5776], [-121.4437, 52.5768], [-121.4421, 52.5768], [-121.4421, 52.5678], [-121.4437, 52.5678], [-121.4437, 52.5551], [-121.4142, 52.5551], [-121.4142, 52.5776], [-121.4437, 52.5776]]]}, "properties": {"company_id": "spanish-mountain-gold", "jurisdiction": "British Columbia", "claim_id": 399412, "claim_name": "ARMADA 5", "holder": "SPANISH MOUNTAIN GOLD LTD.", "status": "Mineral", "recorded_date": "2003-01-27", "anniversary_or_expiry": "2033-09-10", "area_ha": 500, "tenure_type": "Mineral", "source": "BC MTA Mineral, Placer and Coal Tenure Spatial View (BCGW). Open Government Licence - British Columbia. Not legal title.", "as_of": "2026-09-20", "role": "focus", "color": "#e8b040"}}, {"type": "Feature", "geometry": {"type": "Polygon", "coordinates": [[[-121.4584, 52.5686], [-121.4584, 52.5731], [-121.4658, 52.5731], [-121.4658, 52.5686], [-121.4584, 52.5686]]]}, "properties": {"company_id": "spanish-mountain-gold", "jurisdiction": "British Columbia", "claim_id": 399413, "claim_name": "ARMADA 6", "holder": "SPANISH MOUNTAIN GOLD LTD.", "status": "Mineral", "recorded_date": "2003-01-25", "anniversary_or_expiry": "2033-09-10", "area_ha": 25, "tenure_type": "Mineral", "source": "BC MTA Mineral, Placer and Coal Tenure Spatial View (BCGW). Open Government Licence - British Columbia. Not legal title.", "as_of": "2026-09-20", "role": "focus", "color": "#e8b040"}}, {"type": "Feature", "geometry": {"type": "Polygon", "coordinates": [[[-121.4584, 52.5731], [-121.4584, 52.5776], [-121.4658, 52.5776], [-121.4658, 52.5731], [-121.4584, 52.5731]]]}, "properties": {"company_id": "spanish-mountain-gold", "jurisdiction": "British Columbia", "claim_id": 399415, "claim_name": "ARMADA 8", "holder": "SPANISH MOUNTAIN GOLD LTD.", "status": "Mineral", "recorded_date": "2003-01-26", "anniversary_or_expiry": "2033-09-10", "area_ha": 25, "tenure_type": "Mineral", "source": "BC MTA Mineral, Placer and Coal Tenure Spatial View (BCGW). Open Government Licence - British Columbia. Not legal title.", "as_of": "2026-09-20", "role": "focus", "color": "#e8b040"}}, {"type": "Feature", "geometry": {"type": "Polygon", "coordinates": [[[-121.444, 52.5821], [-121.4495, 52.5821], [-121.4495, 52.5776], [-121.444, 52.5776], [-121.444, 52.5821]]]}, "properties": {"company_id": "spanish-mountain-gold", "jurisdiction": "British Columbia", "claim_id": 399417, "claim_name": "ARMADA 10", "holder": "SPANISH MOUNTAIN GOLD LTD.", "status": "Mineral", "recorded_date": "2003-01-26", "anniversary_or_expiry": "2033-09-10", "area_ha": 25, "tenure_type": "Mineral", "source": "BC MTA Mineral, Placer and Coal Tenure Spatial View (BCGW). Open Government Licence - British Columbia. Not legal title.", "as_of": "2026-09-20", "role": "focus", "color": "#e8b040"}}, {"type": "Feature", "geometry": {"type": "Polygon", "coordinates": [[[-121.4142, 52.5776], [-121.4142, 52.5821], [-121.4215, 52.5821], [-121.4215, 52.5776], [-121.4142, 52.5776]]]}, "properties": {"company_id": "spanish-mountain-gold", "jurisdiction": "British Columbia", "claim_id": 399419, "claim_name": "ARMADA 12", "holder": "SPANISH MOUNTAIN GOLD LTD.", "status": "Mineral", "recorded_date": "2003-01-26", "anniversary_or_expiry": "2033-09-10", "area_ha": 25, "tenure_type": "Mineral", "source": "BC MTA Mineral, Placer and Coal Tenure Spatial View (BCGW). Open Government Licence - British Columbia. Not legal title.", "as_of": "2026-09-20", "role": "focus", "color": "#e8b040"}}, {"type": "Feature", "geometry": {"type": "Polygon", "coordinates": [[[-121.4437, 52.5678], [-121.4421, 52.5678], [-121.4421, 52.5723], [-121.4495, 52.5723], [-121.4495, 52.5678], [-121.4437, 52.5678]]]}, "properties": {"company_id": "spanish-mountain-gold", "jurisdiction": "British Columbia", "claim_id": 404303, "claim_name": "AG 2", "holder": "SPANISH MOUNTAIN GOLD LTD.", "status": "Mineral", "recorded_date": "2003-08-06", "anniversary_or_expiry": "2033-09-10", "area_ha": 25, "tenure_type": "Mineral", "source": "BC MTA Mineral, Placer and Coal Tenure Spatial View (BCGW). Open Government Licence - British Columbia. Not legal title.", "as_of": "2026-09-20", "role": "focus", "color": "#e8b040"}}, {"type": "Feature", "geometry": {"type": "Polygon", "coordinates": [[[-121.4139, 52.5708], [-121.4139, 52.5541], [-121.3889, 52.5541], [-121.3889, 52.5583], [-121.4076, 52.5583], [-121.4076, 52.5749], [-121.4139, 52.5749], [-121.4139, 52.5708]]]}, "properties": {"company_id": "spanish-mountain-gold", "jurisdiction": "British Columbia", "claim_id": 502608, "claim_name": "Spanish2", "holder": "SPANISH MOUNTAIN GOLD LTD.", "status": "Mineral", "recorded_date": "2005-01-12", "anniversary_or_expiry": "2033-09-10", "area_ha": 157.233, "tenure_type": "Mineral", "source": "BC MTA Mineral, Placer and Coal Tenure Spatial View (BCGW). Open Government Licence - British Columbia. Not legal title.", "as_of": "2026-09-20", "role": "focus", "color": "#e8b040"}}, {"type": "Feature", "geometry": {"type": "Polygon", "coordinates": [[[-121.4139, 52.5499], [-121.4139, 52.5458], [-121.3826, 52.5458], [-121.3826, 52.5541], [-121.4139, 52.5541], [-121.4139, 52.5499]]]}, "properties": {"company_id": "spanish-mountain-gold", "jurisdiction": "British Columbia", "claim_id": 503338, "claim_name": "Spanish3", "holder": "SPANISH MOUNTAIN GOLD LTD.", "status": "Mineral", "recorded_date": "2005-01-14", "anniversary_or_expiry": "2033-09-10", "area_ha": 196.584, "tenure_type": "Mineral", "source": "BC MTA Mineral, Placer and Coal Tenure Spatial View (BCGW). Open Government Licence - British Columbia. Not legal title.", "as_of": "2026-09-20", "role": "focus", "color": "#e8b040"}}, {"type": "Feature", "geometry": {"type": "Polygon", "coordinates": [[[-121.4701, 52.5791], [-121.4701, 52.5749], [-121.4576, 52.5749], [-121.4576, 52.5833], [-121.4701, 52.5833], [-121.4701, 52.5791]]]}, "properties": {"company_id": "spanish-mountain-gold", "jurisdiction": "British Columbia", "claim_id": 512542, "claim_name": null, "holder": "SPANISH MOUNTAIN GOLD LTD.", "status": "Mineral", "recorded_date": "2005-05-13", "anniversary_or_expiry": "2033-09-10", "area_ha": 78.57900000000001, "tenure_type": "Mineral", "source": "BC MTA Mineral, Placer and Coal Tenure Spatial View (BCGW). Open Government Licence - British Columbia. Not legal title.", "as_of": "2026-09-20", "role": "focus", "color": "#e8b040"}}, {"type": "Feature", "geometry": {"type": "Polygon", "coordinates": [[[-121.4576, 52.5791], [-121.4576, 52.5749], [-121.4451, 52.5749], [-121.4451, 52.5833], [-121.4576, 52.5833], [-121.4576, 52.5791]]]}, "properties": {"company_id": "spanish-mountain-gold", "jurisdiction": "British Columbia", "claim_id": 512544, "claim_name": null, "holder": "SPANISH MOUNTAIN GOLD LTD.", "status": "Mineral", "recorded_date": "2005-05-13", "anniversary_or_expiry": "2033-09-10", "area_ha": 78.57900000000001, "tenure_type": "Mineral", "source": "BC MTA Mineral, Placer and Coal Tenure Spatial View (BCGW). Open Government Licence - British Columbia. Not legal title.", "as_of": "2026-09-20", "role": "focus", "color": "#e8b040"}}, {"type": "Feature", "geometry": {"type": "Polygon", "coordinates": [[[-121.4326, 52.5791], [-121.4326, 52.5749], [-121.4201, 52.5749], [-121.4201, 52.5833], [-121.4326, 52.5833], [-121.4326, 52.5791]]]}, "properties": {"company_id": "spanish-mountain-gold", "jurisdiction": "British Columbia", "claim_id": 512549, "claim_name": null, "holder": "SPANISH MOUNTAIN GOLD LTD.", "status": "Mineral", "recorded_date": "2005-05-13", "anniversary_or_expiry": "2033-09-10", "area_ha": 78.581, "tenure_type": "Mineral", "source": "BC MTA Mineral, Placer and Coal Tenure Spatial View (BCGW). Open Government Licence - British Columbia. Not legal title.", "as_of": "2026-09-20", "role": "focus", "color": "#e8b040"}}, {"type": "Feature", "geometry": {"type": "Polygon", "coordinates": [[[-121.5389, 52.6041], [-121.5389, 52.5999], [-121.5076, 52.5999], [-121.5076, 52.6083], [-121.5389, 52.6083], [-121.5389, 52.6041]]]}, "properties": {"company_id": "spanish-mountain-gold", "jurisdiction": "British Columbia", "claim_id": 512572, "claim_name": "FISCHER CREEK", "holder": "SPANISH MOUNTAIN GOLD LTD.", "status": "Mineral", "recorded_date": "2005-05-14", "anniversary_or_expiry": "2033-09-10", "area_ha": 196.339, "tenure_type": "Mineral", "source": "BC MTA Mineral, Placer and Coal Tenure Spatial View (BCGW). Open Government Licence - British Columbia. Not legal title.", "as_of": "2026-09-20", "role": "focus", "color": "#e8b040"}}, {"type": "Feature", "geometry": {"type": "Polygon", "coordinates": [[[-121.4139, 52.5833], [-121.4201, 52.5833], [-121.4201, 52.5791], [-121.4139, 52.5791], [-121.4139, 52.5749], [-121.4076, 52.5749], [-121.4076, 52.5833], [-121.4139, 52.5833]]]}, "properties": {"company_id": "spanish-mountain-gold", "jurisdiction": "British Columbia", "claim_id": 521302, "claim_name": "AKV", "holder": "SPANISH MOUNTAIN GOLD LTD.", "status": "Mineral", "recorded_date": "2005-10-18", "anniversary_or_expiry": "2033-09-10", "area_ha": 58.94, "tenure_type": "Mineral", "source": "BC MTA Mineral, Placer and Coal Tenure Spatial View (BCGW). Open Government Licence - British Columbia. Not legal title.", "as_of": "2026-09-20", "role": "focus", "color": "#e8b040"}}, {"type": "Feature", "geometry": {"type": "Polygon", "coordinates": [[[-121.4889, 52.6041], [-121.4951, 52.6041], [-121.4951, 52.5999], [-121.4889, 52.5999], [-121.4889, 52.6041]]]}, "properties": {"company_id": "spanish-mountain-gold", "jurisdiction": "British Columbia", "claim_id": 517007, "claim_name": "GOLD", "holder": "SPANISH MOUNTAIN GOLD LTD.", "status": "Mineral", "recorded_date": "2005-07-12", "anniversary_or_expiry": "2033-09-10", "area_ha": 19.635, "tenure_type": "Mineral", "source": "BC MTA Mineral, Placer and Coal Tenure Spatial View (BCGW). Open Government Licence - British Columbia. Not legal title.", "as_of": "2026-09-20", "role": "focus", "color": "#e8b040"}}, {"type": "Feature", "geometry": {"type": "Polygon", "coordinates": [[[-121.4889, 52.6083], [-121.4951, 52.6083], [-121.4951, 52.6041], [-121.4764, 52.6041], [-121.4764, 52.6083], [-121.4889, 52.6083]]]}, "properties": {"company_id": "spanish-mountain-gold", "jurisdiction": "British Columbia", "claim_id": 517056, "claim_name": "GOLDIE", "holder": "SPANISH MOUNTAIN GOLD LTD.", "status": "Mineral", "recorded_date": "2005-07-12", "anniversary_or_expiry": "2033-09-10", "area_ha": 58.9, "tenure_type": "Mineral", "source": "BC MTA Mineral, Placer and Coal Tenure Spatial View (BCGW). Open Government Licence - British Columbia. Not legal title.", "as_of": "2026-09-20", "role": "focus", "color": "#e8b040"}}, {"type": "Feature", "geometry": {"type": "Polygon", "coordinates": [[[-121.4826, 52.6124], [-121.4826, 52.6083], [-121.4764, 52.6083], [-121.4764, 52.6166], [-121.4826, 52.6166], [-121.4826, 52.6124]]]}, "properties": {"company_id": "spanish-mountain-gold", "jurisdiction": "British Columbia", "claim_id": 517098, "claim_name": "GOLD3", "holder": "SPANISH MOUNTAIN GOLD LTD.", "status": "Mineral", "recorded_date": "2005-07-12", "anniversary_or_expiry": "2033-09-10", "area_ha": 39.261, "tenure_type": "Mineral", "source": "BC MTA Mineral, Placer and Coal Tenure Spatial View (BCGW). Open Government Licence - British Columbia. Not legal title.", "as_of": "2026-09-20", "role": "focus", "color": "#e8b040"}}, {"type": "Feature", "geometry": {"type": "Polygon", "coordinates": [[[-121.5201, 52.6249], [-121.5201, 52.6166], [-121.5076, 52.6166], [-121.5076, 52.6291], [-121.5201, 52.6291], [-121.5201, 52.6249]]]}, "properties": {"company_id": "spanish-mountain-gold", "jurisdiction": "British Columbia", "claim_id": 514947, "claim_name": "GOLD TREND", "holder": "SPANISH MOUNTAIN GOLD LTD.", "status": "Mineral", "recorded_date": "2005-06-21", "anniversary_or_expiry": "2033-09-10", "area_ha": 117.75500000000001, "tenure_type": "Mineral", "source": "BC MTA Mineral, Placer and Coal Tenure Spatial View (BCGW). Open Government Licence - British Columbia. Not legal title.", "as_of": "2026-09-20", "role": "focus", "color": "#e8b040"}}, {"type": "Feature", "geometry": {"type": "Polygon", "coordinates": [[[-121.5389, 52.5958], [-121.5389, 52.5708], [-121.5014, 52.5708], [-121.5014, 52.5666], [-121.4951, 52.5666], [-121.4951, 52.5624], [-121.4889, 52.5624], [-121.4889, 52.5583], [-121.4951, 52.5583], [-121.4951, 52.5541], [-121.4764, 52.5541], [-121.4764, 52.5708], [-121.4889, 52.5708], [-121.4889, 52.5999], [-121.5389, 52.5999], [-121.5389, 52.5958]]]}, "properties": {"company_id": "spanish-mountain-gold", "jurisdiction": "British Columbia", "claim_id": 517485, "claim_name": null, "holder": "SPANISH MOUNTAIN GOLD LTD.", "status": "Mineral", "recorded_date": "2005-07-12", "anniversary_or_expiry": "2033-09-10", "area_ha": 1335.7820000000002, "tenure_type": "Mineral", "source": "BC MTA Mineral, Placer and Coal Tenure Spatial View (BCGW). Open Government Licence - British Columbia. Not legal title.", "as_of": "2026-09-20", "role": "focus", "color": "#e8b040"}}, {"type": "Feature", "geometry": {"type": "Polygon", "coordinates": [[[-121.4076, 52.5708], [-121.4076, 52.5583], [-121.3889, 52.5583], [-121.3889, 52.5541], [-121.3826, 52.5541], [-121.3826, 52.5458], [-121.3764, 52.5458], [-121.3764, 52.5666], [-121.3701, 52.5666], [-121.3701, 52.5708], [-121.3764, 52.5708], [-121.3764, 52.5749], [-121.3826, 52.5749], [-121.4076, 52.5749], [-121.4076, 52.5708]]]}, "properties": {"company_id": "spanish-mountain-gold", "jurisdiction": "British Columbia", "claim_id": 502372, "claim_name": "Spanish1", "holder": "SPANISH MOUNTAIN GOLD LTD.", "status": "Mineral", "recorded_date": "2005-01-12", "anniversary_or_expiry": "2033-09-10", "area_ha": 491.331, "tenure_type": "Mineral", "source": "BC MTA Mineral, Placer and Coal Tenure Spatial View (BCGW). Open Government Licence - British Columbia. Not legal title.", "as_of": "2026-09-20", "role": "focus", "color": "#e8b040"}}, {"type": "Feature", "geometry": {"type": "Polygon", "coordinates": [[[-121.5076, 52.6166], [-121.5076, 52.6041], [-121.4951, 52.6041], [-121.4951, 52.6083], [-121.4826, 52.6083], [-121.4826, 52.6208], [-121.5076, 52.6208], [-121.5076, 52.6166]]]}, "properties": {"company_id": "spanish-mountain-gold", "jurisdiction": "British Columbia", "claim_id": 510115, "claim_name": "Golden Airport", "holder": "SPANISH MOUNTAIN GOLD LTD.", "status": "Mineral", "recorded_date": "2005-04-03", "anniversary_or_expiry": "2033-09-10", "area_ha": 274.821, "tenure_type": "Mineral", "source": "BC MTA Mineral, Placer and Coal Tenure Spatial View (BCGW). Open Government Licence - British Columbia. Not legal title.", "as_of": "2026-09-20", "role": "focus", "color": "#e8b040"}}, {"type": "Feature", "geometry": {"type": "Polygon", "coordinates": [[[-121.4639, 52.5708], [-121.4639, 52.5666], [-121.4451, 52.5666], [-121.4451, 52.5749], [-121.4639, 52.5749], [-121.4639, 52.5708]]]}, "properties": {"company_id": "spanish-mountain-gold", "jurisdiction": "British Columbia", "claim_id": 512541, "claim_name": null, "holder": "SPANISH MOUNTAIN GOLD LTD.", "status": "Mineral", "recorded_date": "2005-05-13", "anniversary_or_expiry": "2033-09-10", "area_ha": 117.89200000000001, "tenure_type": "Mineral", "source": "BC MTA Mineral, Placer and Coal Tenure Spatial View (BCGW). Open Government Licence - British Columbia. Not legal title.", "as_of": "2026-09-20", "role": "focus", "color": "#e8b040"}}, {"type": "Feature", "geometry": {"type": "Polygon", "coordinates": [[[-121.4389, 52.5791], [-121.4451, 52.5791], [-121.4451, 52.5749], [-121.4389, 52.5749], [-121.4389, 52.5791]]]}, "properties": {"company_id": "spanish-mountain-gold", "jurisdiction": "British Columbia", "claim_id": 512547, "claim_name": null, "holder": "SPANISH MOUNTAIN GOLD LTD.", "status": "Mineral", "recorded_date": "2005-05-13", "anniversary_or_expiry": "2033-09-10", "area_ha": 19.646, "tenure_type": "Mineral", "source": "BC MTA Mineral, Placer and Coal Tenure Spatial View (BCGW). Open Government Licence - British Columbia. Not legal title.", "as_of": "2026-09-20", "role": "focus", "color": "#e8b040"}}, {"type": "Feature", "geometry": {"type": "Polygon", "coordinates": [[[-121.4639, 52.5916], [-121.4639, 52.5874], [-121.4701, 52.5874], [-121.4701, 52.5833], [-121.4451, 52.5833], [-121.4451, 52.5916], [-121.4514, 52.5916], [-121.4514, 52.5958], [-121.4639, 52.5958], [-121.4639, 52.5916]]]}, "properties": {"company_id": "spanish-mountain-gold", "jurisdiction": "British Columbia", "claim_id": 514562, "claim_name": null, "holder": "SPANISH MOUNTAIN GOLD LTD.", "status": "Placer", "recorded_date": "2005-06-15", "anniversary_or_expiry": "2025-11-28", "area_ha": 176.77, "tenure_type": "Placer", "source": "BC MTA Mineral, Placer and Coal Tenure Spatial View (BCGW). Open Government Licence - British Columbia. Not legal title.", "as_of": "2026-09-20", "role": "focus", "color": "#e8b040"}}, {"type": "Feature", "geometry": {"type": "Polygon", "coordinates": [[[-121.4389, 52.5749], [-121.4451, 52.5749], [-121.4451, 52.5708], [-121.4389, 52.5708], [-121.4389, 52.5749]]]}, "properties": {"company_id": "spanish-mountain-gold", "jurisdiction": "British Columbia", "claim_id": 517446, "claim_name": null, "holder": "SPANISH MOUNTAIN GOLD LTD.", "status": "Mineral", "recorded_date": "2005-07-12", "anniversary_or_expiry": "2033-09-10", "area_ha": 19.648, "tenure_type": "Mineral", "source": "BC MTA Mineral, Placer and Coal Tenure Spatial View (BCGW). Open Government Licence - British Columbia. Not legal title.", "as_of": "2026-09-20", "role": "focus", "color": "#e8b040"}}, {"type": "Feature", "geometry": {"type": "Polygon", "coordinates": [[[-121.4889, 52.5916], [-121.4889, 52.5708], [-121.4826, 52.5708], [-121.4826, 52.5958], [-121.4889, 52.5958], [-121.4889, 52.5916]]]}, "properties": {"company_id": "spanish-mountain-gold", "jurisdiction": "British Columbia", "claim_id": 538658, "claim_name": "MOOREHEAD 14", "holder": "SPANISH MOUNTAIN GOLD LTD.", "status": "Mineral", "recorded_date": "2006-08-04", "anniversary_or_expiry": "2033-09-10", "area_ha": 117.85900000000001, "tenure_type": "Mineral", "source": "BC MTA Mineral, Placer and Coal Tenure Spatial View (BCGW). Open Government Licence - British Columbia. Not legal title.", "as_of": "2026-09-20", "role": "focus", "color": "#e8b040"}}, {"type": "Feature", "geometry": {"type": "Polygon", "coordinates": [[[-121.5201, 52.6124], [-121.5201, 52.6083], [-121.5076, 52.6083], [-121.5076, 52.6166], [-121.5201, 52.6166], [-121.5201, 52.6124]]]}, "properties": {"company_id": "spanish-mountain-gold", "jurisdiction": "British Columbia", "claim_id": 537371, "claim_name": "MOOREHEAD 12", "holder": "SPANISH MOUNTAIN GOLD LTD.", "status": "Mineral", "recorded_date": "2006-07-18", "anniversary_or_expiry": "2033-09-10", "area_ha": 78.521, "tenure_type": "Mineral", "source": "BC MTA Mineral, Placer and Coal Tenure Spatial View (BCGW). Open Government Licence - British Columbia. Not legal title.", "as_of": "2026-09-20", "role": "focus", "color": "#e8b040"}}, {"type": "Feature", "geometry": {"type": "Polygon", "coordinates": [[[-121.5014, 52.6041], [-121.5076, 52.6041], [-121.5076, 52.5999], [-121.4951, 52.5999], [-121.4951, 52.6041], [-121.5014, 52.6041]]]}, "properties": {"company_id": "spanish-mountain-gold", "jurisdiction": "British Columbia", "claim_id": 537372, "claim_name": "MOOREHEAD 13", "holder": "SPANISH MOUNTAIN GOLD LTD.", "status": "Mineral", "recorded_date": "2006-07-18", "anniversary_or_expiry": "2033-09-10", "area_ha": 39.27, "tenure_type": "Mineral", "source": "BC MTA Mineral, Placer and Coal Tenure Spatial View (BCGW). Open Government Licence - British Columbia. Not legal title.", "as_of": "2026-09-20", "role": "focus", "color": "#e8b040"}}]}