{"type": "FeatureCollection", "features": [{"type": "Feature", "geometry": {"type": "Polygon", "coordinates": [[[-65.29166666548362, 49.02975206437522], [-65.2836957366669, 49.02987034213517], [-65.28360881993186, 49.02858372001579], [-65.28399291992626, 49.02736706001585], [-65.28430377994869, 49.02691530001535], [-65.28463911999256, 49.026499320015716], [-65.28469823259499, 49.02640014858823], [-65.28473201997595, 49.02631884001544], [-65.28486534705503, 49.02603135022646], [-65.28494287995343, 49.025813800015555], [-65.28505243992876, 49.02408640001575], [-65.28518239996625, 49.02365386001597], [-65.28542057999503, 49.02314862001585], [-65.28549991996474, 49.022977220015335], [-65.28553542254018, 49.02287951678151], [-65.29166666528991, 49.02287946082691], [-65.29166666863951, 49.02500000541019], [-65.29166666548362, 49.02975206437522]]]}, "properties": {"company_id": "sterling-metals", "jurisdiction": "Quebec", "claim_id": "", "claim_name": null, "holder": "Les Entreprises Mont-Sterling inc.", "status": "Active", "recorded_date": null, "anniversary_or_expiry": null, "area_ha": null, "tenure_type": null, "source": "GESTIM active titles (MRNF digital data dump). Not legal title.", "as_of": "2026-09-20", "role": "focus", "color": "#e8b040"}}, {"type": "Feature", "geometry": {"type": "Polygon", "coordinates": [[[-57.283333329907286, 51.502651674522276], [-57.27837755538374, 51.502203839595346], [-57.2735585501689, 51.50344704631729], [-57.27356941626967, 51.49804297944201], [-57.283333333947574, 51.49804676675265], [-57.283333329907286, 51.502651674522276]]]}, "properties": {"company_id": "sterling-metals", "jurisdiction": "Quebec", "claim_id": "", "claim_name": null, "holder": "Les Entreprises Mont-Sterling inc.", "status": "Active", "recorded_date": null, "anniversary_or_expiry": null, "area_ha": null, "tenure_type": null, "source": "GESTIM active titles (MRNF digital data dump). Not legal title.", "as_of": "2026-09-20", "role": "focus", "color": "#e8b040"}}, {"type": "Feature", "geometry": {"type": "Polygon", "coordinates": [[[-57.283333329907286, 51.502651674522276], [-57.27837755538374, 51.502203839595346], [-57.2735585501689, 51.50344704631729], [-57.27356941626967, 51.49804297944201], [-57.283333333947574, 51.49804676675265], [-57.283333329907286, 51.502651674522276]]]}, "properties": {"company_id": "sterling-metals", "jurisdiction": "Quebec", "claim_id": "", "claim_name": null, "holder": "Les Entreprises Mont-Sterling inc.", "status": "Active", "recorded_date": null, "anniversary_or_expiry": null, "area_ha": null, "tenure_type": null, "source": "GESTIM active titles (MRNF digital data dump). Not legal title.", "as_of": "2026-09-20", "role": "focus", "color": "#e8b040"}}, {"type": "Feature", "geometry": {"type": "Polygon", "coordinates": [[[-65.54645413106779, 49.08266886435854], [-65.5348424061878, 49.087566918427946], [-65.53431865503714, 49.08400672539564], [-65.53296851704629, 49.0825069353697], [-65.53292274586771, 49.081338365463935], [-65.54127970367546, 49.07762784074205], [-65.54645413106779, 49.08266886435854]]]}, "properties": {"company_id": "sterling-metals", "jurisdiction": "Quebec", "claim_id": "", "claim_name": null, "holder": "Les Entreprises Mont-Sterling inc.", "status": "Active", "recorded_date": null, "anniversary_or_expiry": null, "area_ha": null, "tenure_type": null, "source": "GESTIM active titles (MRNF digital data dump). Not legal title.", "as_of": "2026-09-20", "role": "focus", "color": "#e8b040"}}]}