{"type": "FeatureCollection", "features": [{"type": "Feature", "geometry": {"type": "Polygon", "coordinates": [[[-126.8454, 54.2707], [-126.8454, 54.2666], [-126.8017, 54.2666], [-126.8017, 54.3082], [-126.8267, 54.3082], [-126.8267, 54.3041], [-126.8455, 54.3041], [-126.8454, 54.2707]]]}, "properties": {"company_id": "sun-summit-minerals", "jurisdiction": "British Columbia", "claim_id": 511091, "claim_name": null, "holder": "SUN SUMMIT MINERALS CORP.", "status": "Mineral", "recorded_date": "2005-04-19", "anniversary_or_expiry": "2030-08-02", "area_ha": 1264.752, "tenure_type": "Mineral", "source": "BC MTA Mineral, Placer and Coal Tenure Spatial View (BCGW). Open Government Licence - British Columbia. Not legal title.", "as_of": "2026-09-20", "role": "focus", "color": "#e8b040"}}, {"type": "Feature", "geometry": {"type": "Polygon", "coordinates": [[[-126.8392, 54.2624], [-126.8204, 54.2624], [-126.8204, 54.2666], [-126.8454, 54.2666], [-126.8454, 54.2624], [-126.8392, 54.2624]]]}, "properties": {"company_id": "sun-summit-minerals", "jurisdiction": "British Columbia", "claim_id": 511331, "claim_name": null, "holder": "SUN SUMMIT MINERALS CORP.", "status": "Mineral", "recorded_date": "2005-04-21", "anniversary_or_expiry": "2030-08-02", "area_ha": 75.546, "tenure_type": "Mineral", "source": "BC MTA Mineral, Placer and Coal Tenure Spatial View (BCGW). Open Government Licence - British Columbia. Not legal title.", "as_of": "2026-09-20", "role": "focus", "color": "#e8b040"}}]}