{"type": "FeatureCollection", "features": [{"type": "Feature", "geometry": {"type": "Polygon", "coordinates": [[[-127.4288, 53.8112], [-127.4288, 53.8071], [-127.4236, 53.8072], [-127.4228, 53.8113], [-127.4288, 53.8112]]]}, "properties": {"company_id": "surge-copper", "jurisdiction": "British Columbia", "claim_id": 243481, "claim_name": null, "holder": "SURGE COPPER CORP.", "status": "Mineral", "recorded_date": "-425088000", "anniversary_or_expiry": "2025-08-27", "area_ha": 16.81, "tenure_type": "Mineral", "source": "BC MTA Mineral, Placer and Coal Tenure Spatial View (BCGW). Open Government Licence - British Columbia. Not legal title.", "as_of": "2026-09-20", "role": "focus", "color": "#e8b040"}}, {"type": "Feature", "geometry": {"type": "Polygon", "coordinates": [[[-127.0674, 53.6709], [-127.0661, 53.6715], [-127.0684, 53.6715], [-127.0684, 53.6625], [-127.023, 53.6625], [-127.023, 53.6715], [-127.0377, 53.6715], [-127.0369, 53.6708], [-127.0467, 53.6665], [-127.0503, 53.6694], [-127.0552, 53.6672], [-127.0588, 53.6702], [-127.0637, 53.668], [-127.0674, 53.6709]]]}, "properties": {"company_id": "surge-copper", "jurisdiction": "British Columbia", "claim_id": 403806, "claim_name": "SEEL 9", "holder": "SURGE COPPER CORP.", "status": "Mineral", "recorded_date": "2003-07-20", "anniversary_or_expiry": "2032-10-07", "area_ha": 300, "tenure_type": "Mineral", "source": "BC MTA Mineral, Placer and Coal Tenure Spatial View (BCGW). Open Government Licence - British Columbia. Not legal title.", "as_of": "2026-09-20", "role": "focus", "color": "#e8b040"}}, {"type": "Feature", "geometry": {"type": "Polygon", "coordinates": [[[-127.1454, 53.6332], [-127.1454, 53.629], [-127.0704, 53.629], [-127.0704, 53.6332], [-127.0642, 53.6332], [-127.0642, 53.6499], [-127.1454, 53.6499], [-127.1454, 53.6332]]]}, "properties": {"company_id": "surge-copper", "jurisdiction": "British Columbia", "claim_id": 513095, "claim_name": null, "holder": "SURGE COPPER CORP.", "status": "Mineral", "recorded_date": "2005-05-19", "anniversary_or_expiry": "2032-10-07", "area_ha": 1226.884, "tenure_type": "Mineral", "source": "BC MTA Mineral, Placer and Coal Tenure Spatial View (BCGW). Open Government Licence - British Columbia. Not legal title.", "as_of": "2026-09-20", "role": "focus", "color": "#e8b040"}}, {"type": "Feature", "geometry": {"type": "Polygon", "coordinates": [[[-127.1142, 53.6249], [-127.1142, 53.6207], [-127.0704, 53.6207], [-127.0704, 53.629], [-127.1142, 53.629], [-127.1142, 53.6249]]]}, "properties": {"company_id": "surge-copper", "jurisdiction": "British Columbia", "claim_id": 513096, "claim_name": null, "holder": "SURGE COPPER CORP.", "status": "Mineral", "recorded_date": "2005-05-19", "anniversary_or_expiry": "2032-10-07", "area_ha": 268.474, "tenure_type": "Mineral", "source": "BC MTA Mineral, Placer and Coal Tenure Spatial View (BCGW). Open Government Licence - British Columbia. Not legal title.", "as_of": "2026-09-20", "role": "focus", "color": "#e8b040"}}, {"type": "Feature", "geometry": {"type": "Polygon", "coordinates": [[[-127.1392, 53.654], [-127.1392, 53.6499], [-127.0642, 53.6499], [-127.0642, 53.6665], [-127.1392, 53.6665], [-127.1392, 53.654]]]}, "properties": {"company_id": "surge-copper", "jurisdiction": "British Columbia", "claim_id": 513097, "claim_name": null, "holder": "SURGE COPPER CORP.", "status": "Mineral", "recorded_date": "2005-05-19", "anniversary_or_expiry": "2032-10-07", "area_ha": 919.7620000000001, "tenure_type": "Mineral", "source": "BC MTA Mineral, Placer and Coal Tenure Spatial View (BCGW). Open Government Licence - British Columbia. Not legal title.", "as_of": "2026-09-20", "role": "focus", "color": "#e8b040"}}, {"type": "Feature", "geometry": {"type": "Polygon", "coordinates": [[[-127.1454, 53.6165], [-127.1454, 53.6124], [-127.1079, 53.6124], [-127.1079, 53.6207], [-127.1142, 53.6207], [-127.1142, 53.629], [-127.1454, 53.629], [-127.1454, 53.6165]]]}, "properties": {"company_id": "surge-copper", "jurisdiction": "British Columbia", "claim_id": 513098, "claim_name": null, "holder": "SURGE COPPER CORP.", "status": "Mineral", "recorded_date": "2005-05-19", "anniversary_or_expiry": "2032-10-07", "area_ha": 421.93, "tenure_type": "Mineral", "source": "BC MTA Mineral, Placer and Coal Tenure Spatial View (BCGW). Open Government Licence - British Columbia. Not legal title.", "as_of": "2026-09-20", "role": "focus", "color": "#e8b040"}}, {"type": "Feature", "geometry": {"type": "Polygon", "coordinates": [[[-127.0704, 53.629], [-127.0704, 53.6249], [-127.0454, 53.6249], [-127.0454, 53.6665], [-127.0642, 53.6665], [-127.0642, 53.6332], [-127.0704, 53.6332], [-127.0704, 53.629]]]}, "properties": {"company_id": "surge-copper", "jurisdiction": "British Columbia", "claim_id": 513099, "claim_name": null, "holder": "SURGE COPPER CORP.", "status": "Mineral", "recorded_date": "2005-05-19", "anniversary_or_expiry": "2032-10-07", "area_ha": 613.375, "tenure_type": "Mineral", "source": "BC MTA Mineral, Placer and Coal Tenure Spatial View (BCGW). Open Government Licence - British Columbia. Not legal title.", "as_of": "2026-09-20", "role": "focus", "color": "#e8b040"}}, {"type": "Feature", "geometry": {"type": "Polygon", "coordinates": [[[-127.0454, 53.6374], [-127.0454, 53.6332], [-127.0204, 53.6332], [-127.0204, 53.6665], [-127.0454, 53.6665], [-127.0454, 53.6374]]]}, "properties": {"company_id": "surge-copper", "jurisdiction": "British Columbia", "claim_id": 513136, "claim_name": null, "holder": "SURGE COPPER CORP.", "status": "Mineral", "recorded_date": "2005-05-20", "anniversary_or_expiry": "2032-10-07", "area_ha": 613.303, "tenure_type": "Mineral", "source": "BC MTA Mineral, Placer and Coal Tenure Spatial View (BCGW). Open Government Licence - British Columbia. Not legal title.", "as_of": "2026-09-20", "role": "focus", "color": "#e8b040"}}, {"type": "Feature", "geometry": {"type": "Polygon", "coordinates": [[[-127.1704, 53.5832], [-127.1704, 53.579], [-127.1517, 53.579], [-127.1517, 53.6124], [-127.1704, 53.6124], [-127.1704, 53.5832]]]}, "properties": {"company_id": "surge-copper", "jurisdiction": "British Columbia", "claim_id": 505731, "claim_name": "Seel 12", "holder": "SURGE COPPER CORP.", "status": "Mineral", "recorded_date": "2005-02-03", "anniversary_or_expiry": "2032-10-07", "area_ha": 460.557, "tenure_type": "Mineral", "source": "BC MTA Mineral, Placer and Coal Tenure Spatial View (BCGW). Open Government Licence - British Columbia. Not legal title.", "as_of": "2026-09-20", "role": "focus", "color": "#e8b040"}}, {"type": "Feature", "geometry": {"type": "Polygon", "coordinates": [[[-127.1204, 53.6665], [-127.0704, 53.6665], [-127.0704, 53.6707], [-127.0767, 53.6707], [-127.0767, 53.6749], [-127.1204, 53.6749], [-127.1204, 53.6707], [-127.1267, 53.6707], [-127.1267, 53.6665], [-127.1204, 53.6665]]]}, "properties": {"company_id": "surge-copper", "jurisdiction": "British Columbia", "claim_id": 505733, "claim_name": "Seel 13", "holder": "SURGE COPPER CORP.", "status": "Mineral", "recorded_date": "2005-02-03", "anniversary_or_expiry": "2032-10-07", "area_ha": 306.504, "tenure_type": "Mineral", "source": "BC MTA Mineral, Placer and Coal Tenure Spatial View (BCGW). Open Government Licence - British Columbia. Not legal title.", "as_of": "2026-09-20", "role": "focus", "color": "#e8b040"}}, {"type": "Feature", "geometry": {"type": "Polygon", "coordinates": [[[-127.0204, 53.6415], [-127.0204, 53.6374], [-127.0017, 53.6374], [-127.0017, 53.6707], [-127.0204, 53.6707], [-127.0204, 53.6415]]]}, "properties": {"company_id": "surge-copper", "jurisdiction": "British Columbia", "claim_id": 505734, "claim_name": "Seel 13", "holder": "SURGE COPPER CORP.", "status": "Mineral", "recorded_date": "2005-02-03", "anniversary_or_expiry": "2032-10-07", "area_ha": 459.93300000000005, "tenure_type": "Mineral", "source": "BC MTA Mineral, Placer and Coal Tenure Spatial View (BCGW). Open Government Licence - British Columbia. Not legal title.", "as_of": "2026-09-20", "role": "focus", "color": "#e8b040"}}, {"type": "Feature", "geometry": {"type": "Polygon", "coordinates": [[[-127.0017, 53.654], [-127.0017, 53.6499], [-126.9704, 53.6499], [-126.9704, 53.6707], [-127.0017, 53.6707], [-127.0017, 53.654]]]}, "properties": {"company_id": "surge-copper", "jurisdiction": "British Columbia", "claim_id": 505736, "claim_name": "Seel 15", "holder": "SURGE COPPER CORP.", "status": "Mineral", "recorded_date": "2005-02-03", "anniversary_or_expiry": "2032-10-07", "area_ha": 479.031, "tenure_type": "Mineral", "source": "BC MTA Mineral, Placer and Coal Tenure Spatial View (BCGW). Open Government Licence - British Columbia. Not legal title.", "as_of": "2026-09-20", "role": "focus", "color": "#e8b040"}}, {"type": "Feature", "geometry": {"type": "Polygon", "coordinates": [[[-127.1642, 53.6165], [-127.1642, 53.6124], [-127.1454, 53.6124], [-127.1454, 53.6457], [-127.1642, 53.6457], [-127.1642, 53.6165]]]}, "properties": {"company_id": "surge-copper", "jurisdiction": "British Columbia", "claim_id": 505738, "claim_name": "Seel 16", "holder": "SURGE COPPER CORP.", "status": "Mineral", "recorded_date": "2005-02-03", "anniversary_or_expiry": "2032-10-07", "area_ha": 460.194, "tenure_type": "Mineral", "source": "BC MTA Mineral, Placer and Coal Tenure Spatial View (BCGW). Open Government Licence - British Columbia. Not legal title.", "as_of": "2026-09-20", "role": "focus", "color": "#e8b040"}}, {"type": "Feature", "geometry": {"type": "Polygon", "coordinates": [[[-127.0267, 53.679], [-127.0267, 53.6749], [-127.0204, 53.6749], [-127.0204, 53.6707], [-126.9704, 53.6707], [-126.9704, 53.679], [-126.9767, 53.679], [-126.9767, 53.6832], [-127.0267, 53.6832], [-127.0267, 53.679]]]}, "properties": {"company_id": "surge-copper", "jurisdiction": "British Columbia", "claim_id": 505744, "claim_name": "Seel 17", "holder": "SURGE COPPER CORP.", "status": "Mineral", "recorded_date": "2005-02-03", "anniversary_or_expiry": "2032-10-07", "area_ha": 478.841, "tenure_type": "Mineral", "source": "BC MTA Mineral, Placer and Coal Tenure Spatial View (BCGW). Open Government Licence - British Columbia. Not legal title.", "as_of": "2026-09-20", "role": "focus", "color": "#e8b040"}}, {"type": "Feature", "geometry": {"type": "Polygon", "coordinates": [[[-127.1829, 53.5749], [-127.1829, 53.5707], [-127.1454, 53.5707], [-127.1454, 53.5832], [-127.1392, 53.5832], [-127.1392, 53.5915], [-127.1517, 53.5915], [-127.1517, 53.579], [-127.1704, 53.579], [-127.1704, 53.5957], [-127.1829, 53.5957], [-127.1829, 53.5749]]]}, "properties": {"company_id": "surge-copper", "jurisdiction": "British Columbia", "claim_id": 505746, "claim_name": "Seel 18", "holder": "SURGE COPPER CORP.", "status": "Mineral", "recorded_date": "2005-02-03", "anniversary_or_expiry": "2032-10-07", "area_ha": 479.923, "tenure_type": "Mineral", "source": "BC MTA Mineral, Placer and Coal Tenure Spatial View (BCGW). Open Government Licence - British Columbia. Not legal title.", "as_of": "2026-09-20", "role": "focus", "color": "#e8b040"}}, {"type": "Feature", "geometry": {"type": "Polygon", "coordinates": [[[-127.0767, 53.6749], [-127.0704, 53.6749], [-127.0704, 53.679], [-127.0642, 53.679], [-127.0642, 53.6832], [-127.0579, 53.6832], [-127.0579, 53.6874], [-127.0329, 53.6874], [-127.0329, 53.6832], [-127.0267, 53.6832], [-126.9892, 53.6832], [-126.9892, 53.6874], [-127.0017, 53.6874], [-127.0017, 53.6915], [-127.0704, 53.6915], [-127.0704, 53.6874], [-127.0767, 53.6874], [-127.0767, 53.679], [-127.0829, 53.679], [-127.0829, 53.6749], [-127.0767, 53.6749]]]}, "properties": {"company_id": "surge-copper", "jurisdiction": "British Columbia", "claim_id": 505749, "claim_name": "Seel 19", "holder": "SURGE COPPER CORP.", "status": "Mineral", "recorded_date": "2005-02-03", "anniversary_or_expiry": "2032-10-07", "area_ha": 478.73600000000005, "tenure_type": "Mineral", "source": "BC MTA Mineral, Placer and Coal Tenure Spatial View (BCGW). Open Government Licence - British Columbia. Not legal title.", "as_of": "2026-09-20", "role": "focus", "color": "#e8b040"}}, {"type": "Feature", "geometry": {"type": "Polygon", "coordinates": [[[-127.1517, 53.5957], [-127.1517, 53.5915], [-127.1329, 53.5915], [-127.1329, 53.5957], [-127.1267, 53.5957], [-127.1267, 53.5999], [-127.1204, 53.5999], [-127.1204, 53.6082], [-127.1142, 53.6082], [-127.1142, 53.6124], [-127.1517, 53.6124], [-127.1517, 53.5957]]]}, "properties": {"company_id": "surge-copper", "jurisdiction": "British Columbia", "claim_id": 505713, "claim_name": "Seel 11", "holder": "SURGE COPPER CORP.", "status": "Mineral", "recorded_date": "2005-02-03", "anniversary_or_expiry": "2032-10-07", "area_ha": 441.285, "tenure_type": "Mineral", "source": "BC MTA Mineral, Placer and Coal Tenure Spatial View (BCGW). Open Government Licence - British Columbia. Not legal title.", "as_of": "2026-09-20", "role": "focus", "color": "#e8b040"}}, {"type": "Feature", "geometry": {"type": "Polygon", "coordinates": [[[-127.4142, 53.804], [-127.4142, 53.7999], [-127.3829, 53.7999], [-127.3829, 53.8082], [-127.4142, 53.8082], [-127.4142, 53.804]]]}, "properties": {"company_id": "surge-copper", "jurisdiction": "British Columbia", "claim_id": 515449, "claim_name": null, "holder": "SURGE COPPER CORP.", "status": "Mineral", "recorded_date": "2005-06-28", "anniversary_or_expiry": "2032-10-07", "area_ha": 190.966, "tenure_type": "Mineral", "source": "BC MTA Mineral, Placer and Coal Tenure Spatial View (BCGW). Open Government Licence - British Columbia. Not legal title.", "as_of": "2026-09-20", "role": "focus", "color": "#e8b040"}}, {"type": "Feature", "geometry": {"type": "Polygon", "coordinates": [[[-127.4142, 53.8124], [-127.4142, 53.8082], [-127.3829, 53.8082], [-127.3829, 53.804], [-127.3704, 53.804], [-127.3704, 53.8249], [-127.4142, 53.8249], [-127.4142, 53.8124]]]}, "properties": {"company_id": "surge-copper", "jurisdiction": "British Columbia", "claim_id": 515450, "claim_name": null, "holder": "SURGE COPPER CORP.", "status": "Mineral", "recorded_date": "2005-06-28", "anniversary_or_expiry": "2032-10-07", "area_ha": 572.74, "tenure_type": "Mineral", "source": "BC MTA Mineral, Placer and Coal Tenure Spatial View (BCGW). Open Government Licence - British Columbia. Not legal title.", "as_of": "2026-09-20", "role": "focus", "color": "#e8b040"}}, {"type": "Feature", "geometry": {"type": "Polygon", "coordinates": [[[-127.4579, 53.8165], [-127.4579, 53.8124], [-127.4142, 53.8124], [-127.4142, 53.8249], [-127.4079, 53.8249], [-127.4079, 53.829], [-127.4579, 53.829], [-127.4579, 53.8165]]]}, "properties": {"company_id": "surge-copper", "jurisdiction": "British Columbia", "claim_id": 515451, "claim_name": null, "holder": "SURGE COPPER CORP.", "status": "Mineral", "recorded_date": "2005-06-28", "anniversary_or_expiry": "2032-10-07", "area_ha": 553.5880000000001, "tenure_type": "Mineral", "source": "BC MTA Mineral, Placer and Coal Tenure Spatial View (BCGW). Open Government Licence - British Columbia. Not legal title.", "as_of": "2026-09-20", "role": "focus", "color": "#e8b040"}}, {"type": "Feature", "geometry": {"type": "Polygon", "coordinates": [[[-127.4454, 53.7957], [-127.4454, 53.7915], [-127.4142, 53.7915], [-127.4142, 53.8124], [-127.4454, 53.8124], [-127.4454, 53.7957]]]}, "properties": {"company_id": "surge-copper", "jurisdiction": "British Columbia", "claim_id": 515453, "claim_name": null, "holder": "SURGE COPPER CORP.", "status": "Mineral", "recorded_date": "2005-06-28", "anniversary_or_expiry": "2032-10-07", "area_ha": 477.444, "tenure_type": "Mineral", "source": "BC MTA Mineral, Placer and Coal Tenure Spatial View (BCGW). Open Government Licence - British Columbia. Not legal title.", "as_of": "2026-09-20", "role": "focus", "color": "#e8b040"}}, {"type": "Feature", "geometry": {"type": "Polygon", "coordinates": [[[-127.4767, 53.8082], [-127.4767, 53.804], [-127.4704, 53.804], [-127.4704, 53.7957], [-127.4767, 53.7957], [-127.4767, 53.7915], [-127.4454, 53.7915], [-127.4454, 53.8124], [-127.4579, 53.8124], [-127.4579, 53.8165], [-127.4767, 53.8165], [-127.4767, 53.8082]]]}, "properties": {"company_id": "surge-copper", "jurisdiction": "British Columbia", "claim_id": 515454, "claim_name": null, "holder": "SURGE COPPER CORP.", "status": "Mineral", "recorded_date": "2005-06-28", "anniversary_or_expiry": "2032-10-07", "area_ha": 496.524, "tenure_type": "Mineral", "source": "BC MTA Mineral, Placer and Coal Tenure Spatial View (BCGW). Open Government Licence - British Columbia. Not legal title.", "as_of": "2026-09-20", "role": "focus", "color": "#e8b040"}}, {"type": "Feature", "geometry": {"type": "Polygon", "coordinates": [[[-127.4767, 53.7874], [-127.4767, 53.7832], [-127.4392, 53.7832], [-127.4392, 53.7915], [-127.4767, 53.7915], [-127.4767, 53.7874]]]}, "properties": {"company_id": "surge-copper", "jurisdiction": "British Columbia", "claim_id": 515455, "claim_name": null, "holder": "SURGE COPPER CORP.", "status": "Mineral", "recorded_date": "2005-06-28", "anniversary_or_expiry": "2032-10-07", "area_ha": 229.252, "tenure_type": "Mineral", "source": "BC MTA Mineral, Placer and Coal Tenure Spatial View (BCGW). Open Government Licence - British Columbia. Not legal title.", "as_of": "2026-09-20", "role": "focus", "color": "#e8b040"}}, {"type": "Feature", "geometry": {"type": "Polygon", "coordinates": [[[-127.4392, 53.7874], [-127.4392, 53.7832], [-127.3829, 53.7832], [-127.3829, 53.7915], [-127.4392, 53.7915], [-127.4392, 53.7874]]]}, "properties": {"company_id": "surge-copper", "jurisdiction": "British Columbia", "claim_id": 515456, "claim_name": null, "holder": "SURGE COPPER CORP.", "status": "Mineral", "recorded_date": "2005-06-28", "anniversary_or_expiry": "2032-10-07", "area_ha": 343.875, "tenure_type": "Mineral", "source": "BC MTA Mineral, Placer and Coal Tenure Spatial View (BCGW). Open Government Licence - British Columbia. Not legal title.", "as_of": "2026-09-20", "role": "focus", "color": "#e8b040"}}, {"type": "Feature", "geometry": {"type": "Polygon", "coordinates": [[[-127.0267, 53.6707], [-127.0267, 53.6665], [-127.0204, 53.6665], [-127.0204, 53.6749], [-127.0329, 53.6749], [-127.0329, 53.6707], [-127.0267, 53.6707]]]}, "properties": {"company_id": "surge-copper", "jurisdiction": "British Columbia", "claim_id": 517041, "claim_name": "SEEL 20", "holder": "SURGE COPPER CORP.", "status": "Mineral", "recorded_date": "2005-07-12", "anniversary_or_expiry": "2032-10-07", "area_ha": 57.468, "tenure_type": "Mineral", "source": "BC MTA Mineral, Placer and Coal Tenure Spatial View (BCGW). Open Government Licence - British Columbia. Not legal title.", "as_of": "2026-09-20", "role": "focus", "color": "#e8b040"}}, {"type": "Feature", "geometry": {"type": "Polygon", "coordinates": [[[-127.4142, 53.7957], [-127.4142, 53.7915], [-127.3829, 53.7915], [-127.3829, 53.7999], [-127.4142, 53.7999], [-127.4142, 53.7957]]]}, "properties": {"company_id": "surge-copper", "jurisdiction": "British Columbia", "claim_id": 515447, "claim_name": null, "holder": "SURGE COPPER CORP.", "status": "Mineral", "recorded_date": "2005-06-28", "anniversary_or_expiry": "2032-10-07", "area_ha": 191.00400000000002, "tenure_type": "Mineral", "source": "BC MTA Mineral, Placer and Coal Tenure Spatial View (BCGW). Open Government Licence - British Columbia. Not legal title.", "as_of": "2026-09-20", "role": "focus", "color": "#e8b040"}}]}