{"type": "FeatureCollection", "features": [{"type": "Feature", "geometry": {"type": "Polygon", "coordinates": [[[-121.6888, 50.6249], [-121.6951, 50.6249], [-121.6951, 50.6207], [-121.6826, 50.6207], [-121.6826, 50.6249], [-121.6888, 50.6249]]]}, "properties": {"company_id": "talisker-resources", "jurisdiction": "British Columbia", "claim_id": 503908, "claim_name": null, "holder": "TALISKER RESOURCES LTD.", "status": "Mineral", "recorded_date": "2005-01-16", "anniversary_or_expiry": "2028-01-02", "area_ha": 41.0022, "tenure_type": "Mineral", "source": "BC MTA Mineral, Placer and Coal Tenure Spatial View (BCGW). Open Government Licence - British Columbia. Not legal title.", "as_of": "2026-09-20", "role": "focus", "color": "#e8b040"}}, {"type": "Feature", "geometry": {"type": "Polygon", "coordinates": [[[-121.6888, 50.6291], [-121.6951, 50.6291], [-121.6951, 50.6249], [-121.6826, 50.6249], [-121.6826, 50.6291], [-121.6888, 50.6291]]]}, "properties": {"company_id": "talisker-resources", "jurisdiction": "British Columbia", "claim_id": 503909, "claim_name": null, "holder": "TALISKER RESOURCES LTD.", "status": "Mineral", "recorded_date": "2005-01-16", "anniversary_or_expiry": "2028-01-02", "area_ha": 40.9987, "tenure_type": "Mineral", "source": "BC MTA Mineral, Placer and Coal Tenure Spatial View (BCGW). Open Government Licence - British Columbia. Not legal title.", "as_of": "2026-09-20", "role": "focus", "color": "#e8b040"}}]}