{"type": "FeatureCollection", "features": [{"type": "Feature", "geometry": {"type": "Polygon", "coordinates": [[[-123.5964, 51.4062], [-123.5964, 51.4272], [-123.6252, 51.4272], [-123.6252, 51.4062], [-123.5964, 51.4062]]]}, "properties": {"company_id": "taseko-mines", "jurisdiction": "British Columbia", "claim_id": 209324, "claim_name": "FISH 1", "holder": "TASEKO MINES LIMITED", "status": "Mineral", "recorded_date": "6641568000", "anniversary_or_expiry": "2027-04-02", "area_ha": 500, "tenure_type": "Mineral", "source": "BC MTA Mineral, Placer and Coal Tenure Spatial View (BCGW). Open Government Licence - British Columbia. Not legal title.", "as_of": "2026-09-20", "role": "focus", "color": "#e8b040"}}, {"type": "Feature", "geometry": {"type": "Polygon", "coordinates": [[[-123.5677, 51.4062], [-123.5677, 51.4272], [-123.5964, 51.4272], [-123.5964, 51.4062], [-123.5677, 51.4062]]]}, "properties": {"company_id": "taseko-mines", "jurisdiction": "British Columbia", "claim_id": 209325, "claim_name": "FISH 2", "holder": "TASEKO MINES LIMITED", "status": "Mineral", "recorded_date": "6642432000", "anniversary_or_expiry": "2027-04-02", "area_ha": 500, "tenure_type": "Mineral", "source": "BC MTA Mineral, Placer and Coal Tenure Spatial View (BCGW). Open Government Licence - British Columbia. Not legal title.", "as_of": "2026-09-20", "role": "focus", "color": "#e8b040"}}, {"type": "Feature", "geometry": {"type": "Polygon", "coordinates": [[[-123.5393, 51.4062], [-123.5389, 51.4287], [-123.5403, 51.4287], [-123.5403, 51.4272], [-123.5677, 51.4272], [-123.5677, 51.4062], [-123.5393, 51.4062]]]}, "properties": {"company_id": "taseko-mines", "jurisdiction": "British Columbia", "claim_id": 209326, "claim_name": "FISH 3", "holder": "TASEKO MINES LIMITED", "status": "Mineral", "recorded_date": "6642432000", "anniversary_or_expiry": "2027-04-02", "area_ha": 500, "tenure_type": "Mineral", "source": "BC MTA Mineral, Placer and Coal Tenure Spatial View (BCGW). Open Government Licence - British Columbia. Not legal title.", "as_of": "2026-09-20", "role": "focus", "color": "#e8b040"}}, {"type": "Feature", "geometry": {"type": "Polygon", "coordinates": [[[-123.6553, 51.4422], [-123.6612, 51.4422], [-123.6612, 51.4242], [-123.6252, 51.4242], [-123.6252, 51.4272], [-123.6266, 51.4272], [-123.6266, 51.4406], [-123.6553, 51.4406], [-123.6553, 51.4422]]]}, "properties": {"company_id": "taseko-mines", "jurisdiction": "British Columbia", "claim_id": 209327, "claim_name": "FISH 4", "holder": "TASEKO MINES LIMITED", "status": "Mineral", "recorded_date": "6641568000", "anniversary_or_expiry": "2027-04-02", "area_ha": 500, "tenure_type": "Mineral", "source": "BC MTA Mineral, Placer and Coal Tenure Spatial View (BCGW). Open Government Licence - British Columbia. Not legal title.", "as_of": "2026-09-20", "role": "focus", "color": "#e8b040"}}, {"type": "Feature", "geometry": {"type": "Polygon", "coordinates": [[[-123.6036, 51.4062], [-123.6108, 51.4062], [-123.6108, 51.4017], [-123.6036, 51.4017], [-123.6036, 51.4062]]]}, "properties": {"company_id": "taseko-mines", "jurisdiction": "British Columbia", "claim_id": 314004, "claim_name": "F 2", "holder": "TASEKO MINES LIMITED", "status": "Mineral", "recorded_date": "7191072000", "anniversary_or_expiry": "2027-04-02", "area_ha": 25, "tenure_type": "Mineral", "source": "BC MTA Mineral, Placer and Coal Tenure Spatial View (BCGW). Open Government Licence - British Columbia. Not legal title.", "as_of": "2026-09-20", "role": "focus", "color": "#e8b040"}}, {"type": "Feature", "geometry": {"type": "Polygon", "coordinates": [[[-123.5964, 51.4062], [-123.6036, 51.4062], [-123.6036, 51.4017], [-123.5964, 51.4017], [-123.5964, 51.4062]]]}, "properties": {"company_id": "taseko-mines", "jurisdiction": "British Columbia", "claim_id": 314005, "claim_name": "F 3", "holder": "TASEKO MINES LIMITED", "status": "Mineral", "recorded_date": "7191072000", "anniversary_or_expiry": "2027-04-02", "area_ha": 25, "tenure_type": "Mineral", "source": "BC MTA Mineral, Placer and Coal Tenure Spatial View (BCGW). Open Government Licence - British Columbia. Not legal title.", "as_of": "2026-09-20", "role": "focus", "color": "#e8b040"}}, {"type": "Feature", "geometry": {"type": "Polygon", "coordinates": [[[-123.5964, 51.4017], [-123.6036, 51.4017], [-123.6036, 51.3972], [-123.5964, 51.3972], [-123.5964, 51.4017]]]}, "properties": {"company_id": "taseko-mines", "jurisdiction": "British Columbia", "claim_id": 314006, "claim_name": "F 4", "holder": "TASEKO MINES LIMITED", "status": "Mineral", "recorded_date": "7191936000", "anniversary_or_expiry": "2027-04-02", "area_ha": 25, "tenure_type": "Mineral", "source": "BC MTA Mineral, Placer and Coal Tenure Spatial View (BCGW). Open Government Licence - British Columbia. Not legal title.", "as_of": "2026-09-20", "role": "focus", "color": "#e8b040"}}, {"type": "Feature", "geometry": {"type": "Polygon", "coordinates": [[[-123.5964, 51.3972], [-123.6036, 51.3972], [-123.6036, 51.3927], [-123.5964, 51.3927], [-123.5964, 51.3972]]]}, "properties": {"company_id": "taseko-mines", "jurisdiction": "British Columbia", "claim_id": 314007, "claim_name": "F 5", "holder": "TASEKO MINES LIMITED", "status": "Mineral", "recorded_date": "7191936000", "anniversary_or_expiry": "2027-04-02", "area_ha": 25, "tenure_type": "Mineral", "source": "BC MTA Mineral, Placer and Coal Tenure Spatial View (BCGW). Open Government Licence - British Columbia. Not legal title.", "as_of": "2026-09-20", "role": "focus", "color": "#e8b040"}}, {"type": "Feature", "geometry": {"type": "Polygon", "coordinates": [[[-123.5892, 51.3703], [-123.5892, 51.3747], [-123.5964, 51.3747], [-123.5964, 51.3703], [-123.5892, 51.3703]]]}, "properties": {"company_id": "taseko-mines", "jurisdiction": "British Columbia", "claim_id": 314008, "claim_name": "F 6", "holder": "TASEKO MINES LIMITED", "status": "Mineral", "recorded_date": "7191936000", "anniversary_or_expiry": "2027-04-02", "area_ha": 25, "tenure_type": "Mineral", "source": "BC MTA Mineral, Placer and Coal Tenure Spatial View (BCGW). Open Government Licence - British Columbia. Not legal title.", "as_of": "2026-09-20", "role": "focus", "color": "#e8b040"}}, {"type": "Feature", "geometry": {"type": "Polygon", "coordinates": [[[-123.5821, 51.3703], [-123.5821, 51.3747], [-123.5892, 51.3747], [-123.5892, 51.3703], [-123.5821, 51.3703]]]}, "properties": {"company_id": "taseko-mines", "jurisdiction": "British Columbia", "claim_id": 314009, "claim_name": "F 7", "holder": "TASEKO MINES LIMITED", "status": "Mineral", "recorded_date": "7191936000", "anniversary_or_expiry": "2027-04-02", "area_ha": 25, "tenure_type": "Mineral", "source": "BC MTA Mineral, Placer and Coal Tenure Spatial View (BCGW). Open Government Licence - British Columbia. Not legal title.", "as_of": "2026-09-20", "role": "focus", "color": "#e8b040"}}, {"type": "Feature", "geometry": {"type": "Polygon", "coordinates": [[[-123.5749, 51.3702], [-123.5749, 51.3747], [-123.5821, 51.3747], [-123.5821, 51.3703], [-123.5749, 51.3702]]]}, "properties": {"company_id": "taseko-mines", "jurisdiction": "British Columbia", "claim_id": 314010, "claim_name": "F 8", "holder": "TASEKO MINES LIMITED", "status": "Mineral", "recorded_date": "7191936000", "anniversary_or_expiry": "2027-04-02", "area_ha": 25, "tenure_type": "Mineral", "source": "BC MTA Mineral, Placer and Coal Tenure Spatial View (BCGW). Open Government Licence - British Columbia. Not legal title.", "as_of": "2026-09-20", "role": "focus", "color": "#e8b040"}}, {"type": "Feature", "geometry": {"type": "Polygon", "coordinates": [[[-123.5677, 51.3702], [-123.5677, 51.3747], [-123.5749, 51.3747], [-123.5749, 51.3702], [-123.5677, 51.3702]]]}, "properties": {"company_id": "taseko-mines", "jurisdiction": "British Columbia", "claim_id": 314025, "claim_name": "F 9", "holder": "TASEKO MINES LIMITED", "status": "Mineral", "recorded_date": "7191936000", "anniversary_or_expiry": "2027-04-02", "area_ha": 25, "tenure_type": "Mineral", "source": "BC MTA Mineral, Placer and Coal Tenure Spatial View (BCGW). Open Government Licence - British Columbia. Not legal title.", "as_of": "2026-09-20", "role": "focus", "color": "#e8b040"}}, {"type": "Feature", "geometry": {"type": "Polygon", "coordinates": [[[-123.539, 51.3702], [-123.539, 51.3837], [-123.5677, 51.3837], [-123.5677, 51.3702], [-123.539, 51.3702]]]}, "properties": {"company_id": "taseko-mines", "jurisdiction": "British Columbia", "claim_id": 314026, "claim_name": "FISH 10", "holder": "TASEKO MINES LIMITED", "status": "Mineral", "recorded_date": "7192800000", "anniversary_or_expiry": "2027-04-02", "area_ha": 300, "tenure_type": "Mineral", "source": "BC MTA Mineral, Placer and Coal Tenure Spatial View (BCGW). Open Government Licence - British Columbia. Not legal title.", "as_of": "2026-09-20", "role": "focus", "color": "#e8b040"}}, {"type": "Feature", "geometry": {"type": "Polygon", "coordinates": [[[-123.5677, 51.3837], [-123.5677, 51.4062], [-123.5964, 51.4062], [-123.5964, 51.3837], [-123.5677, 51.3837]]]}, "properties": {"company_id": "taseko-mines", "jurisdiction": "British Columbia", "claim_id": 314028, "claim_name": "FISH 6", "holder": "TASEKO MINES LIMITED", "status": "Mineral", "recorded_date": "7191936000", "anniversary_or_expiry": "2027-04-02", "area_ha": 500, "tenure_type": "Mineral", "source": "BC MTA Mineral, Placer and Coal Tenure Spatial View (BCGW). Open Government Licence - British Columbia. Not legal title.", "as_of": "2026-09-20", "role": "focus", "color": "#e8b040"}}, {"type": "Feature", "geometry": {"type": "Polygon", "coordinates": [[[-123.5647, 51.3837], [-123.5389, 51.3837], [-123.5389, 51.4062], [-123.5677, 51.4062], [-123.5677, 51.3837], [-123.5647, 51.3837]]]}, "properties": {"company_id": "taseko-mines", "jurisdiction": "British Columbia", "claim_id": 314029, "claim_name": "FISH 7", "holder": "TASEKO MINES LIMITED", "status": "Mineral", "recorded_date": "7192800000", "anniversary_or_expiry": "2027-04-02", "area_ha": 500, "tenure_type": "Mineral", "source": "BC MTA Mineral, Placer and Coal Tenure Spatial View (BCGW). Open Government Licence - British Columbia. Not legal title.", "as_of": "2026-09-20", "role": "focus", "color": "#e8b040"}}, {"type": "Feature", "geometry": {"type": "Polygon", "coordinates": [[[-123.5892, 51.3747], [-123.5677, 51.3747], [-123.5677, 51.3837], [-123.5964, 51.3837], [-123.5964, 51.3747], [-123.5892, 51.3747]]]}, "properties": {"company_id": "taseko-mines", "jurisdiction": "British Columbia", "claim_id": 314031, "claim_name": "FISH 9", "holder": "TASEKO MINES LIMITED", "status": "Mineral", "recorded_date": "7191936000", "anniversary_or_expiry": "2027-04-02", "area_ha": 200, "tenure_type": "Mineral", "source": "BC MTA Mineral, Placer and Coal Tenure Spatial View (BCGW). Open Government Licence - British Columbia. Not legal title.", "as_of": "2026-09-20", "role": "focus", "color": "#e8b040"}}, {"type": "Feature", "geometry": {"type": "Polygon", "coordinates": [[[-123.539, 51.3832], [-123.539, 51.3665], [-123.5077, 51.3665], [-123.5077, 51.3874], [-123.539, 51.3874], [-123.539, 51.3832]]]}, "properties": {"company_id": "taseko-mines", "jurisdiction": "British Columbia", "claim_id": 516779, "claim_name": null, "holder": "TASEKO MINES LIMITED", "status": "Mineral", "recorded_date": "2005-07-11", "anniversary_or_expiry": "2027-04-02", "area_ha": 504.387, "tenure_type": "Mineral", "source": "BC MTA Mineral, Placer and Coal Tenure Spatial View (BCGW). Open Government Licence - British Columbia. Not legal title.", "as_of": "2026-09-20", "role": "focus", "color": "#e8b040"}}, {"type": "Feature", "geometry": {"type": "Polygon", "coordinates": [[[-123.539, 51.404], [-123.539, 51.3874], [-123.5077, 51.3874], [-123.5077, 51.4082], [-123.539, 51.4082], [-123.539, 51.404]]]}, "properties": {"company_id": "taseko-mines", "jurisdiction": "British Columbia", "claim_id": 516785, "claim_name": null, "holder": "TASEKO MINES LIMITED", "status": "Mineral", "recorded_date": "2005-07-11", "anniversary_or_expiry": "2027-04-02", "area_ha": 504.156, "tenure_type": "Mineral", "source": "BC MTA Mineral, Placer and Coal Tenure Spatial View (BCGW). Open Government Licence - British Columbia. Not legal title.", "as_of": "2026-09-20", "role": "focus", "color": "#e8b040"}}, {"type": "Feature", "geometry": {"type": "Polygon", "coordinates": [[[-123.6577, 51.4874], [-123.664, 51.4874], [-123.664, 51.4832], [-123.6577, 51.4832], [-123.6577, 51.479], [-123.6515, 51.479], [-123.6515, 51.4832], [-123.6452, 51.4832], [-123.6452, 51.4874], [-123.6577, 51.4874]]]}, "properties": {"company_id": "taseko-mines", "jurisdiction": "British Columbia", "claim_id": 516915, "claim_name": null, "holder": "TASEKO MINES LIMITED", "status": "Mineral", "recorded_date": "2005-07-11", "anniversary_or_expiry": "2025-12-31", "area_ha": 80.51700000000001, "tenure_type": "Mineral", "source": "BC MTA Mineral, Placer and Coal Tenure Spatial View (BCGW). Open Government Licence - British Columbia. Not legal title.", "as_of": "2026-09-20", "role": "focus", "color": "#e8b040"}}, {"type": "Feature", "geometry": {"type": "Polygon", "coordinates": [[[-123.664, 51.4832], [-123.6702, 51.4832], [-123.6702, 51.479], [-123.664, 51.479], [-123.664, 51.4749], [-123.6577, 51.4749], [-123.6577, 51.4832], [-123.664, 51.4832]]]}, "properties": {"company_id": "taseko-mines", "jurisdiction": "British Columbia", "claim_id": 516984, "claim_name": null, "holder": "TASEKO MINES LIMITED", "status": "Mineral", "recorded_date": "2005-07-11", "anniversary_or_expiry": "2025-12-31", "area_ha": 60.392, "tenure_type": "Mineral", "source": "BC MTA Mineral, Placer and Coal Tenure Spatial View (BCGW). Open Government Licence - British Columbia. Not legal title.", "as_of": "2026-09-20", "role": "focus", "color": "#e8b040"}}, {"type": "Feature", "geometry": {"type": "Polygon", "coordinates": [[[-123.6515, 51.4915], [-123.6515, 51.4874], [-123.6452, 51.4874], [-123.6452, 51.479], [-123.6265, 51.479], [-123.6265, 51.4915], [-123.6327, 51.4915], [-123.6327, 51.4957], [-123.6515, 51.4957], [-123.6515, 51.4915]]]}, "properties": {"company_id": "taseko-mines", "jurisdiction": "British Columbia", "claim_id": 516990, "claim_name": null, "holder": "TASEKO MINES LIMITED", "status": "Mineral", "recorded_date": "2005-07-11", "anniversary_or_expiry": "2025-12-31", "area_ha": 261.663, "tenure_type": "Mineral", "source": "BC MTA Mineral, Placer and Coal Tenure Spatial View (BCGW). Open Government Licence - British Columbia. Not legal title.", "as_of": "2026-09-20", "role": "focus", "color": "#e8b040"}}, {"type": "Feature", "geometry": {"type": "Polygon", "coordinates": [[[-123.6202, 51.404], [-123.6202, 51.3999], [-123.6077, 51.3999], [-123.6077, 51.4082], [-123.6202, 51.4082], [-123.6202, 51.404]]]}, "properties": {"company_id": "taseko-mines", "jurisdiction": "British Columbia", "claim_id": 517288, "claim_name": null, "holder": "TASEKO MINES LIMITED", "status": "Mineral", "recorded_date": "2005-07-12", "anniversary_or_expiry": "2027-04-02", "area_ha": 80.653, "tenure_type": "Mineral", "source": "BC MTA Mineral, Placer and Coal Tenure Spatial View (BCGW). Open Government Licence - British Columbia. Not legal title.", "as_of": "2026-09-20", "role": "focus", "color": "#e8b040"}}, {"type": "Feature", "geometry": {"type": "Polygon", "coordinates": [[[-123.6827, 51.4874], [-123.6827, 51.479], [-123.6765, 51.479], [-123.6765, 51.4749], [-123.6702, 51.4749], [-123.6702, 51.4832], [-123.664, 51.4832], [-123.664, 51.4874], [-123.6702, 51.4874], [-123.6702, 51.4915], [-123.6827, 51.4915], [-123.6827, 51.4874]]]}, "properties": {"company_id": "taseko-mines", "jurisdiction": "British Columbia", "claim_id": 517338, "claim_name": null, "holder": "TASEKO MINES LIMITED", "status": "Mineral", "recorded_date": "2005-07-12", "anniversary_or_expiry": "2025-12-31", "area_ha": 161.026, "tenure_type": "Mineral", "source": "BC MTA Mineral, Placer and Coal Tenure Spatial View (BCGW). Open Government Licence - British Columbia. Not legal title.", "as_of": "2026-09-20", "role": "focus", "color": "#e8b040"}}, {"type": "Feature", "geometry": {"type": "Polygon", "coordinates": [[[-123.664, 51.4749], [-123.664, 51.479], [-123.6702, 51.479], [-123.6702, 51.4749], [-123.664, 51.4749]]]}, "properties": {"company_id": "taseko-mines", "jurisdiction": "British Columbia", "claim_id": 517347, "claim_name": null, "holder": "TASEKO MINES LIMITED", "status": "Mineral", "recorded_date": "2005-07-12", "anniversary_or_expiry": "2025-12-31", "area_ha": 20.131, "tenure_type": "Mineral", "source": "BC MTA Mineral, Placer and Coal Tenure Spatial View (BCGW). Open Government Licence - British Columbia. Not legal title.", "as_of": "2026-09-20", "role": "focus", "color": "#e8b040"}}, {"type": "Feature", "geometry": {"type": "Polygon", "coordinates": [[[-123.6265, 51.4874], [-123.6265, 51.479], [-123.6077, 51.479], [-123.6077, 51.4915], [-123.6265, 51.4915], [-123.6265, 51.4874]]]}, "properties": {"company_id": "taseko-mines", "jurisdiction": "British Columbia", "claim_id": 517352, "claim_name": null, "holder": "TASEKO MINES LIMITED", "status": "Mineral", "recorded_date": "2005-07-12", "anniversary_or_expiry": "2025-12-31", "area_ha": 181.162, "tenure_type": "Mineral", "source": "BC MTA Mineral, Placer and Coal Tenure Spatial View (BCGW). Open Government Licence - British Columbia. Not legal title.", "as_of": "2026-09-20", "role": "focus", "color": "#e8b040"}}, {"type": "Feature", "geometry": {"type": "Polygon", "coordinates": [[[-123.5452, 51.4249], [-123.5452, 51.404], [-123.539, 51.404], [-123.539, 51.4082], [-123.5077, 51.4082], [-123.5077, 51.429], [-123.5452, 51.429], [-123.5452, 51.4249]]]}, "properties": {"company_id": "taseko-mines", "jurisdiction": "British Columbia", "claim_id": 516849, "claim_name": null, "holder": "TASEKO MINES LIMITED", "status": "Mineral", "recorded_date": "2005-07-11", "anniversary_or_expiry": "2027-04-02", "area_ha": 624.8820000000001, "tenure_type": "Mineral", "source": "BC MTA Mineral, Placer and Coal Tenure Spatial View (BCGW). Open Government Licence - British Columbia. Not legal title.", "as_of": "2026-09-20", "role": "focus", "color": "#e8b040"}}, {"type": "Feature", "geometry": {"type": "Polygon", "coordinates": [[[-123.6452, 51.479], [-123.6452, 51.4832], [-123.6515, 51.4832], [-123.6515, 51.479], [-123.6452, 51.479]]]}, "properties": {"company_id": "taseko-mines", "jurisdiction": "British Columbia", "claim_id": 537996, "claim_name": null, "holder": "TASEKO MINES LIMITED", "status": "Mineral", "recorded_date": "2006-07-27", "anniversary_or_expiry": "2025-12-31", "area_ha": 20.131, "tenure_type": "Mineral", "source": "BC MTA Mineral, Placer and Coal Tenure Spatial View (BCGW). Open Government Licence - British Columbia. Not legal title.", "as_of": "2026-09-20", "role": "focus", "color": "#e8b040"}}, {"type": "Feature", "geometry": {"type": "Polygon", "coordinates": [[[-123.6515, 51.4749], [-123.6515, 51.479], [-123.6577, 51.479], [-123.6577, 51.4749], [-123.6515, 51.4749]]]}, "properties": {"company_id": "taseko-mines", "jurisdiction": "British Columbia", "claim_id": 537997, "claim_name": null, "holder": "TASEKO MINES LIMITED", "status": "Mineral", "recorded_date": "2006-07-27", "anniversary_or_expiry": "2025-12-31", "area_ha": 20.132, "tenure_type": "Mineral", "source": "BC MTA Mineral, Placer and Coal Tenure Spatial View (BCGW). Open Government Licence - British Columbia. Not legal title.", "as_of": "2026-09-20", "role": "focus", "color": "#e8b040"}}]}