{"type": "FeatureCollection", "features": [{"type": "Feature", "geometry": {"type": "Polygon", "coordinates": [[[-75.98333333335633, 49.57500000582357], [-75.98333333300207, 49.58333334011997], [-75.97500000396377, 49.583333332641374], [-75.9749999989647, 49.575000001665494], [-75.98333333335633, 49.57500000582357]]]}, "properties": {"company_id": "teck-resources", "jurisdiction": "Quebec", "claim_id": "", "claim_name": null, "holder": "Ressources Teck Limitée", "status": "Active", "recorded_date": null, "anniversary_or_expiry": null, "area_ha": null, "tenure_type": null, "source": "GESTIM active titles (MRNF digital data dump). Not legal title.", "as_of": "2026-09-20", "role": "focus", "color": "#e8b040"}}, {"type": "Feature", "geometry": {"type": "Polygon", "coordinates": [[[-75.9749999989647, 49.575000001665494], [-75.97500000396377, 49.583333332641374], [-75.96666666458754, 49.5833333367841], [-75.96666666788202, 49.57499999999117], [-75.9749999989647, 49.575000001665494]]]}, "properties": {"company_id": "teck-resources", "jurisdiction": "Quebec", "claim_id": "", "claim_name": null, "holder": "Ressources Teck Limitée", "status": "Active", "recorded_date": null, "anniversary_or_expiry": null, "area_ha": null, "tenure_type": null, "source": "GESTIM active titles (MRNF digital data dump). Not legal title.", "as_of": "2026-09-20", "role": "focus", "color": "#e8b040"}}, {"type": "Feature", "geometry": {"type": "Polygon", "coordinates": [[[-75.96666666788202, 49.57499999999117], [-75.96666666458754, 49.5833333367841], [-75.9583333283194, 49.58333333444705], [-75.95833334007921, 49.575000000803804], [-75.96666666788202, 49.57499999999117]]]}, "properties": {"company_id": "teck-resources", "jurisdiction": "Quebec", "claim_id": "", "claim_name": null, "holder": "Ressources Teck Limitée", "status": "Active", "recorded_date": null, "anniversary_or_expiry": null, "area_ha": null, "tenure_type": null, "source": "GESTIM active titles (MRNF digital data dump). Not legal title.", "as_of": "2026-09-20", "role": "focus", "color": "#e8b040"}}, {"type": "Feature", "geometry": {"type": "Polygon", "coordinates": [[[-78.00000000173648, 49.60833333686027], [-78.00000000217325, 49.61666667191782], [-77.99166667023063, 49.616666671105854], [-77.99166666780954, 49.60833333728195], [-78.00000000173648, 49.60833333686027]]]}, "properties": {"company_id": "teck-resources", "jurisdiction": "Quebec", "claim_id": "", "claim_name": null, "holder": "Ressources Teck Limitée", "status": "Active", "recorded_date": null, "anniversary_or_expiry": null, "area_ha": null, "tenure_type": null, "source": "GESTIM active titles (MRNF digital data dump). Not legal title.", "as_of": "2026-09-20", "role": "focus", "color": "#e8b040"}}, {"type": "Feature", "geometry": {"type": "Polygon", "coordinates": [[[-78.00000000217325, 49.61666667191782], [-78.00000001110404, 49.62500000698161], [-77.99166666714184, 49.62500000528056], [-77.99166667023063, 49.616666671105854], [-78.00000000217325, 49.61666667191782]]]}, "properties": {"company_id": "teck-resources", "jurisdiction": "Quebec", "claim_id": "", "claim_name": null, "holder": "Ressources Teck Limitée", "status": "Active", "recorded_date": null, "anniversary_or_expiry": null, "area_ha": null, "tenure_type": null, "source": "GESTIM active titles (MRNF digital data dump). Not legal title.", "as_of": "2026-09-20", "role": "focus", "color": "#e8b040"}}, {"type": "Feature", "geometry": {"type": "Polygon", "coordinates": [[[-77.99166667023063, 49.616666671105854], [-77.99166666714184, 49.62500000528056], [-77.98333333345305, 49.62500000487668], [-77.98333333471629, 49.616666671921], [-77.99166667023063, 49.616666671105854]]]}, "properties": {"company_id": "teck-resources", "jurisdiction": "Quebec", "claim_id": "", "claim_name": null, "holder": "Ressources Teck Limitée", "status": "Active", "recorded_date": null, "anniversary_or_expiry": null, "area_ha": null, "tenure_type": null, "source": "GESTIM active titles (MRNF digital data dump). Not legal title.", "as_of": "2026-09-20", "role": "focus", "color": "#e8b040"}}, {"type": "Feature", "geometry": {"type": "Polygon", "coordinates": [[[-78.05833333741131, 49.608333341686546], [-78.05833333597982, 49.616666678048084], [-78.04999999534769, 49.6166666783271], [-78.04999999468693, 49.60833334090283], [-78.05833333741131, 49.608333341686546]]]}, "properties": {"company_id": "teck-resources", "jurisdiction": "Quebec", "claim_id": "", "claim_name": null, "holder": "Ressources Teck Limitée", "status": "Active", "recorded_date": null, "anniversary_or_expiry": null, "area_ha": null, "tenure_type": null, "source": "GESTIM active titles (MRNF digital data dump). Not legal title.", "as_of": "2026-09-20", "role": "focus", "color": "#e8b040"}}, {"type": "Feature", "geometry": {"type": "Polygon", "coordinates": [[[-78.04999999468693, 49.60833334090283], [-78.04999999534769, 49.6166666783271], [-78.04166667225728, 49.616666680623084], [-78.04166666951967, 49.608333342107414], [-78.04999999468693, 49.60833334090283]]]}, "properties": {"company_id": "teck-resources", "jurisdiction": "Quebec", "claim_id": "", "claim_name": null, "holder": "Ressources Teck Limitée", "status": "Active", "recorded_date": null, "anniversary_or_expiry": null, "area_ha": null, "tenure_type": null, "source": "GESTIM active titles (MRNF digital data dump). Not legal title.", "as_of": "2026-09-20", "role": "focus", "color": "#e8b040"}}, {"type": "Feature", "geometry": {"type": "Polygon", "coordinates": [[[-78.03333333423454, 49.60833334458717], [-78.03333333957458, 49.6166666752403], [-78.02499999618067, 49.61666668013424], [-78.02500000317235, 49.60833333970539], [-78.03333333423454, 49.60833334458717]]]}, "properties": {"company_id": "teck-resources", "jurisdiction": "Quebec", "claim_id": "", "claim_name": null, "holder": "Ressources Teck Limitée", "status": "Active", "recorded_date": null, "anniversary_or_expiry": null, "area_ha": null, "tenure_type": null, "source": "GESTIM active titles (MRNF digital data dump). Not legal title.", "as_of": "2026-09-20", "role": "focus", "color": "#e8b040"}}, {"type": "Feature", "geometry": {"type": "Polygon", "coordinates": [[[-78.02500000317235, 49.60833333970539], [-78.02499999618067, 49.61666668013424], [-78.01666667078929, 49.616666678043124], [-78.01666666138863, 49.60833334506388], [-78.02500000317235, 49.60833333970539]]]}, "properties": {"company_id": "teck-resources", "jurisdiction": "Quebec", "claim_id": "", "claim_name": null, "holder": "Ressources Teck Limitée", "status": "Active", "recorded_date": null, "anniversary_or_expiry": null, "area_ha": null, "tenure_type": null, "source": "GESTIM active titles (MRNF digital data dump). Not legal title.", "as_of": "2026-09-20", "role": "focus", "color": "#e8b040"}}, {"type": "Feature", "geometry": {"type": "Polygon", "coordinates": [[[-78.01666666138863, 49.60833334506388], [-78.01666667078929, 49.616666678043124], [-78.00833333517556, 49.61666667723045], [-78.00833333759506, 49.60833334340273], [-78.01666666138863, 49.60833334506388]]]}, "properties": {"company_id": "teck-resources", "jurisdiction": "Quebec", "claim_id": "", "claim_name": null, "holder": "Ressources Teck Limitée", "status": "Active", "recorded_date": null, "anniversary_or_expiry": null, "area_ha": null, "tenure_type": null, "source": "GESTIM active titles (MRNF digital data dump). Not legal title.", "as_of": "2026-09-20", "role": "focus", "color": "#e8b040"}}, {"type": "Feature", "geometry": {"type": "Polygon", "coordinates": [[[-78.00833333759506, 49.60833334340273], [-78.00833333517556, 49.61666667723045], [-78.00000000313518, 49.61666667804484], [-78.00000000357039, 49.608333342983485], [-78.00833333759506, 49.60833334340273]]]}, "properties": {"company_id": "teck-resources", "jurisdiction": "Quebec", "claim_id": "", "claim_name": null, "holder": "Ressources Teck Limitée", "status": "Active", "recorded_date": null, "anniversary_or_expiry": null, "area_ha": null, "tenure_type": null, "source": "GESTIM active titles (MRNF digital data dump). Not legal title.", "as_of": "2026-09-20", "role": "focus", "color": "#e8b040"}}, {"type": "Feature", "geometry": {"type": "Polygon", "coordinates": [[[-78.10833333715554, 49.61666667263791], [-78.10833332988521, 49.62500001239164], [-78.09999999548708, 49.62500001312156], [-78.1000000007339, 49.61666667246324], [-78.10833333715554, 49.61666667263791]]]}, "properties": {"company_id": "teck-resources", "jurisdiction": "Quebec", "claim_id": "", "claim_name": null, "holder": "Ressources Teck Limitée", "status": "Active", "recorded_date": null, "anniversary_or_expiry": null, "area_ha": null, "tenure_type": null, "source": "GESTIM active titles (MRNF digital data dump). Not legal title.", "as_of": "2026-09-20", "role": "focus", "color": "#e8b040"}}, {"type": "Feature", "geometry": {"type": "Polygon", "coordinates": [[[-78.1000000007339, 49.61666667246324], [-78.09999999548708, 49.62500001312156], [-78.09166666549575, 49.625000006604594], [-78.0916666682012, 49.61666667399602], [-78.1000000007339, 49.61666667246324]]]}, "properties": {"company_id": "teck-resources", "jurisdiction": "Quebec", "claim_id": "", "claim_name": null, "holder": "Ressources Teck Limitée", "status": "Active", "recorded_date": null, "anniversary_or_expiry": null, "area_ha": null, "tenure_type": null, "source": "GESTIM active titles (MRNF digital data dump). Not legal title.", "as_of": "2026-09-20", "role": "focus", "color": "#e8b040"}}, {"type": "Feature", "geometry": {"type": "Polygon", "coordinates": [[[-78.08333333952818, 49.61666667722967], [-78.08333333881298, 49.62500001080019], [-78.07500000265337, 49.62500000738609], [-78.07500000139795, 49.61666667282488], [-78.08333333952818, 49.61666667722967]]]}, "properties": {"company_id": "teck-resources", "jurisdiction": "Quebec", "claim_id": "", "claim_name": null, "holder": "Ressources Teck Limitée", "status": "Active", "recorded_date": null, "anniversary_or_expiry": null, "area_ha": null, "tenure_type": null, "source": "GESTIM active titles (MRNF digital data dump). Not legal title.", "as_of": "2026-09-20", "role": "focus", "color": "#e8b040"}}, {"type": "Feature", "geometry": {"type": "Polygon", "coordinates": [[[-78.07500000139795, 49.61666667282488], [-78.07500000265337, 49.62500000738609], [-78.06666667028045, 49.6250000056862], [-78.06666666653234, 49.61666667908853], [-78.07500000139795, 49.61666667282488]]]}, "properties": {"company_id": "teck-resources", "jurisdiction": "Quebec", "claim_id": "", "claim_name": null, "holder": "Ressources Teck Limitée", "status": "Active", "recorded_date": null, "anniversary_or_expiry": null, "area_ha": null, "tenure_type": null, "source": "GESTIM active titles (MRNF digital data dump). Not legal title.", "as_of": "2026-09-20", "role": "focus", "color": "#e8b040"}}, {"type": "Feature", "geometry": {"type": "Polygon", "coordinates": [[[-78.06666666653234, 49.61666667908853], [-78.06666667028045, 49.6250000056862], [-78.0583333416649, 49.62500000569385], [-78.05833333597982, 49.616666678048084], [-78.06666666653234, 49.61666667908853]]]}, "properties": {"company_id": "teck-resources", "jurisdiction": "Quebec", "claim_id": "", "claim_name": null, "holder": "Ressources Teck Limitée", "status": "Active", "recorded_date": null, "anniversary_or_expiry": null, "area_ha": null, "tenure_type": null, "source": "GESTIM active titles (MRNF digital data dump). Not legal title.", "as_of": "2026-09-20", "role": "focus", "color": "#e8b040"}}, {"type": "Feature", "geometry": {"type": "Polygon", "coordinates": [[[-78.05833333597982, 49.616666678048084], [-78.0583333416649, 49.62500000569385], [-78.0500000029497, 49.625000007049586], [-78.04999999534769, 49.6166666783271], [-78.05833333597982, 49.616666678048084]]]}, "properties": {"company_id": "teck-resources", "jurisdiction": "Quebec", "claim_id": "", "claim_name": null, "holder": "Ressources Teck Limitée", "status": "Active", "recorded_date": null, "anniversary_or_expiry": null, "area_ha": null, "tenure_type": null, "source": "GESTIM active titles (MRNF digital data dump). Not legal title.", "as_of": "2026-09-20", "role": "focus", "color": "#e8b040"}}, {"type": "Feature", "geometry": {"type": "Polygon", "coordinates": [[[-78.04999999534769, 49.6166666783271], [-78.0500000029497, 49.625000007049586], [-78.04166666793334, 49.625000010097324], [-78.04166667225728, 49.616666680623084], [-78.04999999534769, 49.6166666783271]]]}, "properties": {"company_id": "teck-resources", "jurisdiction": "Quebec", "claim_id": "", "claim_name": null, "holder": "Ressources Teck Limitée", "status": "Active", "recorded_date": null, "anniversary_or_expiry": null, "area_ha": null, "tenure_type": null, "source": "GESTIM active titles (MRNF digital data dump). Not legal title.", "as_of": "2026-09-20", "role": "focus", "color": "#e8b040"}}, {"type": "Feature", "geometry": {"type": "Polygon", "coordinates": [[[-78.03333333957458, 49.6166666752403], [-78.03333333713232, 49.62500000584764], [-78.02499999559964, 49.62500001190329], [-78.02499999618067, 49.61666668013424], [-78.03333333957458, 49.6166666752403]]]}, "properties": {"company_id": "teck-resources", "jurisdiction": "Quebec", "claim_id": "", "claim_name": null, "holder": "Ressources Teck Limitée", "status": "Active", "recorded_date": null, "anniversary_or_expiry": null, "area_ha": null, "tenure_type": null, "source": "GESTIM active titles (MRNF digital data dump). Not legal title.", "as_of": "2026-09-20", "role": "focus", "color": "#e8b040"}}, {"type": "Feature", "geometry": {"type": "Polygon", "coordinates": [[[-78.02499999618067, 49.61666668013424], [-78.02499999559964, 49.62500001190329], [-78.01666667205413, 49.62500001100263], [-78.01666667078929, 49.616666678043124], [-78.02499999618067, 49.61666668013424]]]}, "properties": {"company_id": "teck-resources", "jurisdiction": "Quebec", "claim_id": "", "claim_name": null, "holder": "Ressources Teck Limitée", "status": "Active", "recorded_date": null, "anniversary_or_expiry": null, "area_ha": null, "tenure_type": null, "source": "GESTIM active titles (MRNF digital data dump). Not legal title.", "as_of": "2026-09-20", "role": "focus", "color": "#e8b040"}}, {"type": "Feature", "geometry": {"type": "Polygon", "coordinates": [[[-78.01666667078929, 49.616666678043124], [-78.01666667205413, 49.62500001100263], [-78.00833333826593, 49.62500001140898], [-78.00833333517556, 49.61666667723045], [-78.01666667078929, 49.616666678043124]]]}, "properties": {"company_id": "teck-resources", "jurisdiction": "Quebec", "claim_id": "", "claim_name": null, "holder": "Ressources Teck Limitée", "status": "Active", "recorded_date": null, "anniversary_or_expiry": null, "area_ha": null, "tenure_type": null, "source": "GESTIM active titles (MRNF digital data dump). Not legal title.", "as_of": "2026-09-20", "role": "focus", "color": "#e8b040"}}, {"type": "Feature", "geometry": {"type": "Polygon", "coordinates": [[[-78.00833333517556, 49.61666667723045], [-78.00833333826593, 49.62500001140898], [-77.99999999420595, 49.62500001311247], [-78.00000000313518, 49.61666667804484], [-78.00833333517556, 49.61666667723045]]]}, "properties": {"company_id": "teck-resources", "jurisdiction": "Quebec", "claim_id": "", "claim_name": null, "holder": "Ressources Teck Limitée", "status": "Active", "recorded_date": null, "anniversary_or_expiry": null, "area_ha": null, "tenure_type": null, "source": "GESTIM active titles (MRNF digital data dump). Not legal title.", "as_of": "2026-09-20", "role": "focus", "color": "#e8b040"}}, {"type": "Feature", "geometry": {"type": "Polygon", "coordinates": [[[-78.15000000723634, 49.62500000670163], [-78.14999999811562, 49.63333334247889], [-78.14166667299222, 49.63333334486723], [-78.14166666634716, 49.625000007973405], [-78.15000000723634, 49.62500000670163]]]}, "properties": {"company_id": "teck-resources", "jurisdiction": "Quebec", "claim_id": "", "claim_name": null, "holder": "Ressources Teck Limitée", "status": "Active", "recorded_date": null, "anniversary_or_expiry": null, "area_ha": null, "tenure_type": null, "source": "GESTIM active titles (MRNF digital data dump). Not legal title.", "as_of": "2026-09-20", "role": "focus", "color": "#e8b040"}}, {"type": "Feature", "geometry": {"type": "Polygon", "coordinates": [[[-78.14166666634716, 49.625000007973405], [-78.14166667299222, 49.63333334486723], [-78.13333333856355, 49.633333339731], [-78.13333332947329, 49.625000011016006], [-78.14166666634716, 49.625000007973405]]]}, "properties": {"company_id": "teck-resources", "jurisdiction": "Quebec", "claim_id": "", "claim_name": null, "holder": "Ressources Teck Limitée", "status": "Active", "recorded_date": null, "anniversary_or_expiry": null, "area_ha": null, "tenure_type": null, "source": "GESTIM active titles (MRNF digital data dump). Not legal title.", "as_of": "2026-09-20", "role": "focus", "color": "#e8b040"}}, {"type": "Feature", "geometry": {"type": "Polygon", "coordinates": [[[-78.13333332947329, 49.625000011016006], [-78.13333333856355, 49.633333339731], [-78.1250000075775, 49.63333334537127], [-78.12499999711432, 49.62500000683968], [-78.13333332947329, 49.625000011016006]]]}, "properties": {"company_id": "teck-resources", "jurisdiction": "Quebec", "claim_id": "", "claim_name": null, "holder": "Ressources Teck Limitée", "status": "Active", "recorded_date": null, "anniversary_or_expiry": null, "area_ha": null, "tenure_type": null, "source": "GESTIM active titles (MRNF digital data dump). Not legal title.", "as_of": "2026-09-20", "role": "focus", "color": "#e8b040"}}, {"type": "Feature", "geometry": {"type": "Polygon", "coordinates": [[[-78.12499999711432, 49.62500000683968], [-78.1250000075775, 49.63333334537127], [-78.1166666672307, 49.63333334347004], [-78.11666666818434, 49.625000013404474], [-78.12499999711432, 49.62500000683968]]]}, "properties": {"company_id": "teck-resources", "jurisdiction": "Quebec", "claim_id": "", "claim_name": null, "holder": "Ressources Teck Limitée", "status": "Active", "recorded_date": null, "anniversary_or_expiry": null, "area_ha": null, "tenure_type": null, "source": "GESTIM active titles (MRNF digital data dump). Not legal title.", "as_of": "2026-09-20", "role": "focus", "color": "#e8b040"}}, {"type": "Feature", "geometry": {"type": "Polygon", "coordinates": [[[-78.11666666818434, 49.625000013404474], [-78.1166666672307, 49.63333334347004], [-78.10833333079705, 49.633333343346905], [-78.10833332988521, 49.62500001239164], [-78.11666666818434, 49.625000013404474]]]}, "properties": {"company_id": "teck-resources", "jurisdiction": "Quebec", "claim_id": "", "claim_name": null, "holder": "Ressources Teck Limitée", "status": "Active", "recorded_date": null, "anniversary_or_expiry": null, "area_ha": null, "tenure_type": null, "source": "GESTIM active titles (MRNF digital data dump). Not legal title.", "as_of": "2026-09-20", "role": "focus", "color": "#e8b040"}}, {"type": "Feature", "geometry": {"type": "Polygon", "coordinates": [[[-78.10833332988521, 49.62500001239164], [-78.10833333079705, 49.633333343346905], [-78.09999999824713, 49.63333334499524], [-78.09999999548708, 49.62500001312156], [-78.10833332988521, 49.62500001239164]]]}, "properties": {"company_id": "teck-resources", "jurisdiction": "Quebec", "claim_id": "", "claim_name": null, "holder": "Ressources Teck Limitée", "status": "Active", "recorded_date": null, "anniversary_or_expiry": null, "area_ha": null, "tenure_type": null, "source": "GESTIM active titles (MRNF digital data dump). Not legal title.", "as_of": "2026-09-20", "role": "focus", "color": "#e8b040"}}, {"type": "Feature", "geometry": {"type": "Polygon", "coordinates": [[[-78.09999999548708, 49.62500001312156], [-78.09999999824713, 49.63333334499524], [-78.0916666700868, 49.6333333394254], [-78.09166666549575, 49.625000006604594], [-78.09999999548708, 49.62500001312156]]]}, "properties": {"company_id": "teck-resources", "jurisdiction": "Quebec", "claim_id": "", "claim_name": null, "holder": "Ressources Teck Limitée", "status": "Active", "recorded_date": null, "anniversary_or_expiry": null, "area_ha": null, "tenure_type": null, "source": "GESTIM active titles (MRNF digital data dump). Not legal title.", "as_of": "2026-09-20", "role": "focus", "color": "#e8b040"}}, {"type": "Feature", "geometry": {"type": "Polygon", "coordinates": [[[-78.09166666549575, 49.625000006604594], [-78.0916666700868, 49.6333333394254], [-78.08333333138705, 49.63333334424814], [-78.08333333881298, 49.62500001080019], [-78.09166666549575, 49.625000006604594]]]}, "properties": {"company_id": "teck-resources", "jurisdiction": "Quebec", "claim_id": "", "claim_name": null, "holder": "Ressources Teck Limitée", "status": "Active", "recorded_date": null, "anniversary_or_expiry": null, "area_ha": null, "tenure_type": null, "source": "GESTIM active titles (MRNF digital data dump). Not legal title.", "as_of": "2026-09-20", "role": "focus", "color": "#e8b040"}}, {"type": "Feature", "geometry": {"type": "Polygon", "coordinates": [[[-78.08333333881298, 49.62500001080019], [-78.08333333138705, 49.63333334424814], [-78.07499999702125, 49.633333341837506], [-78.07500000265337, 49.62500000738609], [-78.08333333881298, 49.62500001080019]]]}, "properties": {"company_id": "teck-resources", "jurisdiction": "Quebec", "claim_id": "", "claim_name": null, "holder": "Ressources Teck Limitée", "status": "Active", "recorded_date": null, "anniversary_or_expiry": null, "area_ha": null, "tenure_type": null, "source": "GESTIM active titles (MRNF digital data dump). Not legal title.", "as_of": "2026-09-20", "role": "focus", "color": "#e8b040"}}, {"type": "Feature", "geometry": {"type": "Polygon", "coordinates": [[[-78.07500000265337, 49.62500000738609], [-78.07499999702125, 49.633333341837506], [-78.06666666642464, 49.63333334116986], [-78.06666667028045, 49.6250000056862], [-78.07500000265337, 49.62500000738609]]]}, "properties": {"company_id": "teck-resources", "jurisdiction": "Quebec", "claim_id": "", "claim_name": null, "holder": "Ressources Teck Limitée", "status": "Active", "recorded_date": null, "anniversary_or_expiry": null, "area_ha": null, "tenure_type": null, "source": "GESTIM active titles (MRNF digital data dump). Not legal title.", "as_of": "2026-09-20", "role": "focus", "color": "#e8b040"}}, {"type": "Feature", "geometry": {"type": "Polygon", "coordinates": [[[-78.06666667028045, 49.6250000056862], [-78.06666666642464, 49.63333334116986], [-78.05833333956778, 49.633333342238416], [-78.0583333416649, 49.62500000569385], [-78.06666667028045, 49.6250000056862]]]}, "properties": {"company_id": "teck-resources", "jurisdiction": "Quebec", "claim_id": "", "claim_name": null, "holder": "Ressources Teck Limitée", "status": "Active", "recorded_date": null, "anniversary_or_expiry": null, "area_ha": null, "tenure_type": null, "source": "GESTIM active titles (MRNF digital data dump). Not legal title.", "as_of": "2026-09-20", "role": "focus", "color": "#e8b040"}}, {"type": "Feature", "geometry": {"type": "Polygon", "coordinates": [[[-78.0583333416649, 49.62500000569385], [-78.05833333956778, 49.633333342238416], [-78.05000000259126, 49.63333334468372], [-78.0500000029497, 49.625000007049586], [-78.0583333416649, 49.62500000569385]]]}, "properties": {"company_id": "teck-resources", "jurisdiction": "Quebec", "claim_id": "", "claim_name": null, "holder": "Ressources Teck Limitée", "status": "Active", "recorded_date": null, "anniversary_or_expiry": null, "area_ha": null, "tenure_type": null, "source": "GESTIM active titles (MRNF digital data dump). Not legal title.", "as_of": "2026-09-20", "role": "focus", "color": "#e8b040"}}, {"type": "Feature", "geometry": {"type": "Polygon", "coordinates": [[[-78.14999999811562, 49.63333334247889], [-78.14999999754342, 49.6416666783731], [-78.14166667470647, 49.64166667256655], [-78.14166667299222, 49.63333334486723], [-78.14999999811562, 49.63333334247889]]]}, "properties": {"company_id": "teck-resources", "jurisdiction": "Quebec", "claim_id": "", "claim_name": null, "holder": "Ressources Teck Limitée", "status": "Active", "recorded_date": null, "anniversary_or_expiry": null, "area_ha": null, "tenure_type": null, "source": "GESTIM active titles (MRNF digital data dump). Not legal title.", "as_of": "2026-09-20", "role": "focus", "color": "#e8b040"}}, {"type": "Feature", "geometry": {"type": "Polygon", "coordinates": [[[-78.14166667299222, 49.63333334486723], [-78.14166667470647, 49.64166667256655], [-78.13333334149236, 49.641666677230944], [-78.13333333856355, 49.633333339731], [-78.14166667299222, 49.63333334486723]]]}, "properties": {"company_id": "teck-resources", "jurisdiction": "Quebec", "claim_id": "", "claim_name": null, "holder": "Ressources Teck Limitée", "status": "Active", "recorded_date": null, "anniversary_or_expiry": null, "area_ha": null, "tenure_type": null, "source": "GESTIM active titles (MRNF digital data dump). Not legal title.", "as_of": "2026-09-20", "role": "focus", "color": "#e8b040"}}, {"type": "Feature", "geometry": {"type": "Polygon", "coordinates": [[[-78.1166666672307, 49.63333334347004], [-78.11666667411839, 49.64166667370736], [-78.10833333937333, 49.64166667448766], [-78.10833333079705, 49.633333343346905], [-78.1166666672307, 49.63333334347004]]]}, "properties": {"company_id": "teck-resources", "jurisdiction": "Quebec", "claim_id": "", "claim_name": null, "holder": "Ressources Teck Limitée", "status": "Active", "recorded_date": null, "anniversary_or_expiry": null, "area_ha": null, "tenure_type": null, "source": "GESTIM active titles (MRNF digital data dump). Not legal title.", "as_of": "2026-09-20", "role": "focus", "color": "#e8b040"}}, {"type": "Feature", "geometry": {"type": "Polygon", "coordinates": [[[-78.10833333079705, 49.633333343346905], [-78.10833333937333, 49.64166667448766], [-78.1000000084947, 49.64166667706818], [-78.09999999824713, 49.63333334499524], [-78.10833333079705, 49.633333343346905]]]}, "properties": {"company_id": "teck-resources", "jurisdiction": "Quebec", "claim_id": "", "claim_name": null, "holder": "Ressources Teck Limitée", "status": "Active", "recorded_date": null, "anniversary_or_expiry": null, "area_ha": null, "tenure_type": null, "source": "GESTIM active titles (MRNF digital data dump). Not legal title.", "as_of": "2026-09-20", "role": "focus", "color": "#e8b040"}}, {"type": "Feature", "geometry": {"type": "Polygon", "coordinates": [[[-78.04166666951967, 49.608333342107414], [-78.04166667225728, 49.616666680623084], [-78.03333333957458, 49.6166666752403], [-78.03333333423454, 49.60833334458717], [-78.04166666951967, 49.608333342107414]]]}, "properties": {"company_id": "teck-resources", "jurisdiction": "Quebec", "claim_id": "", "claim_name": null, "holder": "Ressources Teck Limitée", "status": "Active", "recorded_date": null, "anniversary_or_expiry": null, "area_ha": null, "tenure_type": null, "source": "GESTIM active titles (MRNF digital data dump). Not legal title.", "as_of": "2026-09-20", "role": "focus", "color": "#e8b040"}}, {"type": "Feature", "geometry": {"type": "Polygon", "coordinates": [[[-78.0916666682012, 49.61666667399602], [-78.09166666549575, 49.625000006604594], [-78.08333333881298, 49.62500001080019], [-78.08333333952818, 49.61666667722967], [-78.0916666682012, 49.61666667399602]]]}, "properties": {"company_id": "teck-resources", "jurisdiction": "Quebec", "claim_id": "", "claim_name": null, "holder": "Ressources Teck Limitée", "status": "Active", "recorded_date": null, "anniversary_or_expiry": null, "area_ha": null, "tenure_type": null, "source": "GESTIM active titles (MRNF digital data dump). Not legal title.", "as_of": "2026-09-20", "role": "focus", "color": "#e8b040"}}, {"type": "Feature", "geometry": {"type": "Polygon", "coordinates": [[[-78.04166667225728, 49.616666680623084], [-78.04166666793334, 49.625000010097324], [-78.03333333713232, 49.62500000584764], [-78.03333333957458, 49.6166666752403], [-78.04166667225728, 49.616666680623084]]]}, "properties": {"company_id": "teck-resources", "jurisdiction": "Quebec", "claim_id": "", "claim_name": null, "holder": "Ressources Teck Limitée", "status": "Active", "recorded_date": null, "anniversary_or_expiry": null, "area_ha": null, "tenure_type": null, "source": "GESTIM active titles (MRNF digital data dump). Not legal title.", "as_of": "2026-09-20", "role": "focus", "color": "#e8b040"}}, {"type": "Feature", "geometry": {"type": "Polygon", "coordinates": [[[-78.13333333856355, 49.633333339731], [-78.13333334149236, 49.641666677230944], [-78.12499999892607, 49.64166667439008], [-78.1250000075775, 49.63333334537127], [-78.13333333856355, 49.633333339731]]]}, "properties": {"company_id": "teck-resources", "jurisdiction": "Quebec", "claim_id": "", "claim_name": null, "holder": "Ressources Teck Limitée", "status": "Active", "recorded_date": null, "anniversary_or_expiry": null, "area_ha": null, "tenure_type": null, "source": "GESTIM active titles (MRNF digital data dump). Not legal title.", "as_of": "2026-09-20", "role": "focus", "color": "#e8b040"}}, {"type": "Feature", "geometry": {"type": "Polygon", "coordinates": [[[-77.99166666780954, 49.60833333728195], [-77.99166667023063, 49.616666671105854], [-77.98333333471629, 49.616666671921], [-77.98333334411532, 49.608333338945606], [-77.99166666780954, 49.60833333728195]]]}, "properties": {"company_id": "teck-resources", "jurisdiction": "Quebec", "claim_id": "", "claim_name": null, "holder": "Ressources Teck Limitée", "status": "Active", "recorded_date": null, "anniversary_or_expiry": null, "area_ha": null, "tenure_type": null, "source": "GESTIM active titles (MRNF digital data dump). Not legal title.", "as_of": "2026-09-20", "role": "focus", "color": "#e8b040"}}, {"type": "Feature", "geometry": {"type": "Polygon", "coordinates": [[[-75.9880628099669, 49.58333341089087], [-75.98333333300207, 49.58333334011997], [-75.98333333335633, 49.57500000582357], [-75.98807585090688, 49.575000080319505], [-75.98807557418137, 49.57516861165021], [-75.98806982854883, 49.57885138085575], [-75.988063696468, 49.58272926879858], [-75.9880628099669, 49.58333341089087]]]}, "properties": {"company_id": "teck-resources", "jurisdiction": "Quebec", "claim_id": "", "claim_name": null, "holder": "Ressources Teck Limitée", "status": "Active", "recorded_date": null, "anniversary_or_expiry": null, "area_ha": null, "tenure_type": null, "source": "GESTIM active titles (MRNF digital data dump). Not legal title.", "as_of": "2026-09-20", "role": "focus", "color": "#e8b040"}}, {"type": "Feature", "geometry": {"type": "Polygon", "coordinates": [[[-75.98333333335634, 49.57500000582357], [-75.98333333090402, 49.572083723505926], [-75.98808046694012, 49.57208400088995], [-75.98807585344657, 49.57500008031947], [-75.98333333335634, 49.57500000582357]]]}, "properties": {"company_id": "teck-resources", "jurisdiction": "Quebec", "claim_id": "", "claim_name": null, "holder": "Ressources Teck Limitée", "status": "Active", "recorded_date": null, "anniversary_or_expiry": null, "area_ha": null, "tenure_type": null, "source": "GESTIM active titles (MRNF digital data dump). Not legal title.", "as_of": "2026-09-20", "role": "focus", "color": "#e8b040"}}, {"type": "Feature", "geometry": {"type": "Polygon", "coordinates": [[[-75.9880628099669, 49.58333341089087], [-75.98805838049526, 49.58634324555577], [-75.98807390039286, 49.589928640363894], [-75.98807453157697, 49.59007444524648], [-75.9878068143311, 49.5900737769765], [-75.98333333844167, 49.590062549559285], [-75.9833333330021, 49.58333334011997], [-75.9880628099669, 49.58333341089087]]]}, "properties": {"company_id": "teck-resources", "jurisdiction": "Quebec", "claim_id": "", "claim_name": null, "holder": "Ressources Teck Limitée", "status": "Active", "recorded_date": null, "anniversary_or_expiry": null, "area_ha": null, "tenure_type": null, "source": "GESTIM active titles (MRNF digital data dump). Not legal title.", "as_of": "2026-09-20", "role": "focus", "color": "#e8b040"}}, {"type": "Feature", "geometry": {"type": "Polygon", "coordinates": [[[-75.9833333330021, 49.58333334011997], [-75.98333333844167, 49.590062549559285], [-75.98218187146594, 49.59005963330095], [-75.98171057983105, 49.590033004159196], [-75.97662671408737, 49.59004539568528], [-75.97500000256048, 49.590050388966425], [-75.97500000396373, 49.583333332641374], [-75.9833333330021, 49.58333334011997]]]}, "properties": {"company_id": "teck-resources", "jurisdiction": "Quebec", "claim_id": "", "claim_name": null, "holder": "Ressources Teck Limitée", "status": "Active", "recorded_date": null, "anniversary_or_expiry": null, "area_ha": null, "tenure_type": null, "source": "GESTIM active titles (MRNF digital data dump). Not legal title.", "as_of": "2026-09-20", "role": "focus", "color": "#e8b040"}}, {"type": "Feature", "geometry": {"type": "Polygon", "coordinates": [[[-75.98333333335634, 49.57500000582357], [-75.97499999896463, 49.57500000166551], [-75.97499999965166, 49.57201237291392], [-75.97685287869302, 49.57201134687081], [-75.98251094480918, 49.57208365707181], [-75.98333333090402, 49.572083723505926], [-75.98333333335634, 49.57500000582357]]]}, "properties": {"company_id": "teck-resources", "jurisdiction": "Quebec", "claim_id": "", "claim_name": null, "holder": "Ressources Teck Limitée", "status": "Active", "recorded_date": null, "anniversary_or_expiry": null, "area_ha": null, "tenure_type": null, "source": "GESTIM active titles (MRNF digital data dump). Not legal title.", "as_of": "2026-09-20", "role": "focus", "color": "#e8b040"}}, {"type": "Feature", "geometry": {"type": "Polygon", "coordinates": [[[-75.97500000396373, 49.583333332641374], [-75.97500000256048, 49.590050388966425], [-75.97111772760809, 49.59006222002541], [-75.96666666736984, 49.59007247132087], [-75.96666666458744, 49.58333333678407], [-75.97500000396373, 49.583333332641374]]]}, "properties": {"company_id": "teck-resources", "jurisdiction": "Quebec", "claim_id": "", "claim_name": null, "holder": "Ressources Teck Limitée", "status": "Active", "recorded_date": null, "anniversary_or_expiry": null, "area_ha": null, "tenure_type": null, "source": "GESTIM active titles (MRNF digital data dump). Not legal title.", "as_of": "2026-09-20", "role": "focus", "color": "#e8b040"}}, {"type": "Feature", "geometry": {"type": "Polygon", "coordinates": [[[-75.97499999896463, 49.57500000166551], [-75.96666666788207, 49.57499999999117], [-75.96666666659375, 49.572034951545014], [-75.97120797194084, 49.572014386872134], [-75.97499999965166, 49.57201237291392], [-75.97499999896463, 49.57500000166551]]]}, "properties": {"company_id": "teck-resources", "jurisdiction": "Quebec", "claim_id": "", "claim_name": null, "holder": "Ressources Teck Limitée", "status": "Active", "recorded_date": null, "anniversary_or_expiry": null, "area_ha": null, "tenure_type": null, "source": "GESTIM active titles (MRNF digital data dump). Not legal title.", "as_of": "2026-09-20", "role": "focus", "color": "#e8b040"}}, {"type": "Feature", "geometry": {"type": "Polygon", "coordinates": [[[-75.96666666458744, 49.58333333678407], [-75.96666666736984, 49.59007247132087], [-75.96588945442198, 49.59007424502924], [-75.96546585261056, 49.590077779369224], [-75.96005250694118, 49.59009219070176], [-75.95833333544871, 49.59008022705022], [-75.95833332831938, 49.58333333444705], [-75.96666666458744, 49.58333333678407]]]}, "properties": {"company_id": "teck-resources", "jurisdiction": "Quebec", "claim_id": "", "claim_name": null, "holder": "Ressources Teck Limitée", "status": "Active", "recorded_date": null, "anniversary_or_expiry": null, "area_ha": null, "tenure_type": null, "source": "GESTIM active titles (MRNF digital data dump). Not legal title.", "as_of": "2026-09-20", "role": "focus", "color": "#e8b040"}}, {"type": "Feature", "geometry": {"type": "Polygon", "coordinates": [[[-75.96666666788207, 49.57499999999117], [-75.95833334007921, 49.575000000803804], [-75.95833333682869, 49.572044568192304], [-75.96009493160085, 49.57203772027367], [-75.96584232465926, 49.57203866671173], [-75.96666666659375, 49.572034951545014], [-75.96666666788207, 49.57499999999117]]]}, "properties": {"company_id": "teck-resources", "jurisdiction": "Quebec", "claim_id": "", "claim_name": null, "holder": "Ressources Teck Limitée", "status": "Active", "recorded_date": null, "anniversary_or_expiry": null, "area_ha": null, "tenure_type": null, "source": "GESTIM active titles (MRNF digital data dump). Not legal title.", "as_of": "2026-09-20", "role": "focus", "color": "#e8b040"}}, {"type": "Feature", "geometry": {"type": "Polygon", "coordinates": [[[-75.95833334007921, 49.575000000803804], [-75.95833332831938, 49.58333333444705], [-75.95469321697472, 49.583333403066554], [-75.95469232242313, 49.58280963702501], [-75.95469205603327, 49.58274390248647], [-75.9546775713167, 49.57916938579844], [-75.95474442022558, 49.57558429061133], [-75.95474792488653, 49.57500007058339], [-75.95833334007921, 49.575000000803804]]]}, "properties": {"company_id": "teck-resources", "jurisdiction": "Quebec", "claim_id": "", "claim_name": null, "holder": "Ressources Teck Limitée", "status": "Active", "recorded_date": null, "anniversary_or_expiry": null, "area_ha": null, "tenure_type": null, "source": "GESTIM active titles (MRNF digital data dump). Not legal title.", "as_of": "2026-09-20", "role": "focus", "color": "#e8b040"}}, {"type": "Feature", "geometry": {"type": "Polygon", "coordinates": [[[-75.95833332831938, 49.58333333444705], [-75.95833333544871, 49.59008022705022], [-75.95402607284291, 49.59005014881456], [-75.95400277548823, 49.58632389942387], [-75.95469832477966, 49.586323849733006], [-75.95469321697472, 49.583333403066554], [-75.95833332831938, 49.58333333444705]]]}, "properties": {"company_id": "teck-resources", "jurisdiction": "Quebec", "claim_id": "", "claim_name": null, "holder": "Ressources Teck Limitée", "status": "Active", "recorded_date": null, "anniversary_or_expiry": null, "area_ha": null, "tenure_type": null, "source": "GESTIM active titles (MRNF digital data dump). Not legal title.", "as_of": "2026-09-20", "role": "focus", "color": "#e8b040"}}, {"type": "Feature", "geometry": {"type": "Polygon", "coordinates": [[[-75.95833334007921, 49.575000000803804], [-75.95474792488653, 49.57500007058339], [-75.95476557059338, 49.5720583610065], [-75.95833333682869, 49.572044568192304], [-75.95833334007921, 49.575000000803804]]]}, "properties": {"company_id": "teck-resources", "jurisdiction": "Quebec", "claim_id": "", "claim_name": null, "holder": "Ressources Teck Limitée", "status": "Active", "recorded_date": null, "anniversary_or_expiry": null, "area_ha": null, "tenure_type": null, "source": "GESTIM active titles (MRNF digital data dump). Not legal title.", "as_of": "2026-09-20", "role": "focus", "color": "#e8b040"}}, {"type": "Feature", "geometry": {"type": "Polygon", "coordinates": [[[-77.49166666852105, 48.10000000433945], [-77.49166666993717, 48.09740267118521], [-77.49373225380853, 48.097384791149366], [-77.49872254251282, 48.09734152378976], [-77.49863256591668, 48.099080758433466], [-77.4986363141434, 48.100000044381105], [-77.49166666852105, 48.10000000433945]]]}, "properties": {"company_id": "teck-resources", "jurisdiction": "Quebec", "claim_id": "", "claim_name": null, "holder": "Ressources Teck Limitée", "status": "Active", "recorded_date": null, "anniversary_or_expiry": null, "area_ha": null, "tenure_type": null, "source": "GESTIM active titles (MRNF digital data dump). Not legal title.", "as_of": "2026-09-20", "role": "focus", "color": "#e8b040"}}, {"type": "Feature", "geometry": {"type": "Polygon", "coordinates": [[[-77.48333333868852, 48.10000000708275], [-77.48333333629381, 48.09747440016871], [-77.49166666993717, 48.09740267118521], [-77.49166666852105, 48.10000000433945], [-77.48333333868852, 48.10000000708275]]]}, "properties": {"company_id": "teck-resources", "jurisdiction": "Quebec", "claim_id": "", "claim_name": null, "holder": "Ressources Teck Limitée", "status": "Active", "recorded_date": null, "anniversary_or_expiry": null, "area_ha": null, "tenure_type": null, "source": "GESTIM active titles (MRNF digital data dump). Not legal title.", "as_of": "2026-09-20", "role": "focus", "color": "#e8b040"}}, {"type": "Feature", "geometry": {"type": "Polygon", "coordinates": [[[-77.50000000478776, 48.10833333550769], [-77.50000000493203, 48.11186912897647], [-77.49855632331887, 48.111912007031684], [-77.4985529020356, 48.11191210845362], [-77.49240904443775, 48.11209748213023], [-77.49166666664534, 48.11211998846911], [-77.49166666326366, 48.10833333525902], [-77.50000000478776, 48.10833333550769]]]}, "properties": {"company_id": "teck-resources", "jurisdiction": "Quebec", "claim_id": "", "claim_name": null, "holder": "Ressources Teck Limitée", "status": "Active", "recorded_date": null, "anniversary_or_expiry": null, "area_ha": null, "tenure_type": null, "source": "GESTIM active titles (MRNF digital data dump). Not legal title.", "as_of": "2026-09-20", "role": "focus", "color": "#e8b040"}}, {"type": "Feature", "geometry": {"type": "Polygon", "coordinates": [[[-77.49166666326366, 48.10833333525902], [-77.49166666664534, 48.11211998846911], [-77.48618458761659, 48.11228602593214], [-77.48632687944445, 48.11125032610225], [-77.48627963647895, 48.1087819942753], [-77.48625347342536, 48.10833340722299], [-77.49166666326366, 48.10833333525902]]]}, "properties": {"company_id": "teck-resources", "jurisdiction": "Quebec", "claim_id": "", "claim_name": null, "holder": "Ressources Teck Limitée", "status": "Active", "recorded_date": null, "anniversary_or_expiry": null, "area_ha": null, "tenure_type": null, "source": "GESTIM active titles (MRNF digital data dump). Not legal title.", "as_of": "2026-09-20", "role": "focus", "color": "#e8b040"}}, {"type": "Feature", "geometry": {"type": "Polygon", "coordinates": [[[-77.50000000478776, 48.10833333550769], [-77.50000000451254, 48.1057383477608], [-77.50389220031364, 48.105277253637695], [-77.50351054671076, 48.10833341388544], [-77.50000000478776, 48.10833333550769]]]}, "properties": {"company_id": "teck-resources", "jurisdiction": "Quebec", "claim_id": "", "claim_name": null, "holder": "Ressources Teck Limitée", "status": "Active", "recorded_date": null, "anniversary_or_expiry": null, "area_ha": null, "tenure_type": null, "source": "GESTIM active titles (MRNF digital data dump). Not legal title.", "as_of": "2026-09-20", "role": "focus", "color": "#e8b040"}}, {"type": "Feature", "geometry": {"type": "Polygon", "coordinates": [[[-77.50000000478776, 48.10833333550769], [-77.50351054671076, 48.10833341388544], [-77.50346060334888, 48.108733316341365], [-77.50332109565991, 48.11177041661857], [-77.50000000493203, 48.11186912897647], [-77.50000000478776, 48.10833333550769]]]}, "properties": {"company_id": "teck-resources", "jurisdiction": "Quebec", "claim_id": "", "claim_name": null, "holder": "Ressources Teck Limitée", "status": "Active", "recorded_date": null, "anniversary_or_expiry": null, "area_ha": null, "tenure_type": null, "source": "GESTIM active titles (MRNF digital data dump). Not legal title.", "as_of": "2026-09-20", "role": "focus", "color": "#e8b040"}}, {"type": "Feature", "geometry": {"type": "Polygon", "coordinates": [[[-77.49166666852105, 48.10000000433945], [-77.49166666326366, 48.10833333525902], [-77.48625347342536, 48.10833340722299], [-77.48617419175915, 48.10697413511442], [-77.48614331693899, 48.106444838704434], [-77.48333334027252, 48.10646895320493], [-77.48333333868852, 48.10000000708275], [-77.49166666852105, 48.10000000433945]]]}, "properties": {"company_id": "teck-resources", "jurisdiction": "Quebec", "claim_id": "", "claim_name": null, "holder": "Ressources Teck Limitée", "status": "Active", "recorded_date": null, "anniversary_or_expiry": null, "area_ha": null, "tenure_type": null, "source": "GESTIM active titles (MRNF digital data dump). Not legal title.", "as_of": "2026-09-20", "role": "focus", "color": "#e8b040"}}, {"type": "Feature", "geometry": {"type": "Polygon", "coordinates": [[[-77.50000000451254, 48.1057383477608], [-77.50000000478776, 48.10833333550769], [-77.49166666326366, 48.10833333525902], [-77.49166666852105, 48.10000000433945], [-77.4986363141434, 48.100000044381105], [-77.49864574172793, 48.10231209232351], [-77.49865906585256, 48.1058971690025], [-77.50000000451254, 48.1057383477608]]]}, "properties": {"company_id": "teck-resources", "jurisdiction": "Quebec", "claim_id": "", "claim_name": null, "holder": "Ressources Teck Limitée", "status": "Active", "recorded_date": null, "anniversary_or_expiry": null, "area_ha": null, "tenure_type": null, "source": "GESTIM active titles (MRNF digital data dump). Not legal title.", "as_of": "2026-09-20", "role": "focus", "color": "#e8b040"}}, {"type": "Feature", "geometry": {"type": "Polygon", "coordinates": [[[-79.325, 48.30833333334324], [-79.31666666666672, 48.30833333334324], [-79.31666666666672, 48.3020878636088], [-79.31724839776291, 48.302091184846006], [-79.31735618049245, 48.302091799856], [-79.31738313599209, 48.302091843433985], [-79.32087454736936, 48.3021063278896], [-79.32091498755402, 48.302106387618984], [-79.32181818069465, 48.30210779626654], [-79.32440641477072, 48.302111776849976], [-79.32481422316951, 48.302113769275984], [-79.32499999999999, 48.302114722137716], [-79.325, 48.30833333334324]]]}, "properties": {"company_id": "teck-resources", "jurisdiction": "Quebec", "claim_id": "", "claim_name": null, "holder": "Ressources Teck Limitée", "status": "Active", "recorded_date": null, "anniversary_or_expiry": null, "area_ha": null, "tenure_type": null, "source": "GESTIM active titles (MRNF digital data dump). Not legal title.", "as_of": "2026-09-20", "role": "focus", "color": "#e8b040"}}, {"type": "Feature", "geometry": {"type": "Polygon", "coordinates": [[[-79.34166666666671, 48.30833333334325], [-79.3416666666667, 48.316666666676625], [-79.3333333333333, 48.316666666676625], [-79.3333333333333, 48.30833333334324], [-79.34166666666671, 48.30833333334325]]]}, "properties": {"company_id": "teck-resources", "jurisdiction": "Quebec", "claim_id": "", "claim_name": null, "holder": "Ressources Teck Limitée", "status": "Active", "recorded_date": null, "anniversary_or_expiry": null, "area_ha": null, "tenure_type": null, "source": "GESTIM active titles (MRNF digital data dump). Not legal title.", "as_of": "2026-09-20", "role": "focus", "color": "#e8b040"}}, {"type": "Feature", "geometry": {"type": "Polygon", "coordinates": [[[-79.325, 48.30833333334324], [-79.325, 48.316666666676625], [-79.31666666666672, 48.31666666667664], [-79.31666666666672, 48.30833333334324], [-79.325, 48.30833333334324]]]}, "properties": {"company_id": "teck-resources", "jurisdiction": "Quebec", "claim_id": "", "claim_name": null, "holder": "Ressources Teck Limitée", "status": "Active", "recorded_date": null, "anniversary_or_expiry": null, "area_ha": null, "tenure_type": null, "source": "GESTIM active titles (MRNF digital data dump). Not legal title.", "as_of": "2026-09-20", "role": "focus", "color": "#e8b040"}}, {"type": "Feature", "geometry": {"type": "Polygon", "coordinates": [[[-79.31666666666672, 48.30833333334324], [-79.31666666666672, 48.31666666667664], [-79.30833333333331, 48.316666666676625], [-79.30833333333331, 48.30833333334324], [-79.31666666666672, 48.30833333334324]]]}, "properties": {"company_id": "teck-resources", "jurisdiction": "Quebec", "claim_id": "", "claim_name": null, "holder": "Ressources Teck Limitée", "status": "Active", "recorded_date": null, "anniversary_or_expiry": null, "area_ha": null, "tenure_type": null, "source": "GESTIM active titles (MRNF digital data dump). Not legal title.", "as_of": "2026-09-20", "role": "focus", "color": "#e8b040"}}, {"type": "Feature", "geometry": {"type": "Polygon", "coordinates": [[[-79.31666666666672, 48.31666666667664], [-79.31666666666672, 48.31671496059037], [-79.31378459355518, 48.316710330718884], [-79.31025174163831, 48.31669555576754], [-79.30833333333331, 48.3166923763143], [-79.30833333333331, 48.316666666676625], [-79.31666666666672, 48.31666666667664]]]}, "properties": {"company_id": "teck-resources", "jurisdiction": "Quebec", "claim_id": "", "claim_name": null, "holder": "Ressources Teck Limitée", "status": "Active", "recorded_date": null, "anniversary_or_expiry": null, "area_ha": null, "tenure_type": null, "source": "GESTIM active titles (MRNF digital data dump). Not legal title.", "as_of": "2026-09-20", "role": "focus", "color": "#e8b040"}}, {"type": "Feature", "geometry": {"type": "Polygon", "coordinates": [[[-79.3333333333333, 48.316666666676625], [-79.325, 48.316666666676625], [-79.325, 48.30833333334324], [-79.3333333333333, 48.30833333334324], [-79.3333333333333, 48.316666666676625]]]}, "properties": {"company_id": "teck-resources", "jurisdiction": "Quebec", "claim_id": "", "claim_name": null, "holder": "Ressources Teck Limitée", "status": "Active", "recorded_date": null, "anniversary_or_expiry": null, "area_ha": null, "tenure_type": null, "source": "GESTIM active titles (MRNF digital data dump). Not legal title.", "as_of": "2026-09-20", "role": "focus", "color": "#e8b040"}}, {"type": "Feature", "geometry": {"type": "Polygon", "coordinates": [[[-79.3333333333333, 48.316666666676625], [-79.33333333333329, 48.3167672966907], [-79.33140846855916, 48.31676449105175], [-79.32787560695118, 48.31675026671108], [-79.32590686919923, 48.316756295994985], [-79.3256371821287, 48.316755887228666], [-79.325, 48.31675044733971], [-79.325, 48.316666666676625], [-79.3333333333333, 48.316666666676625]]]}, "properties": {"company_id": "teck-resources", "jurisdiction": "Quebec", "claim_id": "", "claim_name": null, "holder": "Ressources Teck Limitée", "status": "Active", "recorded_date": null, "anniversary_or_expiry": null, "area_ha": null, "tenure_type": null, "source": "GESTIM active titles (MRNF digital data dump). Not legal title.", "as_of": "2026-09-20", "role": "focus", "color": "#e8b040"}}, {"type": "Feature", "geometry": {"type": "Polygon", "coordinates": [[[-79.34166666666671, 48.30833333334325], [-79.3416666666667, 48.3021720535909], [-79.34194437085173, 48.302173188333946], [-79.34202526494525, 48.302173302145135], [-79.34205222065756, 48.30217333994], [-79.34420906364429, 48.30218527376489], [-79.34555712159349, 48.30218708908442], [-79.34561103308063, 48.30218716301188], [-79.34908896915756, 48.30220077634788], [-79.34912940970385, 48.30220082615421], [-79.35, 48.30220196572526], [-79.35, 48.30833333334324], [-79.34910506637101, 48.30833336437196], [-79.34911891680483, 48.30576244322883], [-79.34558695541389, 48.305703788302694], [-79.34557901618955, 48.30833341396458], [-79.34166666666671, 48.30833333334325]]]}, "properties": {"company_id": "teck-resources", "jurisdiction": "Quebec", "claim_id": "", "claim_name": null, "holder": "Ressources Teck Limitée", "status": "Active", "recorded_date": null, "anniversary_or_expiry": null, "area_ha": null, "tenure_type": null, "source": "GESTIM active titles (MRNF digital data dump). Not legal title.", "as_of": "2026-09-20", "role": "focus", "color": "#e8b040"}}, {"type": "Feature", "geometry": {"type": "Polygon", "coordinates": [[[-79.35, 48.30833333334324], [-79.35, 48.309957305679646], [-79.34999296626975, 48.309935990179234], [-79.34997993217925, 48.30978307693216], [-79.34988599211194, 48.3096300553226], [-79.34981871437095, 48.30958500390795], [-79.34968405146347, 48.309530860931424], [-79.34961661185396, 48.30953976284163], [-79.34952212425888, 48.309575618742464], [-79.34944110279298, 48.309620485049734], [-79.34929220649191, 48.30981817380351], [-79.34926506393754, 48.30988107893164], [-79.3491432149154, 48.3100518045122], [-79.34909553476997, 48.310102466554795], [-79.34909553646165, 48.31010215258498], [-79.34910506637101, 48.30833336437196], [-79.35, 48.30833333334324]]]}, "properties": {"company_id": "teck-resources", "jurisdiction": "Quebec", "claim_id": "", "claim_name": null, "holder": "Ressources Teck Limitée", "status": "Active", "recorded_date": null, "anniversary_or_expiry": null, "area_ha": null, "tenure_type": null, "source": "GESTIM active titles (MRNF digital data dump). Not legal title.", "as_of": "2026-09-20", "role": "focus", "color": "#e8b040"}}, {"type": "Feature", "geometry": {"type": "Polygon", "coordinates": [[[-79.30833333333331, 48.3166923763143], [-79.3067323547551, 48.31668969669069], [-79.30321298636879, 48.3166747419718], [-79.30079931008481, 48.31667058067937], [-79.30079931110512, 48.316666694741606], [-79.30833333333331, 48.316666666676625], [-79.30833333333331, 48.3166923763143]]]}, "properties": {"company_id": "teck-resources", "jurisdiction": "Quebec", "claim_id": "", "claim_name": null, "holder": "Ressources Teck Limitée", "status": "Active", "recorded_date": null, "anniversary_or_expiry": null, "area_ha": null, "tenure_type": null, "source": "GESTIM active titles (MRNF digital data dump). Not legal title.", "as_of": "2026-09-20", "role": "focus", "color": "#e8b040"}}, {"type": "Feature", "geometry": {"type": "Polygon", "coordinates": [[[-79.325, 48.30833333334324], [-79.32499999999999, 48.302114722137716], [-79.32692723083788, 48.30212458804717], [-79.3271400041345, 48.302125009206335], [-79.32739904162966, 48.30212529826945], [-79.32792478504196, 48.302126260032104], [-79.32800219889127, 48.30212640508092], [-79.33015965639736, 48.30213510263458], [-79.33145663155973, 48.302140309189056], [-79.3314835980766, 48.30214034965318], [-79.3333333333333, 48.302147810609945], [-79.3333333333333, 48.30833333334324], [-79.325, 48.30833333334324]]]}, "properties": {"company_id": "teck-resources", "jurisdiction": "Quebec", "claim_id": "", "claim_name": null, "holder": "Ressources Teck Limitée", "status": "Active", "recorded_date": null, "anniversary_or_expiry": null, "area_ha": null, "tenure_type": null, "source": "GESTIM active titles (MRNF digital data dump). Not legal title.", "as_of": "2026-09-20", "role": "focus", "color": "#e8b040"}}, {"type": "Feature", "geometry": {"type": "Polygon", "coordinates": [[[-79.30833333333331, 48.30833333334324], [-79.30833333333331, 48.30205912975975], [-79.31030599009367, 48.302062402825975], [-79.31034643013358, 48.30206246627226], [-79.31383781843581, 48.30207716417494], [-79.3149297384667, 48.30207892921589], [-79.31517237848952, 48.30207931790891], [-79.31666666666672, 48.3020878636088], [-79.31666666666672, 48.30833333334324], [-79.30833333333331, 48.30833333334324]]]}, "properties": {"company_id": "teck-resources", "jurisdiction": "Quebec", "claim_id": "", "claim_name": null, "holder": "Ressources Teck Limitée", "status": "Active", "recorded_date": null, "anniversary_or_expiry": null, "area_ha": null, "tenure_type": null, "source": "GESTIM active titles (MRNF digital data dump). Not legal title.", "as_of": "2026-09-20", "role": "focus", "color": "#e8b040"}}, {"type": "Feature", "geometry": {"type": "Polygon", "coordinates": [[[-79.3333333333333, 48.30833333334324], [-79.3333333333333, 48.302147810609945], [-79.33497500086033, 48.30215440559836], [-79.33500196999351, 48.30215444524118], [-79.33510980638438, 48.30215459417086], [-79.3384933998158, 48.30215939754329], [-79.33852036897567, 48.30215943636085], [-79.33862820518056, 48.30215959098362], [-79.3416666666667, 48.3021720535909], [-79.34166666666671, 48.30833333334325], [-79.3333333333333, 48.30833333334324]]]}, "properties": {"company_id": "teck-resources", "jurisdiction": "Quebec", "claim_id": "", "claim_name": null, "holder": "Ressources Teck Limitée", "status": "Active", "recorded_date": null, "anniversary_or_expiry": null, "area_ha": null, "tenure_type": null, "source": "GESTIM active titles (MRNF digital data dump). Not legal title.", "as_of": "2026-09-20", "role": "focus", "color": "#e8b040"}}, {"type": "Feature", "geometry": {"type": "Polygon", "coordinates": [[[-79.35265932976867, 48.30833340367561], [-79.35265353982933, 48.309559442213114], [-79.35250190356834, 48.30952551883853], [-79.35238071111358, 48.309471392088255], [-79.35227305843578, 48.309399303033686], [-79.35223279184676, 48.30933629495949], [-79.35220617172965, 48.309219337729], [-79.35223378997688, 48.3089945264515], [-79.35224744271402, 48.30893158026706], [-79.35227457518238, 48.30887765342462], [-79.35216687072865, 48.308823548773084], [-79.35204553358777, 48.30882339334478], [-79.35191070992477, 48.30882322442898], [-79.35147895900776, 48.30893059704978], [-79.35145185926582, 48.308975527049306], [-79.35143822565077, 48.30902947628954], [-79.35149194403492, 48.30910149468709], [-79.351545642475, 48.30918250989833], [-79.35166661971289, 48.30930858446649], [-79.35173345130681, 48.30950653455166], [-79.35161153764444, 48.30970425318173], [-79.35143587081375, 48.30983893192427], [-79.35124680335032, 48.30994661581516], [-79.35057217978557, 48.31011663116971], [-79.35019467274813, 48.31011613678966], [-79.35004641308377, 48.31009795860951], [-79.35, 48.309957305679646], [-79.35, 48.30833333334324], [-79.35265932976867, 48.30833340367561]]]}, "properties": {"company_id": "teck-resources", "jurisdiction": "Quebec", "claim_id": "", "claim_name": null, "holder": "Ressources Teck Limitée", "status": "Active", "recorded_date": null, "anniversary_or_expiry": null, "area_ha": null, "tenure_type": null, "source": "GESTIM active titles (MRNF digital data dump). Not legal title.", "as_of": "2026-09-20", "role": "focus", "color": "#e8b040"}}, {"type": "Feature", "geometry": {"type": "Polygon", "coordinates": [[[-79.35, 48.30833333334324], [-79.35, 48.30220196572526], [-79.35260738371997, 48.302205336421096], [-79.35264782430495, 48.30220538498994], [-79.35268826460094, 48.30220544253752], [-79.35265932976867, 48.30833340367561], [-79.35, 48.30833333334324]]]}, "properties": {"company_id": "teck-resources", "jurisdiction": "Quebec", "claim_id": "", "claim_name": null, "holder": "Ressources Teck Limitée", "status": "Active", "recorded_date": null, "anniversary_or_expiry": null, "area_ha": null, "tenure_type": null, "source": "GESTIM active titles (MRNF digital data dump). Not legal title.", "as_of": "2026-09-20", "role": "focus", "color": "#e8b040"}}, {"type": "Feature", "geometry": {"type": "Polygon", "coordinates": [[[-79.3416666666667, 48.316666666676625], [-79.34198075624404, 48.31666667841504], [-79.34198011305696, 48.31679748679614], [-79.34193835009447, 48.316797323167194], [-79.3416666666667, 48.31679625830381], [-79.3416666666667, 48.316666666676625]]]}, "properties": {"company_id": "teck-resources", "jurisdiction": "Quebec", "claim_id": "", "claim_name": null, "holder": "Ressources Teck Limitée", "status": "Active", "recorded_date": null, "anniversary_or_expiry": null, "area_ha": null, "tenure_type": null, "source": "GESTIM active titles (MRNF digital data dump). Not legal title.", "as_of": "2026-09-20", "role": "focus", "color": "#e8b040"}}, {"type": "Feature", "geometry": {"type": "Polygon", "coordinates": [[[-79.30833333333331, 48.30833333334324], [-79.30079692318161, 48.30833336133786], [-79.30079382957045, 48.30768556044752], [-79.30078796950248, 48.30226216651885], [-79.30078832581962, 48.30217222714943], [-79.30078888267604, 48.302028316762105], [-79.30325576399918, 48.30204156090791], [-79.30329620394849, 48.30204162683382], [-79.30678759664796, 48.30205653899585], [-79.30681455205476, 48.302056585051375], [-79.30833333333331, 48.30205912975975], [-79.30833333333331, 48.30833333334324]]]}, "properties": {"company_id": "teck-resources", "jurisdiction": "Quebec", "claim_id": "", "claim_name": null, "holder": "Ressources Teck Limitée", "status": "Active", "recorded_date": null, "anniversary_or_expiry": null, "area_ha": null, "tenure_type": null, "source": "GESTIM active titles (MRNF digital data dump). Not legal title.", "as_of": "2026-09-20", "role": "focus", "color": "#e8b040"}}, {"type": "Feature", "geometry": {"type": "Polygon", "coordinates": [[[-79.325, 48.31675044733971], [-79.3243562137429, 48.31674494722406], [-79.3219830111562, 48.31673230164674], [-79.32083683612657, 48.316730523063605], [-79.31730398830308, 48.31671597395472], [-79.31666666666672, 48.31671496059037], [-79.31666666666672, 48.31666666667664], [-79.325, 48.316666666676625], [-79.325, 48.31675044733971]]]}, "properties": {"company_id": "teck-resources", "jurisdiction": "Quebec", "claim_id": "", "claim_name": null, "holder": "Ressources Teck Limitée", "status": "Active", "recorded_date": null, "anniversary_or_expiry": null, "area_ha": null, "tenure_type": null, "source": "GESTIM active titles (MRNF digital data dump). Not legal title.", "as_of": "2026-09-20", "role": "focus", "color": "#e8b040"}}, {"type": "Feature", "geometry": {"type": "Polygon", "coordinates": [[[-79.34166666666671, 48.30833333334325], [-79.34557901618955, 48.30833341396458], [-79.34557563188048, 48.30945427755444], [-79.34252867551841, 48.3094321522518], [-79.3421069423834, 48.30942417629604], [-79.34201637083427, 48.309422463160516], [-79.34198075624404, 48.31666667841504], [-79.3416666666667, 48.316666666676625], [-79.34166666666671, 48.30833333334325]]]}, "properties": {"company_id": "teck-resources", "jurisdiction": "Quebec", "claim_id": "", "claim_name": null, "holder": "Ressources Teck Limitée", "status": "Active", "recorded_date": null, "anniversary_or_expiry": null, "area_ha": null, "tenure_type": null, "source": "GESTIM active titles (MRNF digital data dump). Not legal title.", "as_of": "2026-09-20", "role": "focus", "color": "#e8b040"}}, {"type": "Feature", "geometry": {"type": "Polygon", "coordinates": [[[-79.3416666666667, 48.31679625830381], [-79.33844725133474, 48.31678358742043], [-79.33492786942364, 48.316769594696694], [-79.33333333333329, 48.3167672966907], [-79.3333333333333, 48.316666666676625], [-79.3416666666667, 48.316666666676625], [-79.3416666666667, 48.31679625830381]]]}, "properties": {"company_id": "teck-resources", "jurisdiction": "Quebec", "claim_id": "", "claim_name": null, "holder": "Ressources Teck Limitée", "status": "Active", "recorded_date": null, "anniversary_or_expiry": null, "area_ha": null, "tenure_type": null, "source": "GESTIM active titles (MRNF digital data dump). Not legal title.", "as_of": "2026-09-20", "role": "focus", "color": "#e8b040"}}, {"type": "Feature", "geometry": {"type": "Polygon", "coordinates": [[[-79.24166666666672, 48.233333333343474], [-79.24165339913453, 48.22986739501464], [-79.24296261321699, 48.23333337591635], [-79.24166666666672, 48.233333333343474]]]}, "properties": {"company_id": "teck-resources", "jurisdiction": "Quebec", "claim_id": "", "claim_name": null, "holder": "Ressources Teck Limitée", "status": "Active", "recorded_date": null, "anniversary_or_expiry": null, "area_ha": null, "tenure_type": null, "source": "GESTIM active titles (MRNF digital data dump). Not legal title.", "as_of": "2026-09-20", "role": "focus", "color": "#e8b040"}}, {"type": "Feature", "geometry": {"type": "Polygon", "coordinates": [[[-79.2416666666667, 48.23605574103268], [-79.24166666666672, 48.233333333343495], [-79.24296261321699, 48.23333337591635], [-79.24385602642853, 48.235698255459205], [-79.24399300779557, 48.2360608629818], [-79.2416666666667, 48.23605574103268]]]}, "properties": {"company_id": "teck-resources", "jurisdiction": "Quebec", "claim_id": "", "claim_name": null, "holder": "Ressources Teck Limitée", "status": "Active", "recorded_date": null, "anniversary_or_expiry": null, "area_ha": null, "tenure_type": null, "source": "GESTIM active titles (MRNF digital data dump). Not legal title.", "as_of": "2026-09-20", "role": "focus", "color": "#e8b040"}}, {"type": "Feature", "geometry": {"type": "Polygon", "coordinates": [[[-79.3, 48.30833333334324], [-79.30833333333331, 48.30833333334324], [-79.30833333333331, 48.316666666676625], [-79.30000000000004, 48.31666666667664], [-79.3, 48.30833333334324]]]}, "properties": {"company_id": "teck-resources", "jurisdiction": "Quebec", "claim_id": "", "claim_name": null, "holder": "Ressources Teck Limitée", "status": "Active", "recorded_date": null, "anniversary_or_expiry": null, "area_ha": null, "tenure_type": null, "source": "GESTIM active titles (MRNF digital data dump). Not legal title.", "as_of": "2026-09-20", "role": "focus", "color": "#e8b040"}}, {"type": "Feature", "geometry": {"type": "Polygon", "coordinates": [[[-79.22500000250407, 48.23104276933053], [-79.22577447813845, 48.230943501778725], [-79.23146902311838, 48.23021344975147], [-79.23333333384342, 48.22985658942467], [-79.2333333321468, 48.23333333927053], [-79.22499999787662, 48.23333333876553], [-79.22500000250407, 48.23104276933053]]]}, "properties": {"company_id": "teck-resources", "jurisdiction": "Quebec", "claim_id": "", "claim_name": null, "holder": "Ressources Teck Limitée", "status": "Active", "recorded_date": null, "anniversary_or_expiry": null, "area_ha": null, "tenure_type": null, "source": "GESTIM active titles (MRNF digital data dump). Not legal title.", "as_of": "2026-09-20", "role": "focus", "color": "#e8b040"}}, {"type": "Feature", "geometry": {"type": "Polygon", "coordinates": [[[-79.2333333321468, 48.23333333927053], [-79.23333333384342, 48.22985658942467], [-79.23461231926106, 48.22961175079111], [-79.23813203824496, 48.22893788284492], [-79.24086799188777, 48.22841406423282], [-79.24075608384884, 48.22749082993249], [-79.24165339913453, 48.22986739501464], [-79.24166666666672, 48.233333333343495], [-79.2333333321468, 48.23333333927053]]]}, "properties": {"company_id": "teck-resources", "jurisdiction": "Quebec", "claim_id": "", "claim_name": null, "holder": "Ressources Teck Limitée", "status": "Active", "recorded_date": null, "anniversary_or_expiry": null, "area_ha": null, "tenure_type": null, "source": "GESTIM active titles (MRNF digital data dump). Not legal title.", "as_of": "2026-09-20", "role": "focus", "color": "#e8b040"}}, {"type": "Feature", "geometry": {"type": "Polygon", "coordinates": [[[-79.2333333321468, 48.23333333927053], [-79.24166666666672, 48.233333333343495], [-79.24166666666672, 48.23605574103268], [-79.24166067937279, 48.236055727785164], [-79.2416666666667, 48.24114997949971], [-79.2416666666667, 48.24166666667684], [-79.23814589766054, 48.24166674575883], [-79.23814130526026, 48.23746227802236], [-79.23462105535208, 48.23812822137596], [-79.23462463939215, 48.24166670911831], [-79.2333333333333, 48.24166666667684], [-79.2333333321468, 48.23333333927053]]]}, "properties": {"company_id": "teck-resources", "jurisdiction": "Quebec", "claim_id": "", "claim_name": null, "holder": "Ressources Teck Limitée", "status": "Active", "recorded_date": null, "anniversary_or_expiry": null, "area_ha": null, "tenure_type": null, "source": "GESTIM active titles (MRNF digital data dump). Not legal title.", "as_of": "2026-09-20", "role": "focus", "color": "#e8b040"}}]}