{"type": "FeatureCollection", "features": [{"type": "Feature", "geometry": {"type": "Polygon", "coordinates": [[[-129.5003, 56.0236], [-129.5153, 56.0236], [-129.5153, 56.0011], [-129.4913, 56.0011], [-129.4912, 56.0236], [-129.5003, 56.0236]]]}, "properties": {"company_id": "teuton-resources", "jurisdiction": "British Columbia", "claim_id": 251848, "claim_name": "CROESUS 1", "holder": "TEUTON RESOURCES CORP.", "status": "Mineral", "recorded_date": "5470848000", "anniversary_or_expiry": "2031-12-21", "area_ha": 375, "tenure_type": "Mineral", "source": "BC MTA Mineral, Placer and Coal Tenure Spatial View (BCGW). Open Government Licence - British Columbia. Not legal title.", "as_of": "2026-09-20", "role": "focus", "color": "#e8b040"}}, {"type": "Feature", "geometry": {"type": "Polygon", "coordinates": [[[-129.4913, 56.0011], [-129.5153, 56.0011], [-129.5153, 55.9742], [-129.4913, 55.9742], [-129.4913, 56.0011]]]}, "properties": {"company_id": "teuton-resources", "jurisdiction": "British Columbia", "claim_id": 251849, "claim_name": "CROESUS 2", "holder": "TEUTON RESOURCES CORP.", "status": "Mineral", "recorded_date": "5470848000", "anniversary_or_expiry": "2031-12-21", "area_ha": 450, "tenure_type": "Mineral", "source": "BC MTA Mineral, Placer and Coal Tenure Spatial View (BCGW). Open Government Licence - British Columbia. Not legal title.", "as_of": "2026-09-20", "role": "focus", "color": "#e8b040"}}, {"type": "Feature", "geometry": {"type": "Polygon", "coordinates": [[[-129.5153, 56.0011], [-129.5474, 56.0011], [-129.5474, 55.979], [-129.5153, 55.979], [-129.5153, 56.0011]]]}, "properties": {"company_id": "teuton-resources", "jurisdiction": "British Columbia", "claim_id": 251850, "claim_name": "CROESUS 3", "holder": "TEUTON RESOURCES CORP.", "status": "Mineral", "recorded_date": "5470848000", "anniversary_or_expiry": "2031-12-21", "area_ha": 500, "tenure_type": "Mineral", "source": "BC MTA Mineral, Placer and Coal Tenure Spatial View (BCGW). Open Government Licence - British Columbia. Not legal title.", "as_of": "2026-09-20", "role": "focus", "color": "#e8b040"}}, {"type": "Feature", "geometry": {"type": "Polygon", "coordinates": [[[-129.5153, 56.0191], [-129.5554, 56.0191], [-129.5554, 56.0011], [-129.5153, 56.0011], [-129.5153, 56.0191]]]}, "properties": {"company_id": "teuton-resources", "jurisdiction": "British Columbia", "claim_id": 251851, "claim_name": "CROESUS 4", "holder": "TEUTON RESOURCES CORP.", "status": "Mineral", "recorded_date": "5470848000", "anniversary_or_expiry": "2031-12-21", "area_ha": 500, "tenure_type": "Mineral", "source": "BC MTA Mineral, Placer and Coal Tenure Spatial View (BCGW). Open Government Licence - British Columbia. Not legal title.", "as_of": "2026-09-20", "role": "focus", "color": "#e8b040"}}, {"type": "Feature", "geometry": {"type": "Polygon", "coordinates": [[[-130.1501, 56.2692], [-130.1501, 56.2717], [-130.1662, 56.2717], [-130.1662, 56.2627], [-130.1501, 56.2627], [-130.1501, 56.2692]]]}, "properties": {"company_id": "teuton-resources", "jurisdiction": "British Columbia", "claim_id": 251127, "claim_name": "TENNYSON 1", "holder": "TEUTON RESOURCES CORP.", "status": "Mineral", "recorded_date": "4334688000", "anniversary_or_expiry": "2033-10-15", "area_ha": 100, "tenure_type": "Mineral", "source": "BC MTA Mineral, Placer and Coal Tenure Spatial View (BCGW). Open Government Licence - British Columbia. Not legal title.", "as_of": "2026-09-20", "role": "focus", "color": "#e8b040"}}, {"type": "Feature", "geometry": {"type": "Polygon", "coordinates": [[[-130.1501, 56.2627], [-130.1662, 56.2627], [-130.1662, 56.2537], [-130.1571, 56.2537], [-130.1571, 56.2547], [-130.1501, 56.2547], [-130.1501, 56.2627]]]}, "properties": {"company_id": "teuton-resources", "jurisdiction": "British Columbia", "claim_id": 251128, "claim_name": "TENNYSON 2", "holder": "TEUTON RESOURCES CORP.", "status": "Mineral", "recorded_date": "4334688000", "anniversary_or_expiry": "2033-10-15", "area_ha": 100, "tenure_type": "Mineral", "source": "BC MTA Mineral, Placer and Coal Tenure Spatial View (BCGW). Open Government Licence - British Columbia. Not legal title.", "as_of": "2026-09-20", "role": "focus", "color": "#e8b040"}}, {"type": "Feature", "geometry": {"type": "Polygon", "coordinates": [[[-130.1662, 56.2627], [-130.1824, 56.2627], [-130.1823, 56.2537], [-130.1662, 56.2537], [-130.1662, 56.2627]]]}, "properties": {"company_id": "teuton-resources", "jurisdiction": "British Columbia", "claim_id": 251129, "claim_name": "TENNYSON 3", "holder": "TEUTON RESOURCES CORP.", "status": "Mineral", "recorded_date": "4334688000", "anniversary_or_expiry": "2033-10-15", "area_ha": 100, "tenure_type": "Mineral", "source": "BC MTA Mineral, Placer and Coal Tenure Spatial View (BCGW). Open Government Licence - British Columbia. Not legal title.", "as_of": "2026-09-20", "role": "focus", "color": "#e8b040"}}, {"type": "Feature", "geometry": {"type": "Polygon", "coordinates": [[[-130.182, 56.2717], [-130.1824, 56.2627], [-130.1662, 56.2627], [-130.1662, 56.2717], [-130.182, 56.2717]]]}, "properties": {"company_id": "teuton-resources", "jurisdiction": "British Columbia", "claim_id": 251130, "claim_name": "TENNYSON 4", "holder": "TEUTON RESOURCES CORP.", "status": "Mineral", "recorded_date": "4334688000", "anniversary_or_expiry": "2033-10-15", "area_ha": 100, "tenure_type": "Mineral", "source": "BC MTA Mineral, Placer and Coal Tenure Spatial View (BCGW). Open Government Licence - British Columbia. Not legal title.", "as_of": "2026-09-20", "role": "focus", "color": "#e8b040"}}, {"type": "Feature", "geometry": {"type": "Polygon", "coordinates": [[[-130.0806, 56.301], [-130.0806, 56.3017], [-130.1129, 56.3017], [-130.1129, 56.2837], [-130.1058, 56.2837], [-130.1058, 56.2875], [-130.0806, 56.2875], [-130.0806, 56.301]], [[-130.1115, 56.2948], [-130.1079, 56.2983], [-130.1014, 56.2963], [-130.1051, 56.2927], [-130.1115, 56.2948]]]}, "properties": {"company_id": "teuton-resources", "jurisdiction": "British Columbia", "claim_id": 250846, "claim_name": "CATSPAW", "holder": "TEUTON RESOURCES CORP.", "status": "Mineral", "recorded_date": "3162240000", "anniversary_or_expiry": "2033-10-15", "area_ha": 400, "tenure_type": "Mineral", "source": "BC MTA Mineral, Placer and Coal Tenure Spatial View (BCGW). Open Government Licence - British Columbia. Not legal title.", "as_of": "2026-09-20", "role": "focus", "color": "#e8b040"}}, {"type": "Feature", "geometry": {"type": "Polygon", "coordinates": [[[-129.8508, 55.8409], [-129.8608, 55.8409], [-129.8608, 55.8229], [-129.8209, 55.8229], [-129.8209, 55.8409], [-129.8508, 55.8409]]]}, "properties": {"company_id": "teuton-resources", "jurisdiction": "British Columbia", "claim_id": 324516, "claim_name": "PORT 17", "holder": "TEUTON RESOURCES CORP.", "status": "Mineral", "recorded_date": "7642944000", "anniversary_or_expiry": "2029-09-30", "area_ha": 500, "tenure_type": "Mineral", "source": "BC MTA Mineral, Placer and Coal Tenure Spatial View (BCGW). Open Government Licence - British Columbia. Not legal title.", "as_of": "2026-09-20", "role": "focus", "color": "#e8b040"}}, {"type": "Feature", "geometry": {"type": "Polygon", "coordinates": [[[-129.781, 55.8409], [-129.8209, 55.8409], [-129.8209, 55.8229], [-129.781, 55.8229], [-129.781, 55.8409]]]}, "properties": {"company_id": "teuton-resources", "jurisdiction": "British Columbia", "claim_id": 324517, "claim_name": "PORT 18", "holder": "TEUTON RESOURCES CORP.", "status": "Mineral", "recorded_date": "7642944000", "anniversary_or_expiry": "2030-09-30", "area_ha": 500, "tenure_type": "Mineral", "source": "BC MTA Mineral, Placer and Coal Tenure Spatial View (BCGW). Open Government Licence - British Columbia. Not legal title.", "as_of": "2026-09-20", "role": "focus", "color": "#e8b040"}}, {"type": "Feature", "geometry": {"type": "Polygon", "coordinates": [[[-129.8608, 55.8123], [-129.8608, 55.805], [-129.8448, 55.805], [-129.8448, 55.8058], [-129.8209, 55.8058], [-129.8209, 55.8229], [-129.8608, 55.8229], [-129.8581, 55.8228], [-129.858, 55.8206], [-129.858, 55.8123], [-129.8608, 55.8123]]]}, "properties": {"company_id": "teuton-resources", "jurisdiction": "British Columbia", "claim_id": 324518, "claim_name": "PORT 19", "holder": "TEUTON RESOURCES CORP.", "status": "Mineral", "recorded_date": "7642944000", "anniversary_or_expiry": "2030-09-30", "area_ha": 500, "tenure_type": "Mineral", "source": "BC MTA Mineral, Placer and Coal Tenure Spatial View (BCGW). Open Government Licence - British Columbia. Not legal title.", "as_of": "2026-09-20", "role": "focus", "color": "#e8b040"}}, {"type": "Feature", "geometry": {"type": "Polygon", "coordinates": [[[-129.781, 55.8229], [-129.8209, 55.8229], [-129.8209, 55.8058], [-129.781, 55.8059], [-129.781, 55.8229]]]}, "properties": {"company_id": "teuton-resources", "jurisdiction": "British Columbia", "claim_id": 324519, "claim_name": "PORT 20", "holder": "TEUTON RESOURCES CORP.", "status": "Mineral", "recorded_date": "7642944000", "anniversary_or_expiry": "2030-09-30", "area_ha": 500, "tenure_type": "Mineral", "source": "BC MTA Mineral, Placer and Coal Tenure Spatial View (BCGW). Open Government Licence - British Columbia. Not legal title.", "as_of": "2026-09-20", "role": "focus", "color": "#e8b040"}}, {"type": "Feature", "geometry": {"type": "Polygon", "coordinates": [[[-129.781, 55.796], [-129.8049, 55.796], [-129.8049, 55.7915], [-129.781, 55.7915], [-129.781, 55.796]]]}, "properties": {"company_id": "teuton-resources", "jurisdiction": "British Columbia", "claim_id": 331440, "claim_name": "CLONE 2", "holder": "TEUTON RESOURCES CORP.", "status": "Mineral", "recorded_date": "7813152000", "anniversary_or_expiry": "2029-09-30", "area_ha": 75, "tenure_type": "Mineral", "source": "BC MTA Mineral, Placer and Coal Tenure Spatial View (BCGW). Open Government Licence - British Columbia. Not legal title.", "as_of": "2026-09-20", "role": "focus", "color": "#e8b040"}}, {"type": "Feature", "geometry": {"type": "Polygon", "coordinates": [[[-129.4855, 55.9325], [-129.4935, 55.9325], [-129.4935, 55.928], [-129.4855, 55.9281], [-129.4855, 55.9325]]]}, "properties": {"company_id": "teuton-resources", "jurisdiction": "British Columbia", "claim_id": 365905, "claim_name": "KNOINK 1", "holder": "TEUTON RESOURCES CORP.", "status": "Mineral", "recorded_date": "9059904000", "anniversary_or_expiry": "2030-09-30", "area_ha": 25, "tenure_type": "Mineral", "source": "BC MTA Mineral, Placer and Coal Tenure Spatial View (BCGW). Open Government Licence - British Columbia. Not legal title.", "as_of": "2026-09-20", "role": "focus", "color": "#e8b040"}}, {"type": "Feature", "geometry": {"type": "Polygon", "coordinates": [[[-129.4775, 55.93], [-129.4776, 55.9326], [-129.4856, 55.9325], [-129.4855, 55.9281], [-129.4775, 55.9281], [-129.4775, 55.93]]]}, "properties": {"company_id": "teuton-resources", "jurisdiction": "British Columbia", "claim_id": 365906, "claim_name": "KNOINK 2", "holder": "TEUTON RESOURCES CORP.", "status": "Mineral", "recorded_date": "9059904000", "anniversary_or_expiry": "2030-09-30", "area_ha": 25, "tenure_type": "Mineral", "source": "BC MTA Mineral, Placer and Coal Tenure Spatial View (BCGW). Open Government Licence - British Columbia. Not legal title.", "as_of": "2026-09-20", "role": "focus", "color": "#e8b040"}}, {"type": "Feature", "geometry": {"type": "Polygon", "coordinates": [[[-129.4855, 55.9236], [-129.4855, 55.9281], [-129.4935, 55.928], [-129.4935, 55.9236], [-129.4855, 55.9236]]]}, "properties": {"company_id": "teuton-resources", "jurisdiction": "British Columbia", "claim_id": 365907, "claim_name": "KNOINK 3", "holder": "TEUTON RESOURCES CORP.", "status": "Mineral", "recorded_date": "9059904000", "anniversary_or_expiry": "2030-09-30", "area_ha": 25, "tenure_type": "Mineral", "source": "BC MTA Mineral, Placer and Coal Tenure Spatial View (BCGW). Open Government Licence - British Columbia. Not legal title.", "as_of": "2026-09-20", "role": "focus", "color": "#e8b040"}}, {"type": "Feature", "geometry": {"type": "Polygon", "coordinates": [[[-129.4775, 55.928], [-129.4855, 55.9281], [-129.4855, 55.9236], [-129.4775, 55.9236], [-129.4775, 55.928]]]}, "properties": {"company_id": "teuton-resources", "jurisdiction": "British Columbia", "claim_id": 365908, "claim_name": "KNOINK 4", "holder": "TEUTON RESOURCES CORP.", "status": "Mineral", "recorded_date": "9059904000", "anniversary_or_expiry": "2030-09-30", "area_ha": 25, "tenure_type": "Mineral", "source": "BC MTA Mineral, Placer and Coal Tenure Spatial View (BCGW). Open Government Licence - British Columbia. Not legal title.", "as_of": "2026-09-20", "role": "focus", "color": "#e8b040"}}, {"type": "Feature", "geometry": {"type": "Polygon", "coordinates": [[[-129.4858, 55.9435], [-129.4901, 55.9435], [-129.4901, 55.9325], [-129.4776, 55.9326], [-129.4775, 55.93], [-129.4741, 55.93], [-129.4741, 55.9435], [-129.4858, 55.9435]]]}, "properties": {"company_id": "teuton-resources", "jurisdiction": "British Columbia", "claim_id": 369536, "claim_name": "NIKNOCK 1", "holder": "TEUTON RESOURCES CORP.", "status": "Mineral", "recorded_date": "9289728000", "anniversary_or_expiry": "2030-09-30", "area_ha": 150, "tenure_type": "Mineral", "source": "BC MTA Mineral, Placer and Coal Tenure Spatial View (BCGW). Open Government Licence - British Columbia. Not legal title.", "as_of": "2026-09-20", "role": "focus", "color": "#e8b040"}}, {"type": "Feature", "geometry": {"type": "Polygon", "coordinates": [[[-129.4901, 55.9435], [-129.4981, 55.9435], [-129.4981, 55.9345], [-129.4901, 55.9345], [-129.4901, 55.9435]]]}, "properties": {"company_id": "teuton-resources", "jurisdiction": "British Columbia", "claim_id": 369537, "claim_name": "NIKNOCK 2", "holder": "TEUTON RESOURCES CORP.", "status": "Mineral", "recorded_date": "9289728000", "anniversary_or_expiry": "2030-09-30", "area_ha": 50, "tenure_type": "Mineral", "source": "BC MTA Mineral, Placer and Coal Tenure Spatial View (BCGW). Open Government Licence - British Columbia. Not legal title.", "as_of": "2026-09-20", "role": "focus", "color": "#e8b040"}}, {"type": "Feature", "geometry": {"type": "Polygon", "coordinates": [[[-121.7341, 49.5205], [-121.7384, 49.5225], [-121.7357, 49.5249], [-121.7473, 49.5249], [-121.7473, 49.5114], [-121.7196, 49.5114], [-121.7196, 49.5139], [-121.7202, 49.5139], [-121.7203, 49.5149], [-121.7297, 49.5149], [-121.7272, 49.5172], [-121.7341, 49.5205]]]}, "properties": {"company_id": "teuton-resources", "jurisdiction": "British Columbia", "claim_id": 389615, "claim_name": "COG 7", "holder": "TEUTON RESOURCES CORP.", "status": "Mineral", "recorded_date": "2001-09-14", "anniversary_or_expiry": "2025-07-20", "area_ha": 300, "tenure_type": "Mineral", "source": "BC MTA Mineral, Placer and Coal Tenure Spatial View (BCGW). Open Government Licence - British Columbia. Not legal title.", "as_of": "2026-09-20", "role": "focus", "color": "#e8b040"}}, {"type": "Feature", "geometry": {"type": "Polygon", "coordinates": [[[-121.7002, 49.4979], [-121.7002, 49.5114], [-121.7403, 49.5114], [-121.7403, 49.4979], [-121.7002, 49.4979]]]}, "properties": {"company_id": "teuton-resources", "jurisdiction": "British Columbia", "claim_id": 389616, "claim_name": "COG 8", "holder": "TEUTON RESOURCES CORP.", "status": "Mineral", "recorded_date": "2001-09-15", "anniversary_or_expiry": "2025-07-21", "area_ha": 450, "tenure_type": "Mineral", "source": "BC MTA Mineral, Placer and Coal Tenure Spatial View (BCGW). Open Government Licence - British Columbia. Not legal title.", "as_of": "2026-09-20", "role": "focus", "color": "#e8b040"}}, {"type": "Feature", "geometry": {"type": "Polygon", "coordinates": [[[-129.4611, 55.9979], [-129.4913, 55.9979], [-129.4913, 55.9799], [-129.4611, 55.9799], [-129.4611, 55.9979]]]}, "properties": {"company_id": "teuton-resources", "jurisdiction": "British Columbia", "claim_id": 396293, "claim_name": "MIDAS 1", "holder": "TEUTON RESOURCES CORP.", "status": "Mineral", "recorded_date": "2002-09-10", "anniversary_or_expiry": "2030-12-21", "area_ha": 400, "tenure_type": "Mineral", "source": "BC MTA Mineral, Placer and Coal Tenure Spatial View (BCGW). Open Government Licence - British Columbia. Not legal title.", "as_of": "2026-09-20", "role": "focus", "color": "#e8b040"}}, {"type": "Feature", "geometry": {"type": "Polygon", "coordinates": [[[-129.5153, 55.979], [-129.5338, 55.979], [-129.5337, 55.9754], [-129.5367, 55.9754], [-129.5365, 55.9661], [-129.539, 55.9661], [-129.539, 55.9624], [-129.499, 55.9624], [-129.499, 55.9742], [-129.5153, 55.9742], [-129.5153, 55.979]]]}, "properties": {"company_id": "teuton-resources", "jurisdiction": "British Columbia", "claim_id": 396294, "claim_name": "MIDAS 2", "holder": "TEUTON RESOURCES CORP.", "status": "Mineral", "recorded_date": "2002-09-11", "anniversary_or_expiry": "2031-09-30", "area_ha": 500, "tenure_type": "Mineral", "source": "BC MTA Mineral, Placer and Coal Tenure Spatial View (BCGW). Open Government Licence - British Columbia. Not legal title.", "as_of": "2026-09-20", "role": "focus", "color": "#e8b040"}}, {"type": "Feature", "geometry": {"type": "Polygon", "coordinates": [[[-129.4611, 55.9803], [-129.4611, 55.9799], [-129.4913, 55.9799], [-129.4913, 55.9742], [-129.499, 55.9742], [-129.499, 55.9624], [-129.4589, 55.9624], [-129.4589, 55.9803], [-129.4611, 55.9803]]]}, "properties": {"company_id": "teuton-resources", "jurisdiction": "British Columbia", "claim_id": 396295, "claim_name": "MIDAS 3", "holder": "TEUTON RESOURCES CORP.", "status": "Mineral", "recorded_date": "2002-09-11", "anniversary_or_expiry": "2031-09-30", "area_ha": 500, "tenure_type": "Mineral", "source": "BC MTA Mineral, Placer and Coal Tenure Spatial View (BCGW). Open Government Licence - British Columbia. Not legal title.", "as_of": "2026-09-20", "role": "focus", "color": "#e8b040"}}, {"type": "Feature", "geometry": {"type": "Polygon", "coordinates": [[[-129.499, 55.9624], [-129.539, 55.9624], [-129.539, 55.9444], [-129.5178, 55.9444], [-129.5178, 55.946], [-129.499, 55.946], [-129.499, 55.9624]]]}, "properties": {"company_id": "teuton-resources", "jurisdiction": "British Columbia", "claim_id": 396296, "claim_name": "MIDAS 4", "holder": "TEUTON RESOURCES CORP.", "status": "Mineral", "recorded_date": "2002-09-11", "anniversary_or_expiry": "2031-09-30", "area_ha": 500, "tenure_type": "Mineral", "source": "BC MTA Mineral, Placer and Coal Tenure Spatial View (BCGW). Open Government Licence - British Columbia. Not legal title.", "as_of": "2026-09-20", "role": "focus", "color": "#e8b040"}}, {"type": "Feature", "geometry": {"type": "Polygon", "coordinates": [[[-129.4589, 55.9624], [-129.499, 55.9624], [-129.499, 55.946], [-129.4589, 55.946], [-129.4589, 55.9624]]]}, "properties": {"company_id": "teuton-resources", "jurisdiction": "British Columbia", "claim_id": 396297, "claim_name": "MIDAS 5", "holder": "TEUTON RESOURCES CORP.", "status": "Mineral", "recorded_date": "2002-09-11", "anniversary_or_expiry": "2031-09-30", "area_ha": 500, "tenure_type": "Mineral", "source": "BC MTA Mineral, Placer and Coal Tenure Spatial View (BCGW). Open Government Licence - British Columbia. Not legal title.", "as_of": "2026-09-20", "role": "focus", "color": "#e8b040"}}, {"type": "Feature", "geometry": {"type": "Polygon", "coordinates": [[[-129.499, 55.946], [-129.5178, 55.946], [-129.5178, 55.928], [-129.4935, 55.928], [-129.4935, 55.9325], [-129.4901, 55.9325], [-129.4901, 55.9345], [-129.4981, 55.9345], [-129.4981, 55.9435], [-129.4858, 55.9435], [-129.4858, 55.946], [-129.499, 55.946]]]}, "properties": {"company_id": "teuton-resources", "jurisdiction": "British Columbia", "claim_id": 396298, "claim_name": "MIDAS 6", "holder": "TEUTON RESOURCES CORP.", "status": "Mineral", "recorded_date": "2002-09-11", "anniversary_or_expiry": "2031-09-30", "area_ha": 400, "tenure_type": "Mineral", "source": "BC MTA Mineral, Placer and Coal Tenure Spatial View (BCGW). Open Government Licence - British Columbia. Not legal title.", "as_of": "2026-09-20", "role": "focus", "color": "#e8b040"}}, {"type": "Feature", "geometry": {"type": "Polygon", "coordinates": [[[-129.4589, 55.946], [-129.4858, 55.946], [-129.4858, 55.9435], [-129.4741, 55.9435], [-129.4741, 55.93], [-129.4775, 55.93], [-129.4775, 55.928], [-129.4538, 55.928], [-129.4538, 55.946], [-129.4589, 55.946]]]}, "properties": {"company_id": "teuton-resources", "jurisdiction": "British Columbia", "claim_id": 396299, "claim_name": "MIDAS 7", "holder": "TEUTON RESOURCES CORP.", "status": "Mineral", "recorded_date": "2002-09-11", "anniversary_or_expiry": "2031-09-30", "area_ha": 400, "tenure_type": "Mineral", "source": "BC MTA Mineral, Placer and Coal Tenure Spatial View (BCGW). Open Government Licence - British Columbia. Not legal title.", "as_of": "2026-09-20", "role": "focus", "color": "#e8b040"}}, {"type": "Feature", "geometry": {"type": "Polygon", "coordinates": [[[-129.4935, 55.928], [-129.5178, 55.928], [-129.5178, 55.9056], [-129.4858, 55.9056], [-129.4858, 55.9236], [-129.4935, 55.9236], [-129.4935, 55.928]]]}, "properties": {"company_id": "teuton-resources", "jurisdiction": "British Columbia", "claim_id": 396300, "claim_name": "MIDAS 8", "holder": "TEUTON RESOURCES CORP.", "status": "Mineral", "recorded_date": "2002-09-11", "anniversary_or_expiry": "2031-09-30", "area_ha": 500, "tenure_type": "Mineral", "source": "BC MTA Mineral, Placer and Coal Tenure Spatial View (BCGW). Open Government Licence - British Columbia. Not legal title.", "as_of": "2026-09-20", "role": "focus", "color": "#e8b040"}}, {"type": "Feature", "geometry": {"type": "Polygon", "coordinates": [[[-129.4538, 55.928], [-129.4775, 55.928], [-129.4775, 55.9236], [-129.4858, 55.9236], [-129.4858, 55.9056], [-129.4538, 55.9056], [-129.4538, 55.928]]]}, "properties": {"company_id": "teuton-resources", "jurisdiction": "British Columbia", "claim_id": 396301, "claim_name": "MIDAS 9", "holder": "TEUTON RESOURCES CORP.", "status": "Mineral", "recorded_date": "2002-09-11", "anniversary_or_expiry": "2030-06-30", "area_ha": 500, "tenure_type": "Mineral", "source": "BC MTA Mineral, Placer and Coal Tenure Spatial View (BCGW). Open Government Licence - British Columbia. Not legal title.", "as_of": "2026-09-20", "role": "focus", "color": "#e8b040"}}, {"type": "Feature", "geometry": {"type": "Polygon", "coordinates": [[[-129.5318, 56.0909], [-129.5332, 56.0909], [-129.5332, 56.0684], [-129.5011, 56.0684], [-129.5011, 56.0909], [-129.5318, 56.0909]]]}, "properties": {"company_id": "teuton-resources", "jurisdiction": "British Columbia", "claim_id": 396302, "claim_name": "LORD NELSON 1", "holder": "TEUTON RESOURCES CORP.", "status": "Mineral", "recorded_date": "2002-09-10", "anniversary_or_expiry": "2031-12-21", "area_ha": 500, "tenure_type": "Mineral", "source": "BC MTA Mineral, Placer and Coal Tenure Spatial View (BCGW). Open Government Licence - British Columbia. Not legal title.", "as_of": "2026-09-20", "role": "focus", "color": "#e8b040"}}, {"type": "Feature", "geometry": {"type": "Polygon", "coordinates": [[[-129.4729, 56.0909], [-129.5011, 56.0909], [-129.5011, 56.0684], [-129.469, 56.0684], [-129.469, 56.0909], [-129.4729, 56.0909]]]}, "properties": {"company_id": "teuton-resources", "jurisdiction": "British Columbia", "claim_id": 396303, "claim_name": "LORD NELSON 2", "holder": "TEUTON RESOURCES CORP.", "status": "Mineral", "recorded_date": "2002-09-10", "anniversary_or_expiry": "2031-12-21", "area_ha": 500, "tenure_type": "Mineral", "source": "BC MTA Mineral, Placer and Coal Tenure Spatial View (BCGW). Open Government Licence - British Columbia. Not legal title.", "as_of": "2026-09-20", "role": "focus", "color": "#e8b040"}}, {"type": "Feature", "geometry": {"type": "Polygon", "coordinates": [[[-129.502, 56.0684], [-129.5332, 56.0684], [-129.5332, 56.0518], [-129.5011, 56.0518], [-129.5011, 56.0684], [-129.502, 56.0684]]]}, "properties": {"company_id": "teuton-resources", "jurisdiction": "British Columbia", "claim_id": 396304, "claim_name": "LORD NELSON 3", "holder": "TEUTON RESOURCES CORP.", "status": "Mineral", "recorded_date": "2002-09-10", "anniversary_or_expiry": "2031-12-21", "area_ha": 500, "tenure_type": "Mineral", "source": "BC MTA Mineral, Placer and Coal Tenure Spatial View (BCGW). Open Government Licence - British Columbia. Not legal title.", "as_of": "2026-09-20", "role": "focus", "color": "#e8b040"}}, {"type": "Feature", "geometry": {"type": "Polygon", "coordinates": [[[-129.469, 56.0684], [-129.5011, 56.0684], [-129.5011, 56.0518], [-129.469, 56.0518], [-129.469, 56.0684]]]}, "properties": {"company_id": "teuton-resources", "jurisdiction": "British Columbia", "claim_id": 396305, "claim_name": "LORD NELSON 4", "holder": "TEUTON RESOURCES CORP.", "status": "Mineral", "recorded_date": "2002-09-10", "anniversary_or_expiry": "2031-12-21", "area_ha": 500, "tenure_type": "Mineral", "source": "BC MTA Mineral, Placer and Coal Tenure Spatial View (BCGW). Open Government Licence - British Columbia. Not legal title.", "as_of": "2026-09-20", "role": "focus", "color": "#e8b040"}}, {"type": "Feature", "geometry": {"type": "Polygon", "coordinates": [[[-129.5318, 56.0913], [-129.5511, 56.0913], [-129.5511, 56.0788], [-129.5559, 56.0788], [-129.5559, 56.065], [-129.5332, 56.065], [-129.5332, 56.0909], [-129.5318, 56.0909], [-129.5318, 56.0913]]]}, "properties": {"company_id": "teuton-resources", "jurisdiction": "British Columbia", "claim_id": 396306, "claim_name": "LORD NELSON 5", "holder": "TEUTON RESOURCES CORP.", "status": "Mineral", "recorded_date": "2002-09-10", "anniversary_or_expiry": "2031-12-21", "area_ha": 450, "tenure_type": "Mineral", "source": "BC MTA Mineral, Placer and Coal Tenure Spatial View (BCGW). Open Government Licence - British Columbia. Not legal title.", "as_of": "2026-09-20", "role": "focus", "color": "#e8b040"}}, {"type": "Feature", "geometry": {"type": "Polygon", "coordinates": [[[-129.5332, 56.065], [-129.5559, 56.065], [-129.5559, 56.038], [-129.5404, 56.038], [-129.5404, 56.0518], [-129.5332, 56.0518], [-129.5332, 56.065]]]}, "properties": {"company_id": "teuton-resources", "jurisdiction": "British Columbia", "claim_id": 396307, "claim_name": "LORD NELSON 6", "holder": "TEUTON RESOURCES CORP.", "status": "Mineral", "recorded_date": "2002-09-10", "anniversary_or_expiry": "2031-12-21", "area_ha": 450, "tenure_type": "Mineral", "source": "BC MTA Mineral, Placer and Coal Tenure Spatial View (BCGW). Open Government Licence - British Columbia. Not legal title.", "as_of": "2026-09-20", "role": "focus", "color": "#e8b040"}}, {"type": "Feature", "geometry": {"type": "Polygon", "coordinates": [[[-129.5404, 56.038], [-129.5559, 56.038], [-129.5559, 56.0156], [-129.5554, 56.0156], [-129.5554, 56.0191], [-129.5404, 56.0191], [-129.5404, 56.038]]]}, "properties": {"company_id": "teuton-resources", "jurisdiction": "British Columbia", "claim_id": 396308, "claim_name": "LORD NELSON 7", "holder": "TEUTON RESOURCES CORP.", "status": "Mineral", "recorded_date": "2002-09-10", "anniversary_or_expiry": "2031-12-21", "area_ha": 375, "tenure_type": "Mineral", "source": "BC MTA Mineral, Placer and Coal Tenure Spatial View (BCGW). Open Government Licence - British Columbia. Not legal title.", "as_of": "2026-09-20", "role": "focus", "color": "#e8b040"}}, {"type": "Feature", "geometry": {"type": "Polygon", "coordinates": [[[-129.5332, 56.0518], [-129.5404, 56.0518], [-129.5404, 56.0338], [-129.5003, 56.0338], [-129.5003, 56.0518], [-129.5332, 56.0518]]]}, "properties": {"company_id": "teuton-resources", "jurisdiction": "British Columbia", "claim_id": 396309, "claim_name": "HORATIO 1", "holder": "TEUTON RESOURCES CORP.", "status": "Mineral", "recorded_date": "2002-09-09", "anniversary_or_expiry": "2031-12-21", "area_ha": 500, "tenure_type": "Mineral", "source": "BC MTA Mineral, Placer and Coal Tenure Spatial View (BCGW). Open Government Licence - British Columbia. Not legal title.", "as_of": "2026-09-20", "role": "focus", "color": "#e8b040"}}, {"type": "Feature", "geometry": {"type": "Polygon", "coordinates": [[[-129.469, 56.0518], [-129.5003, 56.0518], [-129.5003, 56.0338], [-129.4602, 56.0338], [-129.4602, 56.0518], [-129.469, 56.0518]]]}, "properties": {"company_id": "teuton-resources", "jurisdiction": "British Columbia", "claim_id": 396310, "claim_name": "HORATIO 2", "holder": "TEUTON RESOURCES CORP.", "status": "Mineral", "recorded_date": "2002-09-09", "anniversary_or_expiry": "2031-12-21", "area_ha": 500, "tenure_type": "Mineral", "source": "BC MTA Mineral, Placer and Coal Tenure Spatial View (BCGW). Open Government Licence - British Columbia. Not legal title.", "as_of": "2026-09-20", "role": "focus", "color": "#e8b040"}}, {"type": "Feature", "geometry": {"type": "Polygon", "coordinates": [[[-129.5003, 56.0338], [-129.5404, 56.0338], [-129.5404, 56.0191], [-129.5153, 56.0191], [-129.5153, 56.0236], [-129.5003, 56.0236], [-129.5003, 56.0338]]]}, "properties": {"company_id": "teuton-resources", "jurisdiction": "British Columbia", "claim_id": 396311, "claim_name": "HORATIO 3", "holder": "TEUTON RESOURCES CORP.", "status": "Mineral", "recorded_date": "2002-09-09", "anniversary_or_expiry": "2031-12-21", "area_ha": 500, "tenure_type": "Mineral", "source": "BC MTA Mineral, Placer and Coal Tenure Spatial View (BCGW). Open Government Licence - British Columbia. Not legal title.", "as_of": "2026-09-20", "role": "focus", "color": "#e8b040"}}, {"type": "Feature", "geometry": {"type": "Polygon", "coordinates": [[[-129.4602, 56.0338], [-129.5003, 56.0338], [-129.5003, 56.0236], [-129.4912, 56.0236], [-129.4913, 56.0159], [-129.4602, 56.0158], [-129.4602, 56.0338]]]}, "properties": {"company_id": "teuton-resources", "jurisdiction": "British Columbia", "claim_id": 396312, "claim_name": "HORATIO 4", "holder": "TEUTON RESOURCES CORP.", "status": "Mineral", "recorded_date": "2002-09-09", "anniversary_or_expiry": "2032-12-21", "area_ha": 500, "tenure_type": "Mineral", "source": "BC MTA Mineral, Placer and Coal Tenure Spatial View (BCGW). Open Government Licence - British Columbia. Not legal title.", "as_of": "2026-09-20", "role": "focus", "color": "#e8b040"}}, {"type": "Feature", "geometry": {"type": "Polygon", "coordinates": [[[-129.4913, 55.9998], [-129.4913, 55.9979], [-129.4611, 55.9979], [-129.461, 56.0159], [-129.4913, 56.0159], [-129.4913, 55.9998]]]}, "properties": {"company_id": "teuton-resources", "jurisdiction": "British Columbia", "claim_id": 396313, "claim_name": "HORATIO 5", "holder": "TEUTON RESOURCES CORP.", "status": "Mineral", "recorded_date": "2002-09-10", "anniversary_or_expiry": "2032-12-21", "area_ha": 400, "tenure_type": "Mineral", "source": "BC MTA Mineral, Placer and Coal Tenure Spatial View (BCGW). Open Government Licence - British Columbia. Not legal title.", "as_of": "2026-09-20", "role": "focus", "color": "#e8b040"}}, {"type": "Feature", "geometry": {"type": "Polygon", "coordinates": [[[-129.5961, 56.0412], [-129.6118, 56.0412], [-129.6118, 56.0309], [-129.5797, 56.0309], [-129.5797, 56.0412], [-129.5961, 56.0412]]]}, "properties": {"company_id": "teuton-resources", "jurisdiction": "British Columbia", "claim_id": 404916, "claim_name": "LH 1", "holder": "TEUTON RESOURCES CORP.", "status": "Mineral", "recorded_date": "2003-09-08", "anniversary_or_expiry": "2030-09-30", "area_ha": 300, "tenure_type": "Mineral", "source": "BC MTA Mineral, Placer and Coal Tenure Spatial View (BCGW). Open Government Licence - British Columbia. Not legal title.", "as_of": "2026-09-20", "role": "focus", "color": "#e8b040"}}, {"type": "Feature", "geometry": {"type": "Polygon", "coordinates": [[[-129.5559, 56.0444], [-129.5559, 56.0412], [-129.5797, 56.0412], [-129.5797, 56.0309], [-129.5559, 56.0309], [-129.5559, 56.0444]]]}, "properties": {"company_id": "teuton-resources", "jurisdiction": "British Columbia", "claim_id": 404917, "claim_name": "LH 2", "holder": "TEUTON RESOURCES CORP.", "status": "Mineral", "recorded_date": "2003-09-08", "anniversary_or_expiry": "2030-09-30", "area_ha": 225, "tenure_type": "Mineral", "source": "BC MTA Mineral, Placer and Coal Tenure Spatial View (BCGW). Open Government Licence - British Columbia. Not legal title.", "as_of": "2026-09-20", "role": "focus", "color": "#e8b040"}}, {"type": "Feature", "geometry": {"type": "Polygon", "coordinates": [[[-129.5797, 56.0309], [-129.6118, 56.0309], [-129.6118, 56.0115], [-129.5797, 56.011], [-129.5797, 56.0309]]]}, "properties": {"company_id": "teuton-resources", "jurisdiction": "British Columbia", "claim_id": 404918, "claim_name": "LH 3", "holder": "TEUTON RESOURCES CORP.", "status": "Mineral", "recorded_date": "2003-09-08", "anniversary_or_expiry": "2030-09-30", "area_ha": 500, "tenure_type": "Mineral", "source": "BC MTA Mineral, Placer and Coal Tenure Spatial View (BCGW). Open Government Licence - British Columbia. Not legal title.", "as_of": "2026-09-20", "role": "focus", "color": "#e8b040"}}, {"type": "Feature", "geometry": {"type": "Polygon", "coordinates": [[[-129.5559, 56.0309], [-129.5797, 56.0309], [-129.5797, 56.011], [-129.5557, 56.011], [-129.5559, 56.0309]]]}, "properties": {"company_id": "teuton-resources", "jurisdiction": "British Columbia", "claim_id": 404919, "claim_name": "LH 4", "holder": "TEUTON RESOURCES CORP.", "status": "Mineral", "recorded_date": "2003-09-08", "anniversary_or_expiry": "2030-09-30", "area_ha": 375, "tenure_type": "Mineral", "source": "BC MTA Mineral, Placer and Coal Tenure Spatial View (BCGW). Open Government Licence - British Columbia. Not legal title.", "as_of": "2026-09-20", "role": "focus", "color": "#e8b040"}}, {"type": "Feature", "geometry": {"type": "Polygon", "coordinates": [[[-130.1434, 56.2827], [-130.1497, 56.2827], [-130.1497, 56.2782], [-130.1434, 56.2782], [-130.1434, 56.2827]]]}, "properties": {"company_id": "teuton-resources", "jurisdiction": "British Columbia", "claim_id": 409039, "claim_name": "TENN 1", "holder": "TEUTON RESOURCES CORP.", "status": "Mineral", "recorded_date": "2004-03-12", "anniversary_or_expiry": "2032-10-15", "area_ha": 25, "tenure_type": "Mineral", "source": "BC MTA Mineral, Placer and Coal Tenure Spatial View (BCGW). Open Government Licence - British Columbia. Not legal title.", "as_of": "2026-09-20", "role": "focus", "color": "#e8b040"}}, {"type": "Feature", "geometry": {"type": "Polygon", "coordinates": [[[-130.1434, 56.2782], [-130.1497, 56.2782], [-130.1497, 56.2542], [-130.1461, 56.2542], [-130.1462, 56.2695], [-130.1434, 56.2695], [-130.1434, 56.2782]]]}, "properties": {"company_id": "teuton-resources", "jurisdiction": "British Columbia", "claim_id": 409040, "claim_name": "TENN 2", "holder": "TEUTON RESOURCES CORP.", "status": "Mineral", "recorded_date": "2004-03-12", "anniversary_or_expiry": "2032-10-15", "area_ha": 150, "tenure_type": "Mineral", "source": "BC MTA Mineral, Placer and Coal Tenure Spatial View (BCGW). Open Government Licence - British Columbia. Not legal title.", "as_of": "2026-09-20", "role": "focus", "color": "#e8b040"}}, {"type": "Feature", "geometry": {"type": "Polygon", "coordinates": [[[-130.1726, 56.3007], [-130.182, 56.3007], [-130.182, 56.2827], [-130.1434, 56.2827], [-130.1434, 56.2863], [-130.1416, 56.2863], [-130.1416, 56.3001], [-130.1726, 56.3001], [-130.1726, 56.3007]]]}, "properties": {"company_id": "teuton-resources", "jurisdiction": "British Columbia", "claim_id": 409042, "claim_name": "TENN 4", "holder": "TEUTON RESOURCES CORP.", "status": "Mineral", "recorded_date": "2004-03-12", "anniversary_or_expiry": "2033-10-15", "area_ha": 500, "tenure_type": "Mineral", "source": "BC MTA Mineral, Placer and Coal Tenure Spatial View (BCGW). Open Government Licence - British Columbia. Not legal title.", "as_of": "2026-09-20", "role": "focus", "color": "#e8b040"}}, {"type": "Feature", "geometry": {"type": "Polygon", "coordinates": [[[-130.1129, 56.3009], [-130.1321, 56.3009], [-130.1322, 56.3001], [-130.1416, 56.3001], [-130.1416, 56.2863], [-130.1129, 56.2863], [-130.1129, 56.3009]]]}, "properties": {"company_id": "teuton-resources", "jurisdiction": "British Columbia", "claim_id": 409053, "claim_name": "JOHN", "holder": "TEUTON RESOURCES CORP.", "status": "Mineral", "recorded_date": "2004-03-12", "anniversary_or_expiry": "2032-10-15", "area_ha": 400, "tenure_type": "Mineral", "source": "BC MTA Mineral, Placer and Coal Tenure Spatial View (BCGW). Open Government Licence - British Columbia. Not legal title.", "as_of": "2026-09-20", "role": "focus", "color": "#e8b040"}}, {"type": "Feature", "geometry": {"type": "Polygon", "coordinates": [[[-130.1708, 56.3081], [-130.1708, 56.304], [-130.1333, 56.304], [-130.1333, 56.3165], [-130.1708, 56.3165], [-130.1708, 56.3081]]]}, "properties": {"company_id": "teuton-resources", "jurisdiction": "British Columbia", "claim_id": 504858, "claim_name": "JIM - KM", "holder": "TEUTON RESOURCES CORP.", "status": "Mineral", "recorded_date": "2005-01-26", "anniversary_or_expiry": "2033-10-15", "area_ha": 323.057, "tenure_type": "Mineral", "source": "BC MTA Mineral, Placer and Coal Tenure Spatial View (BCGW). Open Government Licence - British Columbia. Not legal title.", "as_of": "2026-09-20", "role": "focus", "color": "#e8b040"}}, {"type": "Feature", "geometry": {"type": "Polygon", "coordinates": [[[-130.1208, 56.3165], [-130.102, 56.3165], [-130.102, 56.3206], [-130.127, 56.3206], [-130.127, 56.3165], [-130.1208, 56.3165]]]}, "properties": {"company_id": "teuton-resources", "jurisdiction": "British Columbia", "claim_id": 504863, "claim_name": "FRANK - KM", "holder": "TEUTON RESOURCES CORP.", "status": "Mineral", "recorded_date": "2005-01-26", "anniversary_or_expiry": "2033-10-15", "area_ha": 71.775, "tenure_type": "Mineral", "source": "BC MTA Mineral, Placer and Coal Tenure Spatial View (BCGW). Open Government Licence - British Columbia. Not legal title.", "as_of": "2026-09-20", "role": "focus", "color": "#e8b040"}}, {"type": "Feature", "geometry": {"type": "Polygon", "coordinates": [[[-130.3166, 56.2623], [-130.3166, 56.2848], [-130.3489, 56.2848], [-130.3489, 56.2623], [-130.3166, 56.2623]]]}, "properties": {"company_id": "teuton-resources", "jurisdiction": "British Columbia", "claim_id": 415486, "claim_name": "PEARSON 1", "holder": "TEUTON RESOURCES CORP.", "status": "Mineral", "recorded_date": "2004-11-08", "anniversary_or_expiry": "2032-10-15", "area_ha": 500, "tenure_type": "Mineral", "source": "BC MTA Mineral, Placer and Coal Tenure Spatial View (BCGW). Open Government Licence - British Columbia. Not legal title.", "as_of": "2026-09-20", "role": "focus", "color": "#e8b040"}}, {"type": "Feature", "geometry": {"type": "Polygon", "coordinates": [[[-130.3166, 56.2623], [-130.2843, 56.2623], [-130.2843, 56.2848], [-130.3166, 56.2848], [-130.3166, 56.2623]]]}, "properties": {"company_id": "teuton-resources", "jurisdiction": "British Columbia", "claim_id": 415487, "claim_name": "PEARSON 2", "holder": "TEUTON RESOURCES CORP.", "status": "Mineral", "recorded_date": "2004-11-08", "anniversary_or_expiry": "2032-10-15", "area_ha": 500, "tenure_type": "Mineral", "source": "BC MTA Mineral, Placer and Coal Tenure Spatial View (BCGW). Open Government Licence - British Columbia. Not legal title.", "as_of": "2026-09-20", "role": "focus", "color": "#e8b040"}}, {"type": "Feature", "geometry": {"type": "Polygon", "coordinates": [[[-130.3211, 56.2404], [-130.3166, 56.2404], [-130.3166, 56.2623], [-130.3489, 56.2623], [-130.3489, 56.2404], [-130.3211, 56.2404]]]}, "properties": {"company_id": "teuton-resources", "jurisdiction": "British Columbia", "claim_id": 415488, "claim_name": "PEARSON 3", "holder": "TEUTON RESOURCES CORP.", "status": "Mineral", "recorded_date": "2004-11-08", "anniversary_or_expiry": "2032-10-15", "area_ha": 500, "tenure_type": "Mineral", "source": "BC MTA Mineral, Placer and Coal Tenure Spatial View (BCGW). Open Government Licence - British Columbia. Not legal title.", "as_of": "2026-09-20", "role": "focus", "color": "#e8b040"}}, {"type": "Feature", "geometry": {"type": "Polygon", "coordinates": [[[-130.2888, 56.2398], [-130.2843, 56.2398], [-130.2843, 56.2623], [-130.3166, 56.2623], [-130.3166, 56.2404], [-130.2888, 56.2404], [-130.2888, 56.2398]]]}, "properties": {"company_id": "teuton-resources", "jurisdiction": "British Columbia", "claim_id": 415489, "claim_name": "PEARSON 4", "holder": "TEUTON RESOURCES CORP.", "status": "Mineral", "recorded_date": "2004-11-08", "anniversary_or_expiry": "2032-10-15", "area_ha": 500, "tenure_type": "Mineral", "source": "BC MTA Mineral, Placer and Coal Tenure Spatial View (BCGW). Open Government Licence - British Columbia. Not legal title.", "as_of": "2026-09-20", "role": "focus", "color": "#e8b040"}}, {"type": "Feature", "geometry": {"type": "Polygon", "coordinates": [[[-130.3895, 56.179], [-130.3895, 56.1748], [-130.3208, 56.1748], [-130.3208, 56.1998], [-130.3333, 56.1998], [-130.3333, 56.1956], [-130.3395, 56.1956], [-130.3395, 56.1915], [-130.3458, 56.1915], [-130.3458, 56.1873], [-130.352, 56.1873], [-130.352, 56.1915], [-130.3583, 56.1915], [-130.3583, 56.1956], [-130.352, 56.1956], [-130.352, 56.1998], [-130.3895, 56.1998], [-130.3895, 56.179]]]}, "properties": {"company_id": "teuton-resources", "jurisdiction": "British Columbia", "claim_id": 508703, "claim_name": null, "holder": "TEUTON RESOURCES CORP.", "status": "Mineral", "recorded_date": "2005-03-10", "anniversary_or_expiry": "2032-10-15", "area_ha": 1062.373, "tenure_type": "Mineral", "source": "BC MTA Mineral, Placer and Coal Tenure Spatial View (BCGW). Open Government Licence - British Columbia. Not legal title.", "as_of": "2026-09-20", "role": "focus", "color": "#e8b040"}}, {"type": "Feature", "geometry": {"type": "Polygon", "coordinates": [[[-130.3895, 56.204], [-130.3895, 56.1998], [-130.352, 56.1998], [-130.352, 56.2081], [-130.3583, 56.2081], [-130.3583, 56.2165], [-130.3583, 56.2373], [-130.352, 56.2373], [-130.352, 56.2415], [-130.3895, 56.2415], [-130.3895, 56.204]]]}, "properties": {"company_id": "teuton-resources", "jurisdiction": "British Columbia", "claim_id": 508705, "claim_name": null, "holder": "TEUTON RESOURCES CORP.", "status": "Mineral", "recorded_date": "2005-03-10", "anniversary_or_expiry": "2032-10-15", "area_ha": 953.4870000000001, "tenure_type": "Mineral", "source": "BC MTA Mineral, Placer and Coal Tenure Spatial View (BCGW). Open Government Licence - British Columbia. Not legal title.", "as_of": "2026-09-20", "role": "focus", "color": "#e8b040"}}, {"type": "Feature", "geometry": {"type": "Polygon", "coordinates": [[[-130.3333, 56.1998], [-130.3208, 56.1998], [-130.3208, 56.2165], [-130.327, 56.2165], [-130.327, 56.2123], [-130.3333, 56.2123], [-130.3333, 56.204], [-130.3395, 56.204], [-130.3395, 56.1998], [-130.3333, 56.1998]]]}, "properties": {"company_id": "teuton-resources", "jurisdiction": "British Columbia", "claim_id": 508775, "claim_name": null, "holder": "TEUTON RESOURCES CORP.", "status": "Mineral", "recorded_date": "2005-03-11", "anniversary_or_expiry": "2032-10-15", "area_ha": 143.976, "tenure_type": "Mineral", "source": "BC MTA Mineral, Placer and Coal Tenure Spatial View (BCGW). Open Government Licence - British Columbia. Not legal title.", "as_of": "2026-09-20", "role": "focus", "color": "#e8b040"}}, {"type": "Feature", "geometry": {"type": "Polygon", "coordinates": [[[-130.3208, 56.1831], [-130.3208, 56.179], [-130.2958, 56.179], [-130.2958, 56.1998], [-130.3208, 56.1998], [-130.3208, 56.1831]]]}, "properties": {"company_id": "teuton-resources", "jurisdiction": "British Columbia", "claim_id": 508777, "claim_name": null, "holder": "TEUTON RESOURCES CORP.", "status": "Mineral", "recorded_date": "2005-03-11", "anniversary_or_expiry": "2032-10-15", "area_ha": 360.098, "tenure_type": "Mineral", "source": "BC MTA Mineral, Placer and Coal Tenure Spatial View (BCGW). Open Government Licence - British Columbia. Not legal title.", "as_of": "2026-09-20", "role": "focus", "color": "#e8b040"}}, {"type": "Feature", "geometry": {"type": "Polygon", "coordinates": [[[-130.177, 56.2498], [-130.1645, 56.2498], [-130.1645, 56.2331], [-130.1708, 56.2331], [-130.1708, 56.2248], [-130.1645, 56.2248], [-130.1645, 56.229], [-130.152, 56.229], [-130.152, 56.2331], [-130.1458, 56.2331], [-130.1458, 56.2498], [-130.152, 56.2498], [-130.152, 56.254], [-130.1833, 56.254], [-130.1833, 56.2498], [-130.177, 56.2498]]]}, "properties": {"company_id": "teuton-resources", "jurisdiction": "British Columbia", "claim_id": 508799, "claim_name": null, "holder": "TEUTON RESOURCES CORP.", "status": "Mineral", "recorded_date": "2005-03-11", "anniversary_or_expiry": "2033-10-15", "area_ha": 377.58700000000005, "tenure_type": "Mineral", "source": "BC MTA Mineral, Placer and Coal Tenure Spatial View (BCGW). Open Government Licence - British Columbia. Not legal title.", "as_of": "2026-09-20", "role": "focus", "color": "#e8b040"}}, {"type": "Feature", "geometry": {"type": "Polygon", "coordinates": [[[-130.1833, 56.2748], [-130.1833, 56.2706], [-130.1458, 56.2706], [-130.1458, 56.2831], [-130.1833, 56.2831], [-130.1833, 56.2748]]]}, "properties": {"company_id": "teuton-resources", "jurisdiction": "British Columbia", "claim_id": 508802, "claim_name": null, "holder": "TEUTON RESOURCES CORP.", "status": "Mineral", "recorded_date": "2005-03-11", "anniversary_or_expiry": "2032-10-15", "area_ha": 323.34000000000003, "tenure_type": "Mineral", "source": "BC MTA Mineral, Placer and Coal Tenure Spatial View (BCGW). Open Government Licence - British Columbia. Not legal title.", "as_of": "2026-09-20", "role": "focus", "color": "#e8b040"}}, {"type": "Feature", "geometry": {"type": "Polygon", "coordinates": [[[-130.177, 56.3206], [-130.177, 56.3165], [-130.127, 56.3165], [-130.127, 56.3206], [-130.1145, 56.3206], [-130.1145, 56.3373], [-130.0833, 56.3373], [-130.0833, 56.3498], [-130.127, 56.3498], [-130.127, 56.3373], [-130.1458, 56.3373], [-130.1458, 56.3331], [-130.1395, 56.3331], [-130.1395, 56.329], [-130.177, 56.329], [-130.177, 56.3206]]]}, "properties": {"company_id": "teuton-resources", "jurisdiction": "British Columbia", "claim_id": 508807, "claim_name": null, "holder": "TEUTON RESOURCES CORP.", "status": "Mineral", "recorded_date": "2005-03-11", "anniversary_or_expiry": "2033-10-15", "area_ha": 1040.377, "tenure_type": "Mineral", "source": "BC MTA Mineral, Placer and Coal Tenure Spatial View (BCGW). Open Government Licence - British Columbia. Not legal title.", "as_of": "2026-09-20", "role": "focus", "color": "#e8b040"}}, {"type": "Feature", "geometry": {"type": "Polygon", "coordinates": [[[-130.1833, 56.304], [-130.1833, 56.2998], [-130.1708, 56.2998], [-130.1708, 56.3165], [-130.177, 56.3165], [-130.177, 56.3123], [-130.1833, 56.3123], [-130.1833, 56.304]]]}, "properties": {"company_id": "teuton-resources", "jurisdiction": "British Columbia", "claim_id": 508811, "claim_name": null, "holder": "TEUTON RESOURCES CORP.", "status": "Mineral", "recorded_date": "2005-03-11", "anniversary_or_expiry": "2033-10-15", "area_ha": 125.641, "tenure_type": "Mineral", "source": "BC MTA Mineral, Placer and Coal Tenure Spatial View (BCGW). Open Government Licence - British Columbia. Not legal title.", "as_of": "2026-09-20", "role": "focus", "color": "#e8b040"}}, {"type": "Feature", "geometry": {"type": "Polygon", "coordinates": [[[-130.0958, 56.179], [-130.0958, 56.1748], [-130.0833, 56.1748], [-130.0833, 56.1706], [-130.052, 56.1706], [-130.052, 56.1915], [-130.0895, 56.1915], [-130.0895, 56.1831], [-130.0958, 56.1831], [-130.0958, 56.179]]]}, "properties": {"company_id": "teuton-resources", "jurisdiction": "British Columbia", "claim_id": 508822, "claim_name": null, "holder": "TEUTON RESOURCES CORP.", "status": "Mineral", "recorded_date": "2005-03-11", "anniversary_or_expiry": "2034-09-22", "area_ha": 558.246, "tenure_type": "Mineral", "source": "BC MTA Mineral, Placer and Coal Tenure Spatial View (BCGW). Open Government Licence - British Columbia. Not legal title.", "as_of": "2026-09-20", "role": "focus", "color": "#e8b040"}}, {"type": "Feature", "geometry": {"type": "Polygon", "coordinates": [[[-130.077, 56.1415], [-130.077, 56.1373], [-130.052, 56.1373], [-130.052, 56.1706], [-130.077, 56.1706], [-130.077, 56.1415]]]}, "properties": {"company_id": "teuton-resources", "jurisdiction": "British Columbia", "claim_id": 508823, "claim_name": null, "holder": "TEUTON RESOURCES CORP.", "status": "Mineral", "recorded_date": "2005-03-11", "anniversary_or_expiry": "2034-09-22", "area_ha": 576.66, "tenure_type": "Mineral", "source": "BC MTA Mineral, Placer and Coal Tenure Spatial View (BCGW). Open Government Licence - British Columbia. Not legal title.", "as_of": "2026-09-20", "role": "focus", "color": "#e8b040"}}, {"type": "Feature", "geometry": {"type": "Polygon", "coordinates": [[[-130.427, 56.229], [-130.427, 56.2248], [-130.3895, 56.2248], [-130.3895, 56.2415], [-130.427, 56.2415], [-130.427, 56.229]]]}, "properties": {"company_id": "teuton-resources", "jurisdiction": "British Columbia", "claim_id": 508887, "claim_name": "Leduc Silver NW", "holder": "TEUTON RESOURCES CORP.", "status": "Mineral", "recorded_date": "2005-03-14", "anniversary_or_expiry": "2032-10-15", "area_ha": 431.61400000000003, "tenure_type": "Mineral", "source": "BC MTA Mineral, Placer and Coal Tenure Spatial View (BCGW). Open Government Licence - British Columbia. Not legal title.", "as_of": "2026-09-20", "role": "focus", "color": "#e8b040"}}, {"type": "Feature", "geometry": {"type": "Polygon", "coordinates": [[[-130.427, 56.2123], [-130.427, 56.2081], [-130.3895, 56.2081], [-130.3895, 56.2248], [-130.427, 56.2248], [-130.427, 56.2123]]]}, "properties": {"company_id": "teuton-resources", "jurisdiction": "British Columbia", "claim_id": 508888, "claim_name": "Leduc Silver W1", "holder": "TEUTON RESOURCES CORP.", "status": "Mineral", "recorded_date": "2005-03-14", "anniversary_or_expiry": "2032-10-15", "area_ha": 431.797, "tenure_type": "Mineral", "source": "BC MTA Mineral, Placer and Coal Tenure Spatial View (BCGW). Open Government Licence - British Columbia. Not legal title.", "as_of": "2026-09-20", "role": "focus", "color": "#e8b040"}}, {"type": "Feature", "geometry": {"type": "Polygon", "coordinates": [[[-130.427, 56.1956], [-130.427, 56.1915], [-130.3895, 56.1915], [-130.3895, 56.2081], [-130.427, 56.2081], [-130.427, 56.1956]]]}, "properties": {"company_id": "teuton-resources", "jurisdiction": "British Columbia", "claim_id": 508889, "claim_name": "Leduc Silver W2", "holder": "TEUTON RESOURCES CORP.", "status": "Mineral", "recorded_date": "2005-03-14", "anniversary_or_expiry": "2032-10-15", "area_ha": 431.981, "tenure_type": "Mineral", "source": "BC MTA Mineral, Placer and Coal Tenure Spatial View (BCGW). Open Government Licence - British Columbia. Not legal title.", "as_of": "2026-09-20", "role": "focus", "color": "#e8b040"}}, {"type": "Feature", "geometry": {"type": "Polygon", "coordinates": [[[-130.427, 56.179], [-130.427, 56.1748], [-130.3895, 56.1748], [-130.3895, 56.1915], [-130.427, 56.1915], [-130.427, 56.179]]]}, "properties": {"company_id": "teuton-resources", "jurisdiction": "British Columbia", "claim_id": 508891, "claim_name": "Leduc Silver SW1", "holder": "TEUTON RESOURCES CORP.", "status": "Mineral", "recorded_date": "2005-03-14", "anniversary_or_expiry": "2032-10-15", "area_ha": 432.165, "tenure_type": "Mineral", "source": "BC MTA Mineral, Placer and Coal Tenure Spatial View (BCGW). Open Government Licence - British Columbia. Not legal title.", "as_of": "2026-09-20", "role": "focus", "color": "#e8b040"}}, {"type": "Feature", "geometry": {"type": "Polygon", "coordinates": [[[-130.4145, 56.1623], [-130.3645, 56.1623], [-130.3645, 56.1748], [-130.4145, 56.1748], [-130.4145, 56.1665], [-130.4208, 56.1665], [-130.4208, 56.1623], [-130.4145, 56.1623]]]}, "properties": {"company_id": "teuton-resources", "jurisdiction": "British Columbia", "claim_id": 508893, "claim_name": "Leduc Silver SW2", "holder": "TEUTON RESOURCES CORP.", "status": "Mineral", "recorded_date": "2005-03-14", "anniversary_or_expiry": "2032-10-15", "area_ha": 450.369, "tenure_type": "Mineral", "source": "BC MTA Mineral, Placer and Coal Tenure Spatial View (BCGW). Open Government Licence - British Columbia. Not legal title.", "as_of": "2026-09-20", "role": "focus", "color": "#e8b040"}}, {"type": "Feature", "geometry": {"type": "Polygon", "coordinates": [[[-130.3645, 56.1665], [-130.3645, 56.1623], [-130.3145, 56.1623], [-130.3145, 56.179], [-130.3208, 56.179], [-130.3208, 56.1748], [-130.3645, 56.1748], [-130.3645, 56.1665]]]}, "properties": {"company_id": "teuton-resources", "jurisdiction": "British Columbia", "claim_id": 508894, "claim_name": "Leduc Silver S", "holder": "TEUTON RESOURCES CORP.", "status": "Mineral", "recorded_date": "2005-03-14", "anniversary_or_expiry": "2032-10-15", "area_ha": 450.362, "tenure_type": "Mineral", "source": "BC MTA Mineral, Placer and Coal Tenure Spatial View (BCGW). Open Government Licence - British Columbia. Not legal title.", "as_of": "2026-09-20", "role": "focus", "color": "#e8b040"}}, {"type": "Feature", "geometry": {"type": "Polygon", "coordinates": [[[-130.3208, 56.204], [-130.3208, 56.1998], [-130.2958, 56.1998], [-130.2958, 56.1956], [-130.2895, 56.1956], [-130.2895, 56.2165], [-130.3208, 56.2165], [-130.3208, 56.204]]]}, "properties": {"company_id": "teuton-resources", "jurisdiction": "British Columbia", "claim_id": 508898, "claim_name": null, "holder": "TEUTON RESOURCES CORP.", "status": "Mineral", "recorded_date": "2005-03-14", "anniversary_or_expiry": "2032-10-15", "area_ha": 377.92600000000004, "tenure_type": "Mineral", "source": "BC MTA Mineral, Placer and Coal Tenure Spatial View (BCGW). Open Government Licence - British Columbia. Not legal title.", "as_of": "2026-09-20", "role": "focus", "color": "#e8b040"}}, {"type": "Feature", "geometry": {"type": "Polygon", "coordinates": [[[-130.1333, 56.304], [-130.1333, 56.2998], [-130.1145, 56.2998], [-130.1145, 56.3165], [-130.1333, 56.3165], [-130.1333, 56.304]]]}, "properties": {"company_id": "teuton-resources", "jurisdiction": "British Columbia", "claim_id": 508899, "claim_name": null, "holder": "TEUTON RESOURCES CORP.", "status": "Mineral", "recorded_date": "2005-03-14", "anniversary_or_expiry": "2033-10-15", "area_ha": 215.38400000000001, "tenure_type": "Mineral", "source": "BC MTA Mineral, Placer and Coal Tenure Spatial View (BCGW). Open Government Licence - British Columbia. Not legal title.", "as_of": "2026-09-20", "role": "focus", "color": "#e8b040"}}, {"type": "Feature", "geometry": {"type": "Polygon", "coordinates": [[[-129.4645, 55.9706], [-129.4645, 55.9665], [-129.452, 55.9665], [-129.452, 55.9873], [-129.4645, 55.9873], [-129.4645, 55.9706]]]}, "properties": {"company_id": "teuton-resources", "jurisdiction": "British Columbia", "claim_id": 521125, "claim_name": "BOWSE 4", "holder": "TEUTON RESOURCES CORP.", "status": "Mineral", "recorded_date": "2005-10-14", "anniversary_or_expiry": "2031-09-30", "area_ha": 181.0386, "tenure_type": "Mineral", "source": "BC MTA Mineral, Placer and Coal Tenure Spatial View (BCGW). Open Government Licence - British Columbia. Not legal title.", "as_of": "2026-09-20", "role": "focus", "color": "#e8b040"}}, {"type": "Feature", "geometry": {"type": "Polygon", "coordinates": [[[-129.4582, 55.9623], [-129.452, 55.9623], [-129.452, 55.9665], [-129.4645, 55.9665], [-129.4645, 55.9623], [-129.4582, 55.9623]]]}, "properties": {"company_id": "teuton-resources", "jurisdiction": "British Columbia", "claim_id": 521126, "claim_name": "BOWSE 5", "holder": "TEUTON RESOURCES CORP.", "status": "Mineral", "recorded_date": "2005-10-14", "anniversary_or_expiry": "2031-09-30", "area_ha": 36.2207, "tenure_type": "Mineral", "source": "BC MTA Mineral, Placer and Coal Tenure Spatial View (BCGW). Open Government Licence - British Columbia. Not legal title.", "as_of": "2026-09-20", "role": "focus", "color": "#e8b040"}}, {"type": "Feature", "geometry": {"type": "Polygon", "coordinates": [[[-129.4645, 55.9498], [-129.4645, 55.9456], [-129.452, 55.9456], [-129.452, 55.9623], [-129.4645, 55.9623], [-129.4645, 55.9498]]]}, "properties": {"company_id": "teuton-resources", "jurisdiction": "British Columbia", "claim_id": 521127, "claim_name": "KS 1", "holder": "TEUTON RESOURCES CORP.", "status": "Mineral", "recorded_date": "2005-10-14", "anniversary_or_expiry": "2031-09-30", "area_ha": 144.9257, "tenure_type": "Mineral", "source": "BC MTA Mineral, Placer and Coal Tenure Spatial View (BCGW). Open Government Licence - British Columbia. Not legal title.", "as_of": "2026-09-20", "role": "focus", "color": "#e8b040"}}, {"type": "Feature", "geometry": {"type": "Polygon", "coordinates": [[[-129.4582, 55.929], [-129.4582, 55.9248], [-129.4457, 55.9248], [-129.4457, 55.9456], [-129.4582, 55.9456], [-129.4582, 55.929]]]}, "properties": {"company_id": "teuton-resources", "jurisdiction": "British Columbia", "claim_id": 521128, "claim_name": "KS 2", "holder": "TEUTON RESOURCES CORP.", "status": "Mineral", "recorded_date": "2005-10-14", "anniversary_or_expiry": "2031-09-30", "area_ha": 181.25490000000002, "tenure_type": "Mineral", "source": "BC MTA Mineral, Placer and Coal Tenure Spatial View (BCGW). Open Government Licence - British Columbia. Not legal title.", "as_of": "2026-09-20", "role": "focus", "color": "#e8b040"}}, {"type": "Feature", "geometry": {"type": "Polygon", "coordinates": [[[-129.4582, 55.9081], [-129.4582, 55.904], [-129.4457, 55.904], [-129.4457, 55.9248], [-129.4582, 55.9248], [-129.4582, 55.9081]]]}, "properties": {"company_id": "teuton-resources", "jurisdiction": "British Columbia", "claim_id": 521129, "claim_name": "KS 3", "holder": "TEUTON RESOURCES CORP.", "status": "Mineral", "recorded_date": "2005-10-14", "anniversary_or_expiry": "2031-09-30", "area_ha": 181.38250000000002, "tenure_type": "Mineral", "source": "BC MTA Mineral, Placer and Coal Tenure Spatial View (BCGW). Open Government Licence - British Columbia. Not legal title.", "as_of": "2026-09-20", "role": "focus", "color": "#e8b040"}}, {"type": "Feature", "geometry": {"type": "Polygon", "coordinates": [[[-129.5645, 55.9706], [-129.5645, 55.9665], [-129.5332, 55.9665], [-129.5332, 55.979], [-129.5457, 55.979], [-129.5457, 55.9873], [-129.5645, 55.9873], [-129.5645, 55.9706]]]}, "properties": {"company_id": "teuton-resources", "jurisdiction": "British Columbia", "claim_id": 522182, "claim_name": "CORDIERITE", "holder": "TEUTON RESOURCES CORP.", "status": "Mineral", "recorded_date": "2005-11-10", "anniversary_or_expiry": "2031-12-21", "area_ha": 380.184, "tenure_type": "Mineral", "source": "BC MTA Mineral, Placer and Coal Tenure Spatial View (BCGW). Open Government Licence - British Columbia. Not legal title.", "as_of": "2026-09-20", "role": "focus", "color": "#e8b040"}}, {"type": "Feature", "geometry": {"type": "Polygon", "coordinates": [[[-129.7769, 55.8873], [-129.7581, 55.8873], [-129.7581, 55.8789], [-129.7331, 55.8789], [-129.7331, 55.8748], [-129.6956, 55.8748], [-129.6956, 55.8831], [-129.7144, 55.8831], [-129.7144, 55.8956], [-129.7394, 55.8956], [-129.7394, 55.8915], [-129.7519, 55.8915], [-129.7519, 55.904], [-129.7769, 55.904], [-129.7769, 55.8873]]]}, "properties": {"company_id": "teuton-resources", "jurisdiction": "British Columbia", "claim_id": 513826, "claim_name": null, "holder": "TEUTON RESOURCES CORP.", "status": "Mineral", "recorded_date": "2005-06-02", "anniversary_or_expiry": "2030-08-30", "area_ha": 889.173, "tenure_type": "Mineral", "source": "BC MTA Mineral, Placer and Coal Tenure Spatial View (BCGW). Open Government Licence - British Columbia. Not legal title.", "as_of": "2026-09-20", "role": "focus", "color": "#e8b040"}}, {"type": "Feature", "geometry": {"type": "Polygon", "coordinates": [[[-129.7331, 55.8706], [-129.7331, 55.8664], [-129.7081, 55.8664], [-129.7081, 55.8623], [-129.6768, 55.8623], [-129.6769, 55.8748], [-129.7331, 55.8748], [-129.7331, 55.8706]]]}, "properties": {"company_id": "teuton-resources", "jurisdiction": "British Columbia", "claim_id": 513827, "claim_name": null, "holder": "TEUTON RESOURCES CORP.", "status": "Mineral", "recorded_date": "2005-06-02", "anniversary_or_expiry": "2030-08-30", "area_ha": 417.63, "tenure_type": "Mineral", "source": "BC MTA Mineral, Placer and Coal Tenure Spatial View (BCGW). Open Government Licence - British Columbia. Not legal title.", "as_of": "2026-09-20", "role": "focus", "color": "#e8b040"}}, {"type": "Feature", "geometry": {"type": "Polygon", "coordinates": [[[-129.6642, 55.6789], [-129.6642, 55.6831], [-129.6705, 55.6831], [-129.6705, 55.6789], [-129.6642, 55.6789]]]}, "properties": {"company_id": "teuton-resources", "jurisdiction": "British Columbia", "claim_id": 513874, "claim_name": "TONGA-CELL", "holder": "TEUTON RESOURCES CORP.", "status": "Mineral", "recorded_date": "2005-06-03", "anniversary_or_expiry": "2030-08-30", "area_ha": 18.240000000000002, "tenure_type": "Mineral", "source": "BC MTA Mineral, Placer and Coal Tenure Spatial View (BCGW). Open Government Licence - British Columbia. Not legal title.", "as_of": "2026-09-20", "role": "focus", "color": "#e8b040"}}, {"type": "Feature", "geometry": {"type": "Polygon", "coordinates": [[[-130.3583, 56.3165], [-130.3583, 56.3123], [-130.327, 56.3123], [-130.327, 56.329], [-130.3583, 56.329], [-130.3583, 56.3165]]]}, "properties": {"company_id": "teuton-resources", "jurisdiction": "British Columbia", "claim_id": 520248, "claim_name": "MACH 1", "holder": "TEUTON RESOURCES CORP.", "status": "Mineral", "recorded_date": "2005-09-21", "anniversary_or_expiry": "2032-10-15", "area_ha": 358.855, "tenure_type": "Mineral", "source": "BC MTA Mineral, Placer and Coal Tenure Spatial View (BCGW). Open Government Licence - British Columbia. Not legal title.", "as_of": "2026-09-20", "role": "focus", "color": "#e8b040"}}, {"type": "Feature", "geometry": {"type": "Polygon", "coordinates": [[[-130.3583, 56.2873], [-130.3583, 56.2831], [-130.352, 56.2831], [-130.352, 56.279], [-130.3458, 56.279], [-130.3458, 56.2831], [-130.3208, 56.2831], [-130.3208, 56.2998], [-130.3583, 56.2998], [-130.3583, 56.2873]]]}, "properties": {"company_id": "teuton-resources", "jurisdiction": "British Columbia", "claim_id": 520250, "claim_name": "MACH 2", "holder": "TEUTON RESOURCES CORP.", "status": "Mineral", "recorded_date": "2005-09-21", "anniversary_or_expiry": "2033-10-15", "area_ha": 448.913, "tenure_type": "Mineral", "source": "BC MTA Mineral, Placer and Coal Tenure Spatial View (BCGW). Open Government Licence - British Columbia. Not legal title.", "as_of": "2026-09-20", "role": "focus", "color": "#e8b040"}}, {"type": "Feature", "geometry": {"type": "Polygon", "coordinates": [[[-130.3583, 56.304], [-130.3583, 56.2998], [-130.3208, 56.2998], [-130.3208, 56.3123], [-130.3583, 56.3123], [-130.3583, 56.304]]]}, "properties": {"company_id": "teuton-resources", "jurisdiction": "British Columbia", "claim_id": 520252, "claim_name": "MACH 3", "holder": "TEUTON RESOURCES CORP.", "status": "Mineral", "recorded_date": "2005-09-21", "anniversary_or_expiry": "2030-10-15", "area_ha": 323.09200000000004, "tenure_type": "Mineral", "source": "BC MTA Mineral, Placer and Coal Tenure Spatial View (BCGW). Open Government Licence - British Columbia. Not legal title.", "as_of": "2026-09-20", "role": "focus", "color": "#e8b040"}}, {"type": "Feature", "geometry": {"type": "Polygon", "coordinates": [[[-130.327, 56.3331], [-130.327, 56.329], [-130.2895, 56.329], [-130.2895, 56.3456], [-130.327, 56.3456], [-130.327, 56.3331]]]}, "properties": {"company_id": "teuton-resources", "jurisdiction": "British Columbia", "claim_id": 520254, "claim_name": "BIG GOLD 1", "holder": "TEUTON RESOURCES CORP.", "status": "Mineral", "recorded_date": "2005-09-21", "anniversary_or_expiry": "2032-10-15", "area_ha": 430.442, "tenure_type": "Mineral", "source": "BC MTA Mineral, Placer and Coal Tenure Spatial View (BCGW). Open Government Licence - British Columbia. Not legal title.", "as_of": "2026-09-20", "role": "focus", "color": "#e8b040"}}, {"type": "Feature", "geometry": {"type": "Polygon", "coordinates": [[[-130.327, 56.3165], [-130.327, 56.3123], [-130.2895, 56.3123], [-130.2895, 56.329], [-130.327, 56.329], [-130.327, 56.3165]]]}, "properties": {"company_id": "teuton-resources", "jurisdiction": "British Columbia", "claim_id": 520257, "claim_name": "BIG GOLD 2", "holder": "TEUTON RESOURCES CORP.", "status": "Mineral", "recorded_date": "2005-09-21", "anniversary_or_expiry": "2032-10-15", "area_ha": 430.622, "tenure_type": "Mineral", "source": "BC MTA Mineral, Placer and Coal Tenure Spatial View (BCGW). Open Government Licence - British Columbia. Not legal title.", "as_of": "2026-09-20", "role": "focus", "color": "#e8b040"}}, {"type": "Feature", "geometry": {"type": "Polygon", "coordinates": [[[-130.3208, 56.2998], [-130.3208, 56.2956], [-130.2895, 56.2956], [-130.2895, 56.3123], [-130.3208, 56.3123], [-130.3208, 56.2998]]]}, "properties": {"company_id": "teuton-resources", "jurisdiction": "British Columbia", "claim_id": 520258, "claim_name": "BIG GOLD 3", "holder": "TEUTON RESOURCES CORP.", "status": "Mineral", "recorded_date": "2005-09-21", "anniversary_or_expiry": "2033-10-15", "area_ha": 359.009, "tenure_type": "Mineral", "source": "BC MTA Mineral, Placer and Coal Tenure Spatial View (BCGW). Open Government Licence - British Columbia. Not legal title.", "as_of": "2026-09-20", "role": "focus", "color": "#e8b040"}}, {"type": "Feature", "geometry": {"type": "Polygon", "coordinates": [[[-129.6332, 56.0206], [-129.6332, 56.0165], [-129.6082, 56.0165], [-129.6082, 56.0415], [-129.6332, 56.0415], [-129.6332, 56.0206]]]}, "properties": {"company_id": "teuton-resources", "jurisdiction": "British Columbia", "claim_id": 520352, "claim_name": "STAMP 1", "holder": "TEUTON RESOURCES CORP.", "status": "Mineral", "recorded_date": "2005-09-23", "anniversary_or_expiry": "2030-09-30", "area_ha": 433.879, "tenure_type": "Mineral", "source": "BC MTA Mineral, Placer and Coal Tenure Spatial View (BCGW). Open Government Licence - British Columbia. Not legal title.", "as_of": "2026-09-20", "role": "focus", "color": "#e8b040"}}, {"type": "Feature", "geometry": {"type": "Polygon", "coordinates": [[[-129.652, 56.0206], [-129.652, 56.0165], [-129.6332, 56.0165], [-129.6332, 56.0498], [-129.652, 56.0498], [-129.652, 56.0206]]]}, "properties": {"company_id": "teuton-resources", "jurisdiction": "British Columbia", "claim_id": 520353, "claim_name": "STAMP 2", "holder": "TEUTON RESOURCES CORP.", "status": "Mineral", "recorded_date": "2005-09-23", "anniversary_or_expiry": "2030-09-30", "area_ha": 433.82800000000003, "tenure_type": "Mineral", "source": "BC MTA Mineral, Placer and Coal Tenure Spatial View (BCGW). Open Government Licence - British Columbia. Not legal title.", "as_of": "2026-09-20", "role": "focus", "color": "#e8b040"}}, {"type": "Feature", "geometry": {"type": "Polygon", "coordinates": [[[-129.6145, 56.0123], [-129.6082, 56.0123], [-129.6082, 56.0165], [-129.6207, 56.0165], [-129.6207, 56.0123], [-129.6145, 56.0123]]]}, "properties": {"company_id": "teuton-resources", "jurisdiction": "British Columbia", "claim_id": 520354, "claim_name": "STAMP 3", "holder": "TEUTON RESOURCES CORP.", "status": "Mineral", "recorded_date": "2005-09-23", "anniversary_or_expiry": "2030-09-30", "area_ha": 36.17, "tenure_type": "Mineral", "source": "BC MTA Mineral, Placer and Coal Tenure Spatial View (BCGW). Open Government Licence - British Columbia. Not legal title.", "as_of": "2026-09-20", "role": "focus", "color": "#e8b040"}}, {"type": "Feature", "geometry": {"type": "Polygon", "coordinates": [[[-129.6392, 55.7539], [-129.6392, 55.7498], [-129.6205, 55.7498], [-129.6205, 55.7456], [-129.6017, 55.7456], [-129.6017, 55.7581], [-129.608, 55.7581], [-129.608, 55.7664], [-129.6392, 55.7664], [-129.6392, 55.7539]]]}, "properties": {"company_id": "teuton-resources", "jurisdiction": "British Columbia", "claim_id": 526671, "claim_name": "FIJI2", "holder": "TEUTON RESOURCES CORP.", "status": "Mineral", "recorded_date": "2006-01-30", "anniversary_or_expiry": "2030-08-30", "area_ha": 455.132, "tenure_type": "Mineral", "source": "BC MTA Mineral, Placer and Coal Tenure Spatial View (BCGW). Open Government Licence - British Columbia. Not legal title.", "as_of": "2026-09-20", "role": "focus", "color": "#e8b040"}}, {"type": "Feature", "geometry": {"type": "Polygon", "coordinates": [[[-129.6392, 55.7373], [-129.6392, 55.7331], [-129.5892, 55.7331], [-129.5892, 55.7414], [-129.6017, 55.7414], [-129.6017, 55.7456], [-129.6205, 55.7456], [-129.6205, 55.7498], [-129.6392, 55.7498], [-129.6392, 55.7373]]]}, "properties": {"company_id": "teuton-resources", "jurisdiction": "British Columbia", "claim_id": 526675, "claim_name": "FIJI3", "holder": "TEUTON RESOURCES CORP.", "status": "Mineral", "recorded_date": "2006-01-30", "anniversary_or_expiry": "2030-08-30", "area_ha": 455.32500000000005, "tenure_type": "Mineral", "source": "BC MTA Mineral, Placer and Coal Tenure Spatial View (BCGW). Open Government Licence - British Columbia. Not legal title.", "as_of": "2026-09-20", "role": "focus", "color": "#e8b040"}}, {"type": "Feature", "geometry": {"type": "Polygon", "coordinates": [[[-129.6517, 55.7289], [-129.6517, 55.7248], [-129.6205, 55.7248], [-129.6205, 55.7206], [-129.5892, 55.7206], [-129.5892, 55.7331], [-129.6517, 55.7331], [-129.6517, 55.7289]]]}, "properties": {"company_id": "teuton-resources", "jurisdiction": "British Columbia", "claim_id": 526676, "claim_name": "FIJI4", "holder": "TEUTON RESOURCES CORP.", "status": "Mineral", "recorded_date": "2006-01-30", "anniversary_or_expiry": "2030-08-30", "area_ha": 455.46700000000004, "tenure_type": "Mineral", "source": "BC MTA Mineral, Placer and Coal Tenure Spatial View (BCGW). Open Government Licence - British Columbia. Not legal title.", "as_of": "2026-09-20", "role": "focus", "color": "#e8b040"}}, {"type": "Feature", "geometry": {"type": "Polygon", "coordinates": [[[-129.6392, 55.7706], [-129.6392, 55.7664], [-129.608, 55.7664], [-129.608, 55.7873], [-129.6392, 55.7873], [-129.6392, 55.7706]]]}, "properties": {"company_id": "teuton-resources", "jurisdiction": "British Columbia", "claim_id": 526678, "claim_name": "FIJI1", "holder": "TEUTON RESOURCES CORP.", "status": "Mineral", "recorded_date": "2006-01-30", "anniversary_or_expiry": "2030-08-30", "area_ha": 454.894, "tenure_type": "Mineral", "source": "BC MTA Mineral, Placer and Coal Tenure Spatial View (BCGW). Open Government Licence - British Columbia. Not legal title.", "as_of": "2026-09-20", "role": "focus", "color": "#e8b040"}}, {"type": "Feature", "geometry": {"type": "Polygon", "coordinates": [[[-129.6642, 55.7664], [-129.6642, 55.7623], [-129.6392, 55.7623], [-129.6392, 55.7873], [-129.6642, 55.7873], [-129.6642, 55.7664]]]}, "properties": {"company_id": "teuton-resources", "jurisdiction": "British Columbia", "claim_id": 526694, "claim_name": "FIJI5", "holder": "TEUTON RESOURCES CORP.", "status": "Mineral", "recorded_date": "2006-01-30", "anniversary_or_expiry": "2030-08-30", "area_ha": 436.72200000000004, "tenure_type": "Mineral", "source": "BC MTA Mineral, Placer and Coal Tenure Spatial View (BCGW). Open Government Licence - British Columbia. Not legal title.", "as_of": "2026-09-20", "role": "focus", "color": "#e8b040"}}, {"type": "Feature", "geometry": {"type": "Polygon", "coordinates": [[[-129.6705, 55.7581], [-129.6705, 55.7539], [-129.6517, 55.7539], [-129.6517, 55.7331], [-129.6392, 55.7331], [-129.6392, 55.7623], [-129.6705, 55.7623], [-129.6705, 55.7581]]]}, "properties": {"company_id": "teuton-resources", "jurisdiction": "British Columbia", "claim_id": 526696, "claim_name": "FIJI6", "holder": "TEUTON RESOURCES CORP.", "status": "Mineral", "recorded_date": "2006-01-30", "anniversary_or_expiry": "2030-08-30", "area_ha": 364.159, "tenure_type": "Mineral", "source": "BC MTA Mineral, Placer and Coal Tenure Spatial View (BCGW). Open Government Licence - British Columbia. Not legal title.", "as_of": "2026-09-20", "role": "focus", "color": "#e8b040"}}, {"type": "Feature", "geometry": {"type": "Polygon", "coordinates": [[[-129.783, 55.7956], [-129.783, 55.7914], [-129.7642, 55.7914], [-129.7642, 55.7956], [-129.758, 55.7956], [-129.758, 55.7998], [-129.7392, 55.7998], [-129.7392, 55.8248], [-129.783, 55.8248], [-129.783, 55.7956]]]}, "properties": {"company_id": "teuton-resources", "jurisdiction": "British Columbia", "claim_id": 529078, "claim_name": null, "holder": "TEUTON RESOURCES CORP.", "status": "Mineral", "recorded_date": "2006-02-27", "anniversary_or_expiry": "2030-09-30", "area_ha": 890.8290000000001, "tenure_type": "Mineral", "source": "BC MTA Mineral, Placer and Coal Tenure Spatial View (BCGW). Open Government Licence - British Columbia. Not legal title.", "as_of": "2026-09-20", "role": "focus", "color": "#e8b040"}}, {"type": "Feature", "geometry": {"type": "Polygon", "coordinates": [[[-129.8205, 55.7831], [-129.8205, 55.7789], [-129.8142, 55.7789], [-129.8142, 55.7748], [-129.7767, 55.7748], [-129.7767, 55.7789], [-129.7705, 55.7789], [-129.7705, 55.7914], [-129.8017, 55.7914], [-129.8017, 55.7956], [-129.783, 55.7956], [-129.783, 55.7998], [-129.8142, 55.7998], [-129.8142, 55.7956], [-129.8205, 55.7956], [-129.8205, 55.7831]]]}, "properties": {"company_id": "teuton-resources", "jurisdiction": "British Columbia", "claim_id": 529080, "claim_name": null, "holder": "TEUTON RESOURCES CORP.", "status": "Mineral", "recorded_date": "2006-02-27", "anniversary_or_expiry": "2030-09-30", "area_ha": 691.2660000000001, "tenure_type": "Mineral", "source": "BC MTA Mineral, Placer and Coal Tenure Spatial View (BCGW). Open Government Licence - British Columbia. Not legal title.", "as_of": "2026-09-20", "role": "focus", "color": "#e8b040"}}, {"type": "Feature", "geometry": {"type": "Polygon", "coordinates": [[[-129.7642, 55.7914], [-129.7642, 55.7873], [-129.7455, 55.7873], [-129.7455, 55.7998], [-129.758, 55.7998], [-129.758, 55.7956], [-129.7642, 55.7956], [-129.7642, 55.7914]]]}, "properties": {"company_id": "teuton-resources", "jurisdiction": "British Columbia", "claim_id": 529081, "claim_name": null, "holder": "TEUTON RESOURCES CORP.", "status": "Mineral", "recorded_date": "2006-02-27", "anniversary_or_expiry": "2029-09-30", "area_ha": 145.5044, "tenure_type": "Mineral", "source": "BC MTA Mineral, Placer and Coal Tenure Spatial View (BCGW). Open Government Licence - British Columbia. Not legal title.", "as_of": "2026-09-20", "role": "focus", "color": "#e8b040"}}, {"type": "Feature", "geometry": {"type": "Polygon", "coordinates": [[[-129.7705, 55.7748], [-129.7642, 55.7748], [-129.7642, 55.7914], [-129.7705, 55.7914], [-129.7705, 55.7789], [-129.7767, 55.7789], [-129.7767, 55.7748], [-129.7705, 55.7748]]]}, "properties": {"company_id": "teuton-resources", "jurisdiction": "British Columbia", "claim_id": 529083, "claim_name": "CLONE SE", "holder": "TEUTON RESOURCES CORP.", "status": "Mineral", "recorded_date": "2006-02-27", "anniversary_or_expiry": "2029-09-30", "area_ha": 90.96600000000001, "tenure_type": "Mineral", "source": "BC MTA Mineral, Placer and Coal Tenure Spatial View (BCGW). Open Government Licence - British Columbia. Not legal title.", "as_of": "2026-09-20", "role": "focus", "color": "#e8b040"}}, {"type": "Feature", "geometry": {"type": "Polygon", "coordinates": [[[-130.2895, 56.2873], [-130.2895, 56.2831], [-130.2833, 56.2831], [-130.2833, 56.2706], [-130.252, 56.2706], [-130.252, 56.2873], [-130.277, 56.2873], [-130.277, 56.2956], [-130.2833, 56.2956], [-130.2895, 56.2956], [-130.2895, 56.2873]]]}, "properties": {"company_id": "teuton-resources", "jurisdiction": "British Columbia", "claim_id": 527347, "claim_name": "ESKAY RIFT 1", "holder": "TEUTON RESOURCES CORP.", "status": "Mineral", "recorded_date": "2006-02-09", "anniversary_or_expiry": "2033-10-15", "area_ha": 449.026, "tenure_type": "Mineral", "source": "BC MTA Mineral, Placer and Coal Tenure Spatial View (BCGW). Open Government Licence - British Columbia. Not legal title.", "as_of": "2026-09-20", "role": "focus", "color": "#e8b040"}}, {"type": "Feature", "geometry": {"type": "Polygon", "coordinates": [[[-130.2833, 56.2581], [-130.2833, 56.254], [-130.2458, 56.254], [-130.2458, 56.2706], [-130.2833, 56.2706], [-130.2833, 56.2581]]]}, "properties": {"company_id": "teuton-resources", "jurisdiction": "British Columbia", "claim_id": 527349, "claim_name": "ESKAY RIFT 2", "holder": "TEUTON RESOURCES CORP.", "status": "Mineral", "recorded_date": "2006-02-09", "anniversary_or_expiry": "2033-10-15", "area_ha": 431.27700000000004, "tenure_type": "Mineral", "source": "BC MTA Mineral, Placer and Coal Tenure Spatial View (BCGW). Open Government Licence - British Columbia. Not legal title.", "as_of": "2026-09-20", "role": "focus", "color": "#e8b040"}}, {"type": "Feature", "geometry": {"type": "Polygon", "coordinates": [[[-130.2895, 56.2415], [-130.2895, 56.2373], [-130.2833, 56.2373], [-130.2833, 56.2415], [-130.2458, 56.2415], [-130.2458, 56.254], [-130.2833, 56.254], [-130.2833, 56.2456], [-130.2895, 56.2456], [-130.2895, 56.2415]]]}, "properties": {"company_id": "teuton-resources", "jurisdiction": "British Columbia", "claim_id": 527350, "claim_name": "ESKAY RIFT 3", "holder": "TEUTON RESOURCES CORP.", "status": "Mineral", "recorded_date": "2006-02-09", "anniversary_or_expiry": "2032-10-15", "area_ha": 359.555, "tenure_type": "Mineral", "source": "BC MTA Mineral, Placer and Coal Tenure Spatial View (BCGW). Open Government Licence - British Columbia. Not legal title.", "as_of": "2026-09-20", "role": "focus", "color": "#e8b040"}}, {"type": "Feature", "geometry": {"type": "Polygon", "coordinates": [[[-130.352, 56.2373], [-130.352, 56.2331], [-130.3458, 56.2331], [-130.3458, 56.229], [-130.3333, 56.229], [-130.3333, 56.2165], [-130.2895, 56.2165], [-130.2895, 56.2415], [-130.352, 56.2415], [-130.352, 56.2373]]]}, "properties": {"company_id": "teuton-resources", "jurisdiction": "British Columbia", "claim_id": 508828, "claim_name": null, "holder": "TEUTON RESOURCES CORP.", "status": "Mineral", "recorded_date": "2005-03-11", "anniversary_or_expiry": "2032-10-15", "area_ha": 899.306, "tenure_type": "Mineral", "source": "BC MTA Mineral, Placer and Coal Tenure Spatial View (BCGW). Open Government Licence - British Columbia. Not legal title.", "as_of": "2026-09-20", "role": "focus", "color": "#e8b040"}}, {"type": "Feature", "geometry": {"type": "Polygon", "coordinates": [[[-130.3145, 56.1665], [-130.3145, 56.1623], [-130.2895, 56.1623], [-130.2895, 56.1956], [-130.2958, 56.1956], [-130.2958, 56.179], [-130.3145, 56.179], [-130.3145, 56.1665]]]}, "properties": {"company_id": "teuton-resources", "jurisdiction": "British Columbia", "claim_id": 508895, "claim_name": "Leduc Silver SE", "holder": "TEUTON RESOURCES CORP.", "status": "Mineral", "recorded_date": "2005-03-14", "anniversary_or_expiry": "2032-10-15", "area_ha": 360.23900000000003, "tenure_type": "Mineral", "source": "BC MTA Mineral, Placer and Coal Tenure Spatial View (BCGW). Open Government Licence - British Columbia. Not legal title.", "as_of": "2026-09-20", "role": "focus", "color": "#e8b040"}}, {"type": "Feature", "geometry": {"type": "Polygon", "coordinates": [[[-129.7955, 55.7664], [-129.7955, 55.7623], [-129.7642, 55.7623], [-129.7642, 55.7748], [-129.7955, 55.7748], [-129.7955, 55.7664]]]}, "properties": {"company_id": "teuton-resources", "jurisdiction": "British Columbia", "claim_id": 532471, "claim_name": "CLONESE1", "holder": "TEUTON RESOURCES CORP.", "status": "Mineral", "recorded_date": "2006-04-18", "anniversary_or_expiry": "2029-09-30", "area_ha": 272.9909, "tenure_type": "Mineral", "source": "BC MTA Mineral, Placer and Coal Tenure Spatial View (BCGW). Open Government Licence - British Columbia. Not legal title.", "as_of": "2026-09-20", "role": "focus", "color": "#e8b040"}}, {"type": "Feature", "geometry": {"type": "Polygon", "coordinates": [[[-129.6642, 55.6706], [-129.6642, 55.6664], [-129.6205, 55.6664], [-129.6205, 55.6789], [-129.6142, 55.6789], [-129.6142, 55.6998], [-129.658, 55.6998], [-129.658, 55.6831], [-129.6642, 55.6831], [-129.6642, 55.6706]]]}, "properties": {"company_id": "teuton-resources", "jurisdiction": "British Columbia", "claim_id": 513791, "claim_name": null, "holder": "TEUTON RESOURCES CORP.", "status": "Mineral", "recorded_date": "2005-06-02", "anniversary_or_expiry": "2030-08-30", "area_ha": 1039.641, "tenure_type": "Mineral", "source": "BC MTA Mineral, Placer and Coal Tenure Spatial View (BCGW). Open Government Licence - British Columbia. Not legal title.", "as_of": "2026-09-20", "role": "focus", "color": "#e8b040"}}, {"type": "Feature", "geometry": {"type": "Polygon", "coordinates": [[[-129.6955, 55.7039], [-129.6955, 55.6998], [-129.6142, 55.6998], [-129.6142, 55.7206], [-129.6955, 55.7206], [-129.6955, 55.7039]]]}, "properties": {"company_id": "teuton-resources", "jurisdiction": "British Columbia", "claim_id": 513797, "claim_name": null, "holder": "TEUTON RESOURCES CORP.", "status": "Mineral", "recorded_date": "2005-06-02", "anniversary_or_expiry": "2030-08-30", "area_ha": 1184.737, "tenure_type": "Mineral", "source": "BC MTA Mineral, Placer and Coal Tenure Spatial View (BCGW). Open Government Licence - British Columbia. Not legal title.", "as_of": "2026-09-20", "role": "focus", "color": "#e8b040"}}, {"type": "Feature", "geometry": {"type": "Polygon", "coordinates": [[[-129.8455, 55.7998], [-129.8455, 55.7956], [-129.8142, 55.7956], [-129.8142, 55.7998], [-129.783, 55.7998], [-129.783, 55.8081], [-129.8455, 55.8081], [-129.8455, 55.7998]]]}, "properties": {"company_id": "teuton-resources", "jurisdiction": "British Columbia", "claim_id": 530459, "claim_name": null, "holder": "TEUTON RESOURCES CORP.", "status": "Mineral", "recorded_date": "2006-03-23", "anniversary_or_expiry": "2030-09-30", "area_ha": 454.588, "tenure_type": "Mineral", "source": "BC MTA Mineral, Placer and Coal Tenure Spatial View (BCGW). Open Government Licence - British Columbia. Not legal title.", "as_of": "2026-09-20", "role": "focus", "color": "#e8b040"}}, {"type": "Feature", "geometry": {"type": "Polygon", "coordinates": [[[-130.3208, 56.2873], [-130.3208, 56.2831], [-130.2895, 56.2831], [-130.2895, 56.2956], [-130.3208, 56.2956], [-130.3208, 56.2873]]]}, "properties": {"company_id": "teuton-resources", "jurisdiction": "British Columbia", "claim_id": 520260, "claim_name": "BIG GOLD 4", "holder": "TEUTON RESOURCES CORP.", "status": "Mineral", "recorded_date": "2005-09-21", "anniversary_or_expiry": "2033-10-15", "area_ha": 269.36, "tenure_type": "Mineral", "source": "BC MTA Mineral, Placer and Coal Tenure Spatial View (BCGW). Open Government Licence - British Columbia. Not legal title.", "as_of": "2026-09-20", "role": "focus", "color": "#e8b040"}}, {"type": "Feature", "geometry": {"type": "Polygon", "coordinates": [[[-129.608, 55.7873], [-129.608, 55.7831], [-129.5705, 55.7831], [-129.5705, 55.7998], [-129.608, 55.7998], [-129.608, 55.7873]]]}, "properties": {"company_id": "teuton-resources", "jurisdiction": "British Columbia", "claim_id": 539898, "claim_name": "RIDGE NORTH #1", "holder": "TEUTON RESOURCES CORP.", "status": "Mineral", "recorded_date": "2006-08-25", "anniversary_or_expiry": "2030-08-30", "area_ha": 436.53560000000004, "tenure_type": "Mineral", "source": "BC MTA Mineral, Placer and Coal Tenure Spatial View (BCGW). Open Government Licence - British Columbia. Not legal title.", "as_of": "2026-09-20", "role": "focus", "color": "#e8b040"}}, {"type": "Feature", "geometry": {"type": "Polygon", "coordinates": [[[-129.658, 55.7914], [-129.658, 55.7873], [-129.608, 55.7873], [-129.608, 55.7998], [-129.658, 55.7998], [-129.658, 55.7914]]]}, "properties": {"company_id": "teuton-resources", "jurisdiction": "British Columbia", "claim_id": 539899, "claim_name": "NORTH RIDGE #2", "holder": "TEUTON RESOURCES CORP.", "status": "Mineral", "recorded_date": "2006-08-25", "anniversary_or_expiry": "2030-08-30", "area_ha": 436.51210000000003, "tenure_type": "Mineral", "source": "BC MTA Mineral, Placer and Coal Tenure Spatial View (BCGW). Open Government Licence - British Columbia. Not legal title.", "as_of": "2026-09-20", "role": "focus", "color": "#e8b040"}}, {"type": "Feature", "geometry": {"type": "Polygon", "coordinates": [[[-130.2895, 56.2998], [-130.2895, 56.2956], [-130.2583, 56.2956], [-130.2583, 56.3165], [-130.2895, 56.3165], [-130.2895, 56.2998]]]}, "properties": {"company_id": "teuton-resources", "jurisdiction": "British Columbia", "claim_id": 535888, "claim_name": "ER1", "holder": "TEUTON RESOURCES CORP.", "status": "Mineral", "recorded_date": "2006-06-18", "anniversary_or_expiry": "2033-10-15", "area_ha": 448.73400000000004, "tenure_type": "Mineral", "source": "BC MTA Mineral, Placer and Coal Tenure Spatial View (BCGW). Open Government Licence - British Columbia. Not legal title.", "as_of": "2026-09-20", "role": "focus", "color": "#e8b040"}}, {"type": "Feature", "geometry": {"type": "Polygon", "coordinates": [[[-130.2895, 56.3206], [-130.2895, 56.3165], [-130.2583, 56.3165], [-130.2583, 56.3373], [-130.2895, 56.3373], [-130.2895, 56.3206]]]}, "properties": {"company_id": "teuton-resources", "jurisdiction": "British Columbia", "claim_id": 535889, "claim_name": "ER2", "holder": "TEUTON RESOURCES CORP.", "status": "Mineral", "recorded_date": "2006-06-18", "anniversary_or_expiry": "2032-10-15", "area_ha": 448.492, "tenure_type": "Mineral", "source": "BC MTA Mineral, Placer and Coal Tenure Spatial View (BCGW). Open Government Licence - British Columbia. Not legal title.", "as_of": "2026-09-20", "role": "focus", "color": "#e8b040"}}, {"type": "Feature", "geometry": {"type": "Polygon", "coordinates": [[[-130.2583, 56.304], [-130.2583, 56.2998], [-130.227, 56.2998], [-130.227, 56.3206], [-130.2583, 56.3206], [-130.2583, 56.304]]]}, "properties": {"company_id": "teuton-resources", "jurisdiction": "British Columbia", "claim_id": 535892, "claim_name": null, "holder": "TEUTON RESOURCES CORP.", "status": "Mineral", "recorded_date": "2006-06-18", "anniversary_or_expiry": "2033-10-15", "area_ha": 448.67900000000003, "tenure_type": "Mineral", "source": "BC MTA Mineral, Placer and Coal Tenure Spatial View (BCGW). Open Government Licence - British Columbia. Not legal title.", "as_of": "2026-09-20", "role": "focus", "color": "#e8b040"}}, {"type": "Feature", "geometry": {"type": "Polygon", "coordinates": [[[-130.2395, 56.2956], [-130.2395, 56.2915], [-130.1833, 56.2915], [-130.1833, 56.304], [-130.227, 56.304], [-130.227, 56.2998], [-130.2395, 56.2998], [-130.2395, 56.2956]]]}, "properties": {"company_id": "teuton-resources", "jurisdiction": "British Columbia", "claim_id": 535896, "claim_name": null, "holder": "TEUTON RESOURCES CORP.", "status": "Mineral", "recorded_date": "2006-06-18", "anniversary_or_expiry": "2033-10-15", "area_ha": 448.83, "tenure_type": "Mineral", "source": "BC MTA Mineral, Placer and Coal Tenure Spatial View (BCGW). Open Government Licence - British Columbia. Not legal title.", "as_of": "2026-09-20", "role": "focus", "color": "#e8b040"}}, {"type": "Feature", "geometry": {"type": "Polygon", "coordinates": [[[-130.2395, 56.2873], [-130.2333, 56.2873], [-130.2333, 56.279], [-130.1833, 56.279], [-130.1833, 56.2915], [-130.2395, 56.2915], [-130.2395, 56.2873]]]}, "properties": {"company_id": "teuton-resources", "jurisdiction": "British Columbia", "claim_id": 535897, "claim_name": null, "holder": "TEUTON RESOURCES CORP.", "status": "Mineral", "recorded_date": "2006-06-18", "anniversary_or_expiry": "2033-10-15", "area_ha": 448.971, "tenure_type": "Mineral", "source": "BC MTA Mineral, Placer and Coal Tenure Spatial View (BCGW). Open Government Licence - British Columbia. Not legal title.", "as_of": "2026-09-20", "role": "focus", "color": "#e8b040"}}, {"type": "Feature", "geometry": {"type": "Polygon", "coordinates": [[[-130.1958, 56.2706], [-130.1958, 56.2665], [-130.1833, 56.2665], [-130.1833, 56.279], [-130.1958, 56.279], [-130.1958, 56.2706]]]}, "properties": {"company_id": "teuton-resources", "jurisdiction": "British Columbia", "claim_id": 535932, "claim_name": null, "holder": "TEUTON RESOURCES CORP.", "status": "Mineral", "recorded_date": "2006-06-19", "anniversary_or_expiry": "2033-10-15", "area_ha": 107.7889, "tenure_type": "Mineral", "source": "BC MTA Mineral, Placer and Coal Tenure Spatial View (BCGW). Open Government Licence - British Columbia. Not legal title.", "as_of": "2026-09-20", "role": "focus", "color": "#e8b040"}}, {"type": "Feature", "geometry": {"type": "Polygon", "coordinates": [[[-130.1958, 56.2581], [-130.1958, 56.254], [-130.1833, 56.254], [-130.1833, 56.2665], [-130.1958, 56.2665], [-130.1958, 56.2581]]]}, "properties": {"company_id": "teuton-resources", "jurisdiction": "British Columbia", "claim_id": 535939, "claim_name": null, "holder": "TEUTON RESOURCES CORP.", "status": "Mineral", "recorded_date": "2006-06-19", "anniversary_or_expiry": "2033-10-15", "area_ha": 107.8238, "tenure_type": "Mineral", "source": "BC MTA Mineral, Placer and Coal Tenure Spatial View (BCGW). Open Government Licence - British Columbia. Not legal title.", "as_of": "2026-09-20", "role": "focus", "color": "#e8b040"}}, {"type": "Feature", "geometry": {"type": "Polygon", "coordinates": [[[-130.1895, 56.2456], [-130.1895, 56.2415], [-130.1708, 56.2415], [-130.1708, 56.2498], [-130.1833, 56.2498], [-130.1833, 56.254], [-130.1895, 56.254], [-130.1895, 56.2456]]]}, "properties": {"company_id": "teuton-resources", "jurisdiction": "British Columbia", "claim_id": 535940, "claim_name": null, "holder": "TEUTON RESOURCES CORP.", "status": "Mineral", "recorded_date": "2006-06-19", "anniversary_or_expiry": "2033-10-15", "area_ha": 125.8426, "tenure_type": "Mineral", "source": "BC MTA Mineral, Placer and Coal Tenure Spatial View (BCGW). Open Government Licence - British Columbia. Not legal title.", "as_of": "2026-09-20", "role": "focus", "color": "#e8b040"}}, {"type": "Feature", "geometry": {"type": "Polygon", "coordinates": [[[-130.1833, 56.2373], [-130.1833, 56.2331], [-130.1645, 56.2331], [-130.1645, 56.2498], [-130.1708, 56.2498], [-130.1708, 56.2415], [-130.1833, 56.2415], [-130.1833, 56.2373]]]}, "properties": {"company_id": "teuton-resources", "jurisdiction": "British Columbia", "claim_id": 535941, "claim_name": null, "holder": "TEUTON RESOURCES CORP.", "status": "Mineral", "recorded_date": "2006-06-19", "anniversary_or_expiry": "2033-10-15", "area_ha": 143.8483, "tenure_type": "Mineral", "source": "BC MTA Mineral, Placer and Coal Tenure Spatial View (BCGW). Open Government Licence - British Columbia. Not legal title.", "as_of": "2026-09-20", "role": "focus", "color": "#e8b040"}}]}