{"type": "FeatureCollection", "features": [{"type": "Feature", "geometry": {"type": "Polygon", "coordinates": [[[-127.203, 57.3215], [-127.2113, 57.3215], [-127.2113, 57.317], [-127.203, 57.317], [-127.203, 57.3215]]]}, "properties": {"company_id": "thesis-gold", "jurisdiction": "British Columbia", "claim_id": 383411, "claim_name": "WO 1", "holder": "THESIS GOLD INC.", "status": "Mineral", "recorded_date": "9795168000", "anniversary_or_expiry": "2032-12-31", "area_ha": 25, "tenure_type": "Mineral", "source": "BC MTA Mineral, Placer and Coal Tenure Spatial View (BCGW). Open Government Licence - British Columbia. Not legal title.", "as_of": "2026-09-20", "role": "focus", "color": "#e8b040"}}, {"type": "Feature", "geometry": {"type": "Polygon", "coordinates": [[[-127.2113, 57.3215], [-127.2196, 57.3215], [-127.2196, 57.317], [-127.2113, 57.317], [-127.2113, 57.3215]]]}, "properties": {"company_id": "thesis-gold", "jurisdiction": "British Columbia", "claim_id": 383412, "claim_name": "WO 2", "holder": "THESIS GOLD INC.", "status": "Mineral", "recorded_date": "9795168000", "anniversary_or_expiry": "2032-12-31", "area_ha": 25, "tenure_type": "Mineral", "source": "BC MTA Mineral, Placer and Coal Tenure Spatial View (BCGW). Open Government Licence - British Columbia. Not legal title.", "as_of": "2026-09-20", "role": "focus", "color": "#e8b040"}}, {"type": "Feature", "geometry": {"type": "Polygon", "coordinates": [[[-127.2113, 57.317], [-127.2196, 57.317], [-127.2196, 57.3125], [-127.2113, 57.3125], [-127.2113, 57.317]]]}, "properties": {"company_id": "thesis-gold", "jurisdiction": "British Columbia", "claim_id": 383414, "claim_name": "WO 4", "holder": "THESIS GOLD INC.", "status": "Mineral", "recorded_date": "9795168000", "anniversary_or_expiry": "2032-12-31", "area_ha": 25, "tenure_type": "Mineral", "source": "BC MTA Mineral, Placer and Coal Tenure Spatial View (BCGW). Open Government Licence - British Columbia. Not legal title.", "as_of": "2026-09-20", "role": "focus", "color": "#e8b040"}}, {"type": "Feature", "geometry": {"type": "Polygon", "coordinates": [[[-127.2196, 57.317], [-127.2279, 57.317], [-127.2279, 57.3125], [-127.2196, 57.3125], [-127.2196, 57.317]]]}, "properties": {"company_id": "thesis-gold", "jurisdiction": "British Columbia", "claim_id": 383417, "claim_name": "WO 7", "holder": "THESIS GOLD INC.", "status": "Mineral", "recorded_date": "9795168000", "anniversary_or_expiry": "2032-12-31", "area_ha": 25, "tenure_type": "Mineral", "source": "BC MTA Mineral, Placer and Coal Tenure Spatial View (BCGW). Open Government Licence - British Columbia. Not legal title.", "as_of": "2026-09-20", "role": "focus", "color": "#e8b040"}}, {"type": "Feature", "geometry": {"type": "Polygon", "coordinates": [[[-127.2362, 57.3215], [-127.2362, 57.326], [-127.2445, 57.326], [-127.2445, 57.3215], [-127.2362, 57.3215]]]}, "properties": {"company_id": "thesis-gold", "jurisdiction": "British Columbia", "claim_id": 389432, "claim_name": "SHOTGUN 4", "holder": "THESIS GOLD INC.", "status": "Mineral", "recorded_date": "9986112000", "anniversary_or_expiry": "2032-12-31", "area_ha": 25, "tenure_type": "Mineral", "source": "BC MTA Mineral, Placer and Coal Tenure Spatial View (BCGW). Open Government Licence - British Columbia. Not legal title.", "as_of": "2026-09-20", "role": "focus", "color": "#e8b040"}}, {"type": "Feature", "geometry": {"type": "Polygon", "coordinates": [[[-127.2362, 57.317], [-127.2445, 57.317], [-127.2445, 57.3125], [-127.2362, 57.3125], [-127.2362, 57.317]]]}, "properties": {"company_id": "thesis-gold", "jurisdiction": "British Columbia", "claim_id": 389433, "claim_name": "SHOTGUN 5", "holder": "THESIS GOLD INC.", "status": "Mineral", "recorded_date": "9991296000", "anniversary_or_expiry": "2032-12-31", "area_ha": 25, "tenure_type": "Mineral", "source": "BC MTA Mineral, Placer and Coal Tenure Spatial View (BCGW). Open Government Licence - British Columbia. Not legal title.", "as_of": "2026-09-20", "role": "focus", "color": "#e8b040"}}, {"type": "Feature", "geometry": {"type": "Polygon", "coordinates": [[[-127.2279, 57.317], [-127.2279, 57.3215], [-127.2362, 57.3215], [-127.2362, 57.317], [-127.2279, 57.317]]]}, "properties": {"company_id": "thesis-gold", "jurisdiction": "British Columbia", "claim_id": 389435, "claim_name": "SHOTGUN 7", "holder": "THESIS GOLD INC.", "status": "Mineral", "recorded_date": "9992160000", "anniversary_or_expiry": "2032-12-31", "area_ha": 25, "tenure_type": "Mineral", "source": "BC MTA Mineral, Placer and Coal Tenure Spatial View (BCGW). Open Government Licence - British Columbia. Not legal title.", "as_of": "2026-09-20", "role": "focus", "color": "#e8b040"}}, {"type": "Feature", "geometry": {"type": "Polygon", "coordinates": [[[-127.2279, 57.317], [-127.2362, 57.317], [-127.2362, 57.3125], [-127.2279, 57.3125], [-127.2279, 57.317]]]}, "properties": {"company_id": "thesis-gold", "jurisdiction": "British Columbia", "claim_id": 389436, "claim_name": "SHOTGUN 8", "holder": "THESIS GOLD INC.", "status": "Mineral", "recorded_date": "9992160000", "anniversary_or_expiry": "2032-12-31", "area_ha": 25, "tenure_type": "Mineral", "source": "BC MTA Mineral, Placer and Coal Tenure Spatial View (BCGW). Open Government Licence - British Columbia. Not legal title.", "as_of": "2026-09-20", "role": "focus", "color": "#e8b040"}}, {"type": "Feature", "geometry": {"type": "Polygon", "coordinates": [[[-127.2205, 57.304], [-127.2205, 57.2998], [-127.208, 57.2998], [-127.208, 57.3082], [-127.2205, 57.3082], [-127.2205, 57.304]]]}, "properties": {"company_id": "thesis-gold", "jurisdiction": "British Columbia", "claim_id": 510068, "claim_name": null, "holder": "THESIS GOLD INC.", "status": "Mineral", "recorded_date": "2005-04-02", "anniversary_or_expiry": "2032-12-31", "area_ha": 69.925, "tenure_type": "Mineral", "source": "BC MTA Mineral, Placer and Coal Tenure Spatial View (BCGW). Open Government Licence - British Columbia. Not legal title.", "as_of": "2026-09-20", "role": "focus", "color": "#e8b040"}}, {"type": "Feature", "geometry": {"type": "Polygon", "coordinates": [[[-127.2205, 57.3123], [-127.2205, 57.3082], [-127.208, 57.3082], [-127.208, 57.3165], [-127.2205, 57.3165], [-127.2205, 57.3123]]]}, "properties": {"company_id": "thesis-gold", "jurisdiction": "British Columbia", "claim_id": 510069, "claim_name": null, "holder": "THESIS GOLD INC.", "status": "Mineral", "recorded_date": "2005-04-02", "anniversary_or_expiry": "2032-12-31", "area_ha": 69.908, "tenure_type": "Mineral", "source": "BC MTA Mineral, Placer and Coal Tenure Spatial View (BCGW). Open Government Licence - British Columbia. Not legal title.", "as_of": "2026-09-20", "role": "focus", "color": "#e8b040"}}, {"type": "Feature", "geometry": {"type": "Polygon", "coordinates": [[[-127.208, 57.3165], [-127.208, 57.3123], [-127.2018, 57.3123], [-127.2018, 57.3207], [-127.2143, 57.3207], [-127.2143, 57.3165], [-127.208, 57.3165]]]}, "properties": {"company_id": "thesis-gold", "jurisdiction": "British Columbia", "claim_id": 510070, "claim_name": null, "holder": "THESIS GOLD INC.", "status": "Mineral", "recorded_date": "2005-04-02", "anniversary_or_expiry": "2032-12-31", "area_ha": 52.424, "tenure_type": "Mineral", "source": "BC MTA Mineral, Placer and Coal Tenure Spatial View (BCGW). Open Government Licence - British Columbia. Not legal title.", "as_of": "2026-09-20", "role": "focus", "color": "#e8b040"}}, {"type": "Feature", "geometry": {"type": "Polygon", "coordinates": [[[-127.2205, 57.3248], [-127.2205, 57.3207], [-127.183, 57.3207], [-127.183, 57.3373], [-127.2205, 57.3373], [-127.2205, 57.3248]]]}, "properties": {"company_id": "thesis-gold", "jurisdiction": "British Columbia", "claim_id": 510071, "claim_name": null, "holder": "THESIS GOLD INC.", "status": "Mineral", "recorded_date": "2005-04-02", "anniversary_or_expiry": "2032-12-31", "area_ha": 419.25600000000003, "tenure_type": "Mineral", "source": "BC MTA Mineral, Placer and Coal Tenure Spatial View (BCGW). Open Government Licence - British Columbia. Not legal title.", "as_of": "2026-09-20", "role": "focus", "color": "#e8b040"}}, {"type": "Feature", "geometry": {"type": "Polygon", "coordinates": [[[-127.233, 57.3207], [-127.233, 57.3165], [-127.2143, 57.3165], [-127.2143, 57.3207], [-127.2205, 57.3207], [-127.2205, 57.3248], [-127.233, 57.3248], [-127.233, 57.3207]]]}, "properties": {"company_id": "thesis-gold", "jurisdiction": "British Columbia", "claim_id": 510072, "claim_name": null, "holder": "THESIS GOLD INC.", "status": "Mineral", "recorded_date": "2005-04-02", "anniversary_or_expiry": "2032-12-31", "area_ha": 87.366, "tenure_type": "Mineral", "source": "BC MTA Mineral, Placer and Coal Tenure Spatial View (BCGW). Open Government Licence - British Columbia. Not legal title.", "as_of": "2026-09-20", "role": "focus", "color": "#e8b040"}}, {"type": "Feature", "geometry": {"type": "Polygon", "coordinates": [[[-127.2455, 57.3207], [-127.2455, 57.3165], [-127.233, 57.3165], [-127.233, 57.3248], [-127.2455, 57.3248], [-127.2455, 57.3207]]]}, "properties": {"company_id": "thesis-gold", "jurisdiction": "British Columbia", "claim_id": 510073, "claim_name": null, "holder": "THESIS GOLD INC.", "status": "Mineral", "recorded_date": "2005-04-02", "anniversary_or_expiry": "2032-12-31", "area_ha": 69.89200000000001, "tenure_type": "Mineral", "source": "BC MTA Mineral, Placer and Coal Tenure Spatial View (BCGW). Open Government Licence - British Columbia. Not legal title.", "as_of": "2026-09-20", "role": "focus", "color": "#e8b040"}}, {"type": "Feature", "geometry": {"type": "Polygon", "coordinates": [[[-127.2455, 57.329], [-127.2455, 57.3248], [-127.2205, 57.3248], [-127.2205, 57.3373], [-127.2143, 57.3373], [-127.2143, 57.3415], [-127.233, 57.3415], [-127.233, 57.3498], [-127.2455, 57.3498], [-127.2455, 57.329]]]}, "properties": {"company_id": "thesis-gold", "jurisdiction": "British Columbia", "claim_id": 510074, "claim_name": null, "holder": "THESIS GOLD INC.", "status": "Mineral", "recorded_date": "2005-04-02", "anniversary_or_expiry": "2032-12-31", "area_ha": 366.78000000000003, "tenure_type": "Mineral", "source": "BC MTA Mineral, Placer and Coal Tenure Spatial View (BCGW). Open Government Licence - British Columbia. Not legal title.", "as_of": "2026-09-20", "role": "focus", "color": "#e8b040"}}, {"type": "Feature", "geometry": {"type": "Polygon", "coordinates": [[[-127.2018, 57.3165], [-127.2018, 57.3123], [-127.183, 57.3123], [-127.183, 57.3207], [-127.2018, 57.3207], [-127.2018, 57.3165]]]}, "properties": {"company_id": "thesis-gold", "jurisdiction": "British Columbia", "claim_id": 510075, "claim_name": null, "holder": "THESIS GOLD INC.", "status": "Mineral", "recorded_date": "2005-04-02", "anniversary_or_expiry": "2032-12-31", "area_ha": 104.851, "tenure_type": "Mineral", "source": "BC MTA Mineral, Placer and Coal Tenure Spatial View (BCGW). Open Government Licence - British Columbia. Not legal title.", "as_of": "2026-09-20", "role": "focus", "color": "#e8b040"}}, {"type": "Feature", "geometry": {"type": "Polygon", "coordinates": [[[-127.2643, 57.2957], [-127.2643, 57.2915], [-127.2143, 57.2915], [-127.2143, 57.2998], [-127.2205, 57.2998], [-127.2205, 57.3165], [-127.2643, 57.3165], [-127.2643, 57.2957]]]}, "properties": {"company_id": "thesis-gold", "jurisdiction": "British Columbia", "claim_id": 510076, "claim_name": null, "holder": "THESIS GOLD INC.", "status": "Mineral", "recorded_date": "2005-04-02", "anniversary_or_expiry": "2032-12-31", "area_ha": 769.168, "tenure_type": "Mineral", "source": "BC MTA Mineral, Placer and Coal Tenure Spatial View (BCGW). Open Government Licence - British Columbia. Not legal title.", "as_of": "2026-09-20", "role": "focus", "color": "#e8b040"}}, {"type": "Feature", "geometry": {"type": "Polygon", "coordinates": [[[-127.2705, 57.3165], [-127.2705, 57.3123], [-127.2643, 57.3123], [-127.2643, 57.3165], [-127.2455, 57.3165], [-127.2455, 57.3415], [-127.2705, 57.3415], [-127.2705, 57.3165]]]}, "properties": {"company_id": "thesis-gold", "jurisdiction": "British Columbia", "claim_id": 510077, "claim_name": null, "holder": "THESIS GOLD INC.", "status": "Mineral", "recorded_date": "2005-04-02", "anniversary_or_expiry": "2032-12-31", "area_ha": 436.718, "tenure_type": "Mineral", "source": "BC MTA Mineral, Placer and Coal Tenure Spatial View (BCGW). Open Government Licence - British Columbia. Not legal title.", "as_of": "2026-09-20", "role": "focus", "color": "#e8b040"}}, {"type": "Feature", "geometry": {"type": "Polygon", "coordinates": [[[-127.1955, 57.3415], [-127.1955, 57.3373], [-127.183, 57.3373], [-127.183, 57.329], [-127.1518, 57.329], [-127.1518, 57.3498], [-127.1955, 57.3498], [-127.1955, 57.3415]]]}, "properties": {"company_id": "thesis-gold", "jurisdiction": "British Columbia", "claim_id": 510078, "claim_name": null, "holder": "THESIS GOLD INC.", "status": "Mineral", "recorded_date": "2005-04-02", "anniversary_or_expiry": "2032-12-31", "area_ha": 541.39, "tenure_type": "Mineral", "source": "BC MTA Mineral, Placer and Coal Tenure Spatial View (BCGW). Open Government Licence - British Columbia. Not legal title.", "as_of": "2026-09-20", "role": "focus", "color": "#e8b040"}}, {"type": "Feature", "geometry": {"type": "Polygon", "coordinates": [[[-127.183, 57.3165], [-127.183, 57.3123], [-127.1455, 57.3123], [-127.1455, 57.329], [-127.183, 57.329], [-127.183, 57.3165]]]}, "properties": {"company_id": "thesis-gold", "jurisdiction": "British Columbia", "claim_id": 510079, "claim_name": null, "holder": "THESIS GOLD INC.", "status": "Mineral", "recorded_date": "2005-04-02", "anniversary_or_expiry": "2032-12-31", "area_ha": 419.375, "tenure_type": "Mineral", "source": "BC MTA Mineral, Placer and Coal Tenure Spatial View (BCGW). Open Government Licence - British Columbia. Not legal title.", "as_of": "2026-09-20", "role": "focus", "color": "#e8b040"}}, {"type": "Feature", "geometry": {"type": "Polygon", "coordinates": [[[-127.1643, 57.354], [-127.1643, 57.3498], [-127.1518, 57.3498], [-127.1518, 57.3457], [-127.1268, 57.3457], [-127.1268, 57.3748], [-127.1643, 57.3748], [-127.1643, 57.354]]]}, "properties": {"company_id": "thesis-gold", "jurisdiction": "British Columbia", "claim_id": 510080, "claim_name": null, "holder": "THESIS GOLD INC.", "status": "Mineral", "recorded_date": "2005-04-02", "anniversary_or_expiry": "2032-12-31", "area_ha": 698.2040000000001, "tenure_type": "Mineral", "source": "BC MTA Mineral, Placer and Coal Tenure Spatial View (BCGW). Open Government Licence - British Columbia. Not legal title.", "as_of": "2026-09-20", "role": "focus", "color": "#e8b040"}}, {"type": "Feature", "geometry": {"type": "Polygon", "coordinates": [[[-127.1955, 57.354], [-127.1955, 57.3498], [-127.1643, 57.3498], [-127.1643, 57.3748], [-127.1955, 57.3748], [-127.1955, 57.354]]]}, "properties": {"company_id": "thesis-gold", "jurisdiction": "British Columbia", "claim_id": 510081, "claim_name": null, "holder": "THESIS GOLD INC.", "status": "Mineral", "recorded_date": "2005-04-02", "anniversary_or_expiry": "2032-12-31", "area_ha": 523.602, "tenure_type": "Mineral", "source": "BC MTA Mineral, Placer and Coal Tenure Spatial View (BCGW). Open Government Licence - British Columbia. Not legal title.", "as_of": "2026-09-20", "role": "focus", "color": "#e8b040"}}, {"type": "Feature", "geometry": {"type": "Polygon", "coordinates": [[[-127.208, 57.3373], [-127.1955, 57.3373], [-127.1955, 57.3498], [-127.208, 57.3498], [-127.208, 57.3415], [-127.2143, 57.3415], [-127.2143, 57.3373], [-127.208, 57.3373]]]}, "properties": {"company_id": "thesis-gold", "jurisdiction": "British Columbia", "claim_id": 510082, "claim_name": null, "holder": "THESIS GOLD INC.", "status": "Mineral", "recorded_date": "2005-04-02", "anniversary_or_expiry": "2032-12-31", "area_ha": 122.236, "tenure_type": "Mineral", "source": "BC MTA Mineral, Placer and Coal Tenure Spatial View (BCGW). Open Government Licence - British Columbia. Not legal title.", "as_of": "2026-09-20", "role": "focus", "color": "#e8b040"}}, {"type": "Feature", "geometry": {"type": "Polygon", "coordinates": [[[-127.233, 57.3457], [-127.233, 57.3415], [-127.208, 57.3415], [-127.208, 57.3498], [-127.2018, 57.3498], [-127.2018, 57.354], [-127.2393, 57.354], [-127.2393, 57.3498], [-127.233, 57.3498], [-127.233, 57.3457]]]}, "properties": {"company_id": "thesis-gold", "jurisdiction": "British Columbia", "claim_id": 510083, "claim_name": null, "holder": "THESIS GOLD INC.", "status": "Mineral", "recorded_date": "2005-04-02", "anniversary_or_expiry": "2032-12-31", "area_ha": 244.43800000000002, "tenure_type": "Mineral", "source": "BC MTA Mineral, Placer and Coal Tenure Spatial View (BCGW). Open Government Licence - British Columbia. Not legal title.", "as_of": "2026-09-20", "role": "focus", "color": "#e8b040"}}, {"type": "Feature", "geometry": {"type": "Polygon", "coordinates": [[[-127.1518, 57.3415], [-127.1518, 57.3373], [-127.1393, 57.3373], [-127.1393, 57.3457], [-127.1518, 57.3457], [-127.1518, 57.3415]]]}, "properties": {"company_id": "thesis-gold", "jurisdiction": "British Columbia", "claim_id": 510084, "claim_name": null, "holder": "THESIS GOLD INC.", "status": "Mineral", "recorded_date": "2005-04-02", "anniversary_or_expiry": "2032-12-31", "area_ha": 69.857, "tenure_type": "Mineral", "source": "BC MTA Mineral, Placer and Coal Tenure Spatial View (BCGW). Open Government Licence - British Columbia. Not legal title.", "as_of": "2026-09-20", "role": "focus", "color": "#e8b040"}}, {"type": "Feature", "geometry": {"type": "Polygon", "coordinates": [[[-127.283, 57.3207], [-127.283, 57.3165], [-127.2705, 57.3165], [-127.2705, 57.3415], [-127.2455, 57.3415], [-127.2455, 57.3498], [-127.283, 57.3498], [-127.283, 57.3207]]]}, "properties": {"company_id": "thesis-gold", "jurisdiction": "British Columbia", "claim_id": 506499, "claim_name": "Law 1", "holder": "THESIS GOLD INC.", "status": "Mineral", "recorded_date": "2005-02-09", "anniversary_or_expiry": "2032-12-31", "area_ha": 419.14700000000005, "tenure_type": "Mineral", "source": "BC MTA Mineral, Placer and Coal Tenure Spatial View (BCGW). Open Government Licence - British Columbia. Not legal title.", "as_of": "2026-09-20", "role": "focus", "color": "#e8b040"}}, {"type": "Feature", "geometry": {"type": "Polygon", "coordinates": [[[-127.283, 57.2915], [-127.283, 57.2873], [-127.233, 57.2873], [-127.233, 57.2915], [-127.2643, 57.2915], [-127.2643, 57.3123], [-127.2705, 57.3123], [-127.2705, 57.3165], [-127.283, 57.3165], [-127.283, 57.2915]]]}, "properties": {"company_id": "thesis-gold", "jurisdiction": "British Columbia", "claim_id": 506501, "claim_name": "Law 2", "holder": "THESIS GOLD INC.", "status": "Mineral", "recorded_date": "2005-02-09", "anniversary_or_expiry": "2032-12-31", "area_ha": 437.072, "tenure_type": "Mineral", "source": "BC MTA Mineral, Placer and Coal Tenure Spatial View (BCGW). Open Government Licence - British Columbia. Not legal title.", "as_of": "2026-09-20", "role": "focus", "color": "#e8b040"}}, {"type": "Feature", "geometry": {"type": "Polygon", "coordinates": [[[-127.1705, 57.304], [-127.1705, 57.2998], [-127.1643, 57.2998], [-127.1393, 57.2998], [-127.1393, 57.304], [-127.1143, 57.304], [-127.1143, 57.3165], [-127.1455, 57.3165], [-127.1455, 57.3123], [-127.1705, 57.3123], [-127.1705, 57.304]]]}, "properties": {"company_id": "thesis-gold", "jurisdiction": "British Columbia", "claim_id": 514101, "claim_name": null, "holder": "THESIS GOLD INC.", "status": "Mineral", "recorded_date": "2005-06-07", "anniversary_or_expiry": "2032-12-31", "area_ha": 489.44800000000004, "tenure_type": "Mineral", "source": "BC MTA Mineral, Placer and Coal Tenure Spatial View (BCGW). Open Government Licence - British Columbia. Not legal title.", "as_of": "2026-09-20", "role": "focus", "color": "#e8b040"}}, {"type": "Feature", "geometry": {"type": "Polygon", "coordinates": [[[-127.2268, 57.2873], [-127.183, 57.2873], [-127.183, 57.2957], [-127.208, 57.2957], [-127.208, 57.2998], [-127.2143, 57.2998], [-127.2143, 57.2915], [-127.233, 57.2915], [-127.233, 57.2873], [-127.2268, 57.2873]]]}, "properties": {"company_id": "thesis-gold", "jurisdiction": "British Columbia", "claim_id": 517518, "claim_name": "WO FRACTION", "holder": "THESIS GOLD INC.", "status": "Mineral", "recorded_date": "2005-07-12", "anniversary_or_expiry": "2032-12-31", "area_ha": 244.821, "tenure_type": "Mineral", "source": "BC MTA Mineral, Placer and Coal Tenure Spatial View (BCGW). Open Government Licence - British Columbia. Not legal title.", "as_of": "2026-09-20", "role": "focus", "color": "#e8b040"}}, {"type": "Feature", "geometry": {"type": "Polygon", "coordinates": [[[-127.1705, 57.2957], [-127.1705, 57.2915], [-127.1518, 57.2915], [-127.1518, 57.2873], [-127.1455, 57.2873], [-127.1455, 57.2957], [-127.1393, 57.2957], [-127.1393, 57.2998], [-127.1705, 57.2998], [-127.1705, 57.2957]]]}, "properties": {"company_id": "thesis-gold", "jurisdiction": "British Columbia", "claim_id": 517521, "claim_name": "BISHOP FRACTION", "holder": "THESIS GOLD INC.", "status": "Mineral", "recorded_date": "2005-07-12", "anniversary_or_expiry": "2032-12-31", "area_ha": 174.863, "tenure_type": "Mineral", "source": "BC MTA Mineral, Placer and Coal Tenure Spatial View (BCGW). Open Government Licence - British Columbia. Not legal title.", "as_of": "2026-09-20", "role": "focus", "color": "#e8b040"}}, {"type": "Feature", "geometry": {"type": "Polygon", "coordinates": [[[-127.1455, 57.3207], [-127.1455, 57.3165], [-127.1268, 57.3165], [-127.1268, 57.3457], [-127.1393, 57.3457], [-127.1393, 57.329], [-127.1455, 57.329], [-127.1455, 57.3207]]]}, "properties": {"company_id": "thesis-gold", "jurisdiction": "British Columbia", "claim_id": 517522, "claim_name": "ATTORNEY CREEK", "holder": "THESIS GOLD INC.", "status": "Mineral", "recorded_date": "2005-07-12", "anniversary_or_expiry": "2032-12-31", "area_ha": 296.992, "tenure_type": "Mineral", "source": "BC MTA Mineral, Placer and Coal Tenure Spatial View (BCGW). Open Government Licence - British Columbia. Not legal title.", "as_of": "2026-09-20", "role": "focus", "color": "#e8b040"}}, {"type": "Feature", "geometry": {"type": "Polygon", "coordinates": [[[-127.1518, 57.2915], [-127.158, 57.2915], [-127.158, 57.2873], [-127.1518, 57.2873], [-127.1518, 57.2915]]]}, "properties": {"company_id": "thesis-gold", "jurisdiction": "British Columbia", "claim_id": 517525, "claim_name": "FRACTION", "holder": "THESIS GOLD INC.", "status": "Mineral", "recorded_date": "2005-07-12", "anniversary_or_expiry": "2032-12-31", "area_ha": 17.489, "tenure_type": "Mineral", "source": "BC MTA Mineral, Placer and Coal Tenure Spatial View (BCGW). Open Government Licence - British Columbia. Not legal title.", "as_of": "2026-09-20", "role": "focus", "color": "#e8b040"}}, {"type": "Feature", "geometry": {"type": "Polygon", "coordinates": [[[-127.2768, 57.3582], [-127.1955, 57.3582], [-127.1955, 57.3623], [-127.283, 57.3623], [-127.283, 57.3582], [-127.2768, 57.3582]]]}, "properties": {"company_id": "thesis-gold", "jurisdiction": "British Columbia", "claim_id": 517527, "claim_name": "STEALTH FRACTION", "holder": "THESIS GOLD INC.", "status": "Mineral", "recorded_date": "2005-07-12", "anniversary_or_expiry": "2032-12-31", "area_ha": 244.358, "tenure_type": "Mineral", "source": "BC MTA Mineral, Placer and Coal Tenure Spatial View (BCGW). Open Government Licence - British Columbia. Not legal title.", "as_of": "2026-09-20", "role": "focus", "color": "#e8b040"}}, {"type": "Feature", "geometry": {"type": "Polygon", "coordinates": [[[-127.5205, 57.529], [-127.5205, 57.5248], [-127.483, 57.5248], [-127.483, 57.5415], [-127.5205, 57.5415], [-127.5205, 57.529]]]}, "properties": {"company_id": "thesis-gold", "jurisdiction": "British Columbia", "claim_id": 528847, "claim_name": "ALBERTS NORTHEAST 5", "holder": "THESIS GOLD (HOLDINGS) INC", "status": "Mineral", "recorded_date": "2006-02-23", "anniversary_or_expiry": "2034-06-24", "area_ha": 416.96200000000005, "tenure_type": "Mineral", "source": "BC MTA Mineral, Placer and Coal Tenure Spatial View (BCGW). Open Government Licence - British Columbia. Not legal title.", "as_of": "2026-09-20", "role": "focus", "color": "#e8b040"}}, {"type": "Feature", "geometry": {"type": "Polygon", "coordinates": [[[-127.1518, 57.3332], [-127.1518, 57.329], [-127.1393, 57.329], [-127.1393, 57.3373], [-127.1518, 57.3373], [-127.1518, 57.3332]]]}, "properties": {"company_id": "thesis-gold", "jurisdiction": "British Columbia", "claim_id": 510185, "claim_name": null, "holder": "THESIS GOLD INC.", "status": "Mineral", "recorded_date": "2005-04-04", "anniversary_or_expiry": "2032-12-31", "area_ha": 69.87400000000001, "tenure_type": "Mineral", "source": "BC MTA Mineral, Placer and Coal Tenure Spatial View (BCGW). Open Government Licence - British Columbia. Not legal title.", "as_of": "2026-09-20", "role": "focus", "color": "#e8b040"}}]}