{"type": "FeatureCollection", "features": [{"type": "Feature", "geometry": {"type": "Polygon", "coordinates": [[[-87.3688, 48.9833], [-87.3688, 48.9875], [-87.375, 48.9875], [-87.375, 48.9833], [-87.3688, 48.9833]]]}, "properties": {"company_id": "total-metals", "jurisdiction": "Ontario", "claim_id": "101307", "claim_name": null, "holder": "(100) Total Metals Corp.", "status": "Active", "recorded_date": "2018-04-10", "anniversary_or_expiry": "2027-07-22", "area_ha": null, "tenure_type": "Single Cell Mining Claim", "source": "Ontario MLAS operational claims (OGSEarth / LIO MapServer). Unofficial viewing data, not legal title.", "as_of": "2026-09-20", "role": "focus", "color": "#e8b040"}}, {"type": "Feature", "geometry": {"type": "Polygon", "coordinates": [[[-87.3875, 48.9833], [-87.3875, 48.9875], [-87.3938, 48.9875], [-87.3938, 48.9833], [-87.3875, 48.9833]]]}, "properties": {"company_id": "total-metals", "jurisdiction": "Ontario", "claim_id": "103721", "claim_name": null, "holder": "(100) Total Metals Corp.", "status": "Active", "recorded_date": "2018-04-10", "anniversary_or_expiry": "2027-07-22", "area_ha": null, "tenure_type": "Single Cell Mining Claim", "source": "Ontario MLAS operational claims (OGSEarth / LIO MapServer). Unofficial viewing data, not legal title.", "as_of": "2026-09-20", "role": "focus", "color": "#e8b040"}}, {"type": "Feature", "geometry": {"type": "Polygon", "coordinates": [[[-87.375, 48.9958], [-87.375, 49.0], [-87.3813, 49.0], [-87.3813, 48.9958], [-87.375, 48.9958]]]}, "properties": {"company_id": "total-metals", "jurisdiction": "Ontario", "claim_id": "110861", "claim_name": null, "holder": "(100) Total Metals Corp.", "status": "Active", "recorded_date": "2018-04-10", "anniversary_or_expiry": "2027-07-22", "area_ha": null, "tenure_type": "Single Cell Mining Claim", "source": "Ontario MLAS operational claims (OGSEarth / LIO MapServer). Unofficial viewing data, not legal title.", "as_of": "2026-09-20", "role": "focus", "color": "#e8b040"}}, {"type": "Feature", "geometry": {"type": "Polygon", "coordinates": [[[-87.3813, 48.9917], [-87.3813, 48.9958], [-87.3875, 48.9958], [-87.3875, 48.9917], [-87.3813, 48.9917]]]}, "properties": {"company_id": "total-metals", "jurisdiction": "Ontario", "claim_id": "110862", "claim_name": null, "holder": "(100) Total Metals Corp.", "status": "Active", "recorded_date": "2018-04-10", "anniversary_or_expiry": "2027-07-22", "area_ha": null, "tenure_type": "Single Cell Mining Claim", "source": "Ontario MLAS operational claims (OGSEarth / LIO MapServer). Unofficial viewing data, not legal title.", "as_of": "2026-09-20", "role": "focus", "color": "#e8b040"}}, {"type": "Feature", "geometry": {"type": "Polygon", "coordinates": [[[-87.325, 48.9958], [-87.325, 49.0], [-87.3313, 49.0], [-87.3313, 48.9958], [-87.325, 48.9958]]]}, "properties": {"company_id": "total-metals", "jurisdiction": "Ontario", "claim_id": "117859", "claim_name": null, "holder": "(100) Total Metals Corp.", "status": "Active", "recorded_date": "2018-04-10", "anniversary_or_expiry": "2027-10-10", "area_ha": null, "tenure_type": "Boundary Cell Mining Claim", "source": "Ontario MLAS operational claims (OGSEarth / LIO MapServer). Unofficial viewing data, not legal title.", "as_of": "2026-09-20", "role": "focus", "color": "#e8b040"}}, {"type": "Feature", "geometry": {"type": "Polygon", "coordinates": [[[-87.3625, 48.9542], [-87.3625, 48.9583], [-87.3688, 48.9583], [-87.3688, 48.9542], [-87.3625, 48.9542]]]}, "properties": {"company_id": "total-metals", "jurisdiction": "Ontario", "claim_id": "116128", "claim_name": null, "holder": "(100) Total Metals Corp.", "status": "Active", "recorded_date": "2018-04-10", "anniversary_or_expiry": "2027-10-10", "area_ha": null, "tenure_type": "Single Cell Mining Claim", "source": "Ontario MLAS operational claims (OGSEarth / LIO MapServer). Unofficial viewing data, not legal title.", "as_of": "2026-09-20", "role": "focus", "color": "#e8b040"}}, {"type": "Feature", "geometry": {"type": "Polygon", "coordinates": [[[-87.3875, 48.9875], [-87.3875, 48.9917], [-87.3938, 48.9917], [-87.3938, 48.9875], [-87.3875, 48.9875]]]}, "properties": {"company_id": "total-metals", "jurisdiction": "Ontario", "claim_id": "135278", "claim_name": null, "holder": "(100) Total Metals Corp.", "status": "Active", "recorded_date": "2018-04-10", "anniversary_or_expiry": "2027-07-22", "area_ha": null, "tenure_type": "Single Cell Mining Claim", "source": "Ontario MLAS operational claims (OGSEarth / LIO MapServer). Unofficial viewing data, not legal title.", "as_of": "2026-09-20", "role": "focus", "color": "#e8b040"}}, {"type": "Feature", "geometry": {"type": "Polygon", "coordinates": [[[-87.3875, 48.9792], [-87.3875, 48.9833], [-87.3938, 48.9833], [-87.3938, 48.9792], [-87.3875, 48.9792]]]}, "properties": {"company_id": "total-metals", "jurisdiction": "Ontario", "claim_id": "135279", "claim_name": null, "holder": "(100) Total Metals Corp.", "status": "Active", "recorded_date": "2018-04-10", "anniversary_or_expiry": "2027-07-22", "area_ha": null, "tenure_type": "Single Cell Mining Claim", "source": "Ontario MLAS operational claims (OGSEarth / LIO MapServer). Unofficial viewing data, not legal title.", "as_of": "2026-09-20", "role": "focus", "color": "#e8b040"}}, {"type": "Feature", "geometry": {"type": "Polygon", "coordinates": [[[-87.4, 48.9917], [-87.4, 48.9958], [-87.4063, 48.9958], [-87.4063, 48.9917], [-87.4, 48.9917]]]}, "properties": {"company_id": "total-metals", "jurisdiction": "Ontario", "claim_id": "143152", "claim_name": null, "holder": "(100) Total Metals Corp.", "status": "Active", "recorded_date": "2018-04-10", "anniversary_or_expiry": "2027-07-22", "area_ha": null, "tenure_type": "Single Cell Mining Claim", "source": "Ontario MLAS operational claims (OGSEarth / LIO MapServer). Unofficial viewing data, not legal title.", "as_of": "2026-09-20", "role": "focus", "color": "#e8b040"}}, {"type": "Feature", "geometry": {"type": "Polygon", "coordinates": [[[-87.3188, 48.9958], [-87.3188, 49.0], [-87.325, 49.0], [-87.325, 48.9958], [-87.3188, 48.9958]]]}, "properties": {"company_id": "total-metals", "jurisdiction": "Ontario", "claim_id": "152325", "claim_name": null, "holder": "(100) Total Metals Corp.", "status": "Active", "recorded_date": "2018-04-10", "anniversary_or_expiry": "2027-10-10", "area_ha": null, "tenure_type": "Boundary Cell Mining Claim", "source": "Ontario MLAS operational claims (OGSEarth / LIO MapServer). Unofficial viewing data, not legal title.", "as_of": "2026-09-20", "role": "focus", "color": "#e8b040"}}, {"type": "Feature", "geometry": {"type": "Polygon", "coordinates": [[[-87.3875, 48.9917], [-87.3875, 48.9958], [-87.3938, 48.9958], [-87.3938, 48.9917], [-87.3875, 48.9917]]]}, "properties": {"company_id": "total-metals", "jurisdiction": "Ontario", "claim_id": "157778", "claim_name": null, "holder": "(100) Total Metals Corp.", "status": "Active", "recorded_date": "2018-04-10", "anniversary_or_expiry": "2027-07-22", "area_ha": null, "tenure_type": "Single Cell Mining Claim", "source": "Ontario MLAS operational claims (OGSEarth / LIO MapServer). Unofficial viewing data, not legal title.", "as_of": "2026-09-20", "role": "focus", "color": "#e8b040"}}, {"type": "Feature", "geometry": {"type": "Polygon", "coordinates": [[[-87.3813, 48.9792], [-87.3813, 48.9833], [-87.3875, 48.9833], [-87.3875, 48.9792], [-87.3813, 48.9792]]]}, "properties": {"company_id": "total-metals", "jurisdiction": "Ontario", "claim_id": "161749", "claim_name": null, "holder": "(100) Total Metals Corp.", "status": "Active", "recorded_date": "2018-04-10", "anniversary_or_expiry": "2027-07-22", "area_ha": null, "tenure_type": "Single Cell Mining Claim", "source": "Ontario MLAS operational claims (OGSEarth / LIO MapServer). Unofficial viewing data, not legal title.", "as_of": "2026-09-20", "role": "focus", "color": "#e8b040"}}, {"type": "Feature", "geometry": {"type": "Polygon", "coordinates": [[[-87.3938, 48.9875], [-87.3938, 48.9917], [-87.4, 48.9917], [-87.4, 48.9875], [-87.3938, 48.9875]]]}, "properties": {"company_id": "total-metals", "jurisdiction": "Ontario", "claim_id": "167794", "claim_name": null, "holder": "(100) Total Metals Corp.", "status": "Active", "recorded_date": "2018-04-10", "anniversary_or_expiry": "2027-07-22", "area_ha": null, "tenure_type": "Single Cell Mining Claim", "source": "Ontario MLAS operational claims (OGSEarth / LIO MapServer). Unofficial viewing data, not legal title.", "as_of": "2026-09-20", "role": "focus", "color": "#e8b040"}}, {"type": "Feature", "geometry": {"type": "Polygon", "coordinates": [[[-87.3188, 48.9917], [-87.3188, 48.9958], [-87.325, 48.9958], [-87.325, 48.9917], [-87.3188, 48.9917]]]}, "properties": {"company_id": "total-metals", "jurisdiction": "Ontario", "claim_id": "168944", "claim_name": null, "holder": "(100) Total Metals Corp.", "status": "Active", "recorded_date": "2018-04-10", "anniversary_or_expiry": "2027-10-10", "area_ha": null, "tenure_type": "Boundary Cell Mining Claim", "source": "Ontario MLAS operational claims (OGSEarth / LIO MapServer). Unofficial viewing data, not legal title.", "as_of": "2026-09-20", "role": "focus", "color": "#e8b040"}}, {"type": "Feature", "geometry": {"type": "Polygon", "coordinates": [[[-87.3313, 49.0042], [-87.3313, 49.0083], [-87.3375, 49.0083], [-87.3375, 49.0042], [-87.3313, 49.0042]]]}, "properties": {"company_id": "total-metals", "jurisdiction": "Ontario", "claim_id": "169024", "claim_name": null, "holder": "(100) Total Metals Corp.", "status": "Active", "recorded_date": "2018-04-10", "anniversary_or_expiry": "2027-10-10", "area_ha": null, "tenure_type": "Boundary Cell Mining Claim", "source": "Ontario MLAS operational claims (OGSEarth / LIO MapServer). Unofficial viewing data, not legal title.", "as_of": "2026-09-20", "role": "focus", "color": "#e8b040"}}, {"type": "Feature", "geometry": {"type": "Polygon", "coordinates": [[[-87.2938, 48.9917], [-87.2938, 48.9958], [-87.3, 48.9958], [-87.3, 48.9917], [-87.2938, 48.9917]]]}, "properties": {"company_id": "total-metals", "jurisdiction": "Ontario", "claim_id": "172104", "claim_name": null, "holder": "(100) Total Metals Corp.", "status": "Active", "recorded_date": "2018-04-10", "anniversary_or_expiry": "2027-10-10", "area_ha": null, "tenure_type": "Boundary Cell Mining Claim", "source": "Ontario MLAS operational claims (OGSEarth / LIO MapServer). Unofficial viewing data, not legal title.", "as_of": "2026-09-20", "role": "focus", "color": "#e8b040"}}, {"type": "Feature", "geometry": {"type": "Polygon", "coordinates": [[[-87.3625, 48.9792], [-87.3625, 48.9833], [-87.3688, 48.9833], [-87.3688, 48.9792], [-87.3625, 48.9792]]]}, "properties": {"company_id": "total-metals", "jurisdiction": "Ontario", "claim_id": "181763", "claim_name": null, "holder": "(100) Total Metals Corp.", "status": "Active", "recorded_date": "2018-04-10", "anniversary_or_expiry": "2027-07-22", "area_ha": null, "tenure_type": "Single Cell Mining Claim", "source": "Ontario MLAS operational claims (OGSEarth / LIO MapServer). Unofficial viewing data, not legal title.", "as_of": "2026-09-20", "role": "focus", "color": "#e8b040"}}, {"type": "Feature", "geometry": {"type": "Polygon", "coordinates": [[[-87.3813, 48.9833], [-87.3813, 48.9875], [-87.3875, 48.9875], [-87.3875, 48.9833], [-87.3813, 48.9833]]]}, "properties": {"company_id": "total-metals", "jurisdiction": "Ontario", "claim_id": "181227", "claim_name": null, "holder": "(100) Total Metals Corp.", "status": "Active", "recorded_date": "2018-04-10", "anniversary_or_expiry": "2027-07-22", "area_ha": null, "tenure_type": "Single Cell Mining Claim", "source": "Ontario MLAS operational claims (OGSEarth / LIO MapServer). Unofficial viewing data, not legal title.", "as_of": "2026-09-20", "role": "focus", "color": "#e8b040"}}, {"type": "Feature", "geometry": {"type": "Polygon", "coordinates": [[[-87.3563, 48.9833], [-87.3563, 48.9875], [-87.3625, 48.9875], [-87.3625, 48.9833], [-87.3563, 48.9833]]]}, "properties": {"company_id": "total-metals", "jurisdiction": "Ontario", "claim_id": "198338", "claim_name": null, "holder": "(100) Total Metals Corp.", "status": "Active", "recorded_date": "2018-04-10", "anniversary_or_expiry": "2027-10-10", "area_ha": null, "tenure_type": "Single Cell Mining Claim", "source": "Ontario MLAS operational claims (OGSEarth / LIO MapServer). Unofficial viewing data, not legal title.", "as_of": "2026-09-20", "role": "focus", "color": "#e8b040"}}, {"type": "Feature", "geometry": {"type": "Polygon", "coordinates": [[[-87.3938, 48.9917], [-87.3938, 48.9958], [-87.4, 48.9958], [-87.4, 48.9917], [-87.3938, 48.9917]]]}, "properties": {"company_id": "total-metals", "jurisdiction": "Ontario", "claim_id": "202441", "claim_name": null, "holder": "(100) Total Metals Corp.", "status": "Active", "recorded_date": "2018-04-10", "anniversary_or_expiry": "2027-07-22", "area_ha": null, "tenure_type": "Single Cell Mining Claim", "source": "Ontario MLAS operational claims (OGSEarth / LIO MapServer). Unofficial viewing data, not legal title.", "as_of": "2026-09-20", "role": "focus", "color": "#e8b040"}}, {"type": "Feature", "geometry": {"type": "Polygon", "coordinates": [[[-87.3625, 48.9833], [-87.3625, 48.9875], [-87.3688, 48.9875], [-87.3688, 48.9833], [-87.3625, 48.9833]]]}, "properties": {"company_id": "total-metals", "jurisdiction": "Ontario", "claim_id": "206270", "claim_name": null, "holder": "(100) Total Metals Corp.", "status": "Active", "recorded_date": "2018-04-10", "anniversary_or_expiry": "2027-10-10", "area_ha": null, "tenure_type": "Single Cell Mining Claim", "source": "Ontario MLAS operational claims (OGSEarth / LIO MapServer). Unofficial viewing data, not legal title.", "as_of": "2026-09-20", "role": "focus", "color": "#e8b040"}}, {"type": "Feature", "geometry": {"type": "Polygon", "coordinates": [[[-87.3, 48.9917], [-87.3, 48.9958], [-87.3063, 48.9958], [-87.3063, 48.9917], [-87.3, 48.9917]]]}, "properties": {"company_id": "total-metals", "jurisdiction": "Ontario", "claim_id": "209404", "claim_name": null, "holder": "(100) Total Metals Corp.", "status": "Active", "recorded_date": "2018-04-10", "anniversary_or_expiry": "2027-10-10", "area_ha": null, "tenure_type": "Boundary Cell Mining Claim", "source": "Ontario MLAS operational claims (OGSEarth / LIO MapServer). Unofficial viewing data, not legal title.", "as_of": "2026-09-20", "role": "focus", "color": "#e8b040"}}, {"type": "Feature", "geometry": {"type": "Polygon", "coordinates": [[[-87.3875, 48.9542], [-87.3875, 48.9583], [-87.3938, 48.9583], [-87.3938, 48.9542], [-87.3875, 48.9542]]]}, "properties": {"company_id": "total-metals", "jurisdiction": "Ontario", "claim_id": "209168", "claim_name": null, "holder": "(100) Total Metals Corp.", "status": "Active", "recorded_date": "2018-04-10", "anniversary_or_expiry": "2027-09-09", "area_ha": null, "tenure_type": "Single Cell Mining Claim", "source": "Ontario MLAS operational claims (OGSEarth / LIO MapServer). Unofficial viewing data, not legal title.", "as_of": "2026-09-20", "role": "focus", "color": "#e8b040"}}, {"type": "Feature", "geometry": {"type": "Polygon", "coordinates": [[[-87.3688, 48.9542], [-87.3688, 48.9583], [-87.375, 48.9583], [-87.375, 48.9542], [-87.3688, 48.9542]]]}, "properties": {"company_id": "total-metals", "jurisdiction": "Ontario", "claim_id": "214845", "claim_name": null, "holder": "(100) Total Metals Corp.", "status": "Active", "recorded_date": "2018-04-10", "anniversary_or_expiry": "2027-10-10", "area_ha": null, "tenure_type": "Single Cell Mining Claim", "source": "Ontario MLAS operational claims (OGSEarth / LIO MapServer). Unofficial viewing data, not legal title.", "as_of": "2026-09-20", "role": "focus", "color": "#e8b040"}}, {"type": "Feature", "geometry": {"type": "Polygon", "coordinates": [[[-87.3813, 48.9875], [-87.3813, 48.9917], [-87.3875, 48.9917], [-87.3875, 48.9875], [-87.3813, 48.9875]]]}, "properties": {"company_id": "total-metals", "jurisdiction": "Ontario", "claim_id": "216569", "claim_name": null, "holder": "(100) Total Metals Corp.", "status": "Active", "recorded_date": "2018-04-10", "anniversary_or_expiry": "2027-07-22", "area_ha": null, "tenure_type": "Single Cell Mining Claim", "source": "Ontario MLAS operational claims (OGSEarth / LIO MapServer). Unofficial viewing data, not legal title.", "as_of": "2026-09-20", "role": "focus", "color": "#e8b040"}}, {"type": "Feature", "geometry": {"type": "Polygon", "coordinates": [[[-87.4, 48.9875], [-87.4, 48.9917], [-87.4063, 48.9917], [-87.4063, 48.9875], [-87.4, 48.9875]]]}, "properties": {"company_id": "total-metals", "jurisdiction": "Ontario", "claim_id": "216570", "claim_name": null, "holder": "(100) Total Metals Corp.", "status": "Active", "recorded_date": "2018-04-10", "anniversary_or_expiry": "2027-07-22", "area_ha": null, "tenure_type": "Single Cell Mining Claim", "source": "Ontario MLAS operational claims (OGSEarth / LIO MapServer). Unofficial viewing data, not legal title.", "as_of": "2026-09-20", "role": "focus", "color": "#e8b040"}}, {"type": "Feature", "geometry": {"type": "Polygon", "coordinates": [[[-87.3938, 48.9792], [-87.3938, 48.9833], [-87.4, 48.9833], [-87.4, 48.9792], [-87.3938, 48.9792]]]}, "properties": {"company_id": "total-metals", "jurisdiction": "Ontario", "claim_id": "216571", "claim_name": null, "holder": "(100) Total Metals Corp.", "status": "Active", "recorded_date": "2018-04-10", "anniversary_or_expiry": "2027-07-22", "area_ha": null, "tenure_type": "Single Cell Mining Claim", "source": "Ontario MLAS operational claims (OGSEarth / LIO MapServer). Unofficial viewing data, not legal title.", "as_of": "2026-09-20", "role": "focus", "color": "#e8b040"}}, {"type": "Feature", "geometry": {"type": "Polygon", "coordinates": [[[-87.3625, 48.9875], [-87.3625, 48.9917], [-87.3688, 48.9917], [-87.3688, 48.9875], [-87.3625, 48.9875]]]}, "properties": {"company_id": "total-metals", "jurisdiction": "Ontario", "claim_id": "235678", "claim_name": null, "holder": "(100) Total Metals Corp.", "status": "Active", "recorded_date": "2018-04-10", "anniversary_or_expiry": "2027-10-10", "area_ha": null, "tenure_type": "Single Cell Mining Claim", "source": "Ontario MLAS operational claims (OGSEarth / LIO MapServer). Unofficial viewing data, not legal title.", "as_of": "2026-09-20", "role": "focus", "color": "#e8b040"}}, {"type": "Feature", "geometry": {"type": "Polygon", "coordinates": [[[-87.3938, 48.9833], [-87.3938, 48.9875], [-87.4, 48.9875], [-87.4, 48.9833], [-87.3938, 48.9833]]]}, "properties": {"company_id": "total-metals", "jurisdiction": "Ontario", "claim_id": "236644", "claim_name": null, "holder": "(100) Total Metals Corp.", "status": "Active", "recorded_date": "2018-04-10", "anniversary_or_expiry": "2027-07-22", "area_ha": null, "tenure_type": "Single Cell Mining Claim", "source": "Ontario MLAS operational claims (OGSEarth / LIO MapServer). Unofficial viewing data, not legal title.", "as_of": "2026-09-20", "role": "focus", "color": "#e8b040"}}, {"type": "Feature", "geometry": {"type": "Polygon", "coordinates": [[[-87.3813, 48.9542], [-87.3813, 48.9583], [-87.3875, 48.9583], [-87.3875, 48.9542], [-87.3813, 48.9542]]]}, "properties": {"company_id": "total-metals", "jurisdiction": "Ontario", "claim_id": "238292", "claim_name": null, "holder": "(100) Total Metals Corp.", "status": "Active", "recorded_date": "2018-04-10", "anniversary_or_expiry": "2027-09-09", "area_ha": null, "tenure_type": "Single Cell Mining Claim", "source": "Ontario MLAS operational claims (OGSEarth / LIO MapServer). Unofficial viewing data, not legal title.", "as_of": "2026-09-20", "role": "focus", "color": "#e8b040"}}, {"type": "Feature", "geometry": {"type": "Polygon", "coordinates": [[[-87.375, 48.95], [-87.375, 48.9542], [-87.3813, 48.9542], [-87.3813, 48.95], [-87.375, 48.95]]]}, "properties": {"company_id": "total-metals", "jurisdiction": "Ontario", "claim_id": "238293", "claim_name": null, "holder": "(100) Total Metals Corp.", "status": "Active", "recorded_date": "2018-04-10", "anniversary_or_expiry": "2027-09-09", "area_ha": null, "tenure_type": "Single Cell Mining Claim", "source": "Ontario MLAS operational claims (OGSEarth / LIO MapServer). Unofficial viewing data, not legal title.", "as_of": "2026-09-20", "role": "focus", "color": "#e8b040"}}, {"type": "Feature", "geometry": {"type": "Polygon", "coordinates": [[[-87.3813, 48.9958], [-87.3813, 49.0], [-87.3875, 49.0], [-87.3875, 48.9958], [-87.3813, 48.9958]]]}, "properties": {"company_id": "total-metals", "jurisdiction": "Ontario", "claim_id": "238387", "claim_name": null, "holder": "(100) Total Metals Corp.", "status": "Active", "recorded_date": "2018-04-10", "anniversary_or_expiry": "2027-07-22", "area_ha": null, "tenure_type": "Single Cell Mining Claim", "source": "Ontario MLAS operational claims (OGSEarth / LIO MapServer). Unofficial viewing data, not legal title.", "as_of": "2026-09-20", "role": "focus", "color": "#e8b040"}}, {"type": "Feature", "geometry": {"type": "Polygon", "coordinates": [[[-87.275, 48.9917], [-87.275, 48.9958], [-87.2813, 48.9958], [-87.2813, 48.9917], [-87.275, 48.9917]]]}, "properties": {"company_id": "total-metals", "jurisdiction": "Ontario", "claim_id": "264851", "claim_name": null, "holder": "(100) Total Metals Corp.", "status": "Active", "recorded_date": "2018-04-10", "anniversary_or_expiry": "2027-10-10", "area_ha": null, "tenure_type": "Boundary Cell Mining Claim", "source": "Ontario MLAS operational claims (OGSEarth / LIO MapServer). Unofficial viewing data, not legal title.", "as_of": "2026-09-20", "role": "focus", "color": "#e8b040"}}, {"type": "Feature", "geometry": {"type": "Polygon", "coordinates": [[[-87.3688, 48.9792], [-87.3688, 48.9833], [-87.375, 48.9833], [-87.375, 48.9792], [-87.3688, 48.9792]]]}, "properties": {"company_id": "total-metals", "jurisdiction": "Ontario", "claim_id": "264878", "claim_name": null, "holder": "(100) Total Metals Corp.", "status": "Active", "recorded_date": "2018-04-10", "anniversary_or_expiry": "2027-07-22", "area_ha": null, "tenure_type": "Single Cell Mining Claim", "source": "Ontario MLAS operational claims (OGSEarth / LIO MapServer). Unofficial viewing data, not legal title.", "as_of": "2026-09-20", "role": "focus", "color": "#e8b040"}}, {"type": "Feature", "geometry": {"type": "Polygon", "coordinates": [[[-87.4, 48.9958], [-87.4, 49.0], [-87.4063, 49.0], [-87.4063, 48.9958], [-87.4, 48.9958]]]}, "properties": {"company_id": "total-metals", "jurisdiction": "Ontario", "claim_id": "263763", "claim_name": null, "holder": "(100) Total Metals Corp.", "status": "Active", "recorded_date": "2018-04-10", "anniversary_or_expiry": "2027-09-16", "area_ha": null, "tenure_type": "Single Cell Mining Claim", "source": "Ontario MLAS operational claims (OGSEarth / LIO MapServer). Unofficial viewing data, not legal title.", "as_of": "2026-09-20", "role": "focus", "color": "#e8b040"}}, {"type": "Feature", "geometry": {"type": "Polygon", "coordinates": [[[-87.3688, 48.95], [-87.3688, 48.9542], [-87.375, 48.9542], [-87.375, 48.95], [-87.3688, 48.95]]]}, "properties": {"company_id": "total-metals", "jurisdiction": "Ontario", "claim_id": "270269", "claim_name": null, "holder": "(100) Total Metals Corp.", "status": "Active", "recorded_date": "2018-04-10", "anniversary_or_expiry": "2027-10-10", "area_ha": null, "tenure_type": "Single Cell Mining Claim", "source": "Ontario MLAS operational claims (OGSEarth / LIO MapServer). Unofficial viewing data, not legal title.", "as_of": "2026-09-20", "role": "focus", "color": "#e8b040"}}, {"type": "Feature", "geometry": {"type": "Polygon", "coordinates": [[[-87.2813, 48.9917], [-87.2813, 48.9958], [-87.2875, 48.9958], [-87.2875, 48.9917], [-87.2813, 48.9917]]]}, "properties": {"company_id": "total-metals", "jurisdiction": "Ontario", "claim_id": "272321", "claim_name": null, "holder": "(100) Total Metals Corp.", "status": "Active", "recorded_date": "2018-04-10", "anniversary_or_expiry": "2027-10-10", "area_ha": null, "tenure_type": "Boundary Cell Mining Claim", "source": "Ontario MLAS operational claims (OGSEarth / LIO MapServer). Unofficial viewing data, not legal title.", "as_of": "2026-09-20", "role": "focus", "color": "#e8b040"}}, {"type": "Feature", "geometry": {"type": "Polygon", "coordinates": [[[-87.3063, 48.9917], [-87.3063, 48.9958], [-87.3125, 48.9958], [-87.3125, 48.9917], [-87.3063, 48.9917]]]}, "properties": {"company_id": "total-metals", "jurisdiction": "Ontario", "claim_id": "275425", "claim_name": null, "holder": "(100) Total Metals Corp.", "status": "Active", "recorded_date": "2018-04-10", "anniversary_or_expiry": "2027-10-10", "area_ha": null, "tenure_type": "Boundary Cell Mining Claim", "source": "Ontario MLAS operational claims (OGSEarth / LIO MapServer). Unofficial viewing data, not legal title.", "as_of": "2026-09-20", "role": "focus", "color": "#e8b040"}}, {"type": "Feature", "geometry": {"type": "Polygon", "coordinates": [[[-87.375, 48.9542], [-87.375, 48.9583], [-87.3813, 48.9583], [-87.3813, 48.9542], [-87.375, 48.9542]]]}, "properties": {"company_id": "total-metals", "jurisdiction": "Ontario", "claim_id": "275050", "claim_name": null, "holder": "(100) Total Metals Corp.", "status": "Active", "recorded_date": "2018-04-10", "anniversary_or_expiry": "2027-09-09", "area_ha": null, "tenure_type": "Single Cell Mining Claim", "source": "Ontario MLAS operational claims (OGSEarth / LIO MapServer). Unofficial viewing data, not legal title.", "as_of": "2026-09-20", "role": "focus", "color": "#e8b040"}}, {"type": "Feature", "geometry": {"type": "Polygon", "coordinates": [[[-87.4, 48.9833], [-87.4, 48.9875], [-87.4063, 48.9875], [-87.4063, 48.9833], [-87.4, 48.9833]]]}, "properties": {"company_id": "total-metals", "jurisdiction": "Ontario", "claim_id": "282565", "claim_name": null, "holder": "(100) Total Metals Corp.", "status": "Active", "recorded_date": "2018-04-10", "anniversary_or_expiry": "2027-07-22", "area_ha": null, "tenure_type": "Single Cell Mining Claim", "source": "Ontario MLAS operational claims (OGSEarth / LIO MapServer). Unofficial viewing data, not legal title.", "as_of": "2026-09-20", "role": "focus", "color": "#e8b040"}}, {"type": "Feature", "geometry": {"type": "Polygon", "coordinates": [[[-87.3563, 48.9792], [-87.3563, 48.9833], [-87.3625, 48.9833], [-87.3625, 48.9792], [-87.3563, 48.9792]]]}, "properties": {"company_id": "total-metals", "jurisdiction": "Ontario", "claim_id": "284404", "claim_name": null, "holder": "(100) Total Metals Corp.", "status": "Active", "recorded_date": "2018-04-10", "anniversary_or_expiry": "2027-10-10", "area_ha": null, "tenure_type": "Single Cell Mining Claim", "source": "Ontario MLAS operational claims (OGSEarth / LIO MapServer). Unofficial viewing data, not legal title.", "as_of": "2026-09-20", "role": "focus", "color": "#e8b040"}}, {"type": "Feature", "geometry": {"type": "Polygon", "coordinates": [[[-87.3125, 48.9917], [-87.3125, 48.9958], [-87.3188, 48.9958], [-87.3188, 48.9917], [-87.3125, 48.9917]]]}, "properties": {"company_id": "total-metals", "jurisdiction": "Ontario", "claim_id": "284407", "claim_name": null, "holder": "(100) Total Metals Corp.", "status": "Active", "recorded_date": "2018-04-10", "anniversary_or_expiry": "2027-10-10", "area_ha": null, "tenure_type": "Boundary Cell Mining Claim", "source": "Ontario MLAS operational claims (OGSEarth / LIO MapServer). Unofficial viewing data, not legal title.", "as_of": "2026-09-20", "role": "focus", "color": "#e8b040"}}, {"type": "Feature", "geometry": {"type": "Polygon", "coordinates": [[[-87.3688, 48.9875], [-87.3688, 48.9917], [-87.375, 48.9917], [-87.375, 48.9875], [-87.3688, 48.9875]]]}, "properties": {"company_id": "total-metals", "jurisdiction": "Ontario", "claim_id": "284423", "claim_name": null, "holder": "(100) Total Metals Corp.", "status": "Active", "recorded_date": "2018-04-10", "anniversary_or_expiry": "2027-07-22", "area_ha": null, "tenure_type": "Single Cell Mining Claim", "source": "Ontario MLAS operational claims (OGSEarth / LIO MapServer). Unofficial viewing data, not legal title.", "as_of": "2026-09-20", "role": "focus", "color": "#e8b040"}}, {"type": "Feature", "geometry": {"type": "Polygon", "coordinates": [[[-87.375, 48.9875], [-87.375, 48.9917], [-87.3813, 48.9917], [-87.3813, 48.9875], [-87.375, 48.9875]]]}, "properties": {"company_id": "total-metals", "jurisdiction": "Ontario", "claim_id": "284424", "claim_name": null, "holder": "(100) Total Metals Corp.", "status": "Active", "recorded_date": "2018-04-10", "anniversary_or_expiry": "2027-07-22", "area_ha": null, "tenure_type": "Single Cell Mining Claim", "source": "Ontario MLAS operational claims (OGSEarth / LIO MapServer). Unofficial viewing data, not legal title.", "as_of": "2026-09-20", "role": "focus", "color": "#e8b040"}}, {"type": "Feature", "geometry": {"type": "Polygon", "coordinates": [[[-87.2688, 48.9917], [-87.2688, 48.9958], [-87.275, 48.9958], [-87.275, 48.9917], [-87.2688, 48.9917]]]}, "properties": {"company_id": "total-metals", "jurisdiction": "Ontario", "claim_id": "291726", "claim_name": null, "holder": "(100) Total Metals Corp.", "status": "Active", "recorded_date": "2018-04-10", "anniversary_or_expiry": "2027-10-10", "area_ha": null, "tenure_type": "Boundary Cell Mining Claim", "source": "Ontario MLAS operational claims (OGSEarth / LIO MapServer). Unofficial viewing data, not legal title.", "as_of": "2026-09-20", "role": "focus", "color": "#e8b040"}}, {"type": "Feature", "geometry": {"type": "Polygon", "coordinates": [[[-87.3938, 48.9958], [-87.3938, 49.0], [-87.4, 49.0], [-87.4, 48.9958], [-87.3938, 48.9958]]]}, "properties": {"company_id": "total-metals", "jurisdiction": "Ontario", "claim_id": "300308", "claim_name": null, "holder": "(100) Total Metals Corp.", "status": "Active", "recorded_date": "2018-04-10", "anniversary_or_expiry": "2027-09-16", "area_ha": null, "tenure_type": "Single Cell Mining Claim", "source": "Ontario MLAS operational claims (OGSEarth / LIO MapServer). Unofficial viewing data, not legal title.", "as_of": "2026-09-20", "role": "focus", "color": "#e8b040"}}, {"type": "Feature", "geometry": {"type": "Polygon", "coordinates": [[[-87.2875, 48.9917], [-87.2875, 48.9958], [-87.2938, 48.9958], [-87.2938, 48.9917], [-87.2875, 48.9917]]]}, "properties": {"company_id": "total-metals", "jurisdiction": "Ontario", "claim_id": "311369", "claim_name": null, "holder": "(100) Total Metals Corp.", "status": "Active", "recorded_date": "2018-04-10", "anniversary_or_expiry": "2027-10-10", "area_ha": null, "tenure_type": "Boundary Cell Mining Claim", "source": "Ontario MLAS operational claims (OGSEarth / LIO MapServer). Unofficial viewing data, not legal title.", "as_of": "2026-09-20", "role": "focus", "color": "#e8b040"}}, {"type": "Feature", "geometry": {"type": "Polygon", "coordinates": [[[-87.3813, 48.95], [-87.3813, 48.9542], [-87.3875, 48.9542], [-87.3875, 48.95], [-87.3813, 48.95]]]}, "properties": {"company_id": "total-metals", "jurisdiction": "Ontario", "claim_id": "312363", "claim_name": null, "holder": "(100) Total Metals Corp.", "status": "Active", "recorded_date": "2018-04-10", "anniversary_or_expiry": "2027-09-09", "area_ha": null, "tenure_type": "Single Cell Mining Claim", "source": "Ontario MLAS operational claims (OGSEarth / LIO MapServer). Unofficial viewing data, not legal title.", "as_of": "2026-09-20", "role": "focus", "color": "#e8b040"}}, {"type": "Feature", "geometry": {"type": "Polygon", "coordinates": [[[-87.3875, 48.95], [-87.3875, 48.9542], [-87.3938, 48.9542], [-87.3938, 48.95], [-87.3875, 48.95]]]}, "properties": {"company_id": "total-metals", "jurisdiction": "Ontario", "claim_id": "312364", "claim_name": null, "holder": "(100) Total Metals Corp.", "status": "Active", "recorded_date": "2018-04-10", "anniversary_or_expiry": "2027-09-09", "area_ha": null, "tenure_type": "Single Cell Mining Claim", "source": "Ontario MLAS operational claims (OGSEarth / LIO MapServer). Unofficial viewing data, not legal title.", "as_of": "2026-09-20", "role": "focus", "color": "#e8b040"}}, {"type": "Feature", "geometry": {"type": "Polygon", "coordinates": [[[-87.3875, 48.9958], [-87.3875, 49.0], [-87.3938, 49.0], [-87.3938, 48.9958], [-87.3875, 48.9958]]]}, "properties": {"company_id": "total-metals", "jurisdiction": "Ontario", "claim_id": "318298", "claim_name": null, "holder": "(100) Total Metals Corp.", "status": "Active", "recorded_date": "2018-04-10", "anniversary_or_expiry": "2027-09-16", "area_ha": null, "tenure_type": "Single Cell Mining Claim", "source": "Ontario MLAS operational claims (OGSEarth / LIO MapServer). Unofficial viewing data, not legal title.", "as_of": "2026-09-20", "role": "focus", "color": "#e8b040"}}, {"type": "Feature", "geometry": {"type": "Polygon", "coordinates": [[[-87.2625, 48.9917], [-87.2625, 48.9958], [-87.2688, 48.9958], [-87.2688, 48.9917], [-87.2625, 48.9917]]]}, "properties": {"company_id": "total-metals", "jurisdiction": "Ontario", "claim_id": "320935", "claim_name": null, "holder": "(100) Total Metals Corp.", "status": "Active", "recorded_date": "2018-04-10", "anniversary_or_expiry": "2027-10-10", "area_ha": null, "tenure_type": "Boundary Cell Mining Claim", "source": "Ontario MLAS operational claims (OGSEarth / LIO MapServer). Unofficial viewing data, not legal title.", "as_of": "2026-09-20", "role": "focus", "color": "#e8b040"}}, {"type": "Feature", "geometry": {"type": "Polygon", "coordinates": [[[-87.375, 48.9833], [-87.375, 48.9875], [-87.3813, 48.9875], [-87.3813, 48.9833], [-87.375, 48.9833]]]}, "properties": {"company_id": "total-metals", "jurisdiction": "Ontario", "claim_id": "320958", "claim_name": null, "holder": "(100) Total Metals Corp.", "status": "Active", "recorded_date": "2018-04-10", "anniversary_or_expiry": "2027-07-22", "area_ha": null, "tenure_type": "Single Cell Mining Claim", "source": "Ontario MLAS operational claims (OGSEarth / LIO MapServer). Unofficial viewing data, not legal title.", "as_of": "2026-09-20", "role": "focus", "color": "#e8b040"}}, {"type": "Feature", "geometry": {"type": "Polygon", "coordinates": [[[-87.375, 48.9792], [-87.375, 48.9833], [-87.3813, 48.9833], [-87.3813, 48.9792], [-87.375, 48.9792]]]}, "properties": {"company_id": "total-metals", "jurisdiction": "Ontario", "claim_id": "320959", "claim_name": null, "holder": "(100) Total Metals Corp.", "status": "Active", "recorded_date": "2018-04-10", "anniversary_or_expiry": "2027-07-22", "area_ha": null, "tenure_type": "Single Cell Mining Claim", "source": "Ontario MLAS operational claims (OGSEarth / LIO MapServer). Unofficial viewing data, not legal title.", "as_of": "2026-09-20", "role": "focus", "color": "#e8b040"}}, {"type": "Feature", "geometry": {"type": "Polygon", "coordinates": [[[-87.3313, 48.9958], [-87.3313, 49.0], [-87.3375, 49.0], [-87.3375, 48.9958], [-87.3313, 48.9958]]]}, "properties": {"company_id": "total-metals", "jurisdiction": "Ontario", "claim_id": "321021", "claim_name": null, "holder": "(100) Total Metals Corp.", "status": "Active", "recorded_date": "2018-04-10", "anniversary_or_expiry": "2027-10-10", "area_ha": null, "tenure_type": "Boundary Cell Mining Claim", "source": "Ontario MLAS operational claims (OGSEarth / LIO MapServer). Unofficial viewing data, not legal title.", "as_of": "2026-09-20", "role": "focus", "color": "#e8b040"}}, {"type": "Feature", "geometry": {"type": "Polygon", "coordinates": [[[-87.3313, 49.0], [-87.3313, 49.0042], [-87.3375, 49.0042], [-87.3375, 49.0], [-87.3313, 49.0]]]}, "properties": {"company_id": "total-metals", "jurisdiction": "Ontario", "claim_id": "343927", "claim_name": null, "holder": "(100) Total Metals Corp.", "status": "Active", "recorded_date": "2018-04-10", "anniversary_or_expiry": "2027-10-10", "area_ha": null, "tenure_type": "Boundary Cell Mining Claim", "source": "Ontario MLAS operational claims (OGSEarth / LIO MapServer). Unofficial viewing data, not legal title.", "as_of": "2026-09-20", "role": "focus", "color": "#e8b040"}}, {"type": "Feature", "geometry": {"type": "Polygon", "coordinates": [[[-87.4, 48.9792], [-87.4, 48.9833], [-87.4063, 48.9833], [-87.4063, 48.9792], [-87.4, 48.9792]]]}, "properties": {"company_id": "total-metals", "jurisdiction": "Ontario", "claim_id": "342212", "claim_name": null, "holder": "(100) Total Metals Corp.", "status": "Active", "recorded_date": "2018-04-10", "anniversary_or_expiry": "2027-07-22", "area_ha": null, "tenure_type": "Single Cell Mining Claim", "source": "Ontario MLAS operational claims (OGSEarth / LIO MapServer). Unofficial viewing data, not legal title.", "as_of": "2026-09-20", "role": "focus", "color": "#e8b040"}}, {"type": "Feature", "geometry": {"type": "Polygon", "coordinates": [[[-87.375, 48.9917], [-87.375, 48.9958], [-87.3813, 48.9958], [-87.3813, 48.9917], [-87.375, 48.9917]]]}, "properties": {"company_id": "total-metals", "jurisdiction": "Ontario", "claim_id": "344450", "claim_name": null, "holder": "(100) Total Metals Corp.", "status": "Active", "recorded_date": "2018-04-10", "anniversary_or_expiry": "2027-07-22", "area_ha": null, "tenure_type": "Single Cell Mining Claim", "source": "Ontario MLAS operational claims (OGSEarth / LIO MapServer). Unofficial viewing data, not legal title.", "as_of": "2026-09-20", "role": "focus", "color": "#e8b040"}}, {"type": "Feature", "geometry": {"type": "Polygon", "coordinates": [[[-87.425, 49.0208], [-87.425, 49.0167], [-87.4188, 49.0167], [-87.4188, 49.0208], [-87.4, 49.0208], [-87.4, 49.0125], [-87.3875, 49.0125], [-87.3875, 49.025], [-87.425, 49.025], [-87.425, 49.0208]]]}, "properties": {"company_id": "total-metals", "jurisdiction": "Ontario", "claim_id": "535015", "claim_name": null, "holder": "(100) Total Metals Corp.", "status": "Active", "recorded_date": "2018-11-15", "anniversary_or_expiry": "2027-10-10", "area_ha": null, "tenure_type": "Multi-cell Mining Claim", "source": "Ontario MLAS operational claims (OGSEarth / LIO MapServer). Unofficial viewing data, not legal title.", "as_of": "2026-09-20", "role": "focus", "color": "#e8b040"}}, {"type": "Feature", "geometry": {"type": "Polygon", "coordinates": [[[-87.4188, 49.0125], [-87.4188, 49.0083], [-87.4, 49.0083], [-87.4, 49.0208], [-87.4188, 49.0208], [-87.4188, 49.0125]]]}, "properties": {"company_id": "total-metals", "jurisdiction": "Ontario", "claim_id": "535016", "claim_name": null, "holder": "(100) Total Metals Corp.", "status": "Active", "recorded_date": "2018-11-15", "anniversary_or_expiry": "2027-09-16", "area_ha": null, "tenure_type": "Multi-cell Mining Claim", "source": "Ontario MLAS operational claims (OGSEarth / LIO MapServer). Unofficial viewing data, not legal title.", "as_of": "2026-09-20", "role": "focus", "color": "#e8b040"}}, {"type": "Feature", "geometry": {"type": "Polygon", "coordinates": [[[-87.4188, 49.0], [-87.4188, 48.9958], [-87.4063, 48.9958], [-87.4063, 49.0], [-87.3875, 49.0], [-87.3875, 49.0125], [-87.4, 49.0125], [-87.4, 49.0083], [-87.4188, 49.0083], [-87.4188, 49.0]]]}, "properties": {"company_id": "total-metals", "jurisdiction": "Ontario", "claim_id": "535017", "claim_name": null, "holder": "(100) Total Metals Corp.", "status": "Active", "recorded_date": "2018-11-15", "anniversary_or_expiry": "2027-09-16", "area_ha": null, "tenure_type": "Multi-cell Mining Claim", "source": "Ontario MLAS operational claims (OGSEarth / LIO MapServer). Unofficial viewing data, not legal title.", "as_of": "2026-09-20", "role": "focus", "color": "#e8b040"}}, {"type": "Feature", "geometry": {"type": "Polygon", "coordinates": [[[-87.3875, 49.0125], [-87.3875, 49.0083], [-87.375, 49.0083], [-87.375, 49.025], [-87.3875, 49.025], [-87.3875, 49.0125]]]}, "properties": {"company_id": "total-metals", "jurisdiction": "Ontario", "claim_id": "535106", "claim_name": null, "holder": "(100) Total Metals Corp.", "status": "Active", "recorded_date": "2018-11-16", "anniversary_or_expiry": "2027-10-10", "area_ha": null, "tenure_type": "Multi-cell Mining Claim", "source": "Ontario MLAS operational claims (OGSEarth / LIO MapServer). Unofficial viewing data, not legal title.", "as_of": "2026-09-20", "role": "focus", "color": "#e8b040"}}, {"type": "Feature", "geometry": {"type": "Polygon", "coordinates": [[[-87.35, 48.9917], [-87.35, 48.9875], [-87.3188, 48.9875], [-87.3188, 48.9917], [-87.325, 48.9917], [-87.325, 48.9958], [-87.3375, 48.9958], [-87.3375, 49.0083], [-87.35, 49.0083], [-87.35, 48.9917]]]}, "properties": {"company_id": "total-metals", "jurisdiction": "Ontario", "claim_id": "535107", "claim_name": null, "holder": "(100) Total Metals Corp.", "status": "Active", "recorded_date": "2018-11-16", "anniversary_or_expiry": "2027-10-10", "area_ha": null, "tenure_type": "Multi-cell Mining Claim", "source": "Ontario MLAS operational claims (OGSEarth / LIO MapServer). Unofficial viewing data, not legal title.", "as_of": "2026-09-20", "role": "focus", "color": "#e8b040"}}, {"type": "Feature", "geometry": {"type": "Polygon", "coordinates": [[[-87.3625, 48.975], [-87.3625, 48.9708], [-87.3375, 48.9708], [-87.3375, 48.9875], [-87.35, 48.9875], [-87.35, 48.9917], [-87.3625, 48.9917], [-87.3625, 48.9875], [-87.3563, 48.9875], [-87.3563, 48.9792], [-87.3625, 48.9792], [-87.3625, 48.975]]]}, "properties": {"company_id": "total-metals", "jurisdiction": "Ontario", "claim_id": "535108", "claim_name": null, "holder": "(100) Total Metals Corp.", "status": "Active", "recorded_date": "2018-11-16", "anniversary_or_expiry": "2027-10-10", "area_ha": null, "tenure_type": "Multi-cell Mining Claim", "source": "Ontario MLAS operational claims (OGSEarth / LIO MapServer). Unofficial viewing data, not legal title.", "as_of": "2026-09-20", "role": "focus", "color": "#e8b040"}}, {"type": "Feature", "geometry": {"type": "Polygon", "coordinates": [[[-87.3375, 48.975], [-87.3375, 48.9708], [-87.3188, 48.9708], [-87.3188, 48.9875], [-87.3375, 48.9875], [-87.3375, 48.975]]]}, "properties": {"company_id": "total-metals", "jurisdiction": "Ontario", "claim_id": "535109", "claim_name": null, "holder": "(100) Total Metals Corp.", "status": "Active", "recorded_date": "2018-11-16", "anniversary_or_expiry": "2027-10-10", "area_ha": null, "tenure_type": "Multi-cell Mining Claim", "source": "Ontario MLAS operational claims (OGSEarth / LIO MapServer). Unofficial viewing data, not legal title.", "as_of": "2026-09-20", "role": "focus", "color": "#e8b040"}}, {"type": "Feature", "geometry": {"type": "Polygon", "coordinates": [[[-87.3188, 48.9792], [-87.3188, 48.975], [-87.3063, 48.975], [-87.3063, 48.9917], [-87.3188, 48.9917], [-87.3188, 48.9792]]]}, "properties": {"company_id": "total-metals", "jurisdiction": "Ontario", "claim_id": "535110", "claim_name": null, "holder": "(100) Total Metals Corp.", "status": "Active", "recorded_date": "2018-11-16", "anniversary_or_expiry": "2027-10-10", "area_ha": null, "tenure_type": "Multi-cell Mining Claim", "source": "Ontario MLAS operational claims (OGSEarth / LIO MapServer). Unofficial viewing data, not legal title.", "as_of": "2026-09-20", "role": "focus", "color": "#e8b040"}}, {"type": "Feature", "geometry": {"type": "Polygon", "coordinates": [[[-87.3063, 48.9792], [-87.3063, 48.975], [-87.2875, 48.975], [-87.2875, 48.9917], [-87.3063, 48.9917], [-87.3063, 48.9792]]]}, "properties": {"company_id": "total-metals", "jurisdiction": "Ontario", "claim_id": "535111", "claim_name": null, "holder": "(100) Total Metals Corp.", "status": "Active", "recorded_date": "2018-11-16", "anniversary_or_expiry": "2027-10-10", "area_ha": null, "tenure_type": "Multi-cell Mining Claim", "source": "Ontario MLAS operational claims (OGSEarth / LIO MapServer). Unofficial viewing data, not legal title.", "as_of": "2026-09-20", "role": "focus", "color": "#e8b040"}}, {"type": "Feature", "geometry": {"type": "Polygon", "coordinates": [[[-87.2875, 48.9875], [-87.2875, 48.9833], [-87.2625, 48.9833], [-87.2625, 48.9917], [-87.2875, 48.9917], [-87.2875, 48.9875]]]}, "properties": {"company_id": "total-metals", "jurisdiction": "Ontario", "claim_id": "535112", "claim_name": null, "holder": "(100) Total Metals Corp.", "status": "Active", "recorded_date": "2018-11-16", "anniversary_or_expiry": "2027-10-10", "area_ha": null, "tenure_type": "Multi-cell Mining Claim", "source": "Ontario MLAS operational claims (OGSEarth / LIO MapServer). Unofficial viewing data, not legal title.", "as_of": "2026-09-20", "role": "focus", "color": "#e8b040"}}, {"type": "Feature", "geometry": {"type": "Polygon", "coordinates": [[[-87.2875, 48.9708], [-87.2688, 48.9708], [-87.2688, 48.9833], [-87.2875, 48.9833], [-87.2875, 48.975], [-87.2938, 48.975], [-87.2938, 48.9708], [-87.2875, 48.9708]]]}, "properties": {"company_id": "total-metals", "jurisdiction": "Ontario", "claim_id": "535113", "claim_name": null, "holder": "(100) Total Metals Corp.", "status": "Active", "recorded_date": "2018-11-16", "anniversary_or_expiry": "2027-10-10", "area_ha": null, "tenure_type": "Multi-cell Mining Claim", "source": "Ontario MLAS operational claims (OGSEarth / LIO MapServer). Unofficial viewing data, not legal title.", "as_of": "2026-09-20", "role": "focus", "color": "#e8b040"}}, {"type": "Feature", "geometry": {"type": "Polygon", "coordinates": [[[-87.3688, 48.9625], [-87.3688, 48.9583], [-87.3625, 48.9583], [-87.3625, 48.9542], [-87.3375, 48.9542], [-87.3375, 48.9708], [-87.3625, 48.9708], [-87.3625, 48.9667], [-87.3688, 48.9667], [-87.3688, 48.9625]]]}, "properties": {"company_id": "total-metals", "jurisdiction": "Ontario", "claim_id": "535115", "claim_name": null, "holder": "(100) Total Metals Corp.", "status": "Active", "recorded_date": "2018-11-16", "anniversary_or_expiry": "2027-10-10", "area_ha": null, "tenure_type": "Multi-cell Mining Claim", "source": "Ontario MLAS operational claims (OGSEarth / LIO MapServer). Unofficial viewing data, not legal title.", "as_of": "2026-09-20", "role": "focus", "color": "#e8b040"}}, {"type": "Feature", "geometry": {"type": "Polygon", "coordinates": [[[-87.3375, 48.9625], [-87.3375, 48.9583], [-87.3188, 48.9583], [-87.3188, 48.9708], [-87.3375, 48.9708], [-87.3375, 48.9625]]]}, "properties": {"company_id": "total-metals", "jurisdiction": "Ontario", "claim_id": "535116", "claim_name": null, "holder": "(100) Total Metals Corp.", "status": "Active", "recorded_date": "2018-11-16", "anniversary_or_expiry": "2027-10-10", "area_ha": null, "tenure_type": "Multi-cell Mining Claim", "source": "Ontario MLAS operational claims (OGSEarth / LIO MapServer). Unofficial viewing data, not legal title.", "as_of": "2026-09-20", "role": "focus", "color": "#e8b040"}}, {"type": "Feature", "geometry": {"type": "Polygon", "coordinates": [[[-87.3188, 48.9625], [-87.3188, 48.9583], [-87.3063, 48.9583], [-87.3063, 48.975], [-87.3188, 48.975], [-87.3188, 48.9625]]]}, "properties": {"company_id": "total-metals", "jurisdiction": "Ontario", "claim_id": "535117", "claim_name": null, "holder": "(100) Total Metals Corp.", "status": "Active", "recorded_date": "2018-11-16", "anniversary_or_expiry": "2027-10-10", "area_ha": null, "tenure_type": "Multi-cell Mining Claim", "source": "Ontario MLAS operational claims (OGSEarth / LIO MapServer). Unofficial viewing data, not legal title.", "as_of": "2026-09-20", "role": "focus", "color": "#e8b040"}}, {"type": "Feature", "geometry": {"type": "Polygon", "coordinates": [[[-87.3063, 48.9625], [-87.3063, 48.9583], [-87.2875, 48.9583], [-87.2875, 48.9708], [-87.2938, 48.9708], [-87.2938, 48.975], [-87.3063, 48.975], [-87.3063, 48.9625]]]}, "properties": {"company_id": "total-metals", "jurisdiction": "Ontario", "claim_id": "535118", "claim_name": null, "holder": "(100) Total Metals Corp.", "status": "Active", "recorded_date": "2018-11-16", "anniversary_or_expiry": "2027-10-10", "area_ha": null, "tenure_type": "Multi-cell Mining Claim", "source": "Ontario MLAS operational claims (OGSEarth / LIO MapServer). Unofficial viewing data, not legal title.", "as_of": "2026-09-20", "role": "focus", "color": "#e8b040"}}, {"type": "Feature", "geometry": {"type": "Polygon", "coordinates": [[[-87.2875, 48.9625], [-87.2875, 48.9583], [-87.2688, 48.9583], [-87.2688, 48.9708], [-87.2875, 48.9708], [-87.2875, 48.9625]]]}, "properties": {"company_id": "total-metals", "jurisdiction": "Ontario", "claim_id": "535119", "claim_name": null, "holder": "(100) Total Metals Corp.", "status": "Active", "recorded_date": "2018-11-16", "anniversary_or_expiry": "2027-10-10", "area_ha": null, "tenure_type": "Multi-cell Mining Claim", "source": "Ontario MLAS operational claims (OGSEarth / LIO MapServer). Unofficial viewing data, not legal title.", "as_of": "2026-09-20", "role": "focus", "color": "#e8b040"}}, {"type": "Feature", "geometry": {"type": "Polygon", "coordinates": [[[-87.3625, 48.95], [-87.3375, 48.95], [-87.3375, 48.9542], [-87.3688, 48.9542], [-87.3688, 48.95], [-87.3625, 48.95]]]}, "properties": {"company_id": "total-metals", "jurisdiction": "Ontario", "claim_id": "535120", "claim_name": null, "holder": "(100) Total Metals Corp.", "status": "Active", "recorded_date": "2018-11-16", "anniversary_or_expiry": "2027-10-10", "area_ha": null, "tenure_type": "Multi-cell Mining Claim", "source": "Ontario MLAS operational claims (OGSEarth / LIO MapServer). Unofficial viewing data, not legal title.", "as_of": "2026-09-20", "role": "focus", "color": "#e8b040"}}, {"type": "Feature", "geometry": {"type": "Polygon", "coordinates": [[[-87.3375, 48.9542], [-87.3375, 48.95], [-87.3, 48.95], [-87.3, 48.9583], [-87.3375, 48.9583], [-87.3375, 48.9542]]]}, "properties": {"company_id": "total-metals", "jurisdiction": "Ontario", "claim_id": "535121", "claim_name": null, "holder": "(100) Total Metals Corp.", "status": "Active", "recorded_date": "2018-11-16", "anniversary_or_expiry": "2027-10-10", "area_ha": null, "tenure_type": "Multi-cell Mining Claim", "source": "Ontario MLAS operational claims (OGSEarth / LIO MapServer). Unofficial viewing data, not legal title.", "as_of": "2026-09-20", "role": "focus", "color": "#e8b040"}}, {"type": "Feature", "geometry": {"type": "Polygon", "coordinates": [[[-95.1063, 49.7125], [-95.1063, 49.7167], [-95.1125, 49.7167], [-95.1125, 49.7125], [-95.1063, 49.7125]]]}, "properties": {"company_id": "total-metals", "jurisdiction": "Ontario", "claim_id": "562791", "claim_name": null, "holder": "(100) Total Metals Corp.", "status": "Active", "recorded_date": "2019-10-26", "anniversary_or_expiry": "2031-10-26", "area_ha": null, "tenure_type": "Single Cell Mining Claim", "source": "Ontario MLAS operational claims (OGSEarth / LIO MapServer). Unofficial viewing data, not legal title.", "as_of": "2026-09-20", "role": "focus", "color": "#e8b040"}}, {"type": "Feature", "geometry": {"type": "Polygon", "coordinates": [[[-95.075, 49.7083], [-95.075, 49.7125], [-95.0813, 49.7125], [-95.0813, 49.7083], [-95.075, 49.7083]]]}, "properties": {"company_id": "total-metals", "jurisdiction": "Ontario", "claim_id": "619242", "claim_name": null, "holder": "(100) Total Metals Corp.", "status": "Active", "recorded_date": "2020-11-17", "anniversary_or_expiry": "2031-11-17", "area_ha": null, "tenure_type": "Single Cell Mining Claim", "source": "Ontario MLAS operational claims (OGSEarth / LIO MapServer). Unofficial viewing data, not legal title.", "as_of": "2026-09-20", "role": "focus", "color": "#e8b040"}}, {"type": "Feature", "geometry": {"type": "Polygon", "coordinates": [[[-95.0688, 49.7208], [-95.0688, 49.725], [-95.075, 49.725], [-95.075, 49.7208], [-95.0688, 49.7208]]]}, "properties": {"company_id": "total-metals", "jurisdiction": "Ontario", "claim_id": "741501", "claim_name": null, "holder": "(100) Total Metals Corp.", "status": "Active", "recorded_date": "2022-08-03", "anniversary_or_expiry": "2031-02-04", "area_ha": null, "tenure_type": "Single Cell Mining Claim", "source": "Ontario MLAS operational claims (OGSEarth / LIO MapServer). Unofficial viewing data, not legal title.", "as_of": "2026-09-20", "role": "focus", "color": "#e8b040"}}, {"type": "Feature", "geometry": {"type": "Polygon", "coordinates": [[[-95.0688, 49.7167], [-95.0688, 49.7208], [-95.075, 49.7208], [-95.075, 49.7167], [-95.0688, 49.7167]]]}, "properties": {"company_id": "total-metals", "jurisdiction": "Ontario", "claim_id": "741502", "claim_name": null, "holder": "(100) Total Metals Corp.", "status": "Active", "recorded_date": "2022-08-03", "anniversary_or_expiry": "2031-08-03", "area_ha": null, "tenure_type": "Single Cell Mining Claim", "source": "Ontario MLAS operational claims (OGSEarth / LIO MapServer). Unofficial viewing data, not legal title.", "as_of": "2026-09-20", "role": "focus", "color": "#e8b040"}}, {"type": "Feature", "geometry": {"type": "Polygon", "coordinates": [[[-95.075, 49.7167], [-95.075, 49.7208], [-95.0813, 49.7208], [-95.0813, 49.7167], [-95.075, 49.7167]]]}, "properties": {"company_id": "total-metals", "jurisdiction": "Ontario", "claim_id": "741831", "claim_name": null, "holder": "(100) Total Metals Corp.", "status": "Active", "recorded_date": "2022-08-05", "anniversary_or_expiry": "2031-08-05", "area_ha": null, "tenure_type": "Single Cell Mining Claim", "source": "Ontario MLAS operational claims (OGSEarth / LIO MapServer). Unofficial viewing data, not legal title.", "as_of": "2026-09-20", "role": "focus", "color": "#e8b040"}}, {"type": "Feature", "geometry": {"type": "Polygon", "coordinates": [[[-95.0625, 49.7125], [-95.0625, 49.7167], [-95.0688, 49.7167], [-95.0688, 49.7125], [-95.0625, 49.7125]]]}, "properties": {"company_id": "total-metals", "jurisdiction": "Ontario", "claim_id": "741832", "claim_name": null, "holder": "(100) Total Metals Corp.", "status": "Active", "recorded_date": "2022-08-05", "anniversary_or_expiry": "2031-08-05", "area_ha": null, "tenure_type": "Single Cell Mining Claim", "source": "Ontario MLAS operational claims (OGSEarth / LIO MapServer). Unofficial viewing data, not legal title.", "as_of": "2026-09-20", "role": "focus", "color": "#e8b040"}}, {"type": "Feature", "geometry": {"type": "Polygon", "coordinates": [[[-95.0688, 49.7125], [-95.0688, 49.7167], [-95.075, 49.7167], [-95.075, 49.7125], [-95.0688, 49.7125]]]}, "properties": {"company_id": "total-metals", "jurisdiction": "Ontario", "claim_id": "741833", "claim_name": null, "holder": "(100) Total Metals Corp.", "status": "Active", "recorded_date": "2022-08-05", "anniversary_or_expiry": "2031-08-05", "area_ha": null, "tenure_type": "Single Cell Mining Claim", "source": "Ontario MLAS operational claims (OGSEarth / LIO MapServer). Unofficial viewing data, not legal title.", "as_of": "2026-09-20", "role": "focus", "color": "#e8b040"}}, {"type": "Feature", "geometry": {"type": "Polygon", "coordinates": [[[-95.0813, 49.7167], [-95.0813, 49.7208], [-95.0875, 49.7208], [-95.0875, 49.7167], [-95.0813, 49.7167]]]}, "properties": {"company_id": "total-metals", "jurisdiction": "Ontario", "claim_id": "741834", "claim_name": null, "holder": "(100) Total Metals Corp.", "status": "Active", "recorded_date": "2022-08-05", "anniversary_or_expiry": "2031-08-05", "area_ha": null, "tenure_type": "Single Cell Mining Claim", "source": "Ontario MLAS operational claims (OGSEarth / LIO MapServer). Unofficial viewing data, not legal title.", "as_of": "2026-09-20", "role": "focus", "color": "#e8b040"}}, {"type": "Feature", "geometry": {"type": "Polygon", "coordinates": [[[-95.0875, 49.7167], [-95.0875, 49.7208], [-95.0938, 49.7208], [-95.0938, 49.7167], [-95.0875, 49.7167]]]}, "properties": {"company_id": "total-metals", "jurisdiction": "Ontario", "claim_id": "742079", "claim_name": null, "holder": "(100) Total Metals Corp.", "status": "Active", "recorded_date": "2022-08-11", "anniversary_or_expiry": "2031-08-11", "area_ha": null, "tenure_type": "Single Cell Mining Claim", "source": "Ontario MLAS operational claims (OGSEarth / LIO MapServer). Unofficial viewing data, not legal title.", "as_of": "2026-09-20", "role": "focus", "color": "#e8b040"}}, {"type": "Feature", "geometry": {"type": "Polygon", "coordinates": [[[-95.1063, 49.7208], [-95.1063, 49.725], [-95.1125, 49.725], [-95.1125, 49.7208], [-95.1063, 49.7208]]]}, "properties": {"company_id": "total-metals", "jurisdiction": "Ontario", "claim_id": "742080", "claim_name": null, "holder": "(100) Total Metals Corp.", "status": "Active", "recorded_date": "2022-08-11", "anniversary_or_expiry": "2031-08-11", "area_ha": null, "tenure_type": "Single Cell Mining Claim", "source": "Ontario MLAS operational claims (OGSEarth / LIO MapServer). Unofficial viewing data, not legal title.", "as_of": "2026-09-20", "role": "focus", "color": "#e8b040"}}, {"type": "Feature", "geometry": {"type": "Polygon", "coordinates": [[[-95.0875, 49.7208], [-95.0875, 49.725], [-95.0938, 49.725], [-95.0938, 49.7208], [-95.0875, 49.7208]]]}, "properties": {"company_id": "total-metals", "jurisdiction": "Ontario", "claim_id": "742081", "claim_name": null, "holder": "(100) Total Metals Corp.", "status": "Active", "recorded_date": "2022-08-11", "anniversary_or_expiry": "2031-08-11", "area_ha": null, "tenure_type": "Single Cell Mining Claim", "source": "Ontario MLAS operational claims (OGSEarth / LIO MapServer). Unofficial viewing data, not legal title.", "as_of": "2026-09-20", "role": "focus", "color": "#e8b040"}}, {"type": "Feature", "geometry": {"type": "Polygon", "coordinates": [[[-95.075, 49.7208], [-95.075, 49.725], [-95.0813, 49.725], [-95.0813, 49.7208], [-95.075, 49.7208]]]}, "properties": {"company_id": "total-metals", "jurisdiction": "Ontario", "claim_id": "742082", "claim_name": null, "holder": "(100) Total Metals Corp.", "status": "Active", "recorded_date": "2022-08-11", "anniversary_or_expiry": "2031-08-11", "area_ha": null, "tenure_type": "Single Cell Mining Claim", "source": "Ontario MLAS operational claims (OGSEarth / LIO MapServer). Unofficial viewing data, not legal title.", "as_of": "2026-09-20", "role": "focus", "color": "#e8b040"}}, {"type": "Feature", "geometry": {"type": "Polygon", "coordinates": [[[-95.0938, 49.7208], [-95.0938, 49.725], [-95.1, 49.725], [-95.1, 49.7208], [-95.0938, 49.7208]]]}, "properties": {"company_id": "total-metals", "jurisdiction": "Ontario", "claim_id": "742083", "claim_name": null, "holder": "(100) Total Metals Corp.", "status": "Active", "recorded_date": "2022-08-11", "anniversary_or_expiry": "2031-08-11", "area_ha": null, "tenure_type": "Single Cell Mining Claim", "source": "Ontario MLAS operational claims (OGSEarth / LIO MapServer). Unofficial viewing data, not legal title.", "as_of": "2026-09-20", "role": "focus", "color": "#e8b040"}}, {"type": "Feature", "geometry": {"type": "Polygon", "coordinates": [[[-95.1, 49.7208], [-95.1, 49.725], [-95.1063, 49.725], [-95.1063, 49.7208], [-95.1, 49.7208]]]}, "properties": {"company_id": "total-metals", "jurisdiction": "Ontario", "claim_id": "742084", "claim_name": null, "holder": "(100) Total Metals Corp.", "status": "Active", "recorded_date": "2022-08-11", "anniversary_or_expiry": "2031-08-11", "area_ha": null, "tenure_type": "Single Cell Mining Claim", "source": "Ontario MLAS operational claims (OGSEarth / LIO MapServer). Unofficial viewing data, not legal title.", "as_of": "2026-09-20", "role": "focus", "color": "#e8b040"}}, {"type": "Feature", "geometry": {"type": "Polygon", "coordinates": [[[-95.0813, 49.7208], [-95.0813, 49.725], [-95.0875, 49.725], [-95.0875, 49.7208], [-95.0813, 49.7208]]]}, "properties": {"company_id": "total-metals", "jurisdiction": "Ontario", "claim_id": "742085", "claim_name": null, "holder": "(100) Total Metals Corp.", "status": "Active", "recorded_date": "2022-08-11", "anniversary_or_expiry": "2031-08-11", "area_ha": null, "tenure_type": "Single Cell Mining Claim", "source": "Ontario MLAS operational claims (OGSEarth / LIO MapServer). Unofficial viewing data, not legal title.", "as_of": "2026-09-20", "role": "focus", "color": "#e8b040"}}, {"type": "Feature", "geometry": {"type": "Polygon", "coordinates": [[[-95.075, 49.7125], [-95.075, 49.7167], [-95.0813, 49.7167], [-95.0813, 49.7125], [-95.075, 49.7125]]]}, "properties": {"company_id": "total-metals", "jurisdiction": "Ontario", "claim_id": "750300", "claim_name": null, "holder": "(100) Total Metals Corp.", "status": "Active", "recorded_date": "2022-09-29", "anniversary_or_expiry": "2031-09-29", "area_ha": null, "tenure_type": "Single Cell Mining Claim", "source": "Ontario MLAS operational claims (OGSEarth / LIO MapServer). Unofficial viewing data, not legal title.", "as_of": "2026-09-20", "role": "focus", "color": "#e8b040"}}, {"type": "Feature", "geometry": {"type": "Polygon", "coordinates": [[[-95.1, 49.7125], [-95.1, 49.7167], [-95.1063, 49.7167], [-95.1063, 49.7125], [-95.1, 49.7125]]]}, "properties": {"company_id": "total-metals", "jurisdiction": "Ontario", "claim_id": "543580", "claim_name": null, "holder": "(100) Total Metals Corp.", "status": "Active", "recorded_date": "2019-02-25", "anniversary_or_expiry": "2031-02-25", "area_ha": null, "tenure_type": "Single Cell Mining Claim", "source": "Ontario MLAS operational claims (OGSEarth / LIO MapServer). Unofficial viewing data, not legal title.", "as_of": "2026-09-20", "role": "focus", "color": "#e8b040"}}, {"type": "Feature", "geometry": {"type": "Polygon", "coordinates": [[[-95.1, 49.7167], [-95.1, 49.7208], [-95.1063, 49.7208], [-95.1063, 49.7167], [-95.1, 49.7167]]]}, "properties": {"company_id": "total-metals", "jurisdiction": "Ontario", "claim_id": "543581", "claim_name": null, "holder": "(100) Total Metals Corp.", "status": "Active", "recorded_date": "2019-02-25", "anniversary_or_expiry": "2031-02-25", "area_ha": null, "tenure_type": "Single Cell Mining Claim", "source": "Ontario MLAS operational claims (OGSEarth / LIO MapServer). Unofficial viewing data, not legal title.", "as_of": "2026-09-20", "role": "focus", "color": "#e8b040"}}, {"type": "Feature", "geometry": {"type": "Polygon", "coordinates": [[[-95.0938, 49.7167], [-95.0938, 49.7208], [-95.1, 49.7208], [-95.1, 49.7167], [-95.0938, 49.7167]]]}, "properties": {"company_id": "total-metals", "jurisdiction": "Ontario", "claim_id": "543582", "claim_name": null, "holder": "(100) Total Metals Corp.", "status": "Active", "recorded_date": "2019-02-25", "anniversary_or_expiry": "2031-02-25", "area_ha": null, "tenure_type": "Single Cell Mining Claim", "source": "Ontario MLAS operational claims (OGSEarth / LIO MapServer). Unofficial viewing data, not legal title.", "as_of": "2026-09-20", "role": "focus", "color": "#e8b040"}}, {"type": "Feature", "geometry": {"type": "Polygon", "coordinates": [[[-95.1063, 49.7042], [-95.1063, 49.7083], [-95.1125, 49.7083], [-95.1125, 49.7042], [-95.1063, 49.7042]]]}, "properties": {"company_id": "total-metals", "jurisdiction": "Ontario", "claim_id": "865777", "claim_name": null, "holder": "(100) Total Metals Corp.", "status": "Active", "recorded_date": "2023-11-04", "anniversary_or_expiry": "2031-11-04", "area_ha": null, "tenure_type": "Single Cell Mining Claim", "source": "Ontario MLAS operational claims (OGSEarth / LIO MapServer). Unofficial viewing data, not legal title.", "as_of": "2026-09-20", "role": "focus", "color": "#e8b040"}}, {"type": "Feature", "geometry": {"type": "Polygon", "coordinates": [[[-95.0938, 49.7125], [-95.0938, 49.7167], [-95.1, 49.7167], [-95.1, 49.7125], [-95.0938, 49.7125]]]}, "properties": {"company_id": "total-metals", "jurisdiction": "Ontario", "claim_id": "869301", "claim_name": null, "holder": "(100) Total Metals Corp.", "status": "Active", "recorded_date": "2023-11-30", "anniversary_or_expiry": "2031-11-30", "area_ha": null, "tenure_type": "Single Cell Mining Claim", "source": "Ontario MLAS operational claims (OGSEarth / LIO MapServer). Unofficial viewing data, not legal title.", "as_of": "2026-09-20", "role": "focus", "color": "#e8b040"}}, {"type": "Feature", "geometry": {"type": "Polygon", "coordinates": [[[-81.8313, 46.3833], [-81.8313, 46.3875], [-81.8375, 46.3875], [-81.8375, 46.3833], [-81.8313, 46.3833]]]}, "properties": {"company_id": "total-metals", "jurisdiction": "Ontario", "claim_id": "942280", "claim_name": null, "holder": "(100) Total Geophysics Inc.", "status": "Active", "recorded_date": "2025-04-13", "anniversary_or_expiry": "2027-04-13", "area_ha": null, "tenure_type": "Single Cell Mining Claim", "source": "Ontario MLAS operational claims (OGSEarth / LIO MapServer). Unofficial viewing data, not legal title.", "as_of": "2026-09-20", "role": "focus", "color": "#e8b040"}}, {"type": "Feature", "geometry": {"type": "Polygon", "coordinates": [[[-81.825, 46.3833], [-81.825, 46.3875], [-81.8313, 46.3875], [-81.8313, 46.3833], [-81.825, 46.3833]]]}, "properties": {"company_id": "total-metals", "jurisdiction": "Ontario", "claim_id": "942281", "claim_name": null, "holder": "(100) Total Geophysics Inc.", "status": "Active", "recorded_date": "2025-04-13", "anniversary_or_expiry": "2027-04-13", "area_ha": null, "tenure_type": "Single Cell Mining Claim", "source": "Ontario MLAS operational claims (OGSEarth / LIO MapServer). Unofficial viewing data, not legal title.", "as_of": "2026-09-20", "role": "focus", "color": "#e8b040"}}, {"type": "Feature", "geometry": {"type": "Polygon", "coordinates": [[[-81.85, 46.3875], [-81.85, 46.3917], [-81.8563, 46.3917], [-81.8563, 46.3875], [-81.85, 46.3875]]]}, "properties": {"company_id": "total-metals", "jurisdiction": "Ontario", "claim_id": "942816", "claim_name": null, "holder": "(100) Total Geophysics Inc.", "status": "Active", "recorded_date": "2025-04-16", "anniversary_or_expiry": "2027-04-16", "area_ha": null, "tenure_type": "Single Cell Mining Claim", "source": "Ontario MLAS operational claims (OGSEarth / LIO MapServer). Unofficial viewing data, not legal title.", "as_of": "2026-09-20", "role": "focus", "color": "#e8b040"}}, {"type": "Feature", "geometry": {"type": "Polygon", "coordinates": [[[-81.8438, 46.3875], [-81.8438, 46.3917], [-81.85, 46.3917], [-81.85, 46.3875], [-81.8438, 46.3875]]]}, "properties": {"company_id": "total-metals", "jurisdiction": "Ontario", "claim_id": "942819", "claim_name": null, "holder": "(100) Total Geophysics Inc.", "status": "Active", "recorded_date": "2025-04-16", "anniversary_or_expiry": "2027-04-16", "area_ha": null, "tenure_type": "Single Cell Mining Claim", "source": "Ontario MLAS operational claims (OGSEarth / LIO MapServer). Unofficial viewing data, not legal title.", "as_of": "2026-09-20", "role": "focus", "color": "#e8b040"}}, {"type": "Feature", "geometry": {"type": "Polygon", "coordinates": [[[-81.85, 46.3833], [-81.85, 46.3875], [-81.8563, 46.3875], [-81.8563, 46.3833], [-81.85, 46.3833]]]}, "properties": {"company_id": "total-metals", "jurisdiction": "Ontario", "claim_id": "942821", "claim_name": null, "holder": "(100) Total Geophysics Inc.", "status": "Active", "recorded_date": "2025-04-16", "anniversary_or_expiry": "2027-04-16", "area_ha": null, "tenure_type": "Single Cell Mining Claim", "source": "Ontario MLAS operational claims (OGSEarth / LIO MapServer). Unofficial viewing data, not legal title.", "as_of": "2026-09-20", "role": "focus", "color": "#e8b040"}}, {"type": "Feature", "geometry": {"type": "Polygon", "coordinates": [[[-81.8438, 46.3833], [-81.8438, 46.3875], [-81.85, 46.3875], [-81.85, 46.3833], [-81.8438, 46.3833]]]}, "properties": {"company_id": "total-metals", "jurisdiction": "Ontario", "claim_id": "942823", "claim_name": null, "holder": "(100) Total Geophysics Inc.", "status": "Active", "recorded_date": "2025-04-16", "anniversary_or_expiry": "2027-04-16", "area_ha": null, "tenure_type": "Single Cell Mining Claim", "source": "Ontario MLAS operational claims (OGSEarth / LIO MapServer). Unofficial viewing data, not legal title.", "as_of": "2026-09-20", "role": "focus", "color": "#e8b040"}}, {"type": "Feature", "geometry": {"type": "Polygon", "coordinates": [[[-81.85, 46.3792], [-81.85, 46.3833], [-81.8563, 46.3833], [-81.8563, 46.3792], [-81.85, 46.3792]]]}, "properties": {"company_id": "total-metals", "jurisdiction": "Ontario", "claim_id": "942825", "claim_name": null, "holder": "(100) Total Geophysics Inc.", "status": "Active", "recorded_date": "2025-04-16", "anniversary_or_expiry": "2027-04-16", "area_ha": null, "tenure_type": "Single Cell Mining Claim", "source": "Ontario MLAS operational claims (OGSEarth / LIO MapServer). Unofficial viewing data, not legal title.", "as_of": "2026-09-20", "role": "focus", "color": "#e8b040"}}, {"type": "Feature", "geometry": {"type": "Polygon", "coordinates": [[[-81.8438, 46.3792], [-81.8438, 46.3833], [-81.85, 46.3833], [-81.85, 46.3792], [-81.8438, 46.3792]]]}, "properties": {"company_id": "total-metals", "jurisdiction": "Ontario", "claim_id": "942827", "claim_name": null, "holder": "(100) Total Geophysics Inc.", "status": "Active", "recorded_date": "2025-04-16", "anniversary_or_expiry": "2027-04-16", "area_ha": null, "tenure_type": "Single Cell Mining Claim", "source": "Ontario MLAS operational claims (OGSEarth / LIO MapServer). Unofficial viewing data, not legal title.", "as_of": "2026-09-20", "role": "focus", "color": "#e8b040"}}, {"type": "Feature", "geometry": {"type": "Polygon", "coordinates": [[[-81.8188, 46.3792], [-81.8188, 46.3833], [-81.825, 46.3833], [-81.825, 46.3792], [-81.8188, 46.3792]]]}, "properties": {"company_id": "total-metals", "jurisdiction": "Ontario", "claim_id": "942828", "claim_name": null, "holder": "(100) Total Geophysics Inc.", "status": "Active", "recorded_date": "2025-04-16", "anniversary_or_expiry": "2027-04-16", "area_ha": null, "tenure_type": "Single Cell Mining Claim", "source": "Ontario MLAS operational claims (OGSEarth / LIO MapServer). Unofficial viewing data, not legal title.", "as_of": "2026-09-20", "role": "focus", "color": "#e8b040"}}, {"type": "Feature", "geometry": {"type": "Polygon", "coordinates": [[[-81.85, 46.375], [-81.85, 46.3792], [-81.8563, 46.3792], [-81.8563, 46.375], [-81.85, 46.375]]]}, "properties": {"company_id": "total-metals", "jurisdiction": "Ontario", "claim_id": "942830", "claim_name": null, "holder": "(100) Total Geophysics Inc.", "status": "Active", "recorded_date": "2025-04-16", "anniversary_or_expiry": "2027-04-16", "area_ha": null, "tenure_type": "Single Cell Mining Claim", "source": "Ontario MLAS operational claims (OGSEarth / LIO MapServer). Unofficial viewing data, not legal title.", "as_of": "2026-09-20", "role": "focus", "color": "#e8b040"}}, {"type": "Feature", "geometry": {"type": "Polygon", "coordinates": [[[-81.8438, 46.375], [-81.8438, 46.3792], [-81.85, 46.3792], [-81.85, 46.375], [-81.8438, 46.375]]]}, "properties": {"company_id": "total-metals", "jurisdiction": "Ontario", "claim_id": "942831", "claim_name": null, "holder": "(100) Total Geophysics Inc.", "status": "Active", "recorded_date": "2025-04-16", "anniversary_or_expiry": "2027-04-16", "area_ha": null, "tenure_type": "Single Cell Mining Claim", "source": "Ontario MLAS operational claims (OGSEarth / LIO MapServer). Unofficial viewing data, not legal title.", "as_of": "2026-09-20", "role": "focus", "color": "#e8b040"}}, {"type": "Feature", "geometry": {"type": "Polygon", "coordinates": [[[-81.8375, 46.375], [-81.8375, 46.3792], [-81.8438, 46.3792], [-81.8438, 46.375], [-81.8375, 46.375]]]}, "properties": {"company_id": "total-metals", "jurisdiction": "Ontario", "claim_id": "942833", "claim_name": null, "holder": "(100) Total Geophysics Inc.", "status": "Active", "recorded_date": "2025-04-16", "anniversary_or_expiry": "2027-04-16", "area_ha": null, "tenure_type": "Single Cell Mining Claim", "source": "Ontario MLAS operational claims (OGSEarth / LIO MapServer). Unofficial viewing data, not legal title.", "as_of": "2026-09-20", "role": "focus", "color": "#e8b040"}}, {"type": "Feature", "geometry": {"type": "Polygon", "coordinates": [[[-81.8313, 46.375], [-81.8313, 46.3792], [-81.8375, 46.3792], [-81.8375, 46.375], [-81.8313, 46.375]]]}, "properties": {"company_id": "total-metals", "jurisdiction": "Ontario", "claim_id": "942835", "claim_name": null, "holder": "(100) Total Geophysics Inc.", "status": "Active", "recorded_date": "2025-04-16", "anniversary_or_expiry": "2027-04-16", "area_ha": null, "tenure_type": "Single Cell Mining Claim", "source": "Ontario MLAS operational claims (OGSEarth / LIO MapServer). Unofficial viewing data, not legal title.", "as_of": "2026-09-20", "role": "focus", "color": "#e8b040"}}, {"type": "Feature", "geometry": {"type": "Polygon", "coordinates": [[[-81.825, 46.375], [-81.825, 46.3792], [-81.8313, 46.3792], [-81.8313, 46.375], [-81.825, 46.375]]]}, "properties": {"company_id": "total-metals", "jurisdiction": "Ontario", "claim_id": "942836", "claim_name": null, "holder": "(100) Total Geophysics Inc.", "status": "Active", "recorded_date": "2025-04-16", "anniversary_or_expiry": "2027-04-16", "area_ha": null, "tenure_type": "Single Cell Mining Claim", "source": "Ontario MLAS operational claims (OGSEarth / LIO MapServer). Unofficial viewing data, not legal title.", "as_of": "2026-09-20", "role": "focus", "color": "#e8b040"}}, {"type": "Feature", "geometry": {"type": "Polygon", "coordinates": [[[-81.8188, 46.375], [-81.8188, 46.3792], [-81.825, 46.3792], [-81.825, 46.375], [-81.8188, 46.375]]]}, "properties": {"company_id": "total-metals", "jurisdiction": "Ontario", "claim_id": "942838", "claim_name": null, "holder": "(100) Total Geophysics Inc.", "status": "Active", "recorded_date": "2025-04-16", "anniversary_or_expiry": "2027-04-16", "area_ha": null, "tenure_type": "Single Cell Mining Claim", "source": "Ontario MLAS operational claims (OGSEarth / LIO MapServer). Unofficial viewing data, not legal title.", "as_of": "2026-09-20", "role": "focus", "color": "#e8b040"}}, {"type": "Feature", "geometry": {"type": "Polygon", "coordinates": [[[-81.8438, 46.3708], [-81.8438, 46.375], [-81.85, 46.375], [-81.85, 46.3708], [-81.8438, 46.3708]]]}, "properties": {"company_id": "total-metals", "jurisdiction": "Ontario", "claim_id": "942840", "claim_name": null, "holder": "(100) Total Geophysics Inc.", "status": "Active", "recorded_date": "2025-04-16", "anniversary_or_expiry": "2027-04-16", "area_ha": null, "tenure_type": "Single Cell Mining Claim", "source": "Ontario MLAS operational claims (OGSEarth / LIO MapServer). Unofficial viewing data, not legal title.", "as_of": "2026-09-20", "role": "focus", "color": "#e8b040"}}, {"type": "Feature", "geometry": {"type": "Polygon", "coordinates": [[[-81.8375, 46.3708], [-81.8375, 46.375], [-81.8438, 46.375], [-81.8438, 46.3708], [-81.8375, 46.3708]]]}, "properties": {"company_id": "total-metals", "jurisdiction": "Ontario", "claim_id": "942841", "claim_name": null, "holder": "(100) Total Geophysics Inc.", "status": "Active", "recorded_date": "2025-04-16", "anniversary_or_expiry": "2027-04-16", "area_ha": null, "tenure_type": "Single Cell Mining Claim", "source": "Ontario MLAS operational claims (OGSEarth / LIO MapServer). Unofficial viewing data, not legal title.", "as_of": "2026-09-20", "role": "focus", "color": "#e8b040"}}, {"type": "Feature", "geometry": {"type": "Polygon", "coordinates": [[[-81.8313, 46.3708], [-81.8313, 46.375], [-81.8375, 46.375], [-81.8375, 46.3708], [-81.8313, 46.3708]]]}, "properties": {"company_id": "total-metals", "jurisdiction": "Ontario", "claim_id": "942843", "claim_name": null, "holder": "(100) Total Geophysics Inc.", "status": "Active", "recorded_date": "2025-04-16", "anniversary_or_expiry": "2027-04-16", "area_ha": null, "tenure_type": "Single Cell Mining Claim", "source": "Ontario MLAS operational claims (OGSEarth / LIO MapServer). Unofficial viewing data, not legal title.", "as_of": "2026-09-20", "role": "focus", "color": "#e8b040"}}, {"type": "Feature", "geometry": {"type": "Polygon", "coordinates": [[[-81.825, 46.3708], [-81.825, 46.375], [-81.8313, 46.375], [-81.8313, 46.3708], [-81.825, 46.3708]]]}, "properties": {"company_id": "total-metals", "jurisdiction": "Ontario", "claim_id": "942846", "claim_name": null, "holder": "(100) Total Geophysics Inc.", "status": "Active", "recorded_date": "2025-04-16", "anniversary_or_expiry": "2027-04-16", "area_ha": null, "tenure_type": "Single Cell Mining Claim", "source": "Ontario MLAS operational claims (OGSEarth / LIO MapServer). Unofficial viewing data, not legal title.", "as_of": "2026-09-20", "role": "focus", "color": "#e8b040"}}]}