{"type": "FeatureCollection", "features": [{"type": "Feature", "geometry": {"type": "Polygon", "coordinates": [[[-130.1442, 56.6], [-130.1442, 56.6018], [-130.1849, 56.6018], [-130.1849, 56.5839], [-130.1442, 56.5839], [-130.1442, 56.6]]]}, "properties": {"company_id": "tudor-gold", "jurisdiction": "British Columbia", "claim_id": 251229, "claim_name": "TR 5", "holder": "TUDOR GOLD CORP.", "status": "Mineral", "recorded_date": "4968864000", "anniversary_or_expiry": "2034-10-20", "area_ha": 500, "tenure_type": "Mineral", "source": "BC MTA Mineral, Placer and Coal Tenure Spatial View (BCGW). Open Government Licence - British Columbia. Not legal title.", "as_of": "2026-09-20", "role": "focus", "color": "#e8b040"}}, {"type": "Feature", "geometry": {"type": "Polygon", "coordinates": [[[-130.1214, 56.6242], [-130.1439, 56.6242], [-130.1439, 56.6018], [-130.1198, 56.6018], [-130.1195, 56.6242], [-130.1214, 56.6242]]]}, "properties": {"company_id": "tudor-gold", "jurisdiction": "British Columbia", "claim_id": 251230, "claim_name": "TR 6", "holder": "TUDOR GOLD CORP.", "status": "Mineral", "recorded_date": "4968864000", "anniversary_or_expiry": "2034-10-20", "area_ha": 375, "tenure_type": "Mineral", "source": "BC MTA Mineral, Placer and Coal Tenure Spatial View (BCGW). Open Government Licence - British Columbia. Not legal title.", "as_of": "2026-09-20", "role": "focus", "color": "#e8b040"}}, {"type": "Feature", "geometry": {"type": "Polygon", "coordinates": [[[-130.1741, 56.6242], [-130.1765, 56.6242], [-130.1765, 56.6018], [-130.1439, 56.6018], [-130.1439, 56.6242], [-130.1741, 56.6242]]]}, "properties": {"company_id": "tudor-gold", "jurisdiction": "British Columbia", "claim_id": 251231, "claim_name": "TR 7", "holder": "TUDOR GOLD CORP.", "status": "Mineral", "recorded_date": "4968864000", "anniversary_or_expiry": "2034-10-20", "area_ha": 500, "tenure_type": "Mineral", "source": "BC MTA Mineral, Placer and Coal Tenure Spatial View (BCGW). Open Government Licence - British Columbia. Not legal title.", "as_of": "2026-09-20", "role": "focus", "color": "#e8b040"}}, {"type": "Feature", "geometry": {"type": "Polygon", "coordinates": [[[-130.2, 56.5839], [-130.2001, 56.5749], [-130.1686, 56.5749], [-130.1686, 56.5839], [-130.2, 56.5839]]]}, "properties": {"company_id": "tudor-gold", "jurisdiction": "British Columbia", "claim_id": 251232, "claim_name": "TR 8", "holder": "TUDOR GOLD CORP.", "status": "Mineral", "recorded_date": "4968864000", "anniversary_or_expiry": "2034-10-20", "area_ha": 200, "tenure_type": "Mineral", "source": "BC MTA Mineral, Placer and Coal Tenure Spatial View (BCGW). Open Government Licence - British Columbia. Not legal title.", "as_of": "2026-09-20", "role": "focus", "color": "#e8b040"}}, {"type": "Feature", "geometry": {"type": "Polygon", "coordinates": [[[-130.1198, 56.6], [-130.1198, 56.6018], [-130.1442, 56.6018], [-130.1442, 56.5839], [-130.1198, 56.5839], [-130.1198, 56.6]]]}, "properties": {"company_id": "tudor-gold", "jurisdiction": "British Columbia", "claim_id": 250847, "claim_name": "TREATY", "holder": "TUDOR GOLD CORP.", "status": "Mineral", "recorded_date": "3162240000", "anniversary_or_expiry": "2034-10-20", "area_ha": 300, "tenure_type": "Mineral", "source": "BC MTA Mineral, Placer and Coal Tenure Spatial View (BCGW). Open Government Licence - British Columbia. Not legal title.", "as_of": "2026-09-20", "role": "focus", "color": "#e8b040"}}, {"type": "Feature", "geometry": {"type": "Polygon", "coordinates": [[[-130.207, 56.662], [-130.2176, 56.662], [-130.2176, 56.6396], [-130.185, 56.6396], [-130.185, 56.662], [-130.207, 56.662]]]}, "properties": {"company_id": "tudor-gold", "jurisdiction": "British Columbia", "claim_id": 387232, "claim_name": "IRVING 2", "holder": "TUDOR GOLD CORP.", "status": "Mineral", "recorded_date": "9916128000", "anniversary_or_expiry": "2034-10-20", "area_ha": 500, "tenure_type": "Mineral", "source": "BC MTA Mineral, Placer and Coal Tenure Spatial View (BCGW). Open Government Licence - British Columbia. Not legal title.", "as_of": "2026-09-20", "role": "focus", "color": "#e8b040"}}, {"type": "Feature", "geometry": {"type": "Polygon", "coordinates": [[[-130.2, 56.6396], [-130.2176, 56.6396], [-130.2176, 56.6171], [-130.185, 56.6171], [-130.185, 56.6396], [-130.2, 56.6396]]]}, "properties": {"company_id": "tudor-gold", "jurisdiction": "British Columbia", "claim_id": 387234, "claim_name": "IRVING 4", "holder": "TUDOR GOLD CORP.", "status": "Mineral", "recorded_date": "9916128000", "anniversary_or_expiry": "2034-10-20", "area_ha": 500, "tenure_type": "Mineral", "source": "BC MTA Mineral, Placer and Coal Tenure Spatial View (BCGW). Open Government Licence - British Columbia. Not legal title.", "as_of": "2026-09-20", "role": "focus", "color": "#e8b040"}}, {"type": "Feature", "geometry": {"type": "Polygon", "coordinates": [[[-130.1741, 56.6312], [-130.185, 56.6312], [-130.185, 56.6177], [-130.1765, 56.6177], [-130.1765, 56.6242], [-130.1741, 56.6242], [-130.1741, 56.6312]]]}, "properties": {"company_id": "tudor-gold", "jurisdiction": "British Columbia", "claim_id": 390922, "claim_name": "TC 1", "holder": "TUDOR GOLD CORP.", "status": "Mineral", "recorded_date": "2001-11-17", "anniversary_or_expiry": "2034-10-20", "area_ha": 150, "tenure_type": "Mineral", "source": "BC MTA Mineral, Placer and Coal Tenure Spatial View (BCGW). Open Government Licence - British Columbia. Not legal title.", "as_of": "2026-09-20", "role": "focus", "color": "#e8b040"}}, {"type": "Feature", "geometry": {"type": "Polygon", "coordinates": [[[-130.2, 56.6171], [-130.2067, 56.6171], [-130.2067, 56.5997], [-130.1849, 56.5997], [-130.1849, 56.6018], [-130.1765, 56.6019], [-130.1765, 56.6177], [-130.2, 56.6171]]]}, "properties": {"company_id": "tudor-gold", "jurisdiction": "British Columbia", "claim_id": 390923, "claim_name": "TC 2", "holder": "TUDOR GOLD CORP.", "status": "Mineral", "recorded_date": "2001-11-17", "anniversary_or_expiry": "2034-10-20", "area_ha": 400, "tenure_type": "Mineral", "source": "BC MTA Mineral, Placer and Coal Tenure Spatial View (BCGW). Open Government Licence - British Columbia. Not legal title.", "as_of": "2026-09-20", "role": "focus", "color": "#e8b040"}}, {"type": "Feature", "geometry": {"type": "Polygon", "coordinates": [[[-130.0907, 56.6195], [-130.1197, 56.6195], [-130.1198, 56.6016], [-130.0811, 56.6016], [-130.0811, 56.6195], [-130.0907, 56.6195]]]}, "properties": {"company_id": "tudor-gold", "jurisdiction": "British Columbia", "claim_id": 390924, "claim_name": "TC 3", "holder": "TUDOR GOLD CORP.", "status": "Mineral", "recorded_date": "2001-11-17", "anniversary_or_expiry": "2034-10-20", "area_ha": 500, "tenure_type": "Mineral", "source": "BC MTA Mineral, Placer and Coal Tenure Spatial View (BCGW). Open Government Licence - British Columbia. Not legal title.", "as_of": "2026-09-20", "role": "focus", "color": "#e8b040"}}, {"type": "Feature", "geometry": {"type": "Polygon", "coordinates": [[[-130.0812, 56.5872], [-130.0811, 56.6016], [-130.1198, 56.6016], [-130.1198, 56.5839], [-130.1219, 56.5836], [-130.0812, 56.5836], [-130.0812, 56.5872]]]}, "properties": {"company_id": "tudor-gold", "jurisdiction": "British Columbia", "claim_id": 390925, "claim_name": "TC 4", "holder": "TUDOR GOLD CORP.", "status": "Mineral", "recorded_date": "2001-11-17", "anniversary_or_expiry": "2034-10-20", "area_ha": 500, "tenure_type": "Mineral", "source": "BC MTA Mineral, Placer and Coal Tenure Spatial View (BCGW). Open Government Licence - British Columbia. Not legal title.", "as_of": "2026-09-20", "role": "focus", "color": "#e8b040"}}, {"type": "Feature", "geometry": {"type": "Polygon", "coordinates": [[[-130.1449, 56.5839], [-130.1686, 56.5839], [-130.1686, 56.5749], [-130.1856, 56.5749], [-130.1856, 56.5674], [-130.1449, 56.5674], [-130.1449, 56.5839]]]}, "properties": {"company_id": "tudor-gold", "jurisdiction": "British Columbia", "claim_id": 390926, "claim_name": "TC 5", "holder": "TUDOR GOLD CORP.", "status": "Mineral", "recorded_date": "2001-11-17", "anniversary_or_expiry": "2034-10-20", "area_ha": 500, "tenure_type": "Mineral", "source": "BC MTA Mineral, Placer and Coal Tenure Spatial View (BCGW). Open Government Licence - British Columbia. Not legal title.", "as_of": "2026-09-20", "role": "focus", "color": "#e8b040"}}, {"type": "Feature", "geometry": {"type": "Polygon", "coordinates": [[[-130.1042, 56.5692], [-130.1042, 56.5836], [-130.1449, 56.5839], [-130.1449, 56.5674], [-130.1042, 56.5674], [-130.1042, 56.5692]]]}, "properties": {"company_id": "tudor-gold", "jurisdiction": "British Columbia", "claim_id": 390927, "claim_name": "TC 6", "holder": "TUDOR GOLD CORP.", "status": "Mineral", "recorded_date": "2001-11-17", "anniversary_or_expiry": "2034-10-20", "area_ha": 500, "tenure_type": "Mineral", "source": "BC MTA Mineral, Placer and Coal Tenure Spatial View (BCGW). Open Government Licence - British Columbia. Not legal title.", "as_of": "2026-09-20", "role": "focus", "color": "#e8b040"}}, {"type": "Feature", "geometry": {"type": "Polygon", "coordinates": [[[-130.1449, 56.5674], [-130.1856, 56.5674], [-130.1856, 56.5494], [-130.1449, 56.5495], [-130.1449, 56.5674]]]}, "properties": {"company_id": "tudor-gold", "jurisdiction": "British Columbia", "claim_id": 390928, "claim_name": "TC 7", "holder": "TUDOR GOLD CORP.", "status": "Mineral", "recorded_date": "2001-11-17", "anniversary_or_expiry": "2034-10-20", "area_ha": 500, "tenure_type": "Mineral", "source": "BC MTA Mineral, Placer and Coal Tenure Spatial View (BCGW). Open Government Licence - British Columbia. Not legal title.", "as_of": "2026-09-20", "role": "focus", "color": "#e8b040"}}, {"type": "Feature", "geometry": {"type": "Polygon", "coordinates": [[[-130.1042, 56.5674], [-130.1449, 56.5674], [-130.1449, 56.5495], [-130.1043, 56.5494], [-130.1042, 56.5674]]]}, "properties": {"company_id": "tudor-gold", "jurisdiction": "British Columbia", "claim_id": 390929, "claim_name": "TC 8", "holder": "TUDOR GOLD CORP.", "status": "Mineral", "recorded_date": "2001-11-17", "anniversary_or_expiry": "2034-10-20", "area_ha": 500, "tenure_type": "Mineral", "source": "BC MTA Mineral, Placer and Coal Tenure Spatial View (BCGW). Open Government Licence - British Columbia. Not legal title.", "as_of": "2026-09-20", "role": "focus", "color": "#e8b040"}}, {"type": "Feature", "geometry": {"type": "Polygon", "coordinates": [[[-130.2067, 56.6], [-130.2067, 56.6171], [-130.2176, 56.6171], [-130.2176, 56.5997], [-130.2067, 56.6]]]}, "properties": {"company_id": "tudor-gold", "jurisdiction": "British Columbia", "claim_id": 392434, "claim_name": "TC 9", "holder": "TUDOR GOLD CORP.", "status": "Mineral", "recorded_date": "2002-03-21", "anniversary_or_expiry": "2034-10-20", "area_ha": 200, "tenure_type": "Mineral", "source": "BC MTA Mineral, Placer and Coal Tenure Spatial View (BCGW). Open Government Licence - British Columbia. Not legal title.", "as_of": "2026-09-20", "role": "focus", "color": "#e8b040"}}, {"type": "Feature", "geometry": {"type": "Polygon", "coordinates": [[[-130.1849, 56.5997], [-130.2176, 56.5997], [-130.2176, 56.5817], [-130.2001, 56.5817], [-130.2001, 56.5839], [-130.1849, 56.5839], [-130.1849, 56.5997]]]}, "properties": {"company_id": "tudor-gold", "jurisdiction": "British Columbia", "claim_id": 392435, "claim_name": "TC 10", "holder": "TUDOR GOLD CORP.", "status": "Mineral", "recorded_date": "2002-03-21", "anniversary_or_expiry": "2034-10-20", "area_ha": 500, "tenure_type": "Mineral", "source": "BC MTA Mineral, Placer and Coal Tenure Spatial View (BCGW). Open Government Licence - British Columbia. Not legal title.", "as_of": "2026-09-20", "role": "focus", "color": "#e8b040"}}, {"type": "Feature", "geometry": {"type": "Polygon", "coordinates": [[[-130.2001, 56.5817], [-130.2167, 56.5817], [-130.2167, 56.5686], [-130.1856, 56.5686], [-130.1856, 56.5749], [-130.2001, 56.5749], [-130.2001, 56.5817]]]}, "properties": {"company_id": "tudor-gold", "jurisdiction": "British Columbia", "claim_id": 392436, "claim_name": "TC 11", "holder": "TUDOR GOLD CORP.", "status": "Mineral", "recorded_date": "2002-03-21", "anniversary_or_expiry": "2034-10-20", "area_ha": 400, "tenure_type": "Mineral", "source": "BC MTA Mineral, Placer and Coal Tenure Spatial View (BCGW). Open Government Licence - British Columbia. Not legal title.", "as_of": "2026-09-20", "role": "focus", "color": "#e8b040"}}, {"type": "Feature", "geometry": {"type": "Polygon", "coordinates": [[[-130.1856, 56.5674], [-130.1856, 56.5686], [-130.2167, 56.5686], [-130.2167, 56.5538], [-130.2, 56.5538], [-130.2, 56.5506], [-130.1856, 56.5506], [-130.1856, 56.5674]]]}, "properties": {"company_id": "tudor-gold", "jurisdiction": "British Columbia", "claim_id": 392437, "claim_name": "TC 12", "holder": "TUDOR GOLD CORP.", "status": "Mineral", "recorded_date": "2002-03-21", "anniversary_or_expiry": "2034-10-20", "area_ha": 400, "tenure_type": "Mineral", "source": "BC MTA Mineral, Placer and Coal Tenure Spatial View (BCGW). Open Government Licence - British Columbia. Not legal title.", "as_of": "2026-09-20", "role": "focus", "color": "#e8b040"}}, {"type": "Feature", "geometry": {"type": "Polygon", "coordinates": [[[-130.185, 56.6407], [-130.185, 56.6312], [-130.1741, 56.6312], [-130.1741, 56.6242], [-130.1621, 56.6242], [-130.1622, 56.6398], [-130.1614, 56.6398], [-130.1613, 56.6407], [-130.185, 56.6407]]]}, "properties": {"company_id": "tudor-gold", "jurisdiction": "British Columbia", "claim_id": 392460, "claim_name": "TREATY 1", "holder": "TUDOR GOLD CORP.", "status": "Mineral", "recorded_date": "2002-03-20", "anniversary_or_expiry": "2034-10-20", "area_ha": 300, "tenure_type": "Mineral", "source": "BC MTA Mineral, Placer and Coal Tenure Spatial View (BCGW). Open Government Licence - British Columbia. Not legal title.", "as_of": "2026-09-20", "role": "focus", "color": "#e8b040"}}, {"type": "Feature", "geometry": {"type": "Polygon", "coordinates": [[[-130.1614, 56.6398], [-130.1622, 56.6398], [-130.1621, 56.6242], [-130.1214, 56.6242], [-130.1214, 56.6398], [-130.1614, 56.6398]]]}, "properties": {"company_id": "tudor-gold", "jurisdiction": "British Columbia", "claim_id": 392461, "claim_name": "TREATY 2", "holder": "TUDOR GOLD CORP.", "status": "Mineral", "recorded_date": "2002-03-20", "anniversary_or_expiry": "2034-10-20", "area_ha": 500, "tenure_type": "Mineral", "source": "BC MTA Mineral, Placer and Coal Tenure Spatial View (BCGW). Open Government Licence - British Columbia. Not legal title.", "as_of": "2026-09-20", "role": "focus", "color": "#e8b040"}}, {"type": "Feature", "geometry": {"type": "Polygon", "coordinates": [[[-130.1039, 56.6398], [-130.1214, 56.6398], [-130.1214, 56.6242], [-130.1195, 56.6242], [-130.1197, 56.6195], [-130.0907, 56.6195], [-130.0907, 56.6397], [-130.0888, 56.6398], [-130.1039, 56.6398]]]}, "properties": {"company_id": "tudor-gold", "jurisdiction": "British Columbia", "claim_id": 392462, "claim_name": "TREATY 3", "holder": "TUDOR GOLD CORP.", "status": "Mineral", "recorded_date": "2002-03-20", "anniversary_or_expiry": "2034-10-20", "area_ha": 500, "tenure_type": "Mineral", "source": "BC MTA Mineral, Placer and Coal Tenure Spatial View (BCGW). Open Government Licence - British Columbia. Not legal title.", "as_of": "2026-09-20", "role": "focus", "color": "#e8b040"}}, {"type": "Feature", "geometry": {"type": "Polygon", "coordinates": [[[-130.0888, 56.6397], [-130.0907, 56.6397], [-130.0907, 56.6195], [-130.0826, 56.6195], [-130.0826, 56.6397], [-130.0888, 56.6397]]]}, "properties": {"company_id": "tudor-gold", "jurisdiction": "British Columbia", "claim_id": 392463, "claim_name": "TREATY 4", "holder": "TUDOR GOLD CORP.", "status": "Mineral", "recorded_date": "2002-03-20", "anniversary_or_expiry": "2034-10-20", "area_ha": 150, "tenure_type": "Mineral", "source": "BC MTA Mineral, Placer and Coal Tenure Spatial View (BCGW). Open Government Licence - British Columbia. Not legal title.", "as_of": "2026-09-20", "role": "focus", "color": "#e8b040"}}, {"type": "Feature", "geometry": {"type": "Polygon", "coordinates": [[[-130.0418, 56.6307], [-130.0826, 56.6307], [-130.0826, 56.6195], [-130.0811, 56.6195], [-130.0811, 56.6127], [-130.0419, 56.6127], [-130.0418, 56.6307]]]}, "properties": {"company_id": "tudor-gold", "jurisdiction": "British Columbia", "claim_id": 392464, "claim_name": "TREATY 5", "holder": "TUDOR GOLD CORP.", "status": "Mineral", "recorded_date": "2002-03-20", "anniversary_or_expiry": "2034-10-20", "area_ha": 500, "tenure_type": "Mineral", "source": "BC MTA Mineral, Placer and Coal Tenure Spatial View (BCGW). Open Government Licence - British Columbia. Not legal title.", "as_of": "2026-09-20", "role": "focus", "color": "#e8b040"}}, {"type": "Feature", "geometry": {"type": "Polygon", "coordinates": [[[-130.0419, 56.6127], [-130.0811, 56.6127], [-130.0811, 56.5948], [-130.0419, 56.5948], [-130.0419, 56.6127]]]}, "properties": {"company_id": "tudor-gold", "jurisdiction": "British Columbia", "claim_id": 392465, "claim_name": "TREATY 6", "holder": "TUDOR GOLD CORP.", "status": "Mineral", "recorded_date": "2002-03-20", "anniversary_or_expiry": "2034-10-20", "area_ha": 500, "tenure_type": "Mineral", "source": "BC MTA Mineral, Placer and Coal Tenure Spatial View (BCGW). Open Government Licence - British Columbia. Not legal title.", "as_of": "2026-09-20", "role": "focus", "color": "#e8b040"}}, {"type": "Feature", "geometry": {"type": "Polygon", "coordinates": [[[-130.0657, 56.5948], [-130.0811, 56.5948], [-130.0812, 56.5872], [-130.0657, 56.5872], [-130.0657, 56.5948]]]}, "properties": {"company_id": "tudor-gold", "jurisdiction": "British Columbia", "claim_id": 392466, "claim_name": "TREATY 7", "holder": "TUDOR GOLD CORP.", "status": "Mineral", "recorded_date": "2002-03-20", "anniversary_or_expiry": "2034-10-20", "area_ha": 100, "tenure_type": "Mineral", "source": "BC MTA Mineral, Placer and Coal Tenure Spatial View (BCGW). Open Government Licence - British Columbia. Not legal title.", "as_of": "2026-09-20", "role": "focus", "color": "#e8b040"}}, {"type": "Feature", "geometry": {"type": "Polygon", "coordinates": [[[-130.0412, 56.5872], [-130.0412, 56.5961], [-130.0419, 56.5961], [-130.0419, 56.5948], [-130.0657, 56.5948], [-130.0657, 56.5872], [-130.0412, 56.5872]]]}, "properties": {"company_id": "tudor-gold", "jurisdiction": "British Columbia", "claim_id": 392467, "claim_name": "TREATY 8", "holder": "TUDOR GOLD CORP.", "status": "Mineral", "recorded_date": "2002-03-20", "anniversary_or_expiry": "2034-10-20", "area_ha": 150, "tenure_type": "Mineral", "source": "BC MTA Mineral, Placer and Coal Tenure Spatial View (BCGW). Open Government Licence - British Columbia. Not legal title.", "as_of": "2026-09-20", "role": "focus", "color": "#e8b040"}}, {"type": "Feature", "geometry": {"type": "Polygon", "coordinates": [[[-130.0657, 56.5872], [-130.0812, 56.5872], [-130.0812, 56.5836], [-130.1042, 56.5836], [-130.1042, 56.5692], [-130.0657, 56.5692], [-130.0657, 56.5872]]]}, "properties": {"company_id": "tudor-gold", "jurisdiction": "British Columbia", "claim_id": 392468, "claim_name": "TREATY 9", "holder": "TUDOR GOLD CORP.", "status": "Mineral", "recorded_date": "2002-03-20", "anniversary_or_expiry": "2034-10-20", "area_ha": 500, "tenure_type": "Mineral", "source": "BC MTA Mineral, Placer and Coal Tenure Spatial View (BCGW). Open Government Licence - British Columbia. Not legal title.", "as_of": "2026-09-20", "role": "focus", "color": "#e8b040"}}, {"type": "Feature", "geometry": {"type": "Polygon", "coordinates": [[[-130.0412, 56.5872], [-130.0657, 56.5872], [-130.0657, 56.5692], [-130.0413, 56.5692], [-130.0412, 56.5872]]]}, "properties": {"company_id": "tudor-gold", "jurisdiction": "British Columbia", "claim_id": 392469, "claim_name": "TREATY 10", "holder": "TUDOR GOLD CORP.", "status": "Mineral", "recorded_date": "2002-03-20", "anniversary_or_expiry": "2034-10-20", "area_ha": 300, "tenure_type": "Mineral", "source": "BC MTA Mineral, Placer and Coal Tenure Spatial View (BCGW). Open Government Licence - British Columbia. Not legal title.", "as_of": "2026-09-20", "role": "focus", "color": "#e8b040"}}]}