{"type": "FeatureCollection", "features": [{"type": "Feature", "geometry": {"type": "Polygon", "coordinates": [[[-94.525, 49.4958], [-94.525, 49.5], [-94.5313, 49.5], [-94.5313, 49.4958], [-94.525, 49.4958]]]}, "properties": {"company_id": "united-states-antimony", "jurisdiction": "Ontario", "claim_id": "1017687", "claim_name": null, "holder": "(100) ANTIMONY MINES INTERNATIONAL INC", "status": "Active", "recorded_date": "2026-01-23", "anniversary_or_expiry": "2028-01-23", "area_ha": null, "tenure_type": "Single Cell Mining Claim", "source": "Ontario MLAS operational claims (OGSEarth / LIO MapServer). Unofficial viewing data, not legal title.", "as_of": "2026-09-20", "role": "focus", "color": "#e8b040"}}, {"type": "Feature", "geometry": {"type": "Polygon", "coordinates": [[[-94.5313, 49.4958], [-94.5313, 49.5], [-94.5375, 49.5], [-94.5375, 49.4958], [-94.5313, 49.4958]]]}, "properties": {"company_id": "united-states-antimony", "jurisdiction": "Ontario", "claim_id": "1018041", "claim_name": null, "holder": "(100) ANTIMONY MINES INTERNATIONAL INC", "status": "Active", "recorded_date": "2026-01-24", "anniversary_or_expiry": "2028-01-24", "area_ha": null, "tenure_type": "Single Cell Mining Claim", "source": "Ontario MLAS operational claims (OGSEarth / LIO MapServer). Unofficial viewing data, not legal title.", "as_of": "2026-09-20", "role": "focus", "color": "#e8b040"}}, {"type": "Feature", "geometry": {"type": "Polygon", "coordinates": [[[-94.5313, 49.5], [-94.5313, 49.5042], [-94.5375, 49.5042], [-94.5375, 49.5], [-94.5313, 49.5]]]}, "properties": {"company_id": "united-states-antimony", "jurisdiction": "Ontario", "claim_id": "1018042", "claim_name": null, "holder": "(100) ANTIMONY MINES INTERNATIONAL INC", "status": "Active", "recorded_date": "2026-01-24", "anniversary_or_expiry": "2028-01-24", "area_ha": null, "tenure_type": "Single Cell Mining Claim", "source": "Ontario MLAS operational claims (OGSEarth / LIO MapServer). Unofficial viewing data, not legal title.", "as_of": "2026-09-20", "role": "focus", "color": "#e8b040"}}, {"type": "Feature", "geometry": {"type": "Polygon", "coordinates": [[[-94.525, 49.5], [-94.525, 49.5042], [-94.5313, 49.5042], [-94.5313, 49.5], [-94.525, 49.5]]]}, "properties": {"company_id": "united-states-antimony", "jurisdiction": "Ontario", "claim_id": "1018043", "claim_name": null, "holder": "(100) ANTIMONY MINES INTERNATIONAL INC", "status": "Active", "recorded_date": "2026-01-24", "anniversary_or_expiry": "2028-01-24", "area_ha": null, "tenure_type": "Single Cell Mining Claim", "source": "Ontario MLAS operational claims (OGSEarth / LIO MapServer). Unofficial viewing data, not legal title.", "as_of": "2026-09-20", "role": "focus", "color": "#e8b040"}}]}