{"type": "FeatureCollection", "features": [{"type": "Feature", "geometry": {"type": "Polygon", "coordinates": [[[-70.24999983605379, 58.316666680349634], [-70.24999985050171, 58.32500001463308], [-70.24166651618052, 58.325000013075325], [-70.24166651646564, 58.31666668147626], [-70.24999983605379, 58.316666680349634]]]}, "properties": {"company_id": "united-states-antimony", "jurisdiction": "Quebec", "claim_id": "", "claim_name": null, "holder": "Antimony Mines International inc.", "status": "Active", "recorded_date": null, "anniversary_or_expiry": null, "area_ha": null, "tenure_type": null, "source": "GESTIM active titles (MRNF digital data dump). Not legal title.", "as_of": "2026-09-20", "role": "focus", "color": "#e8b040"}}, {"type": "Feature", "geometry": {"type": "Polygon", "coordinates": [[[-70.24999985050171, 58.32500001463308], [-70.24999984044986, 58.33333334772436], [-70.24166650859829, 58.33333335228927], [-70.24166651618052, 58.325000013075325], [-70.24999985050171, 58.32500001463308]]]}, "properties": {"company_id": "united-states-antimony", "jurisdiction": "Quebec", "claim_id": "", "claim_name": null, "holder": "Antimony Mines International inc.", "status": "Active", "recorded_date": null, "anniversary_or_expiry": null, "area_ha": null, "tenure_type": null, "source": "GESTIM active titles (MRNF digital data dump). Not legal title.", "as_of": "2026-09-20", "role": "focus", "color": "#e8b040"}}, {"type": "Feature", "geometry": {"type": "Polygon", "coordinates": [[[-70.24999984044986, 58.33333334772436], [-70.24999984002838, 58.34166667929137], [-70.24166651015452, 58.34166668099502], [-70.24166650859829, 58.33333335228927], [-70.24999984044986, 58.33333334772436]]]}, "properties": {"company_id": "united-states-antimony", "jurisdiction": "Quebec", "claim_id": "", "claim_name": null, "holder": "Antimony Mines International inc.", "status": "Active", "recorded_date": null, "anniversary_or_expiry": null, "area_ha": null, "tenure_type": null, "source": "GESTIM active titles (MRNF digital data dump). Not legal title.", "as_of": "2026-09-20", "role": "focus", "color": "#e8b040"}}, {"type": "Feature", "geometry": {"type": "Polygon", "coordinates": [[[-65.25833333238575, 51.07500000847633], [-65.25833333772302, 51.083333336146346], [-65.24999999939759, 51.08333333544354], [-65.25000000759812, 51.07499999955857], [-65.25833333238575, 51.07500000847633]]]}, "properties": {"company_id": "united-states-antimony", "jurisdiction": "Quebec", "claim_id": "", "claim_name": null, "holder": "Antimony Mines International inc.", "status": "Active", "recorded_date": null, "anniversary_or_expiry": null, "area_ha": null, "tenure_type": null, "source": "GESTIM active titles (MRNF digital data dump). Not legal title.", "as_of": "2026-09-20", "role": "focus", "color": "#e8b040"}}, {"type": "Feature", "geometry": {"type": "Polygon", "coordinates": [[[-65.2333333390073, 51.04166666809587], [-65.23333334093684, 51.050000006411736], [-65.22500000146289, 51.05000000602996], [-65.22499999849475, 51.04166666860775], [-65.2333333390073, 51.04166666809587]]]}, "properties": {"company_id": "united-states-antimony", "jurisdiction": "Quebec", "claim_id": "", "claim_name": null, "holder": "Antimony Mines International inc.", "status": "Active", "recorded_date": null, "anniversary_or_expiry": null, "area_ha": null, "tenure_type": null, "source": "GESTIM active titles (MRNF digital data dump). Not legal title.", "as_of": "2026-09-20", "role": "focus", "color": "#e8b040"}}, {"type": "Feature", "geometry": {"type": "Polygon", "coordinates": [[[-65.22499999849475, 51.04166666860775], [-65.22500000146289, 51.05000000602996], [-65.21666667177682, 51.05000000421144], [-65.21666666775461, 51.041666667645885], [-65.22499999849475, 51.04166666860775]]]}, "properties": {"company_id": "united-states-antimony", "jurisdiction": "Quebec", "claim_id": "", "claim_name": null, "holder": "Antimony Mines International inc.", "status": "Active", "recorded_date": null, "anniversary_or_expiry": null, "area_ha": null, "tenure_type": null, "source": "GESTIM active titles (MRNF digital data dump). Not legal title.", "as_of": "2026-09-20", "role": "focus", "color": "#e8b040"}}, {"type": "Feature", "geometry": {"type": "Polygon", "coordinates": [[[-65.21666666775461, 51.041666667645885], [-65.21666667177682, 51.05000000421144], [-65.2083333375866, 51.05000000123314], [-65.20833333292482, 51.041666674472836], [-65.21666666775461, 51.041666667645885]]]}, "properties": {"company_id": "united-states-antimony", "jurisdiction": "Quebec", "claim_id": "", "claim_name": null, "holder": "Antimony Mines International inc.", "status": "Active", "recorded_date": null, "anniversary_or_expiry": null, "area_ha": null, "tenure_type": null, "source": "GESTIM active titles (MRNF digital data dump). Not legal title.", "as_of": "2026-09-20", "role": "focus", "color": "#e8b040"}}, {"type": "Feature", "geometry": {"type": "Polygon", "coordinates": [[[-65.21666667177682, 51.05000000421144], [-65.21666666595192, 51.05833333978772], [-65.20833333265145, 51.058333335979135], [-65.2083333375866, 51.05000000123314], [-65.21666667177682, 51.05000000421144]]]}, "properties": {"company_id": "united-states-antimony", "jurisdiction": "Quebec", "claim_id": "", "claim_name": null, "holder": "Antimony Mines International inc.", "status": "Active", "recorded_date": null, "anniversary_or_expiry": null, "area_ha": null, "tenure_type": null, "source": "GESTIM active titles (MRNF digital data dump). Not legal title.", "as_of": "2026-09-20", "role": "focus", "color": "#e8b040"}}, {"type": "Feature", "geometry": {"type": "Polygon", "coordinates": [[[-65.25000000759812, 51.07499999955857], [-65.24999999939759, 51.08333333544354], [-65.24166667103154, 51.08333333343409], [-65.2416666650997, 51.075000007817266], [-65.25000000759812, 51.07499999955857]]]}, "properties": {"company_id": "united-states-antimony", "jurisdiction": "Quebec", "claim_id": "", "claim_name": null, "holder": "Antimony Mines International inc.", "status": "Active", "recorded_date": null, "anniversary_or_expiry": null, "area_ha": null, "tenure_type": null, "source": "GESTIM active titles (MRNF digital data dump). Not legal title.", "as_of": "2026-09-20", "role": "focus", "color": "#e8b040"}}, {"type": "Feature", "geometry": {"type": "Polygon", "coordinates": [[[-60.39999999573314, 50.22500000767107], [-60.40000000027659, 50.233333338845654], [-60.391666666759605, 50.23333333683665], [-60.39166665860502, 50.225000004575946], [-60.39999999573314, 50.22500000767107]]]}, "properties": {"company_id": "united-states-antimony", "jurisdiction": "Quebec", "claim_id": "", "claim_name": null, "holder": "Antimony Mines International inc.", "status": "Active", "recorded_date": null, "anniversary_or_expiry": null, "area_ha": null, "tenure_type": null, "source": "GESTIM active titles (MRNF digital data dump). Not legal title.", "as_of": "2026-09-20", "role": "focus", "color": "#e8b040"}}, {"type": "Feature", "geometry": {"type": "Polygon", "coordinates": [[[-61.19166666207993, 50.341666666851566], [-61.19166666013403, 50.35000000606966], [-61.18333333880272, 50.35000000468368], [-61.18333333834874, 50.34166666733103], [-61.19166666207993, 50.341666666851566]]]}, "properties": {"company_id": "united-states-antimony", "jurisdiction": "Quebec", "claim_id": "", "claim_name": null, "holder": "Antimony Mines International inc.", "status": "Active", "recorded_date": null, "anniversary_or_expiry": null, "area_ha": null, "tenure_type": null, "source": "GESTIM active titles (MRNF digital data dump). Not legal title.", "as_of": "2026-09-20", "role": "focus", "color": "#e8b040"}}, {"type": "Feature", "geometry": {"type": "Polygon", "coordinates": [[[-60.83333333203346, 50.29166667460208], [-60.83333333301479, 50.30000000550723], [-60.824999999691556, 50.30000000301978], [-60.824999995758596, 50.29166667262859], [-60.83333333203346, 50.29166667460208]]]}, "properties": {"company_id": "united-states-antimony", "jurisdiction": "Quebec", "claim_id": "", "claim_name": null, "holder": "Antimony Mines International inc.", "status": "Active", "recorded_date": null, "anniversary_or_expiry": null, "area_ha": null, "tenure_type": null, "source": "GESTIM active titles (MRNF digital data dump). Not legal title.", "as_of": "2026-09-20", "role": "focus", "color": "#e8b040"}}, {"type": "Feature", "geometry": {"type": "Polygon", "coordinates": [[[-78.34166667594734, 46.74166666972184], [-78.34166667541896, 46.75000000287458], [-78.3333333445426, 46.750000006302656], [-78.33333333590633, 46.74166666952586], [-78.34166667594734, 46.74166666972184]]]}, "properties": {"company_id": "united-states-antimony", "jurisdiction": "Quebec", "claim_id": "", "claim_name": null, "holder": "Antimony Mines International inc.", "status": "Active", "recorded_date": null, "anniversary_or_expiry": null, "area_ha": null, "tenure_type": null, "source": "GESTIM active titles (MRNF digital data dump). Not legal title.", "as_of": "2026-09-20", "role": "focus", "color": "#e8b040"}}, {"type": "Feature", "geometry": {"type": "Polygon", "coordinates": [[[-77.45833333760504, 49.1000000018193], [-77.44999999987438, 49.099999998862096], [-77.45, 49.09166666667442], [-77.4583333333333, 49.09166666667442], [-77.45833333760504, 49.1000000018193]]]}, "properties": {"company_id": "united-states-antimony", "jurisdiction": "Quebec", "claim_id": "", "claim_name": null, "holder": "Antimony Mines International inc.", "status": "Active", "recorded_date": null, "anniversary_or_expiry": null, "area_ha": null, "tenure_type": null, "source": "GESTIM active titles (MRNF digital data dump). Not legal title.", "as_of": "2026-09-20", "role": "focus", "color": "#e8b040"}}, {"type": "Feature", "geometry": {"type": "Polygon", "coordinates": [[[-77.44999999987438, 49.099999998862096], [-77.44166666997131, 49.100000005006265], [-77.44166666666672, 49.09166666667442], [-77.45, 49.09166666667442], [-77.44999999987438, 49.099999998862096]]]}, "properties": {"company_id": "united-states-antimony", "jurisdiction": "Quebec", "claim_id": "", "claim_name": null, "holder": "Antimony Mines International inc.", "status": "Active", "recorded_date": null, "anniversary_or_expiry": null, "area_ha": null, "tenure_type": null, "source": "GESTIM active titles (MRNF digital data dump). Not legal title.", "as_of": "2026-09-20", "role": "focus", "color": "#e8b040"}}]}