{"type": "FeatureCollection", "features": [{"type": "Feature", "geometry": {"type": "Polygon", "coordinates": [[[-123.199, 51.3307], [-123.2277, 51.3309], [-123.2277, 51.3129], [-123.199, 51.3129], [-123.199, 51.3307]]]}, "properties": {"company_id": "vista-gold", "jurisdiction": "British Columbia", "claim_id": 301199, "claim_name": "EAGLE 1", "holder": "VISTA GOLD CORP", "status": "Mineral", "recorded_date": "6777216000", "anniversary_or_expiry": "8039520000", "area_ha": 400, "tenure_type": "Mineral", "source": "BC MTA Mineral, Placer and Coal Tenure Spatial View (BCGW). Open Government Licence - British Columbia. Not legal title.", "as_of": "2026-09-20", "role": "focus", "color": "#e8b040"}}, {"type": "Feature", "geometry": {"type": "Polygon", "coordinates": [[[-123.199, 51.3129], [-123.1703, 51.3129], [-123.1702, 51.3309], [-123.199, 51.3307], [-123.199, 51.3129]]]}, "properties": {"company_id": "vista-gold", "jurisdiction": "British Columbia", "claim_id": 301200, "claim_name": "EAGLE 2", "holder": "VISTA GOLD CORP", "status": "Mineral", "recorded_date": "6777216000", "anniversary_or_expiry": "8039520000", "area_ha": 400, "tenure_type": "Mineral", "source": "BC MTA Mineral, Placer and Coal Tenure Spatial View (BCGW). Open Government Licence - British Columbia. Not legal title.", "as_of": "2026-09-20", "role": "focus", "color": "#e8b040"}}]}