{"type": "FeatureCollection", "features": [{"type": "Feature", "geometry": {"type": "Polygon", "coordinates": [[[-91.9375, 48.9125], [-91.9375, 48.9167], [-91.9438, 48.9167], [-91.9438, 48.9125], [-91.9375, 48.9125]]]}, "properties": {"company_id": "vista-gold", "jurisdiction": "Ontario", "claim_id": "1047899", "claim_name": null, "holder": "(100) North Vista Investments Inc", "status": "Active", "recorded_date": "2026-05-30", "anniversary_or_expiry": "2028-05-30", "area_ha": null, "tenure_type": "Single Cell Mining Claim", "source": "Ontario MLAS operational claims (OGSEarth / LIO MapServer). Unofficial viewing data, not legal title.", "as_of": "2026-09-20", "role": "focus", "color": "#e8b040"}}, {"type": "Feature", "geometry": {"type": "Polygon", "coordinates": [[[-91.9313, 48.9125], [-91.9313, 48.9167], [-91.9375, 48.9167], [-91.9375, 48.9125], [-91.9313, 48.9125]]]}, "properties": {"company_id": "vista-gold", "jurisdiction": "Ontario", "claim_id": "1047900", "claim_name": null, "holder": "(100) North Vista Investments Inc", "status": "Active", "recorded_date": "2026-05-30", "anniversary_or_expiry": "2028-05-30", "area_ha": null, "tenure_type": "Single Cell Mining Claim", "source": "Ontario MLAS operational claims (OGSEarth / LIO MapServer). Unofficial viewing data, not legal title.", "as_of": "2026-09-20", "role": "focus", "color": "#e8b040"}}, {"type": "Feature", "geometry": {"type": "Polygon", "coordinates": [[[-91.925, 48.9125], [-91.925, 48.9167], [-91.9313, 48.9167], [-91.9313, 48.9125], [-91.925, 48.9125]]]}, "properties": {"company_id": "vista-gold", "jurisdiction": "Ontario", "claim_id": "1047901", "claim_name": null, "holder": "(100) North Vista Investments Inc", "status": "Active", "recorded_date": "2026-05-30", "anniversary_or_expiry": "2028-05-30", "area_ha": null, "tenure_type": "Single Cell Mining Claim", "source": "Ontario MLAS operational claims (OGSEarth / LIO MapServer). Unofficial viewing data, not legal title.", "as_of": "2026-09-20", "role": "focus", "color": "#e8b040"}}, {"type": "Feature", "geometry": {"type": "Polygon", "coordinates": [[[-91.9188, 48.9125], [-91.9188, 48.9167], [-91.925, 48.9167], [-91.925, 48.9125], [-91.9188, 48.9125]]]}, "properties": {"company_id": "vista-gold", "jurisdiction": "Ontario", "claim_id": "1047902", "claim_name": null, "holder": "(100) North Vista Investments Inc", "status": "Active", "recorded_date": "2026-05-30", "anniversary_or_expiry": "2028-05-30", "area_ha": null, "tenure_type": "Single Cell Mining Claim", "source": "Ontario MLAS operational claims (OGSEarth / LIO MapServer). Unofficial viewing data, not legal title.", "as_of": "2026-09-20", "role": "focus", "color": "#e8b040"}}, {"type": "Feature", "geometry": {"type": "Polygon", "coordinates": [[[-91.9125, 48.9125], [-91.9125, 48.9167], [-91.9188, 48.9167], [-91.9188, 48.9125], [-91.9125, 48.9125]]]}, "properties": {"company_id": "vista-gold", "jurisdiction": "Ontario", "claim_id": "1047903", "claim_name": null, "holder": "(100) North Vista Investments Inc", "status": "Active", "recorded_date": "2026-05-30", "anniversary_or_expiry": "2028-05-30", "area_ha": null, "tenure_type": "Single Cell Mining Claim", "source": "Ontario MLAS operational claims (OGSEarth / LIO MapServer). Unofficial viewing data, not legal title.", "as_of": "2026-09-20", "role": "focus", "color": "#e8b040"}}, {"type": "Feature", "geometry": {"type": "Polygon", "coordinates": [[[-91.9063, 48.9125], [-91.9063, 48.9167], [-91.9125, 48.9167], [-91.9125, 48.9125], [-91.9063, 48.9125]]]}, "properties": {"company_id": "vista-gold", "jurisdiction": "Ontario", "claim_id": "1047904", "claim_name": null, "holder": "(100) North Vista Investments Inc", "status": "Active", "recorded_date": "2026-05-30", "anniversary_or_expiry": "2028-05-30", "area_ha": null, "tenure_type": "Single Cell Mining Claim", "source": "Ontario MLAS operational claims (OGSEarth / LIO MapServer). Unofficial viewing data, not legal title.", "as_of": "2026-09-20", "role": "focus", "color": "#e8b040"}}, {"type": "Feature", "geometry": {"type": "Polygon", "coordinates": [[[-91.9, 48.9125], [-91.9, 48.9167], [-91.9063, 48.9167], [-91.9063, 48.9125], [-91.9, 48.9125]]]}, "properties": {"company_id": "vista-gold", "jurisdiction": "Ontario", "claim_id": "1047905", "claim_name": null, "holder": "(100) North Vista Investments Inc", "status": "Active", "recorded_date": "2026-05-30", "anniversary_or_expiry": "2028-05-30", "area_ha": null, "tenure_type": "Single Cell Mining Claim", "source": "Ontario MLAS operational claims (OGSEarth / LIO MapServer). Unofficial viewing data, not legal title.", "as_of": "2026-09-20", "role": "focus", "color": "#e8b040"}}, {"type": "Feature", "geometry": {"type": "Polygon", "coordinates": [[[-91.9313, 48.9083], [-91.9313, 48.9125], [-91.9375, 48.9125], [-91.9375, 48.9083], [-91.9313, 48.9083]]]}, "properties": {"company_id": "vista-gold", "jurisdiction": "Ontario", "claim_id": "1047906", "claim_name": null, "holder": "(100) North Vista Investments Inc", "status": "Active", "recorded_date": "2026-05-30", "anniversary_or_expiry": "2028-05-30", "area_ha": null, "tenure_type": "Single Cell Mining Claim", "source": "Ontario MLAS operational claims (OGSEarth / LIO MapServer). Unofficial viewing data, not legal title.", "as_of": "2026-09-20", "role": "focus", "color": "#e8b040"}}, {"type": "Feature", "geometry": {"type": "Polygon", "coordinates": [[[-91.925, 48.9083], [-91.925, 48.9125], [-91.9313, 48.9125], [-91.9313, 48.9083], [-91.925, 48.9083]]]}, "properties": {"company_id": "vista-gold", "jurisdiction": "Ontario", "claim_id": "1047907", "claim_name": null, "holder": "(100) North Vista Investments Inc", "status": "Active", "recorded_date": "2026-05-30", "anniversary_or_expiry": "2028-05-30", "area_ha": null, "tenure_type": "Single Cell Mining Claim", "source": "Ontario MLAS operational claims (OGSEarth / LIO MapServer). Unofficial viewing data, not legal title.", "as_of": "2026-09-20", "role": "focus", "color": "#e8b040"}}, {"type": "Feature", "geometry": {"type": "Polygon", "coordinates": [[[-91.9188, 48.9083], [-91.9188, 48.9125], [-91.925, 48.9125], [-91.925, 48.9083], [-91.9188, 48.9083]]]}, "properties": {"company_id": "vista-gold", "jurisdiction": "Ontario", "claim_id": "1047908", "claim_name": null, "holder": "(100) North Vista Investments Inc", "status": "Active", "recorded_date": "2026-05-30", "anniversary_or_expiry": "2028-05-30", "area_ha": null, "tenure_type": "Single Cell Mining Claim", "source": "Ontario MLAS operational claims (OGSEarth / LIO MapServer). Unofficial viewing data, not legal title.", "as_of": "2026-09-20", "role": "focus", "color": "#e8b040"}}, {"type": "Feature", "geometry": {"type": "Polygon", "coordinates": [[[-91.9125, 48.9083], [-91.9125, 48.9125], [-91.9188, 48.9125], [-91.9188, 48.9083], [-91.9125, 48.9083]]]}, "properties": {"company_id": "vista-gold", "jurisdiction": "Ontario", "claim_id": "1047909", "claim_name": null, "holder": "(100) North Vista Investments Inc", "status": "Active", "recorded_date": "2026-05-30", "anniversary_or_expiry": "2028-05-30", "area_ha": null, "tenure_type": "Single Cell Mining Claim", "source": "Ontario MLAS operational claims (OGSEarth / LIO MapServer). Unofficial viewing data, not legal title.", "as_of": "2026-09-20", "role": "focus", "color": "#e8b040"}}, {"type": "Feature", "geometry": {"type": "Polygon", "coordinates": [[[-91.9063, 48.9083], [-91.9063, 48.9125], [-91.9125, 48.9125], [-91.9125, 48.9083], [-91.9063, 48.9083]]]}, "properties": {"company_id": "vista-gold", "jurisdiction": "Ontario", "claim_id": "1047910", "claim_name": null, "holder": "(100) North Vista Investments Inc", "status": "Active", "recorded_date": "2026-05-30", "anniversary_or_expiry": "2028-05-30", "area_ha": null, "tenure_type": "Single Cell Mining Claim", "source": "Ontario MLAS operational claims (OGSEarth / LIO MapServer). Unofficial viewing data, not legal title.", "as_of": "2026-09-20", "role": "focus", "color": "#e8b040"}}, {"type": "Feature", "geometry": {"type": "Polygon", "coordinates": [[[-91.9, 48.9083], [-91.9, 48.9125], [-91.9063, 48.9125], [-91.9063, 48.9083], [-91.9, 48.9083]]]}, "properties": {"company_id": "vista-gold", "jurisdiction": "Ontario", "claim_id": "1047911", "claim_name": null, "holder": "(100) North Vista Investments Inc", "status": "Active", "recorded_date": "2026-05-30", "anniversary_or_expiry": "2028-05-30", "area_ha": null, "tenure_type": "Single Cell Mining Claim", "source": "Ontario MLAS operational claims (OGSEarth / LIO MapServer). Unofficial viewing data, not legal title.", "as_of": "2026-09-20", "role": "focus", "color": "#e8b040"}}, {"type": "Feature", "geometry": {"type": "Polygon", "coordinates": [[[-91.9188, 48.9042], [-91.9188, 48.9083], [-91.925, 48.9083], [-91.925, 48.9042], [-91.9188, 48.9042]]]}, "properties": {"company_id": "vista-gold", "jurisdiction": "Ontario", "claim_id": "1047912", "claim_name": null, "holder": "(100) North Vista Investments Inc", "status": "Active", "recorded_date": "2026-05-30", "anniversary_or_expiry": "2028-05-30", "area_ha": null, "tenure_type": "Single Cell Mining Claim", "source": "Ontario MLAS operational claims (OGSEarth / LIO MapServer). Unofficial viewing data, not legal title.", "as_of": "2026-09-20", "role": "focus", "color": "#e8b040"}}, {"type": "Feature", "geometry": {"type": "Polygon", "coordinates": [[[-91.9125, 48.9042], [-91.9125, 48.9083], [-91.9188, 48.9083], [-91.9188, 48.9042], [-91.9125, 48.9042]]]}, "properties": {"company_id": "vista-gold", "jurisdiction": "Ontario", "claim_id": "1047913", "claim_name": null, "holder": "(100) North Vista Investments Inc", "status": "Active", "recorded_date": "2026-05-30", "anniversary_or_expiry": "2028-05-30", "area_ha": null, "tenure_type": "Single Cell Mining Claim", "source": "Ontario MLAS operational claims (OGSEarth / LIO MapServer). Unofficial viewing data, not legal title.", "as_of": "2026-09-20", "role": "focus", "color": "#e8b040"}}, {"type": "Feature", "geometry": {"type": "Polygon", "coordinates": [[[-91.9063, 48.9042], [-91.9063, 48.9083], [-91.9125, 48.9083], [-91.9125, 48.9042], [-91.9063, 48.9042]]]}, "properties": {"company_id": "vista-gold", "jurisdiction": "Ontario", "claim_id": "1047914", "claim_name": null, "holder": "(100) North Vista Investments Inc", "status": "Active", "recorded_date": "2026-05-30", "anniversary_or_expiry": "2028-05-30", "area_ha": null, "tenure_type": "Single Cell Mining Claim", "source": "Ontario MLAS operational claims (OGSEarth / LIO MapServer). Unofficial viewing data, not legal title.", "as_of": "2026-09-20", "role": "focus", "color": "#e8b040"}}, {"type": "Feature", "geometry": {"type": "Polygon", "coordinates": [[[-91.9, 48.9042], [-91.9, 48.9083], [-91.9063, 48.9083], [-91.9063, 48.9042], [-91.9, 48.9042]]]}, "properties": {"company_id": "vista-gold", "jurisdiction": "Ontario", "claim_id": "1047915", "claim_name": null, "holder": "(100) North Vista Investments Inc", "status": "Active", "recorded_date": "2026-05-30", "anniversary_or_expiry": "2028-05-30", "area_ha": null, "tenure_type": "Single Cell Mining Claim", "source": "Ontario MLAS operational claims (OGSEarth / LIO MapServer). Unofficial viewing data, not legal title.", "as_of": "2026-09-20", "role": "focus", "color": "#e8b040"}}, {"type": "Feature", "geometry": {"type": "Polygon", "coordinates": [[[-91.9125, 48.9], [-91.9125, 48.9042], [-91.9188, 48.9042], [-91.9188, 48.9], [-91.9125, 48.9]]]}, "properties": {"company_id": "vista-gold", "jurisdiction": "Ontario", "claim_id": "1047916", "claim_name": null, "holder": "(100) North Vista Investments Inc", "status": "Active", "recorded_date": "2026-05-30", "anniversary_or_expiry": "2028-05-30", "area_ha": null, "tenure_type": "Single Cell Mining Claim", "source": "Ontario MLAS operational claims (OGSEarth / LIO MapServer). Unofficial viewing data, not legal title.", "as_of": "2026-09-20", "role": "focus", "color": "#e8b040"}}, {"type": "Feature", "geometry": {"type": "Polygon", "coordinates": [[[-91.9063, 48.9], [-91.9063, 48.9042], [-91.9125, 48.9042], [-91.9125, 48.9], [-91.9063, 48.9]]]}, "properties": {"company_id": "vista-gold", "jurisdiction": "Ontario", "claim_id": "1047917", "claim_name": null, "holder": "(100) North Vista Investments Inc", "status": "Active", "recorded_date": "2026-05-30", "anniversary_or_expiry": "2028-05-30", "area_ha": null, "tenure_type": "Single Cell Mining Claim", "source": "Ontario MLAS operational claims (OGSEarth / LIO MapServer). Unofficial viewing data, not legal title.", "as_of": "2026-09-20", "role": "focus", "color": "#e8b040"}}, {"type": "Feature", "geometry": {"type": "Polygon", "coordinates": [[[-91.9, 48.9], [-91.9, 48.9042], [-91.9063, 48.9042], [-91.9063, 48.9], [-91.9, 48.9]]]}, "properties": {"company_id": "vista-gold", "jurisdiction": "Ontario", "claim_id": "1047918", "claim_name": null, "holder": "(100) North Vista Investments Inc", "status": "Active", "recorded_date": "2026-05-30", "anniversary_or_expiry": "2028-05-30", "area_ha": null, "tenure_type": "Single Cell Mining Claim", "source": "Ontario MLAS operational claims (OGSEarth / LIO MapServer). Unofficial viewing data, not legal title.", "as_of": "2026-09-20", "role": "focus", "color": "#e8b040"}}, {"type": "Feature", "geometry": {"type": "Polygon", "coordinates": [[[-91.8938, 48.9], [-91.8938, 48.9042], [-91.9, 48.9042], [-91.9, 48.9], [-91.8938, 48.9]]]}, "properties": {"company_id": "vista-gold", "jurisdiction": "Ontario", "claim_id": "1047919", "claim_name": null, "holder": "(100) North Vista Investments Inc", "status": "Active", "recorded_date": "2026-05-30", "anniversary_or_expiry": "2028-05-30", "area_ha": null, "tenure_type": "Single Cell Mining Claim", "source": "Ontario MLAS operational claims (OGSEarth / LIO MapServer). Unofficial viewing data, not legal title.", "as_of": "2026-09-20", "role": "focus", "color": "#e8b040"}}, {"type": "Feature", "geometry": {"type": "Polygon", "coordinates": [[[-91.9063, 48.8958], [-91.9063, 48.9], [-91.9125, 48.9], [-91.9125, 48.8958], [-91.9063, 48.8958]]]}, "properties": {"company_id": "vista-gold", "jurisdiction": "Ontario", "claim_id": "1047920", "claim_name": null, "holder": "(100) North Vista Investments Inc", "status": "Active", "recorded_date": "2026-05-30", "anniversary_or_expiry": "2028-05-30", "area_ha": null, "tenure_type": "Single Cell Mining Claim", "source": "Ontario MLAS operational claims (OGSEarth / LIO MapServer). Unofficial viewing data, not legal title.", "as_of": "2026-09-20", "role": "focus", "color": "#e8b040"}}, {"type": "Feature", "geometry": {"type": "Polygon", "coordinates": [[[-91.9, 48.8958], [-91.9, 48.9], [-91.9063, 48.9], [-91.9063, 48.8958], [-91.9, 48.8958]]]}, "properties": {"company_id": "vista-gold", "jurisdiction": "Ontario", "claim_id": "1047921", "claim_name": null, "holder": "(100) North Vista Investments Inc", "status": "Active", "recorded_date": "2026-05-30", "anniversary_or_expiry": "2028-05-30", "area_ha": null, "tenure_type": "Single Cell Mining Claim", "source": "Ontario MLAS operational claims (OGSEarth / LIO MapServer). Unofficial viewing data, not legal title.", "as_of": "2026-09-20", "role": "focus", "color": "#e8b040"}}, {"type": "Feature", "geometry": {"type": "Polygon", "coordinates": [[[-91.8938, 48.8958], [-91.8938, 48.9], [-91.9, 48.9], [-91.9, 48.8958], [-91.8938, 48.8958]]]}, "properties": {"company_id": "vista-gold", "jurisdiction": "Ontario", "claim_id": "1047922", "claim_name": null, "holder": "(100) North Vista Investments Inc", "status": "Active", "recorded_date": "2026-05-30", "anniversary_or_expiry": "2028-05-30", "area_ha": null, "tenure_type": "Single Cell Mining Claim", "source": "Ontario MLAS operational claims (OGSEarth / LIO MapServer). Unofficial viewing data, not legal title.", "as_of": "2026-09-20", "role": "focus", "color": "#e8b040"}}, {"type": "Feature", "geometry": {"type": "Polygon", "coordinates": [[[-91.9438, 48.925], [-91.9438, 48.9292], [-91.95, 48.9292], [-91.95, 48.925], [-91.9438, 48.925]]]}, "properties": {"company_id": "vista-gold", "jurisdiction": "Ontario", "claim_id": "1047923", "claim_name": null, "holder": "(100) North Vista Investments Inc", "status": "Active", "recorded_date": "2026-05-30", "anniversary_or_expiry": "2028-05-30", "area_ha": null, "tenure_type": "Single Cell Mining Claim", "source": "Ontario MLAS operational claims (OGSEarth / LIO MapServer). Unofficial viewing data, not legal title.", "as_of": "2026-09-20", "role": "focus", "color": "#e8b040"}}, {"type": "Feature", "geometry": {"type": "Polygon", "coordinates": [[[-91.9375, 48.925], [-91.9375, 48.9292], [-91.9438, 48.9292], [-91.9438, 48.925], [-91.9375, 48.925]]]}, "properties": {"company_id": "vista-gold", "jurisdiction": "Ontario", "claim_id": "1047924", "claim_name": null, "holder": "(100) North Vista Investments Inc", "status": "Active", "recorded_date": "2026-05-30", "anniversary_or_expiry": "2028-05-30", "area_ha": null, "tenure_type": "Single Cell Mining Claim", "source": "Ontario MLAS operational claims (OGSEarth / LIO MapServer). Unofficial viewing data, not legal title.", "as_of": "2026-09-20", "role": "focus", "color": "#e8b040"}}, {"type": "Feature", "geometry": {"type": "Polygon", "coordinates": [[[-91.9313, 48.925], [-91.9313, 48.9292], [-91.9375, 48.9292], [-91.9375, 48.925], [-91.9313, 48.925]]]}, "properties": {"company_id": "vista-gold", "jurisdiction": "Ontario", "claim_id": "1047925", "claim_name": null, "holder": "(100) North Vista Investments Inc", "status": "Active", "recorded_date": "2026-05-30", "anniversary_or_expiry": "2028-05-30", "area_ha": null, "tenure_type": "Single Cell Mining Claim", "source": "Ontario MLAS operational claims (OGSEarth / LIO MapServer). Unofficial viewing data, not legal title.", "as_of": "2026-09-20", "role": "focus", "color": "#e8b040"}}, {"type": "Feature", "geometry": {"type": "Polygon", "coordinates": [[[-91.925, 48.925], [-91.925, 48.9292], [-91.9313, 48.9292], [-91.9313, 48.925], [-91.925, 48.925]]]}, "properties": {"company_id": "vista-gold", "jurisdiction": "Ontario", "claim_id": "1047926", "claim_name": null, "holder": "(100) North Vista Investments Inc", "status": "Active", "recorded_date": "2026-05-30", "anniversary_or_expiry": "2028-05-30", "area_ha": null, "tenure_type": "Single Cell Mining Claim", "source": "Ontario MLAS operational claims (OGSEarth / LIO MapServer). Unofficial viewing data, not legal title.", "as_of": "2026-09-20", "role": "focus", "color": "#e8b040"}}, {"type": "Feature", "geometry": {"type": "Polygon", "coordinates": [[[-91.9188, 48.925], [-91.9188, 48.9292], [-91.925, 48.9292], [-91.925, 48.925], [-91.9188, 48.925]]]}, "properties": {"company_id": "vista-gold", "jurisdiction": "Ontario", "claim_id": "1047927", "claim_name": null, "holder": "(100) North Vista Investments Inc", "status": "Active", "recorded_date": "2026-05-30", "anniversary_or_expiry": "2028-05-30", "area_ha": null, "tenure_type": "Single Cell Mining Claim", "source": "Ontario MLAS operational claims (OGSEarth / LIO MapServer). Unofficial viewing data, not legal title.", "as_of": "2026-09-20", "role": "focus", "color": "#e8b040"}}, {"type": "Feature", "geometry": {"type": "Polygon", "coordinates": [[[-91.9125, 48.925], [-91.9125, 48.9292], [-91.9188, 48.9292], [-91.9188, 48.925], [-91.9125, 48.925]]]}, "properties": {"company_id": "vista-gold", "jurisdiction": "Ontario", "claim_id": "1047928", "claim_name": null, "holder": "(100) North Vista Investments Inc", "status": "Active", "recorded_date": "2026-05-30", "anniversary_or_expiry": "2028-05-30", "area_ha": null, "tenure_type": "Single Cell Mining Claim", "source": "Ontario MLAS operational claims (OGSEarth / LIO MapServer). Unofficial viewing data, not legal title.", "as_of": "2026-09-20", "role": "focus", "color": "#e8b040"}}, {"type": "Feature", "geometry": {"type": "Polygon", "coordinates": [[[-91.9438, 48.9208], [-91.9438, 48.925], [-91.95, 48.925], [-91.95, 48.9208], [-91.9438, 48.9208]]]}, "properties": {"company_id": "vista-gold", "jurisdiction": "Ontario", "claim_id": "1047929", "claim_name": null, "holder": "(100) North Vista Investments Inc", "status": "Active", "recorded_date": "2026-05-30", "anniversary_or_expiry": "2028-05-30", "area_ha": null, "tenure_type": "Single Cell Mining Claim", "source": "Ontario MLAS operational claims (OGSEarth / LIO MapServer). Unofficial viewing data, not legal title.", "as_of": "2026-09-20", "role": "focus", "color": "#e8b040"}}, {"type": "Feature", "geometry": {"type": "Polygon", "coordinates": [[[-91.9375, 48.9208], [-91.9375, 48.925], [-91.9438, 48.925], [-91.9438, 48.9208], [-91.9375, 48.9208]]]}, "properties": {"company_id": "vista-gold", "jurisdiction": "Ontario", "claim_id": "1047930", "claim_name": null, "holder": "(100) North Vista Investments Inc", "status": "Active", "recorded_date": "2026-05-30", "anniversary_or_expiry": "2028-05-30", "area_ha": null, "tenure_type": "Single Cell Mining Claim", "source": "Ontario MLAS operational claims (OGSEarth / LIO MapServer). Unofficial viewing data, not legal title.", "as_of": "2026-09-20", "role": "focus", "color": "#e8b040"}}, {"type": "Feature", "geometry": {"type": "Polygon", "coordinates": [[[-91.9313, 48.9208], [-91.9313, 48.925], [-91.9375, 48.925], [-91.9375, 48.9208], [-91.9313, 48.9208]]]}, "properties": {"company_id": "vista-gold", "jurisdiction": "Ontario", "claim_id": "1047931", "claim_name": null, "holder": "(100) North Vista Investments Inc", "status": "Active", "recorded_date": "2026-05-30", "anniversary_or_expiry": "2028-05-30", "area_ha": null, "tenure_type": "Single Cell Mining Claim", "source": "Ontario MLAS operational claims (OGSEarth / LIO MapServer). Unofficial viewing data, not legal title.", "as_of": "2026-09-20", "role": "focus", "color": "#e8b040"}}, {"type": "Feature", "geometry": {"type": "Polygon", "coordinates": [[[-91.925, 48.9208], [-91.925, 48.925], [-91.9313, 48.925], [-91.9313, 48.9208], [-91.925, 48.9208]]]}, "properties": {"company_id": "vista-gold", "jurisdiction": "Ontario", "claim_id": "1047932", "claim_name": null, "holder": "(100) North Vista Investments Inc", "status": "Active", "recorded_date": "2026-05-30", "anniversary_or_expiry": "2028-05-30", "area_ha": null, "tenure_type": "Single Cell Mining Claim", "source": "Ontario MLAS operational claims (OGSEarth / LIO MapServer). Unofficial viewing data, not legal title.", "as_of": "2026-09-20", "role": "focus", "color": "#e8b040"}}, {"type": "Feature", "geometry": {"type": "Polygon", "coordinates": [[[-91.9188, 48.9208], [-91.9188, 48.925], [-91.925, 48.925], [-91.925, 48.9208], [-91.9188, 48.9208]]]}, "properties": {"company_id": "vista-gold", "jurisdiction": "Ontario", "claim_id": "1047933", "claim_name": null, "holder": "(100) North Vista Investments Inc", "status": "Active", "recorded_date": "2026-05-30", "anniversary_or_expiry": "2028-05-30", "area_ha": null, "tenure_type": "Single Cell Mining Claim", "source": "Ontario MLAS operational claims (OGSEarth / LIO MapServer). Unofficial viewing data, not legal title.", "as_of": "2026-09-20", "role": "focus", "color": "#e8b040"}}, {"type": "Feature", "geometry": {"type": "Polygon", "coordinates": [[[-91.9125, 48.9208], [-91.9125, 48.925], [-91.9188, 48.925], [-91.9188, 48.9208], [-91.9125, 48.9208]]]}, "properties": {"company_id": "vista-gold", "jurisdiction": "Ontario", "claim_id": "1047934", "claim_name": null, "holder": "(100) North Vista Investments Inc", "status": "Active", "recorded_date": "2026-05-30", "anniversary_or_expiry": "2028-05-30", "area_ha": null, "tenure_type": "Single Cell Mining Claim", "source": "Ontario MLAS operational claims (OGSEarth / LIO MapServer). Unofficial viewing data, not legal title.", "as_of": "2026-09-20", "role": "focus", "color": "#e8b040"}}, {"type": "Feature", "geometry": {"type": "Polygon", "coordinates": [[[-91.9063, 48.9208], [-91.9063, 48.925], [-91.9125, 48.925], [-91.9125, 48.9208], [-91.9063, 48.9208]]]}, "properties": {"company_id": "vista-gold", "jurisdiction": "Ontario", "claim_id": "1047935", "claim_name": null, "holder": "(100) North Vista Investments Inc", "status": "Active", "recorded_date": "2026-05-30", "anniversary_or_expiry": "2028-05-30", "area_ha": null, "tenure_type": "Single Cell Mining Claim", "source": "Ontario MLAS operational claims (OGSEarth / LIO MapServer). Unofficial viewing data, not legal title.", "as_of": "2026-09-20", "role": "focus", "color": "#e8b040"}}, {"type": "Feature", "geometry": {"type": "Polygon", "coordinates": [[[-91.9, 48.9208], [-91.9, 48.925], [-91.9063, 48.925], [-91.9063, 48.9208], [-91.9, 48.9208]]]}, "properties": {"company_id": "vista-gold", "jurisdiction": "Ontario", "claim_id": "1047936", "claim_name": null, "holder": "(100) North Vista Investments Inc", "status": "Active", "recorded_date": "2026-05-30", "anniversary_or_expiry": "2028-05-30", "area_ha": null, "tenure_type": "Single Cell Mining Claim", "source": "Ontario MLAS operational claims (OGSEarth / LIO MapServer). Unofficial viewing data, not legal title.", "as_of": "2026-09-20", "role": "focus", "color": "#e8b040"}}, {"type": "Feature", "geometry": {"type": "Polygon", "coordinates": [[[-91.9438, 48.9167], [-91.9438, 48.9208], [-91.95, 48.9208], [-91.95, 48.9167], [-91.9438, 48.9167]]]}, "properties": {"company_id": "vista-gold", "jurisdiction": "Ontario", "claim_id": "1047937", "claim_name": null, "holder": "(100) North Vista Investments Inc", "status": "Active", "recorded_date": "2026-05-30", "anniversary_or_expiry": "2028-05-30", "area_ha": null, "tenure_type": "Single Cell Mining Claim", "source": "Ontario MLAS operational claims (OGSEarth / LIO MapServer). Unofficial viewing data, not legal title.", "as_of": "2026-09-20", "role": "focus", "color": "#e8b040"}}, {"type": "Feature", "geometry": {"type": "Polygon", "coordinates": [[[-91.9375, 48.9167], [-91.9375, 48.9208], [-91.9438, 48.9208], [-91.9438, 48.9167], [-91.9375, 48.9167]]]}, "properties": {"company_id": "vista-gold", "jurisdiction": "Ontario", "claim_id": "1047938", "claim_name": null, "holder": "(100) North Vista Investments Inc", "status": "Active", "recorded_date": "2026-05-30", "anniversary_or_expiry": "2028-05-30", "area_ha": null, "tenure_type": "Single Cell Mining Claim", "source": "Ontario MLAS operational claims (OGSEarth / LIO MapServer). Unofficial viewing data, not legal title.", "as_of": "2026-09-20", "role": "focus", "color": "#e8b040"}}, {"type": "Feature", "geometry": {"type": "Polygon", "coordinates": [[[-91.9313, 48.9167], [-91.9313, 48.9208], [-91.9375, 48.9208], [-91.9375, 48.9167], [-91.9313, 48.9167]]]}, "properties": {"company_id": "vista-gold", "jurisdiction": "Ontario", "claim_id": "1047939", "claim_name": null, "holder": "(100) North Vista Investments Inc", "status": "Active", "recorded_date": "2026-05-30", "anniversary_or_expiry": "2028-05-30", "area_ha": null, "tenure_type": "Single Cell Mining Claim", "source": "Ontario MLAS operational claims (OGSEarth / LIO MapServer). Unofficial viewing data, not legal title.", "as_of": "2026-09-20", "role": "focus", "color": "#e8b040"}}, {"type": "Feature", "geometry": {"type": "Polygon", "coordinates": [[[-91.925, 48.9167], [-91.925, 48.9208], [-91.9313, 48.9208], [-91.9313, 48.9167], [-91.925, 48.9167]]]}, "properties": {"company_id": "vista-gold", "jurisdiction": "Ontario", "claim_id": "1047940", "claim_name": null, "holder": "(100) North Vista Investments Inc", "status": "Active", "recorded_date": "2026-05-30", "anniversary_or_expiry": "2028-05-30", "area_ha": null, "tenure_type": "Single Cell Mining Claim", "source": "Ontario MLAS operational claims (OGSEarth / LIO MapServer). Unofficial viewing data, not legal title.", "as_of": "2026-09-20", "role": "focus", "color": "#e8b040"}}, {"type": "Feature", "geometry": {"type": "Polygon", "coordinates": [[[-91.9188, 48.9167], [-91.9188, 48.9208], [-91.925, 48.9208], [-91.925, 48.9167], [-91.9188, 48.9167]]]}, "properties": {"company_id": "vista-gold", "jurisdiction": "Ontario", "claim_id": "1047941", "claim_name": null, "holder": "(100) North Vista Investments Inc", "status": "Active", "recorded_date": "2026-05-30", "anniversary_or_expiry": "2028-05-30", "area_ha": null, "tenure_type": "Single Cell Mining Claim", "source": "Ontario MLAS operational claims (OGSEarth / LIO MapServer). Unofficial viewing data, not legal title.", "as_of": "2026-09-20", "role": "focus", "color": "#e8b040"}}, {"type": "Feature", "geometry": {"type": "Polygon", "coordinates": [[[-91.9125, 48.9167], [-91.9125, 48.9208], [-91.9188, 48.9208], [-91.9188, 48.9167], [-91.9125, 48.9167]]]}, "properties": {"company_id": "vista-gold", "jurisdiction": "Ontario", "claim_id": "1047942", "claim_name": null, "holder": "(100) North Vista Investments Inc", "status": "Active", "recorded_date": "2026-05-30", "anniversary_or_expiry": "2028-05-30", "area_ha": null, "tenure_type": "Single Cell Mining Claim", "source": "Ontario MLAS operational claims (OGSEarth / LIO MapServer). Unofficial viewing data, not legal title.", "as_of": "2026-09-20", "role": "focus", "color": "#e8b040"}}, {"type": "Feature", "geometry": {"type": "Polygon", "coordinates": [[[-91.9063, 48.9167], [-91.9063, 48.9208], [-91.9125, 48.9208], [-91.9125, 48.9167], [-91.9063, 48.9167]]]}, "properties": {"company_id": "vista-gold", "jurisdiction": "Ontario", "claim_id": "1047943", "claim_name": null, "holder": "(100) North Vista Investments Inc", "status": "Active", "recorded_date": "2026-05-30", "anniversary_or_expiry": "2028-05-30", "area_ha": null, "tenure_type": "Single Cell Mining Claim", "source": "Ontario MLAS operational claims (OGSEarth / LIO MapServer). Unofficial viewing data, not legal title.", "as_of": "2026-09-20", "role": "focus", "color": "#e8b040"}}, {"type": "Feature", "geometry": {"type": "Polygon", "coordinates": [[[-91.9, 48.9167], [-91.9, 48.9208], [-91.9063, 48.9208], [-91.9063, 48.9167], [-91.9, 48.9167]]]}, "properties": {"company_id": "vista-gold", "jurisdiction": "Ontario", "claim_id": "1047944", "claim_name": null, "holder": "(100) North Vista Investments Inc", "status": "Active", "recorded_date": "2026-05-30", "anniversary_or_expiry": "2028-05-30", "area_ha": null, "tenure_type": "Single Cell Mining Claim", "source": "Ontario MLAS operational claims (OGSEarth / LIO MapServer). Unofficial viewing data, not legal title.", "as_of": "2026-09-20", "role": "focus", "color": "#e8b040"}}, {"type": "Feature", "geometry": {"type": "Polygon", "coordinates": [[[-91.8938, 48.9167], [-91.8938, 48.9208], [-91.9, 48.9208], [-91.9, 48.9167], [-91.8938, 48.9167]]]}, "properties": {"company_id": "vista-gold", "jurisdiction": "Ontario", "claim_id": "1047945", "claim_name": null, "holder": "(100) North Vista Investments Inc", "status": "Active", "recorded_date": "2026-05-30", "anniversary_or_expiry": "2028-05-30", "area_ha": null, "tenure_type": "Single Cell Mining Claim", "source": "Ontario MLAS operational claims (OGSEarth / LIO MapServer). Unofficial viewing data, not legal title.", "as_of": "2026-09-20", "role": "focus", "color": "#e8b040"}}, {"type": "Feature", "geometry": {"type": "Polygon", "coordinates": [[[-91.8875, 48.9167], [-91.8875, 48.9208], [-91.8938, 48.9208], [-91.8938, 48.9167], [-91.8875, 48.9167]]]}, "properties": {"company_id": "vista-gold", "jurisdiction": "Ontario", "claim_id": "1047946", "claim_name": null, "holder": "(100) North Vista Investments Inc", "status": "Active", "recorded_date": "2026-05-30", "anniversary_or_expiry": "2028-05-30", "area_ha": null, "tenure_type": "Single Cell Mining Claim", "source": "Ontario MLAS operational claims (OGSEarth / LIO MapServer). Unofficial viewing data, not legal title.", "as_of": "2026-09-20", "role": "focus", "color": "#e8b040"}}, {"type": "Feature", "geometry": {"type": "Polygon", "coordinates": [[[-91.8813, 48.9167], [-91.8813, 48.9208], [-91.8875, 48.9208], [-91.8875, 48.9167], [-91.8813, 48.9167]]]}, "properties": {"company_id": "vista-gold", "jurisdiction": "Ontario", "claim_id": "1047947", "claim_name": null, "holder": "(100) North Vista Investments Inc", "status": "Active", "recorded_date": "2026-05-30", "anniversary_or_expiry": "2028-05-30", "area_ha": null, "tenure_type": "Single Cell Mining Claim", "source": "Ontario MLAS operational claims (OGSEarth / LIO MapServer). Unofficial viewing data, not legal title.", "as_of": "2026-09-20", "role": "focus", "color": "#e8b040"}}, {"type": "Feature", "geometry": {"type": "Polygon", "coordinates": [[[-91.8938, 48.9125], [-91.8938, 48.9167], [-91.9, 48.9167], [-91.9, 48.9125], [-91.8938, 48.9125]]]}, "properties": {"company_id": "vista-gold", "jurisdiction": "Ontario", "claim_id": "1048018", "claim_name": null, "holder": "(100) North Vista Investments Inc", "status": "Active", "recorded_date": "2026-06-01", "anniversary_or_expiry": "2028-06-01", "area_ha": null, "tenure_type": "Single Cell Mining Claim", "source": "Ontario MLAS operational claims (OGSEarth / LIO MapServer). Unofficial viewing data, not legal title.", "as_of": "2026-09-20", "role": "focus", "color": "#e8b040"}}, {"type": "Feature", "geometry": {"type": "Polygon", "coordinates": [[[-91.8875, 48.9125], [-91.8875, 48.9167], [-91.8938, 48.9167], [-91.8938, 48.9125], [-91.8875, 48.9125]]]}, "properties": {"company_id": "vista-gold", "jurisdiction": "Ontario", "claim_id": "1048019", "claim_name": null, "holder": "(100) North Vista Investments Inc", "status": "Active", "recorded_date": "2026-06-01", "anniversary_or_expiry": "2028-06-01", "area_ha": null, "tenure_type": "Single Cell Mining Claim", "source": "Ontario MLAS operational claims (OGSEarth / LIO MapServer). Unofficial viewing data, not legal title.", "as_of": "2026-09-20", "role": "focus", "color": "#e8b040"}}, {"type": "Feature", "geometry": {"type": "Polygon", "coordinates": [[[-91.8813, 48.9125], [-91.8813, 48.9167], [-91.8875, 48.9167], [-91.8875, 48.9125], [-91.8813, 48.9125]]]}, "properties": {"company_id": "vista-gold", "jurisdiction": "Ontario", "claim_id": "1048020", "claim_name": null, "holder": "(100) North Vista Investments Inc", "status": "Active", "recorded_date": "2026-06-01", "anniversary_or_expiry": "2028-06-01", "area_ha": null, "tenure_type": "Single Cell Mining Claim", "source": "Ontario MLAS operational claims (OGSEarth / LIO MapServer). Unofficial viewing data, not legal title.", "as_of": "2026-09-20", "role": "focus", "color": "#e8b040"}}, {"type": "Feature", "geometry": {"type": "Polygon", "coordinates": [[[-91.8938, 48.9083], [-91.8938, 48.9125], [-91.9, 48.9125], [-91.9, 48.9083], [-91.8938, 48.9083]]]}, "properties": {"company_id": "vista-gold", "jurisdiction": "Ontario", "claim_id": "1048021", "claim_name": null, "holder": "(100) North Vista Investments Inc", "status": "Active", "recorded_date": "2026-06-01", "anniversary_or_expiry": "2028-06-01", "area_ha": null, "tenure_type": "Single Cell Mining Claim", "source": "Ontario MLAS operational claims (OGSEarth / LIO MapServer). Unofficial viewing data, not legal title.", "as_of": "2026-09-20", "role": "focus", "color": "#e8b040"}}, {"type": "Feature", "geometry": {"type": "Polygon", "coordinates": [[[-91.8875, 48.9083], [-91.8875, 48.9125], [-91.8938, 48.9125], [-91.8938, 48.9083], [-91.8875, 48.9083]]]}, "properties": {"company_id": "vista-gold", "jurisdiction": "Ontario", "claim_id": "1048022", "claim_name": null, "holder": "(100) North Vista Investments Inc", "status": "Active", "recorded_date": "2026-06-01", "anniversary_or_expiry": "2028-06-01", "area_ha": null, "tenure_type": "Single Cell Mining Claim", "source": "Ontario MLAS operational claims (OGSEarth / LIO MapServer). Unofficial viewing data, not legal title.", "as_of": "2026-09-20", "role": "focus", "color": "#e8b040"}}, {"type": "Feature", "geometry": {"type": "Polygon", "coordinates": [[[-91.8813, 48.9083], [-91.8813, 48.9125], [-91.8875, 48.9125], [-91.8875, 48.9083], [-91.8813, 48.9083]]]}, "properties": {"company_id": "vista-gold", "jurisdiction": "Ontario", "claim_id": "1048023", "claim_name": null, "holder": "(100) North Vista Investments Inc", "status": "Active", "recorded_date": "2026-06-01", "anniversary_or_expiry": "2028-06-01", "area_ha": null, "tenure_type": "Single Cell Mining Claim", "source": "Ontario MLAS operational claims (OGSEarth / LIO MapServer). Unofficial viewing data, not legal title.", "as_of": "2026-09-20", "role": "focus", "color": "#e8b040"}}, {"type": "Feature", "geometry": {"type": "Polygon", "coordinates": [[[-91.875, 48.9083], [-91.875, 48.9125], [-91.8813, 48.9125], [-91.8813, 48.9083], [-91.875, 48.9083]]]}, "properties": {"company_id": "vista-gold", "jurisdiction": "Ontario", "claim_id": "1048024", "claim_name": null, "holder": "(100) North Vista Investments Inc", "status": "Active", "recorded_date": "2026-06-01", "anniversary_or_expiry": "2028-06-01", "area_ha": null, "tenure_type": "Single Cell Mining Claim", "source": "Ontario MLAS operational claims (OGSEarth / LIO MapServer). Unofficial viewing data, not legal title.", "as_of": "2026-09-20", "role": "focus", "color": "#e8b040"}}, {"type": "Feature", "geometry": {"type": "Polygon", "coordinates": [[[-91.8375, 48.9125], [-91.8375, 48.9167], [-91.8438, 48.9167], [-91.8438, 48.9125], [-91.8375, 48.9125]]]}, "properties": {"company_id": "vista-gold", "jurisdiction": "Ontario", "claim_id": "1048031", "claim_name": null, "holder": "(100) North Vista Investments Inc", "status": "Active", "recorded_date": "2026-06-01", "anniversary_or_expiry": "2028-06-01", "area_ha": null, "tenure_type": "Single Cell Mining Claim", "source": "Ontario MLAS operational claims (OGSEarth / LIO MapServer). Unofficial viewing data, not legal title.", "as_of": "2026-09-20", "role": "focus", "color": "#e8b040"}}, {"type": "Feature", "geometry": {"type": "Polygon", "coordinates": [[[-91.8688, 48.9083], [-91.8688, 48.9125], [-91.875, 48.9125], [-91.875, 48.9083], [-91.8688, 48.9083]]]}, "properties": {"company_id": "vista-gold", "jurisdiction": "Ontario", "claim_id": "1048032", "claim_name": null, "holder": "(100) North Vista Investments Inc", "status": "Active", "recorded_date": "2026-06-01", "anniversary_or_expiry": "2028-06-01", "area_ha": null, "tenure_type": "Single Cell Mining Claim", "source": "Ontario MLAS operational claims (OGSEarth / LIO MapServer). Unofficial viewing data, not legal title.", "as_of": "2026-09-20", "role": "focus", "color": "#e8b040"}}, {"type": "Feature", "geometry": {"type": "Polygon", "coordinates": [[[-91.8625, 48.9083], [-91.8625, 48.9125], [-91.8688, 48.9125], [-91.8688, 48.9083], [-91.8625, 48.9083]]]}, "properties": {"company_id": "vista-gold", "jurisdiction": "Ontario", "claim_id": "1048033", "claim_name": null, "holder": "(100) North Vista Investments Inc", "status": "Active", "recorded_date": "2026-06-01", "anniversary_or_expiry": "2028-06-01", "area_ha": null, "tenure_type": "Single Cell Mining Claim", "source": "Ontario MLAS operational claims (OGSEarth / LIO MapServer). Unofficial viewing data, not legal title.", "as_of": "2026-09-20", "role": "focus", "color": "#e8b040"}}, {"type": "Feature", "geometry": {"type": "Polygon", "coordinates": [[[-91.8563, 48.9083], [-91.8563, 48.9125], [-91.8625, 48.9125], [-91.8625, 48.9083], [-91.8563, 48.9083]]]}, "properties": {"company_id": "vista-gold", "jurisdiction": "Ontario", "claim_id": "1048034", "claim_name": null, "holder": "(100) North Vista Investments Inc", "status": "Active", "recorded_date": "2026-06-01", "anniversary_or_expiry": "2028-06-01", "area_ha": null, "tenure_type": "Single Cell Mining Claim", "source": "Ontario MLAS operational claims (OGSEarth / LIO MapServer). Unofficial viewing data, not legal title.", "as_of": "2026-09-20", "role": "focus", "color": "#e8b040"}}, {"type": "Feature", "geometry": {"type": "Polygon", "coordinates": [[[-91.85, 48.9083], [-91.85, 48.9125], [-91.8563, 48.9125], [-91.8563, 48.9083], [-91.85, 48.9083]]]}, "properties": {"company_id": "vista-gold", "jurisdiction": "Ontario", "claim_id": "1048035", "claim_name": null, "holder": "(100) North Vista Investments Inc", "status": "Active", "recorded_date": "2026-06-01", "anniversary_or_expiry": "2028-06-01", "area_ha": null, "tenure_type": "Single Cell Mining Claim", "source": "Ontario MLAS operational claims (OGSEarth / LIO MapServer). Unofficial viewing data, not legal title.", "as_of": "2026-09-20", "role": "focus", "color": "#e8b040"}}, {"type": "Feature", "geometry": {"type": "Polygon", "coordinates": [[[-91.8438, 48.9083], [-91.8438, 48.9125], [-91.85, 48.9125], [-91.85, 48.9083], [-91.8438, 48.9083]]]}, "properties": {"company_id": "vista-gold", "jurisdiction": "Ontario", "claim_id": "1048036", "claim_name": null, "holder": "(100) North Vista Investments Inc", "status": "Active", "recorded_date": "2026-06-01", "anniversary_or_expiry": "2028-06-01", "area_ha": null, "tenure_type": "Single Cell Mining Claim", "source": "Ontario MLAS operational claims (OGSEarth / LIO MapServer). Unofficial viewing data, not legal title.", "as_of": "2026-09-20", "role": "focus", "color": "#e8b040"}}, {"type": "Feature", "geometry": {"type": "Polygon", "coordinates": [[[-91.8375, 48.9083], [-91.8375, 48.9125], [-91.8438, 48.9125], [-91.8438, 48.9083], [-91.8375, 48.9083]]]}, "properties": {"company_id": "vista-gold", "jurisdiction": "Ontario", "claim_id": "1048037", "claim_name": null, "holder": "(100) North Vista Investments Inc", "status": "Active", "recorded_date": "2026-06-01", "anniversary_or_expiry": "2028-06-01", "area_ha": null, "tenure_type": "Single Cell Mining Claim", "source": "Ontario MLAS operational claims (OGSEarth / LIO MapServer). Unofficial viewing data, not legal title.", "as_of": "2026-09-20", "role": "focus", "color": "#e8b040"}}, {"type": "Feature", "geometry": {"type": "Polygon", "coordinates": [[[-91.8313, 48.9083], [-91.8313, 48.9125], [-91.8375, 48.9125], [-91.8375, 48.9083], [-91.8313, 48.9083]]]}, "properties": {"company_id": "vista-gold", "jurisdiction": "Ontario", "claim_id": "1048038", "claim_name": null, "holder": "(100) North Vista Investments Inc", "status": "Active", "recorded_date": "2026-06-01", "anniversary_or_expiry": "2028-06-01", "area_ha": null, "tenure_type": "Single Cell Mining Claim", "source": "Ontario MLAS operational claims (OGSEarth / LIO MapServer). Unofficial viewing data, not legal title.", "as_of": "2026-09-20", "role": "focus", "color": "#e8b040"}}, {"type": "Feature", "geometry": {"type": "Polygon", "coordinates": [[[-91.825, 48.9083], [-91.825, 48.9125], [-91.8313, 48.9125], [-91.8313, 48.9083], [-91.825, 48.9083]]]}, "properties": {"company_id": "vista-gold", "jurisdiction": "Ontario", "claim_id": "1048039", "claim_name": null, "holder": "(100) North Vista Investments Inc", "status": "Active", "recorded_date": "2026-06-01", "anniversary_or_expiry": "2028-06-01", "area_ha": null, "tenure_type": "Single Cell Mining Claim", "source": "Ontario MLAS operational claims (OGSEarth / LIO MapServer). Unofficial viewing data, not legal title.", "as_of": "2026-09-20", "role": "focus", "color": "#e8b040"}}, {"type": "Feature", "geometry": {"type": "Polygon", "coordinates": [[[-91.8188, 48.9083], [-91.8188, 48.9125], [-91.825, 48.9125], [-91.825, 48.9083], [-91.8188, 48.9083]]]}, "properties": {"company_id": "vista-gold", "jurisdiction": "Ontario", "claim_id": "1048040", "claim_name": null, "holder": "(100) North Vista Investments Inc", "status": "Active", "recorded_date": "2026-06-01", "anniversary_or_expiry": "2028-06-01", "area_ha": null, "tenure_type": "Single Cell Mining Claim", "source": "Ontario MLAS operational claims (OGSEarth / LIO MapServer). Unofficial viewing data, not legal title.", "as_of": "2026-09-20", "role": "focus", "color": "#e8b040"}}, {"type": "Feature", "geometry": {"type": "Polygon", "coordinates": [[[-91.8125, 48.9083], [-91.8125, 48.9125], [-91.8188, 48.9125], [-91.8188, 48.9083], [-91.8125, 48.9083]]]}, "properties": {"company_id": "vista-gold", "jurisdiction": "Ontario", "claim_id": "1048041", "claim_name": null, "holder": "(100) North Vista Investments Inc", "status": "Active", "recorded_date": "2026-06-01", "anniversary_or_expiry": "2028-06-01", "area_ha": null, "tenure_type": "Single Cell Mining Claim", "source": "Ontario MLAS operational claims (OGSEarth / LIO MapServer). Unofficial viewing data, not legal title.", "as_of": "2026-09-20", "role": "focus", "color": "#e8b040"}}, {"type": "Feature", "geometry": {"type": "Polygon", "coordinates": [[[-91.8063, 48.9083], [-91.8063, 48.9125], [-91.8125, 48.9125], [-91.8125, 48.9083], [-91.8063, 48.9083]]]}, "properties": {"company_id": "vista-gold", "jurisdiction": "Ontario", "claim_id": "1048042", "claim_name": null, "holder": "(100) North Vista Investments Inc", "status": "Active", "recorded_date": "2026-06-01", "anniversary_or_expiry": "2028-06-01", "area_ha": null, "tenure_type": "Single Cell Mining Claim", "source": "Ontario MLAS operational claims (OGSEarth / LIO MapServer). Unofficial viewing data, not legal title.", "as_of": "2026-09-20", "role": "focus", "color": "#e8b040"}}, {"type": "Feature", "geometry": {"type": "Polygon", "coordinates": [[[-91.8, 48.9083], [-91.8, 48.9125], [-91.8063, 48.9125], [-91.8063, 48.9083], [-91.8, 48.9083]]]}, "properties": {"company_id": "vista-gold", "jurisdiction": "Ontario", "claim_id": "1048043", "claim_name": null, "holder": "(100) North Vista Investments Inc", "status": "Active", "recorded_date": "2026-06-01", "anniversary_or_expiry": "2028-06-01", "area_ha": null, "tenure_type": "Single Cell Mining Claim", "source": "Ontario MLAS operational claims (OGSEarth / LIO MapServer). Unofficial viewing data, not legal title.", "as_of": "2026-09-20", "role": "focus", "color": "#e8b040"}}, {"type": "Feature", "geometry": {"type": "Polygon", "coordinates": [[[-91.7938, 48.9083], [-91.7938, 48.9125], [-91.8, 48.9125], [-91.8, 48.9083], [-91.7938, 48.9083]]]}, "properties": {"company_id": "vista-gold", "jurisdiction": "Ontario", "claim_id": "1048044", "claim_name": null, "holder": "(100) North Vista Investments Inc", "status": "Active", "recorded_date": "2026-06-01", "anniversary_or_expiry": "2028-06-01", "area_ha": null, "tenure_type": "Single Cell Mining Claim", "source": "Ontario MLAS operational claims (OGSEarth / LIO MapServer). Unofficial viewing data, not legal title.", "as_of": "2026-09-20", "role": "focus", "color": "#e8b040"}}, {"type": "Feature", "geometry": {"type": "Polygon", "coordinates": [[[-91.7875, 48.9083], [-91.7875, 48.9125], [-91.7938, 48.9125], [-91.7938, 48.9083], [-91.7875, 48.9083]]]}, "properties": {"company_id": "vista-gold", "jurisdiction": "Ontario", "claim_id": "1048045", "claim_name": null, "holder": "(100) North Vista Investments Inc", "status": "Active", "recorded_date": "2026-06-01", "anniversary_or_expiry": "2028-06-01", "area_ha": null, "tenure_type": "Single Cell Mining Claim", "source": "Ontario MLAS operational claims (OGSEarth / LIO MapServer). Unofficial viewing data, not legal title.", "as_of": "2026-09-20", "role": "focus", "color": "#e8b040"}}, {"type": "Feature", "geometry": {"type": "Polygon", "coordinates": [[[-91.825, 48.9042], [-91.825, 48.9083], [-91.8313, 48.9083], [-91.8313, 48.9042], [-91.825, 48.9042]]]}, "properties": {"company_id": "vista-gold", "jurisdiction": "Ontario", "claim_id": "1048046", "claim_name": null, "holder": "(100) North Vista Investments Inc", "status": "Active", "recorded_date": "2026-06-01", "anniversary_or_expiry": "2028-06-01", "area_ha": null, "tenure_type": "Single Cell Mining Claim", "source": "Ontario MLAS operational claims (OGSEarth / LIO MapServer). Unofficial viewing data, not legal title.", "as_of": "2026-09-20", "role": "focus", "color": "#e8b040"}}, {"type": "Feature", "geometry": {"type": "Polygon", "coordinates": [[[-91.8188, 48.9042], [-91.8188, 48.9083], [-91.825, 48.9083], [-91.825, 48.9042], [-91.8188, 48.9042]]]}, "properties": {"company_id": "vista-gold", "jurisdiction": "Ontario", "claim_id": "1048047", "claim_name": null, "holder": "(100) North Vista Investments Inc", "status": "Active", "recorded_date": "2026-06-01", "anniversary_or_expiry": "2028-06-01", "area_ha": null, "tenure_type": "Single Cell Mining Claim", "source": "Ontario MLAS operational claims (OGSEarth / LIO MapServer). Unofficial viewing data, not legal title.", "as_of": "2026-09-20", "role": "focus", "color": "#e8b040"}}, {"type": "Feature", "geometry": {"type": "Polygon", "coordinates": [[[-91.8125, 48.9042], [-91.8125, 48.9083], [-91.8188, 48.9083], [-91.8188, 48.9042], [-91.8125, 48.9042]]]}, "properties": {"company_id": "vista-gold", "jurisdiction": "Ontario", "claim_id": "1048048", "claim_name": null, "holder": "(100) North Vista Investments Inc", "status": "Active", "recorded_date": "2026-06-01", "anniversary_or_expiry": "2028-06-01", "area_ha": null, "tenure_type": "Single Cell Mining Claim", "source": "Ontario MLAS operational claims (OGSEarth / LIO MapServer). Unofficial viewing data, not legal title.", "as_of": "2026-09-20", "role": "focus", "color": "#e8b040"}}, {"type": "Feature", "geometry": {"type": "Polygon", "coordinates": [[[-90.7375, 48.9417], [-90.7375, 48.9458], [-90.7438, 48.9458], [-90.7438, 48.9417], [-90.7375, 48.9417]]]}, "properties": {"company_id": "vista-gold", "jurisdiction": "Ontario", "claim_id": "1066212", "claim_name": null, "holder": "(100) North Vista Investments Inc", "status": "Active", "recorded_date": "2026-08-16", "anniversary_or_expiry": "2028-08-16", "area_ha": null, "tenure_type": "Single Cell Mining Claim", "source": "Ontario MLAS operational claims (OGSEarth / LIO MapServer). Unofficial viewing data, not legal title.", "as_of": "2026-09-20", "role": "focus", "color": "#e8b040"}}, {"type": "Feature", "geometry": {"type": "Polygon", "coordinates": [[[-90.7313, 48.9417], [-90.7313, 48.9458], [-90.7375, 48.9458], [-90.7375, 48.9417], [-90.7313, 48.9417]]]}, "properties": {"company_id": "vista-gold", "jurisdiction": "Ontario", "claim_id": "1066213", "claim_name": null, "holder": "(100) North Vista Investments Inc", "status": "Active", "recorded_date": "2026-08-16", "anniversary_or_expiry": "2028-08-16", "area_ha": null, "tenure_type": "Single Cell Mining Claim", "source": "Ontario MLAS operational claims (OGSEarth / LIO MapServer). Unofficial viewing data, not legal title.", "as_of": "2026-09-20", "role": "focus", "color": "#e8b040"}}]}