{"type": "FeatureCollection", "features": [{"type": "Feature", "geometry": {"type": "Polygon", "coordinates": [[[-90.7813, 48.8333], [-90.7813, 48.8292], [-90.7375, 48.8292], [-90.7375, 48.8417], [-90.7813, 48.8417], [-90.7813, 48.8333]]]}, "properties": {"company_id": "vr-resources", "jurisdiction": "Ontario", "claim_id": "662811", "claim_name": null, "holder": "(100) VR Resources Ltd", "status": "Active", "recorded_date": "2021-06-17", "anniversary_or_expiry": "2029-05-12", "area_ha": null, "tenure_type": "Multi-cell Mining Claim", "source": "Ontario MLAS operational claims (OGSEarth / LIO MapServer). Unofficial viewing data, not legal title.", "as_of": "2026-09-20", "role": "focus", "color": "#e8b040"}}, {"type": "Feature", "geometry": {"type": "Polygon", "coordinates": [[[-90.75, 48.8458], [-90.75, 48.8417], [-90.7438, 48.8417], [-90.7438, 48.8458], [-90.7375, 48.8458], [-90.7375, 48.85], [-90.725, 48.85], [-90.725, 48.8417], [-90.7313, 48.8417], [-90.7313, 48.8375], [-90.7188, 48.8375], [-90.7188, 48.8583], [-90.7375, 48.8583], [-90.7375, 48.8542], [-90.7438, 48.8542], [-90.7438, 48.85], [-90.75, 48.85], [-90.75, 48.8458]]]}, "properties": {"company_id": "vr-resources", "jurisdiction": "Ontario", "claim_id": "823090", "claim_name": null, "holder": "(100) VR Resources Ltd", "status": "Active", "recorded_date": "2023-04-12", "anniversary_or_expiry": "2028-09-30", "area_ha": null, "tenure_type": "Multi-cell Mining Claim", "source": "Ontario MLAS operational claims (OGSEarth / LIO MapServer). Unofficial viewing data, not legal title.", "as_of": "2026-09-20", "role": "focus", "color": "#e8b040"}}, {"type": "Feature", "geometry": {"type": "Polygon", "coordinates": [[[-90.7375, 48.8375], [-90.7375, 48.8333], [-90.7313, 48.8333], [-90.7313, 48.8417], [-90.725, 48.8417], [-90.725, 48.85], [-90.7375, 48.85], [-90.7375, 48.8458], [-90.7438, 48.8458], [-90.7438, 48.8417], [-90.7375, 48.8417], [-90.7375, 48.8375]]]}, "properties": {"company_id": "vr-resources", "jurisdiction": "Ontario", "claim_id": "823091", "claim_name": null, "holder": "(100) VR Resources Ltd", "status": "Active", "recorded_date": "2023-04-12", "anniversary_or_expiry": "2028-06-03", "area_ha": null, "tenure_type": "Multi-cell Mining Claim", "source": "Ontario MLAS operational claims (OGSEarth / LIO MapServer). Unofficial viewing data, not legal title.", "as_of": "2026-09-20", "role": "focus", "color": "#e8b040"}}, {"type": "Feature", "geometry": {"type": "Polygon", "coordinates": [[[-81.7938, 50.4667], [-81.7938, 50.4625], [-81.775, 50.4625], [-81.775, 50.4667], [-81.7688, 50.4667], [-81.7688, 50.4708], [-81.7625, 50.4708], [-81.7625, 50.4833], [-81.7875, 50.4833], [-81.7875, 50.4792], [-81.7938, 50.4792], [-81.7938, 50.4667]]]}, "properties": {"company_id": "vr-resources", "jurisdiction": "Ontario", "claim_id": "874812", "claim_name": null, "holder": "(100) VR Resources Ltd", "status": "Active", "recorded_date": "2024-01-10", "anniversary_or_expiry": "2032-03-08", "area_ha": null, "tenure_type": "Multi-cell Mining Claim", "source": "Ontario MLAS operational claims (OGSEarth / LIO MapServer). Unofficial viewing data, not legal title.", "as_of": "2026-09-20", "role": "focus", "color": "#e8b040"}}, {"type": "Feature", "geometry": {"type": "Polygon", "coordinates": [[[-81.7813, 50.4583], [-81.7563, 50.4583], [-81.7563, 50.4875], [-81.75, 50.4875], [-81.75, 50.4958], [-81.7625, 50.4958], [-81.7625, 50.4708], [-81.7688, 50.4708], [-81.7688, 50.4667], [-81.775, 50.4667], [-81.775, 50.4625], [-81.7875, 50.4625], [-81.7875, 50.4583], [-81.7813, 50.4583]]]}, "properties": {"company_id": "vr-resources", "jurisdiction": "Ontario", "claim_id": "874814", "claim_name": null, "holder": "(100) VR Resources Ltd", "status": "Active", "recorded_date": "2024-01-10", "anniversary_or_expiry": "2032-03-08", "area_ha": null, "tenure_type": "Multi-cell Mining Claim", "source": "Ontario MLAS operational claims (OGSEarth / LIO MapServer). Unofficial viewing data, not legal title.", "as_of": "2026-09-20", "role": "focus", "color": "#e8b040"}}, {"type": "Feature", "geometry": {"type": "Polygon", "coordinates": [[[-81.8188, 50.45], [-81.8188, 50.4458], [-81.8063, 50.4458], [-81.8063, 50.4542], [-81.7875, 50.4542], [-81.7875, 50.4625], [-81.7938, 50.4625], [-81.7938, 50.4792], [-81.7875, 50.4792], [-81.7875, 50.4833], [-81.7625, 50.4833], [-81.7625, 50.4875], [-81.8, 50.4875], [-81.8, 50.4708], [-81.8063, 50.4708], [-81.8063, 50.4583], [-81.8125, 50.4583], [-81.8125, 50.4542], [-81.8188, 50.4542], [-81.8188, 50.45]]]}, "properties": {"company_id": "vr-resources", "jurisdiction": "Ontario", "claim_id": "874815", "claim_name": null, "holder": "(100) VR Resources Ltd", "status": "Active", "recorded_date": "2024-01-10", "anniversary_or_expiry": "2032-03-08", "area_ha": null, "tenure_type": "Multi-cell Mining Claim", "source": "Ontario MLAS operational claims (OGSEarth / LIO MapServer). Unofficial viewing data, not legal title.", "as_of": "2026-09-20", "role": "focus", "color": "#e8b040"}}, {"type": "Feature", "geometry": {"type": "Polygon", "coordinates": [[[-81.7813, 50.6167], [-81.7813, 50.6125], [-81.7563, 50.6125], [-81.7563, 50.6375], [-81.7813, 50.6375], [-81.7813, 50.6167]]]}, "properties": {"company_id": "vr-resources", "jurisdiction": "Ontario", "claim_id": "874972", "claim_name": null, "holder": "(100) VR Resources Ltd", "status": "Active", "recorded_date": "2024-01-12", "anniversary_or_expiry": "2030-02-06", "area_ha": null, "tenure_type": "Multi-cell Mining Claim", "source": "Ontario MLAS operational claims (OGSEarth / LIO MapServer). Unofficial viewing data, not legal title.", "as_of": "2026-09-20", "role": "focus", "color": "#e8b040"}}, {"type": "Feature", "geometry": {"type": "Polygon", "coordinates": [[[-81.7938, 50.6125], [-81.7938, 50.6083], [-81.7813, 50.6083], [-81.7813, 50.6375], [-81.7563, 50.6375], [-81.7563, 50.6292], [-81.75, 50.6292], [-81.75, 50.6333], [-81.7438, 50.6333], [-81.7438, 50.6417], [-81.7938, 50.6417], [-81.7938, 50.6125]]]}, "properties": {"company_id": "vr-resources", "jurisdiction": "Ontario", "claim_id": "874973", "claim_name": null, "holder": "(100) VR Resources Ltd", "status": "Active", "recorded_date": "2024-01-12", "anniversary_or_expiry": "2028-02-06", "area_ha": null, "tenure_type": "Multi-cell Mining Claim", "source": "Ontario MLAS operational claims (OGSEarth / LIO MapServer). Unofficial viewing data, not legal title.", "as_of": "2026-09-20", "role": "focus", "color": "#e8b040"}}, {"type": "Feature", "geometry": {"type": "Polygon", "coordinates": [[[-81.7813, 50.6042], [-81.7813, 50.6], [-81.775, 50.6], [-81.775, 50.6042], [-81.7375, 50.6042], [-81.7375, 50.6167], [-81.7438, 50.6167], [-81.7438, 50.6333], [-81.75, 50.6333], [-81.75, 50.6292], [-81.7563, 50.6292], [-81.7563, 50.6125], [-81.7813, 50.6125], [-81.7813, 50.6042]]]}, "properties": {"company_id": "vr-resources", "jurisdiction": "Ontario", "claim_id": "874974", "claim_name": null, "holder": "(100) VR Resources Ltd", "status": "Active", "recorded_date": "2024-01-12", "anniversary_or_expiry": "2028-02-06", "area_ha": null, "tenure_type": "Multi-cell Mining Claim", "source": "Ontario MLAS operational claims (OGSEarth / LIO MapServer). Unofficial viewing data, not legal title.", "as_of": "2026-09-20", "role": "focus", "color": "#e8b040"}}, {"type": "Feature", "geometry": {"type": "Polygon", "coordinates": [[[-81.7813, 50.5917], [-81.7813, 50.5875], [-81.75, 50.5875], [-81.75, 50.5917], [-81.7375, 50.5917], [-81.7375, 50.6042], [-81.775, 50.6042], [-81.775, 50.6], [-81.7813, 50.6], [-81.7813, 50.5917]]]}, "properties": {"company_id": "vr-resources", "jurisdiction": "Ontario", "claim_id": "874975", "claim_name": null, "holder": "(100) VR Resources Ltd", "status": "Active", "recorded_date": "2024-01-12", "anniversary_or_expiry": "2028-02-06", "area_ha": null, "tenure_type": "Multi-cell Mining Claim", "source": "Ontario MLAS operational claims (OGSEarth / LIO MapServer). Unofficial viewing data, not legal title.", "as_of": "2026-09-20", "role": "focus", "color": "#e8b040"}}, {"type": "Feature", "geometry": {"type": "Polygon", "coordinates": [[[-81.7813, 50.5792], [-81.7813, 50.575], [-81.775, 50.575], [-81.775, 50.5708], [-81.7625, 50.5708], [-81.7625, 50.575], [-81.7375, 50.575], [-81.7375, 50.5917], [-81.75, 50.5917], [-81.75, 50.5875], [-81.7813, 50.5875], [-81.7813, 50.5792]]]}, "properties": {"company_id": "vr-resources", "jurisdiction": "Ontario", "claim_id": "874976", "claim_name": null, "holder": "(100) VR Resources Ltd", "status": "Active", "recorded_date": "2024-01-12", "anniversary_or_expiry": "2028-02-06", "area_ha": null, "tenure_type": "Multi-cell Mining Claim", "source": "Ontario MLAS operational claims (OGSEarth / LIO MapServer). Unofficial viewing data, not legal title.", "as_of": "2026-09-20", "role": "focus", "color": "#e8b040"}}, {"type": "Feature", "geometry": {"type": "Polygon", "coordinates": [[[-81.7625, 50.5542], [-81.7625, 50.55], [-81.7375, 50.55], [-81.7375, 50.575], [-81.7625, 50.575], [-81.7625, 50.5708], [-81.7688, 50.5708], [-81.7688, 50.5667], [-81.7625, 50.5667], [-81.7625, 50.5542]]]}, "properties": {"company_id": "vr-resources", "jurisdiction": "Ontario", "claim_id": "874977", "claim_name": null, "holder": "(100) VR Resources Ltd", "status": "Active", "recorded_date": "2024-01-12", "anniversary_or_expiry": "2028-02-06", "area_ha": null, "tenure_type": "Multi-cell Mining Claim", "source": "Ontario MLAS operational claims (OGSEarth / LIO MapServer). Unofficial viewing data, not legal title.", "as_of": "2026-09-20", "role": "focus", "color": "#e8b040"}}, {"type": "Feature", "geometry": {"type": "Polygon", "coordinates": [[[-81.8188, 50.5542], [-81.8188, 50.55], [-81.7625, 50.55], [-81.7625, 50.5625], [-81.8063, 50.5625], [-81.8063, 50.5583], [-81.8188, 50.5583], [-81.8188, 50.5542]]]}, "properties": {"company_id": "vr-resources", "jurisdiction": "Ontario", "claim_id": "874978", "claim_name": null, "holder": "(100) VR Resources Ltd", "status": "Active", "recorded_date": "2024-01-12", "anniversary_or_expiry": "2028-02-06", "area_ha": null, "tenure_type": "Multi-cell Mining Claim", "source": "Ontario MLAS operational claims (OGSEarth / LIO MapServer). Unofficial viewing data, not legal title.", "as_of": "2026-09-20", "role": "focus", "color": "#e8b040"}}, {"type": "Feature", "geometry": {"type": "Polygon", "coordinates": [[[-81.8188, 50.5625], [-81.8188, 50.5583], [-81.8063, 50.5583], [-81.8063, 50.5625], [-81.7625, 50.5625], [-81.7625, 50.5667], [-81.7688, 50.5667], [-81.7688, 50.5708], [-81.775, 50.5708], [-81.775, 50.575], [-81.7813, 50.575], [-81.7813, 50.5917], [-81.7875, 50.5917], [-81.7875, 50.5875], [-81.7938, 50.5875], [-81.7938, 50.5667], [-81.8188, 50.5667], [-81.8188, 50.5625]]]}, "properties": {"company_id": "vr-resources", "jurisdiction": "Ontario", "claim_id": "874979", "claim_name": null, "holder": "(100) VR Resources Ltd", "status": "Active", "recorded_date": "2024-01-12", "anniversary_or_expiry": "2028-02-06", "area_ha": null, "tenure_type": "Multi-cell Mining Claim", "source": "Ontario MLAS operational claims (OGSEarth / LIO MapServer). Unofficial viewing data, not legal title.", "as_of": "2026-09-20", "role": "focus", "color": "#e8b040"}}, {"type": "Feature", "geometry": {"type": "Polygon", "coordinates": [[[-81.8125, 50.6125], [-81.8125, 50.6083], [-81.8, 50.6083], [-81.8, 50.6042], [-81.7938, 50.6042], [-81.7938, 50.5875], [-81.7875, 50.5875], [-81.7875, 50.5917], [-81.7813, 50.5917], [-81.7813, 50.6083], [-81.7938, 50.6083], [-81.7938, 50.6292], [-81.8, 50.6292], [-81.8, 50.6333], [-81.8063, 50.6333], [-81.8063, 50.6167], [-81.8125, 50.6167], [-81.8125, 50.6125]]]}, "properties": {"company_id": "vr-resources", "jurisdiction": "Ontario", "claim_id": "874981", "claim_name": null, "holder": "(100) VR Resources Ltd", "status": "Active", "recorded_date": "2024-01-12", "anniversary_or_expiry": "2028-03-29", "area_ha": null, "tenure_type": "Multi-cell Mining Claim", "source": "Ontario MLAS operational claims (OGSEarth / LIO MapServer). Unofficial viewing data, not legal title.", "as_of": "2026-09-20", "role": "focus", "color": "#e8b040"}}, {"type": "Feature", "geometry": {"type": "Polygon", "coordinates": [[[-81.8063, 50.6375], [-81.8063, 50.6333], [-81.8, 50.6333], [-81.8, 50.6292], [-81.7938, 50.6292], [-81.7938, 50.6417], [-81.7438, 50.6417], [-81.7438, 50.6167], [-81.7375, 50.6167], [-81.7375, 50.6042], [-81.7313, 50.6042], [-81.7313, 50.6208], [-81.7375, 50.6208], [-81.7375, 50.6458], [-81.8, 50.6458], [-81.8, 50.6417], [-81.8063, 50.6417], [-81.8063, 50.6375]]]}, "properties": {"company_id": "vr-resources", "jurisdiction": "Ontario", "claim_id": "874982", "claim_name": null, "holder": "(100) VR Resources Ltd", "status": "Active", "recorded_date": "2024-01-12", "anniversary_or_expiry": "2028-03-29", "area_ha": null, "tenure_type": "Multi-cell Mining Claim", "source": "Ontario MLAS operational claims (OGSEarth / LIO MapServer). Unofficial viewing data, not legal title.", "as_of": "2026-09-20", "role": "focus", "color": "#e8b040"}}, {"type": "Feature", "geometry": {"type": "Polygon", "coordinates": [[[-81.7625, 50.5417], [-81.7625, 50.5375], [-81.7313, 50.5375], [-81.7313, 50.55], [-81.725, 50.55], [-81.725, 50.5708], [-81.7375, 50.5708], [-81.7375, 50.55], [-81.7625, 50.55], [-81.7625, 50.5417]]]}, "properties": {"company_id": "vr-resources", "jurisdiction": "Ontario", "claim_id": "875090", "claim_name": null, "holder": "(100) VR Resources Ltd", "status": "Active", "recorded_date": "2024-01-12", "anniversary_or_expiry": "2028-02-06", "area_ha": null, "tenure_type": "Multi-cell Mining Claim", "source": "Ontario MLAS operational claims (OGSEarth / LIO MapServer). Unofficial viewing data, not legal title.", "as_of": "2026-09-20", "role": "focus", "color": "#e8b040"}}, {"type": "Feature", "geometry": {"type": "Polygon", "coordinates": [[[-81.7375, 50.575], [-81.7375, 50.5708], [-81.725, 50.5708], [-81.725, 50.6042], [-81.7375, 50.6042], [-81.7375, 50.575]]]}, "properties": {"company_id": "vr-resources", "jurisdiction": "Ontario", "claim_id": "875130", "claim_name": null, "holder": "(100) VR Resources Ltd", "status": "Active", "recorded_date": "2024-01-12", "anniversary_or_expiry": "2028-02-06", "area_ha": null, "tenure_type": "Multi-cell Mining Claim", "source": "Ontario MLAS operational claims (OGSEarth / LIO MapServer). Unofficial viewing data, not legal title.", "as_of": "2026-09-20", "role": "focus", "color": "#e8b040"}}, {"type": "Feature", "geometry": {"type": "Polygon", "coordinates": [[[-81.7375, 50.625], [-81.7375, 50.6208], [-81.7313, 50.6208], [-81.7313, 50.6042], [-81.725, 50.6042], [-81.725, 50.6458], [-81.7375, 50.6458], [-81.7375, 50.625]]]}, "properties": {"company_id": "vr-resources", "jurisdiction": "Ontario", "claim_id": "875131", "claim_name": null, "holder": "(100) VR Resources Ltd", "status": "Active", "recorded_date": "2024-01-12", "anniversary_or_expiry": "2027-08-06", "area_ha": null, "tenure_type": "Multi-cell Mining Claim", "source": "Ontario MLAS operational claims (OGSEarth / LIO MapServer). Unofficial viewing data, not legal title.", "as_of": "2026-09-20", "role": "focus", "color": "#e8b040"}}, {"type": "Feature", "geometry": {"type": "Polygon", "coordinates": [[[-90.75, 48.8417], [-90.75, 48.8458], [-90.7563, 48.8458], [-90.7563, 48.8417], [-90.75, 48.8417]]]}, "properties": {"company_id": "vr-resources", "jurisdiction": "Ontario", "claim_id": "880535", "claim_name": null, "holder": "(100) VR Resources Ltd", "status": "Active", "recorded_date": "2024-02-20", "anniversary_or_expiry": "2028-02-20", "area_ha": null, "tenure_type": "Single Cell Mining Claim", "source": "Ontario MLAS operational claims (OGSEarth / LIO MapServer). Unofficial viewing data, not legal title.", "as_of": "2026-09-20", "role": "focus", "color": "#e8b040"}}, {"type": "Feature", "geometry": {"type": "Polygon", "coordinates": [[[-90.7813, 48.8125], [-90.7438, 48.8125], [-90.7438, 48.8292], [-90.7813, 48.8292], [-90.7813, 48.8167], [-90.7875, 48.8167], [-90.7875, 48.8125], [-90.7813, 48.8125]]]}, "properties": {"company_id": "vr-resources", "jurisdiction": "Ontario", "claim_id": "901858", "claim_name": null, "holder": "(100) VR Resources Ltd", "status": "Active", "recorded_date": "2024-09-15", "anniversary_or_expiry": "2028-09-06", "area_ha": null, "tenure_type": "Multi-cell Mining Claim", "source": "Ontario MLAS operational claims (OGSEarth / LIO MapServer). Unofficial viewing data, not legal title.", "as_of": "2026-09-20", "role": "focus", "color": "#e8b040"}}, {"type": "Feature", "geometry": {"type": "Polygon", "coordinates": [[[-90.8125, 48.825], [-90.8125, 48.8208], [-90.7875, 48.8208], [-90.7875, 48.8167], [-90.7813, 48.8167], [-90.7813, 48.8417], [-90.8063, 48.8417], [-90.8063, 48.8375], [-90.8125, 48.8375], [-90.8125, 48.825]]]}, "properties": {"company_id": "vr-resources", "jurisdiction": "Ontario", "claim_id": "901859", "claim_name": null, "holder": "(100) VR Resources Ltd", "status": "Active", "recorded_date": "2024-09-15", "anniversary_or_expiry": "2028-04-14", "area_ha": null, "tenure_type": "Multi-cell Mining Claim", "source": "Ontario MLAS operational claims (OGSEarth / LIO MapServer). Unofficial viewing data, not legal title.", "as_of": "2026-09-20", "role": "focus", "color": "#e8b040"}}, {"type": "Feature", "geometry": {"type": "Polygon", "coordinates": [[[-90.8125, 48.8417], [-90.8125, 48.8375], [-90.8063, 48.8375], [-90.8063, 48.8417], [-90.7688, 48.8417], [-90.7688, 48.8458], [-90.7625, 48.8458], [-90.7625, 48.8542], [-90.8125, 48.8542], [-90.8125, 48.8417]]]}, "properties": {"company_id": "vr-resources", "jurisdiction": "Ontario", "claim_id": "901860", "claim_name": null, "holder": "(100) VR Resources Ltd", "status": "Active", "recorded_date": "2024-09-15", "anniversary_or_expiry": "2028-04-14", "area_ha": null, "tenure_type": "Multi-cell Mining Claim", "source": "Ontario MLAS operational claims (OGSEarth / LIO MapServer). Unofficial viewing data, not legal title.", "as_of": "2026-09-20", "role": "focus", "color": "#e8b040"}}, {"type": "Feature", "geometry": {"type": "Polygon", "coordinates": [[[-90.7625, 48.8417], [-90.7563, 48.8417], [-90.7563, 48.8458], [-90.75, 48.8458], [-90.75, 48.85], [-90.7438, 48.85], [-90.7438, 48.8542], [-90.7375, 48.8542], [-90.7375, 48.8583], [-90.75, 48.8583], [-90.75, 48.8542], [-90.7625, 48.8542], [-90.7625, 48.8458], [-90.7688, 48.8458], [-90.7688, 48.8417], [-90.7625, 48.8417]]]}, "properties": {"company_id": "vr-resources", "jurisdiction": "Ontario", "claim_id": "901861", "claim_name": null, "holder": "(100) VR Resources Ltd", "status": "Active", "recorded_date": "2024-09-15", "anniversary_or_expiry": "2028-02-20", "area_ha": null, "tenure_type": "Multi-cell Mining Claim", "source": "Ontario MLAS operational claims (OGSEarth / LIO MapServer). Unofficial viewing data, not legal title.", "as_of": "2026-09-20", "role": "focus", "color": "#e8b040"}}, {"type": "Feature", "geometry": {"type": "Polygon", "coordinates": [[[-90.575, 49.8458], [-90.575, 49.85], [-90.5813, 49.85], [-90.5813, 49.8458], [-90.575, 49.8458]]]}, "properties": {"company_id": "vr-resources", "jurisdiction": "Ontario", "claim_id": "902671", "claim_name": null, "holder": "(100) VR Resources Ltd", "status": "Active", "recorded_date": "2024-09-24", "anniversary_or_expiry": "2026-09-24", "area_ha": null, "tenure_type": "Single Cell Mining Claim", "source": "Ontario MLAS operational claims (OGSEarth / LIO MapServer). Unofficial viewing data, not legal title.", "as_of": "2026-09-20", "role": "focus", "color": "#e8b040"}}, {"type": "Feature", "geometry": {"type": "Polygon", "coordinates": [[[-90.5563, 49.85], [-90.5563, 49.8542], [-90.5625, 49.8542], [-90.5625, 49.85], [-90.5563, 49.85]]]}, "properties": {"company_id": "vr-resources", "jurisdiction": "Ontario", "claim_id": "902672", "claim_name": null, "holder": "(100) VR Resources Ltd", "status": "Active", "recorded_date": "2024-09-24", "anniversary_or_expiry": "2026-09-24", "area_ha": null, "tenure_type": "Single Cell Mining Claim", "source": "Ontario MLAS operational claims (OGSEarth / LIO MapServer). Unofficial viewing data, not legal title.", "as_of": "2026-09-20", "role": "focus", "color": "#e8b040"}}, {"type": "Feature", "geometry": {"type": "Polygon", "coordinates": [[[-90.5688, 49.8458], [-90.5688, 49.85], [-90.575, 49.85], [-90.575, 49.8458], [-90.5688, 49.8458]]]}, "properties": {"company_id": "vr-resources", "jurisdiction": "Ontario", "claim_id": "902673", "claim_name": null, "holder": "(100) VR Resources Ltd", "status": "Active", "recorded_date": "2024-09-24", "anniversary_or_expiry": "2026-09-24", "area_ha": null, "tenure_type": "Single Cell Mining Claim", "source": "Ontario MLAS operational claims (OGSEarth / LIO MapServer). Unofficial viewing data, not legal title.", "as_of": "2026-09-20", "role": "focus", "color": "#e8b040"}}, {"type": "Feature", "geometry": {"type": "Polygon", "coordinates": [[[-90.5625, 49.8458], [-90.5625, 49.85], [-90.5688, 49.85], [-90.5688, 49.8458], [-90.5625, 49.8458]]]}, "properties": {"company_id": "vr-resources", "jurisdiction": "Ontario", "claim_id": "902674", "claim_name": null, "holder": "(100) VR Resources Ltd", "status": "Active", "recorded_date": "2024-09-24", "anniversary_or_expiry": "2026-09-24", "area_ha": null, "tenure_type": "Single Cell Mining Claim", "source": "Ontario MLAS operational claims (OGSEarth / LIO MapServer). Unofficial viewing data, not legal title.", "as_of": "2026-09-20", "role": "focus", "color": "#e8b040"}}, {"type": "Feature", "geometry": {"type": "Polygon", "coordinates": [[[-90.5563, 49.8542], [-90.5563, 49.8583], [-90.5625, 49.8583], [-90.5625, 49.8542], [-90.5563, 49.8542]]]}, "properties": {"company_id": "vr-resources", "jurisdiction": "Ontario", "claim_id": "902675", "claim_name": null, "holder": "(100) VR Resources Ltd", "status": "Active", "recorded_date": "2024-09-24", "anniversary_or_expiry": "2026-09-24", "area_ha": null, "tenure_type": "Single Cell Mining Claim", "source": "Ontario MLAS operational claims (OGSEarth / LIO MapServer). Unofficial viewing data, not legal title.", "as_of": "2026-09-20", "role": "focus", "color": "#e8b040"}}, {"type": "Feature", "geometry": {"type": "Polygon", "coordinates": [[[-90.5875, 49.85], [-90.5875, 49.8542], [-90.5938, 49.8542], [-90.5938, 49.85], [-90.5875, 49.85]]]}, "properties": {"company_id": "vr-resources", "jurisdiction": "Ontario", "claim_id": "902676", "claim_name": null, "holder": "(100) VR Resources Ltd", "status": "Active", "recorded_date": "2024-09-24", "anniversary_or_expiry": "2026-09-24", "area_ha": null, "tenure_type": "Single Cell Mining Claim", "source": "Ontario MLAS operational claims (OGSEarth / LIO MapServer). Unofficial viewing data, not legal title.", "as_of": "2026-09-20", "role": "focus", "color": "#e8b040"}}, {"type": "Feature", "geometry": {"type": "Polygon", "coordinates": [[[-90.5875, 49.8542], [-90.5875, 49.8583], [-90.5938, 49.8583], [-90.5938, 49.8542], [-90.5875, 49.8542]]]}, "properties": {"company_id": "vr-resources", "jurisdiction": "Ontario", "claim_id": "902677", "claim_name": null, "holder": "(100) VR Resources Ltd", "status": "Active", "recorded_date": "2024-09-24", "anniversary_or_expiry": "2026-09-24", "area_ha": null, "tenure_type": "Single Cell Mining Claim", "source": "Ontario MLAS operational claims (OGSEarth / LIO MapServer). Unofficial viewing data, not legal title.", "as_of": "2026-09-20", "role": "focus", "color": "#e8b040"}}, {"type": "Feature", "geometry": {"type": "Polygon", "coordinates": [[[-90.5813, 49.8458], [-90.5813, 49.85], [-90.5875, 49.85], [-90.5875, 49.8458], [-90.5813, 49.8458]]]}, "properties": {"company_id": "vr-resources", "jurisdiction": "Ontario", "claim_id": "902678", "claim_name": null, "holder": "(100) VR Resources Ltd", "status": "Active", "recorded_date": "2024-09-24", "anniversary_or_expiry": "2026-09-24", "area_ha": null, "tenure_type": "Single Cell Mining Claim", "source": "Ontario MLAS operational claims (OGSEarth / LIO MapServer). Unofficial viewing data, not legal title.", "as_of": "2026-09-20", "role": "focus", "color": "#e8b040"}}, {"type": "Feature", "geometry": {"type": "Polygon", "coordinates": [[[-90.5688, 49.8542], [-90.5688, 49.8583], [-90.575, 49.8583], [-90.575, 49.8542], [-90.5688, 49.8542]]]}, "properties": {"company_id": "vr-resources", "jurisdiction": "Ontario", "claim_id": "902679", "claim_name": null, "holder": "(100) VR Resources Ltd", "status": "Active", "recorded_date": "2024-09-24", "anniversary_or_expiry": "2026-09-24", "area_ha": null, "tenure_type": "Single Cell Mining Claim", "source": "Ontario MLAS operational claims (OGSEarth / LIO MapServer). Unofficial viewing data, not legal title.", "as_of": "2026-09-20", "role": "focus", "color": "#e8b040"}}, {"type": "Feature", "geometry": {"type": "Polygon", "coordinates": [[[-90.5875, 49.8458], [-90.5875, 49.85], [-90.5938, 49.85], [-90.5938, 49.8458], [-90.5875, 49.8458]]]}, "properties": {"company_id": "vr-resources", "jurisdiction": "Ontario", "claim_id": "902680", "claim_name": null, "holder": "(100) VR Resources Ltd", "status": "Active", "recorded_date": "2024-09-24", "anniversary_or_expiry": "2026-09-24", "area_ha": null, "tenure_type": "Single Cell Mining Claim", "source": "Ontario MLAS operational claims (OGSEarth / LIO MapServer). Unofficial viewing data, not legal title.", "as_of": "2026-09-20", "role": "focus", "color": "#e8b040"}}, {"type": "Feature", "geometry": {"type": "Polygon", "coordinates": [[[-90.5563, 49.8458], [-90.5563, 49.85], [-90.5625, 49.85], [-90.5625, 49.8458], [-90.5563, 49.8458]]]}, "properties": {"company_id": "vr-resources", "jurisdiction": "Ontario", "claim_id": "902681", "claim_name": null, "holder": "(100) VR Resources Ltd", "status": "Active", "recorded_date": "2024-09-24", "anniversary_or_expiry": "2026-09-24", "area_ha": null, "tenure_type": "Single Cell Mining Claim", "source": "Ontario MLAS operational claims (OGSEarth / LIO MapServer). Unofficial viewing data, not legal title.", "as_of": "2026-09-20", "role": "focus", "color": "#e8b040"}}, {"type": "Feature", "geometry": {"type": "Polygon", "coordinates": [[[-90.5625, 49.85], [-90.5625, 49.8542], [-90.5688, 49.8542], [-90.5688, 49.85], [-90.5625, 49.85]]]}, "properties": {"company_id": "vr-resources", "jurisdiction": "Ontario", "claim_id": "902682", "claim_name": null, "holder": "(100) VR Resources Ltd", "status": "Active", "recorded_date": "2024-09-24", "anniversary_or_expiry": "2026-09-24", "area_ha": null, "tenure_type": "Single Cell Mining Claim", "source": "Ontario MLAS operational claims (OGSEarth / LIO MapServer). Unofficial viewing data, not legal title.", "as_of": "2026-09-20", "role": "focus", "color": "#e8b040"}}, {"type": "Feature", "geometry": {"type": "Polygon", "coordinates": [[[-90.5625, 49.8542], [-90.5625, 49.8583], [-90.5688, 49.8583], [-90.5688, 49.8542], [-90.5625, 49.8542]]]}, "properties": {"company_id": "vr-resources", "jurisdiction": "Ontario", "claim_id": "902683", "claim_name": null, "holder": "(100) VR Resources Ltd", "status": "Active", "recorded_date": "2024-09-24", "anniversary_or_expiry": "2026-09-24", "area_ha": null, "tenure_type": "Single Cell Mining Claim", "source": "Ontario MLAS operational claims (OGSEarth / LIO MapServer). Unofficial viewing data, not legal title.", "as_of": "2026-09-20", "role": "focus", "color": "#e8b040"}}, {"type": "Feature", "geometry": {"type": "Polygon", "coordinates": [[[-90.5813, 49.8542], [-90.5813, 49.8583], [-90.5875, 49.8583], [-90.5875, 49.8542], [-90.5813, 49.8542]]]}, "properties": {"company_id": "vr-resources", "jurisdiction": "Ontario", "claim_id": "902684", "claim_name": null, "holder": "(100) VR Resources Ltd", "status": "Active", "recorded_date": "2024-09-24", "anniversary_or_expiry": "2026-09-24", "area_ha": null, "tenure_type": "Single Cell Mining Claim", "source": "Ontario MLAS operational claims (OGSEarth / LIO MapServer). Unofficial viewing data, not legal title.", "as_of": "2026-09-20", "role": "focus", "color": "#e8b040"}}, {"type": "Feature", "geometry": {"type": "Polygon", "coordinates": [[[-90.575, 49.8542], [-90.575, 49.8583], [-90.5813, 49.8583], [-90.5813, 49.8542], [-90.575, 49.8542]]]}, "properties": {"company_id": "vr-resources", "jurisdiction": "Ontario", "claim_id": "902685", "claim_name": null, "holder": "(100) VR Resources Ltd", "status": "Active", "recorded_date": "2024-09-24", "anniversary_or_expiry": "2026-09-24", "area_ha": null, "tenure_type": "Single Cell Mining Claim", "source": "Ontario MLAS operational claims (OGSEarth / LIO MapServer). Unofficial viewing data, not legal title.", "as_of": "2026-09-20", "role": "focus", "color": "#e8b040"}}, {"type": "Feature", "geometry": {"type": "Polygon", "coordinates": [[[-92.9563, 49.5917], [-92.9563, 49.5958], [-92.9625, 49.5958], [-92.9625, 49.5917], [-92.9563, 49.5917]]]}, "properties": {"company_id": "vr-resources", "jurisdiction": "Ontario", "claim_id": "907656", "claim_name": null, "holder": "(100) VR Resources Ltd", "status": "Active", "recorded_date": "2024-09-27", "anniversary_or_expiry": "2026-09-27", "area_ha": null, "tenure_type": "Single Cell Mining Claim", "source": "Ontario MLAS operational claims (OGSEarth / LIO MapServer). Unofficial viewing data, not legal title.", "as_of": "2026-09-20", "role": "focus", "color": "#e8b040"}}, {"type": "Feature", "geometry": {"type": "Polygon", "coordinates": [[[-92.95, 49.5917], [-92.95, 49.5958], [-92.9563, 49.5958], [-92.9563, 49.5917], [-92.95, 49.5917]]]}, "properties": {"company_id": "vr-resources", "jurisdiction": "Ontario", "claim_id": "907657", "claim_name": null, "holder": "(100) VR Resources Ltd", "status": "Active", "recorded_date": "2024-09-27", "anniversary_or_expiry": "2026-09-27", "area_ha": null, "tenure_type": "Single Cell Mining Claim", "source": "Ontario MLAS operational claims (OGSEarth / LIO MapServer). Unofficial viewing data, not legal title.", "as_of": "2026-09-20", "role": "focus", "color": "#e8b040"}}, {"type": "Feature", "geometry": {"type": "Polygon", "coordinates": [[[-92.9438, 49.5917], [-92.9438, 49.5958], [-92.95, 49.5958], [-92.95, 49.5917], [-92.9438, 49.5917]]]}, "properties": {"company_id": "vr-resources", "jurisdiction": "Ontario", "claim_id": "907658", "claim_name": null, "holder": "(100) VR Resources Ltd", "status": "Active", "recorded_date": "2024-09-27", "anniversary_or_expiry": "2026-09-27", "area_ha": null, "tenure_type": "Single Cell Mining Claim", "source": "Ontario MLAS operational claims (OGSEarth / LIO MapServer). Unofficial viewing data, not legal title.", "as_of": "2026-09-20", "role": "focus", "color": "#e8b040"}}, {"type": "Feature", "geometry": {"type": "Polygon", "coordinates": [[[-90.975, 49.3375], [-90.975, 49.3333], [-90.9375, 49.3333], [-90.9375, 49.3375], [-90.9438, 49.3375], [-90.9438, 49.3417], [-90.95, 49.3417], [-90.95, 49.3583], [-90.975, 49.3583], [-90.975, 49.3542], [-90.9688, 49.3542], [-90.9688, 49.35], [-90.9688, 49.3417], [-90.975, 49.3417], [-90.975, 49.3375]]]}, "properties": {"company_id": "vr-resources", "jurisdiction": "Ontario", "claim_id": "907680", "claim_name": null, "holder": "(100) VR Resources Ltd", "status": "Active", "recorded_date": "2024-09-28", "anniversary_or_expiry": "2026-09-11", "area_ha": null, "tenure_type": "Multi-cell Mining Claim", "source": "Ontario MLAS operational claims (OGSEarth / LIO MapServer). Unofficial viewing data, not legal title.", "as_of": "2026-09-20", "role": "focus", "color": "#e8b040"}}, {"type": "Feature", "geometry": {"type": "Polygon", "coordinates": [[[-90.95, 49.3042], [-90.95, 49.3], [-90.9125, 49.3], [-90.9125, 49.3125], [-90.925, 49.3125], [-90.925, 49.3167], [-90.9313, 49.3167], [-90.9313, 49.3208], [-90.95, 49.3208], [-90.95, 49.3042]]]}, "properties": {"company_id": "vr-resources", "jurisdiction": "Ontario", "claim_id": "907682", "claim_name": null, "holder": "(100) VR Resources Ltd", "status": "Active", "recorded_date": "2024-09-28", "anniversary_or_expiry": "2026-09-11", "area_ha": null, "tenure_type": "Multi-cell Mining Claim", "source": "Ontario MLAS operational claims (OGSEarth / LIO MapServer). Unofficial viewing data, not legal title.", "as_of": "2026-09-20", "role": "focus", "color": "#e8b040"}}, {"type": "Feature", "geometry": {"type": "Polygon", "coordinates": [[[-90.975, 49.3167], [-90.975, 49.3125], [-90.9688, 49.3125], [-90.9688, 49.3083], [-90.9625, 49.3083], [-90.9625, 49.3042], [-90.95, 49.3042], [-90.95, 49.3333], [-90.975, 49.3333], [-90.975, 49.3167]]]}, "properties": {"company_id": "vr-resources", "jurisdiction": "Ontario", "claim_id": "907683", "claim_name": null, "holder": "(100) VR Resources Ltd", "status": "Active", "recorded_date": "2024-09-28", "anniversary_or_expiry": "2026-09-11", "area_ha": null, "tenure_type": "Multi-cell Mining Claim", "source": "Ontario MLAS operational claims (OGSEarth / LIO MapServer). Unofficial viewing data, not legal title.", "as_of": "2026-09-20", "role": "focus", "color": "#e8b040"}}, {"type": "Feature", "geometry": {"type": "Polygon", "coordinates": [[[-90.95, 49.325], [-90.95, 49.3208], [-90.9313, 49.3208], [-90.9313, 49.3167], [-90.925, 49.3167], [-90.925, 49.3125], [-90.9125, 49.3125], [-90.9125, 49.3083], [-90.9063, 49.3083], [-90.9063, 49.3125], [-90.9, 49.3125], [-90.9, 49.3208], [-90.9063, 49.3208], [-90.9063, 49.325], [-90.9188, 49.325], [-90.9188, 49.3292], [-90.9313, 49.3292], [-90.9313, 49.3333], [-90.95, 49.3333], [-90.95, 49.325]]]}, "properties": {"company_id": "vr-resources", "jurisdiction": "Ontario", "claim_id": "907684", "claim_name": null, "holder": "(100) VR Resources Ltd", "status": "Active", "recorded_date": "2024-09-28", "anniversary_or_expiry": "2026-09-11", "area_ha": null, "tenure_type": "Multi-cell Mining Claim", "source": "Ontario MLAS operational claims (OGSEarth / LIO MapServer). Unofficial viewing data, not legal title.", "as_of": "2026-09-20", "role": "focus", "color": "#e8b040"}}, {"type": "Feature", "geometry": {"type": "Polygon", "coordinates": [[[-90.7688, 48.8667], [-90.7688, 48.8708], [-90.775, 48.8708], [-90.775, 48.8667], [-90.7688, 48.8667]]]}, "properties": {"company_id": "vr-resources", "jurisdiction": "Ontario", "claim_id": "909137", "claim_name": null, "holder": "(100) VR Resources Ltd", "status": "Active", "recorded_date": "2024-10-17", "anniversary_or_expiry": "2026-10-17", "area_ha": null, "tenure_type": "Single Cell Mining Claim", "source": "Ontario MLAS operational claims (OGSEarth / LIO MapServer). Unofficial viewing data, not legal title.", "as_of": "2026-09-20", "role": "focus", "color": "#e8b040"}}, {"type": "Feature", "geometry": {"type": "Polygon", "coordinates": [[[-90.7188, 48.8417], [-90.7188, 48.8375], [-90.6875, 48.8375], [-90.6875, 48.8542], [-90.6938, 48.8542], [-90.6938, 48.8583], [-90.7125, 48.8583], [-90.7125, 48.8458], [-90.7188, 48.8458], [-90.7188, 48.8417]]]}, "properties": {"company_id": "vr-resources", "jurisdiction": "Ontario", "claim_id": "943567", "claim_name": null, "holder": "(100) VR Resources Ltd", "status": "Active", "recorded_date": "2025-04-24", "anniversary_or_expiry": "2028-04-24", "area_ha": null, "tenure_type": "Multi-cell Mining Claim", "source": "Ontario MLAS operational claims (OGSEarth / LIO MapServer). Unofficial viewing data, not legal title.", "as_of": "2026-09-20", "role": "focus", "color": "#e8b040"}}, {"type": "Feature", "geometry": {"type": "Polygon", "coordinates": [[[-90.3625, 49.15], [-90.3625, 49.1458], [-90.3563, 49.1458], [-90.3563, 49.1375], [-90.35, 49.1375], [-90.35, 49.1333], [-90.3188, 49.1333], [-90.3188, 49.15], [-90.3563, 49.15], [-90.3563, 49.1542], [-90.3625, 49.1542], [-90.3625, 49.15]]]}, "properties": {"company_id": "vr-resources", "jurisdiction": "Ontario", "claim_id": "950433", "claim_name": null, "holder": "(100) VR Resources Ltd", "status": "Active", "recorded_date": "2025-07-03", "anniversary_or_expiry": "2027-01-15", "area_ha": null, "tenure_type": "Multi-cell Mining Claim", "source": "Ontario MLAS operational claims (OGSEarth / LIO MapServer). Unofficial viewing data, not legal title.", "as_of": "2026-09-20", "role": "focus", "color": "#e8b040"}}, {"type": "Feature", "geometry": {"type": "Polygon", "coordinates": [[[-90.3688, 49.1583], [-90.3688, 49.1542], [-90.3563, 49.1542], [-90.3563, 49.15], [-90.325, 49.15], [-90.325, 49.1625], [-90.3313, 49.1625], [-90.3313, 49.1667], [-90.3688, 49.1667], [-90.3688, 49.1583]]]}, "properties": {"company_id": "vr-resources", "jurisdiction": "Ontario", "claim_id": "950434", "claim_name": null, "holder": "(100) VR Resources Ltd", "status": "Active", "recorded_date": "2025-07-03", "anniversary_or_expiry": "2027-01-15", "area_ha": null, "tenure_type": "Multi-cell Mining Claim", "source": "Ontario MLAS operational claims (OGSEarth / LIO MapServer). Unofficial viewing data, not legal title.", "as_of": "2026-09-20", "role": "focus", "color": "#e8b040"}}, {"type": "Feature", "geometry": {"type": "Polygon", "coordinates": [[[-90.3813, 49.1708], [-90.3813, 49.1667], [-90.375, 49.1667], [-90.375, 49.1625], [-90.3688, 49.1625], [-90.3688, 49.1667], [-90.3313, 49.1667], [-90.3313, 49.1708], [-90.3375, 49.1708], [-90.3375, 49.1792], [-90.3688, 49.1792], [-90.3688, 49.1833], [-90.3813, 49.1833], [-90.3813, 49.1708]]]}, "properties": {"company_id": "vr-resources", "jurisdiction": "Ontario", "claim_id": "950435", "claim_name": null, "holder": "(100) VR Resources Ltd", "status": "Active", "recorded_date": "2025-07-03", "anniversary_or_expiry": "2027-01-15", "area_ha": null, "tenure_type": "Multi-cell Mining Claim", "source": "Ontario MLAS operational claims (OGSEarth / LIO MapServer). Unofficial viewing data, not legal title.", "as_of": "2026-09-20", "role": "focus", "color": "#e8b040"}}, {"type": "Feature", "geometry": {"type": "Polygon", "coordinates": [[[-90.3813, 49.1875], [-90.3813, 49.1833], [-90.3688, 49.1833], [-90.3688, 49.1792], [-90.3375, 49.1792], [-90.3375, 49.1917], [-90.3438, 49.1917], [-90.3438, 49.1958], [-90.3813, 49.1958], [-90.3813, 49.1875]]]}, "properties": {"company_id": "vr-resources", "jurisdiction": "Ontario", "claim_id": "950436", "claim_name": null, "holder": "(100) VR Resources Ltd", "status": "Active", "recorded_date": "2025-07-03", "anniversary_or_expiry": "2027-01-15", "area_ha": null, "tenure_type": "Multi-cell Mining Claim", "source": "Ontario MLAS operational claims (OGSEarth / LIO MapServer). Unofficial viewing data, not legal title.", "as_of": "2026-09-20", "role": "focus", "color": "#e8b040"}}, {"type": "Feature", "geometry": {"type": "Polygon", "coordinates": [[[-90.7438, 49.1958], [-90.7438, 49.1917], [-90.7125, 49.1917], [-90.7125, 49.2125], [-90.7438, 49.2125], [-90.7438, 49.1958]]]}, "properties": {"company_id": "vr-resources", "jurisdiction": "Ontario", "claim_id": "950437", "claim_name": null, "holder": "(100) VR Resources Ltd", "status": "Active", "recorded_date": "2025-07-03", "anniversary_or_expiry": "2026-11-04", "area_ha": null, "tenure_type": "Multi-cell Mining Claim", "source": "Ontario MLAS operational claims (OGSEarth / LIO MapServer). Unofficial viewing data, not legal title.", "as_of": "2026-09-20", "role": "focus", "color": "#e8b040"}}, {"type": "Feature", "geometry": {"type": "Polygon", "coordinates": [[[-90.75, 49.1833], [-90.75, 49.1792], [-90.7375, 49.1792], [-90.7375, 49.1833], [-90.7438, 49.1833], [-90.7438, 49.2125], [-90.7, 49.2125], [-90.7, 49.2208], [-90.75, 49.2208], [-90.75, 49.1833]]]}, "properties": {"company_id": "vr-resources", "jurisdiction": "Ontario", "claim_id": "980779", "claim_name": null, "holder": "(100) VR Resources Ltd", "status": "Active", "recorded_date": "2025-11-03", "anniversary_or_expiry": "2026-11-04", "area_ha": null, "tenure_type": "Multi-cell Mining Claim", "source": "Ontario MLAS operational claims (OGSEarth / LIO MapServer). Unofficial viewing data, not legal title.", "as_of": "2026-09-20", "role": "focus", "color": "#e8b040"}}, {"type": "Feature", "geometry": {"type": "Polygon", "coordinates": [[[-90.7313, 49.1792], [-90.7, 49.1792], [-90.7, 49.2125], [-90.7125, 49.2125], [-90.7125, 49.1833], [-90.7375, 49.1833], [-90.7375, 49.1792], [-90.7313, 49.1792]]]}, "properties": {"company_id": "vr-resources", "jurisdiction": "Ontario", "claim_id": "980780", "claim_name": null, "holder": "(100) VR Resources Ltd", "status": "Active", "recorded_date": "2025-11-03", "anniversary_or_expiry": "2026-11-04", "area_ha": null, "tenure_type": "Multi-cell Mining Claim", "source": "Ontario MLAS operational claims (OGSEarth / LIO MapServer). Unofficial viewing data, not legal title.", "as_of": "2026-09-20", "role": "focus", "color": "#e8b040"}}, {"type": "Feature", "geometry": {"type": "Polygon", "coordinates": [[[-90.7438, 49.1875], [-90.7438, 49.1833], [-90.7125, 49.1833], [-90.7125, 49.1917], [-90.7438, 49.1917], [-90.7438, 49.1875]]]}, "properties": {"company_id": "vr-resources", "jurisdiction": "Ontario", "claim_id": "980781", "claim_name": null, "holder": "(100) VR Resources Ltd", "status": "Active", "recorded_date": "2025-11-03", "anniversary_or_expiry": "2026-11-04", "area_ha": null, "tenure_type": "Multi-cell Mining Claim", "source": "Ontario MLAS operational claims (OGSEarth / LIO MapServer). Unofficial viewing data, not legal title.", "as_of": "2026-09-20", "role": "focus", "color": "#e8b040"}}, {"type": "Feature", "geometry": {"type": "Polygon", "coordinates": [[[-90.8688, 49.2083], [-90.8688, 49.2042], [-90.8563, 49.2042], [-90.8563, 49.2083], [-90.8438, 49.2083], [-90.8438, 49.2125], [-90.8313, 49.2125], [-90.8313, 49.2167], [-90.8375, 49.2167], [-90.8375, 49.2208], [-90.8438, 49.2208], [-90.8438, 49.225], [-90.85, 49.225], [-90.85, 49.2292], [-90.875, 49.2292], [-90.875, 49.225], [-90.8688, 49.225], [-90.8688, 49.2083]]]}, "properties": {"company_id": "vr-resources", "jurisdiction": "Ontario", "claim_id": "980788", "claim_name": null, "holder": "(100) VR Resources Ltd", "status": "Active", "recorded_date": "2025-11-03", "anniversary_or_expiry": "2027-03-08", "area_ha": null, "tenure_type": "Multi-cell Mining Claim", "source": "Ontario MLAS operational claims (OGSEarth / LIO MapServer). Unofficial viewing data, not legal title.", "as_of": "2026-09-20", "role": "focus", "color": "#e8b040"}}, {"type": "Feature", "geometry": {"type": "Polygon", "coordinates": [[[-90.9, 49.2042], [-90.9, 49.2], [-90.8688, 49.2], [-90.8688, 49.2208], [-90.9, 49.2208], [-90.9, 49.2042]]]}, "properties": {"company_id": "vr-resources", "jurisdiction": "Ontario", "claim_id": "980789", "claim_name": null, "holder": "(100) VR Resources Ltd", "status": "Active", "recorded_date": "2025-11-03", "anniversary_or_expiry": "2027-03-08", "area_ha": null, "tenure_type": "Multi-cell Mining Claim", "source": "Ontario MLAS operational claims (OGSEarth / LIO MapServer). Unofficial viewing data, not legal title.", "as_of": "2026-09-20", "role": "focus", "color": "#e8b040"}}, {"type": "Feature", "geometry": {"type": "Polygon", "coordinates": [[[-90.9438, 49.2167], [-90.9438, 49.2125], [-90.9, 49.2125], [-90.9, 49.2208], [-90.8688, 49.2208], [-90.8688, 49.225], [-90.875, 49.225], [-90.875, 49.2292], [-90.9063, 49.2292], [-90.9063, 49.2208], [-90.9438, 49.2208], [-90.9438, 49.2167]]]}, "properties": {"company_id": "vr-resources", "jurisdiction": "Ontario", "claim_id": "980790", "claim_name": null, "holder": "(100) VR Resources Ltd", "status": "Active", "recorded_date": "2025-11-03", "anniversary_or_expiry": "2027-03-08", "area_ha": null, "tenure_type": "Multi-cell Mining Claim", "source": "Ontario MLAS operational claims (OGSEarth / LIO MapServer). Unofficial viewing data, not legal title.", "as_of": "2026-09-20", "role": "focus", "color": "#e8b040"}}, {"type": "Feature", "geometry": {"type": "Polygon", "coordinates": [[[-90.975, 49.2167], [-90.9688, 49.2167], [-90.9688, 49.2], [-90.95, 49.2], [-90.95, 49.2125], [-90.9438, 49.2125], [-90.9438, 49.2208], [-90.9813, 49.2208], [-90.9813, 49.2167], [-90.975, 49.2167]]]}, "properties": {"company_id": "vr-resources", "jurisdiction": "Ontario", "claim_id": "980791", "claim_name": null, "holder": "(100) VR Resources Ltd", "status": "Active", "recorded_date": "2025-11-03", "anniversary_or_expiry": "2027-03-08", "area_ha": null, "tenure_type": "Multi-cell Mining Claim", "source": "Ontario MLAS operational claims (OGSEarth / LIO MapServer). Unofficial viewing data, not legal title.", "as_of": "2026-09-20", "role": "focus", "color": "#e8b040"}}, {"type": "Feature", "geometry": {"type": "Polygon", "coordinates": [[[-90.7313, 48.8583], [-90.7188, 48.8583], [-90.7188, 48.8458], [-90.7125, 48.8458], [-90.7125, 48.8583], [-90.7063, 48.8583], [-90.7063, 48.8667], [-90.7, 48.8667], [-90.7, 48.8792], [-90.725, 48.8792], [-90.725, 48.8708], [-90.7313, 48.8708], [-90.7313, 48.8625], [-90.7375, 48.8625], [-90.7375, 48.8583], [-90.7313, 48.8583]]]}, "properties": {"company_id": "vr-resources", "jurisdiction": "Ontario", "claim_id": "1017186", "claim_name": null, "holder": "(100) VR Resources Ltd", "status": "Active", "recorded_date": "2026-01-19", "anniversary_or_expiry": "2028-02-20", "area_ha": null, "tenure_type": "Multi-cell Mining Claim", "source": "Ontario MLAS operational claims (OGSEarth / LIO MapServer). Unofficial viewing data, not legal title.", "as_of": "2026-09-20", "role": "focus", "color": "#e8b040"}}, {"type": "Feature", "geometry": {"type": "Polygon", "coordinates": [[[-90.7063, 48.8625], [-90.7063, 48.8583], [-90.6938, 48.8583], [-90.6938, 48.8542], [-90.6875, 48.8542], [-90.6875, 48.8625], [-90.675, 48.8625], [-90.675, 48.8875], [-90.6875, 48.8875], [-90.6875, 48.8792], [-90.7, 48.8792], [-90.7, 48.8667], [-90.7063, 48.8667], [-90.7063, 48.8625]]]}, "properties": {"company_id": "vr-resources", "jurisdiction": "Ontario", "claim_id": "1017187", "claim_name": null, "holder": "(100) VR Resources Ltd", "status": "Active", "recorded_date": "2026-01-19", "anniversary_or_expiry": "2028-09-12", "area_ha": null, "tenure_type": "Multi-cell Mining Claim", "source": "Ontario MLAS operational claims (OGSEarth / LIO MapServer). Unofficial viewing data, not legal title.", "as_of": "2026-09-20", "role": "focus", "color": "#e8b040"}}, {"type": "Feature", "geometry": {"type": "Polygon", "coordinates": [[[-90.775, 48.8583], [-90.775, 48.8542], [-90.75, 48.8542], [-90.75, 48.8583], [-90.7375, 48.8583], [-90.7375, 48.8625], [-90.7313, 48.8625], [-90.7313, 48.8708], [-90.7625, 48.8708], [-90.7625, 48.8625], [-90.775, 48.8625], [-90.775, 48.8583]]]}, "properties": {"company_id": "vr-resources", "jurisdiction": "Ontario", "claim_id": "1017188", "claim_name": null, "holder": "(100) VR Resources Ltd", "status": "Active", "recorded_date": "2026-01-19", "anniversary_or_expiry": "2028-09-12", "area_ha": null, "tenure_type": "Multi-cell Mining Claim", "source": "Ontario MLAS operational claims (OGSEarth / LIO MapServer). Unofficial viewing data, not legal title.", "as_of": "2026-09-20", "role": "focus", "color": "#e8b040"}}, {"type": "Feature", "geometry": {"type": "Polygon", "coordinates": [[[-90.7688, 48.8625], [-90.7625, 48.8625], [-90.7625, 48.8708], [-90.75, 48.8708], [-90.75, 48.875], [-90.7688, 48.875], [-90.7688, 48.8667], [-90.775, 48.8667], [-90.775, 48.8625], [-90.7688, 48.8625]]]}, "properties": {"company_id": "vr-resources", "jurisdiction": "Ontario", "claim_id": "1017189", "claim_name": null, "holder": "(100) VR Resources Ltd", "status": "Active", "recorded_date": "2026-01-19", "anniversary_or_expiry": "2028-10-17", "area_ha": null, "tenure_type": "Multi-cell Mining Claim", "source": "Ontario MLAS operational claims (OGSEarth / LIO MapServer). Unofficial viewing data, not legal title.", "as_of": "2026-09-20", "role": "focus", "color": "#e8b040"}}, {"type": "Feature", "geometry": {"type": "Polygon", "coordinates": [[[-90.875, 49.1875], [-90.875, 49.1833], [-90.85, 49.1833], [-90.85, 49.1875], [-90.8438, 49.1875], [-90.8438, 49.2], [-90.8688, 49.2], [-90.8688, 49.1958], [-90.875, 49.1958], [-90.875, 49.1875]]]}, "properties": {"company_id": "vr-resources", "jurisdiction": "Ontario", "claim_id": "881753", "claim_name": null, "holder": "(100) VR Resources Ltd", "status": "Active", "recorded_date": "2024-02-29", "anniversary_or_expiry": "2032-06-10", "area_ha": null, "tenure_type": "Multi-cell Mining Claim", "source": "Ontario MLAS operational claims (OGSEarth / LIO MapServer). Unofficial viewing data, not legal title.", "as_of": "2026-09-20", "role": "focus", "color": "#e8b040"}}, {"type": "Feature", "geometry": {"type": "Polygon", "coordinates": [[[-90.8375, 49.1917], [-90.8375, 49.1875], [-90.8188, 49.1875], [-90.8188, 49.1958], [-90.8125, 49.1958], [-90.8125, 49.2042], [-90.8063, 49.2042], [-90.8063, 49.2125], [-90.8375, 49.2125], [-90.8375, 49.1917]]]}, "properties": {"company_id": "vr-resources", "jurisdiction": "Ontario", "claim_id": "881755", "claim_name": null, "holder": "(100) VR Resources Ltd", "status": "Active", "recorded_date": "2024-02-29", "anniversary_or_expiry": "2029-07-25", "area_ha": null, "tenure_type": "Multi-cell Mining Claim", "source": "Ontario MLAS operational claims (OGSEarth / LIO MapServer). Unofficial viewing data, not legal title.", "as_of": "2026-09-20", "role": "focus", "color": "#e8b040"}}, {"type": "Feature", "geometry": {"type": "Polygon", "coordinates": [[[-90.8813, 49.1833], [-90.8813, 49.1792], [-90.8438, 49.1792], [-90.8438, 49.1833], [-90.8375, 49.1833], [-90.8375, 49.2125], [-90.8438, 49.2125], [-90.8438, 49.2083], [-90.8563, 49.2083], [-90.8563, 49.2042], [-90.8688, 49.2042], [-90.8688, 49.2], [-90.8813, 49.2], [-90.8813, 49.1833]], [[-90.875, 49.1875], [-90.875, 49.1958], [-90.8688, 49.1958], [-90.8688, 49.2], [-90.8438, 49.2], [-90.8438, 49.1875], [-90.85, 49.1875], [-90.85, 49.1833], [-90.875, 49.1833], [-90.875, 49.1875]]]}, "properties": {"company_id": "vr-resources", "jurisdiction": "Ontario", "claim_id": "881754", "claim_name": null, "holder": "(100) VR Resources Ltd", "status": "Active", "recorded_date": "2024-02-29", "anniversary_or_expiry": "2029-07-25", "area_ha": null, "tenure_type": "Multi-cell Mining Claim", "source": "Ontario MLAS operational claims (OGSEarth / LIO MapServer). Unofficial viewing data, not legal title.", "as_of": "2026-09-20", "role": "focus", "color": "#e8b040"}}, {"type": "Feature", "geometry": {"type": "Polygon", "coordinates": [[[-91.0313, 49.1917], [-91.0313, 49.1875], [-91.025, 49.1875], [-91.025, 49.2125], [-91.0063, 49.2125], [-91.0063, 49.2167], [-91.0313, 49.2167], [-91.0313, 49.1917]]]}, "properties": {"company_id": "vr-resources", "jurisdiction": "Ontario", "claim_id": "980792", "claim_name": null, "holder": "(100) VR Resources Ltd", "status": "Active", "recorded_date": "2025-11-03", "anniversary_or_expiry": "2027-09-20", "area_ha": null, "tenure_type": "Multi-cell Mining Claim", "source": "Ontario MLAS operational claims (OGSEarth / LIO MapServer). Unofficial viewing data, not legal title.", "as_of": "2026-09-20", "role": "focus", "color": "#e8b040"}}, {"type": "Feature", "geometry": {"type": "Polygon", "coordinates": [[[-90.85, 49.2292], [-90.85, 49.225], [-90.8438, 49.225], [-90.8438, 49.2208], [-90.8375, 49.2208], [-90.8375, 49.2167], [-90.8313, 49.2167], [-90.8313, 49.2125], [-90.825, 49.2125], [-90.825, 49.2167], [-90.8, 49.2167], [-90.8, 49.2208], [-90.7938, 49.2208], [-90.7938, 49.225], [-90.8188, 49.225], [-90.8188, 49.2333], [-90.85, 49.2333], [-90.85, 49.2292]]]}, "properties": {"company_id": "vr-resources", "jurisdiction": "Ontario", "claim_id": "980787", "claim_name": null, "holder": "(100) VR Resources Ltd", "status": "Active", "recorded_date": "2025-11-03", "anniversary_or_expiry": "2027-09-13", "area_ha": null, "tenure_type": "Multi-cell Mining Claim", "source": "Ontario MLAS operational claims (OGSEarth / LIO MapServer). Unofficial viewing data, not legal title.", "as_of": "2026-09-20", "role": "focus", "color": "#e8b040"}}, {"type": "Feature", "geometry": {"type": "Polygon", "coordinates": [[[-90.8813, 49.2292], [-90.85, 49.2292], [-90.85, 49.2333], [-90.8375, 49.2333], [-90.8375, 49.2417], [-90.8438, 49.2417], [-90.8438, 49.25], [-90.8688, 49.25], [-90.8688, 49.2375], [-90.875, 49.2375], [-90.875, 49.2333], [-90.8875, 49.2333], [-90.8875, 49.2292], [-90.8813, 49.2292]]]}, "properties": {"company_id": "vr-resources", "jurisdiction": "Ontario", "claim_id": "980786", "claim_name": null, "holder": "(100) VR Resources Ltd", "status": "Active", "recorded_date": "2025-11-03", "anniversary_or_expiry": "2027-09-13", "area_ha": null, "tenure_type": "Multi-cell Mining Claim", "source": "Ontario MLAS operational claims (OGSEarth / LIO MapServer). Unofficial viewing data, not legal title.", "as_of": "2026-09-20", "role": "focus", "color": "#e8b040"}}, {"type": "Feature", "geometry": {"type": "Polygon", "coordinates": [[[-90.8188, 49.2292], [-90.8188, 49.225], [-90.7688, 49.225], [-90.7688, 49.2292], [-90.7438, 49.2292], [-90.7438, 49.2375], [-90.775, 49.2375], [-90.775, 49.2333], [-90.8188, 49.2333], [-90.8188, 49.2292]]]}, "properties": {"company_id": "vr-resources", "jurisdiction": "Ontario", "claim_id": "980785", "claim_name": null, "holder": "(100) VR Resources Ltd", "status": "Active", "recorded_date": "2025-11-03", "anniversary_or_expiry": "2027-09-13", "area_ha": null, "tenure_type": "Multi-cell Mining Claim", "source": "Ontario MLAS operational claims (OGSEarth / LIO MapServer). Unofficial viewing data, not legal title.", "as_of": "2026-09-20", "role": "focus", "color": "#e8b040"}}, {"type": "Feature", "geometry": {"type": "Polygon", "coordinates": [[[-90.8063, 49.2333], [-90.775, 49.2333], [-90.775, 49.2375], [-90.7438, 49.2375], [-90.7438, 49.2458], [-90.7375, 49.2458], [-90.7375, 49.25], [-90.7625, 49.25], [-90.7625, 49.2458], [-90.7813, 49.2458], [-90.7813, 49.2417], [-90.8, 49.2417], [-90.8, 49.2375], [-90.8125, 49.2375], [-90.8125, 49.2333], [-90.8063, 49.2333]]]}, "properties": {"company_id": "vr-resources", "jurisdiction": "Ontario", "claim_id": "980784", "claim_name": null, "holder": "(100) VR Resources Ltd", "status": "Active", "recorded_date": "2025-11-03", "anniversary_or_expiry": "2027-09-13", "area_ha": null, "tenure_type": "Multi-cell Mining Claim", "source": "Ontario MLAS operational claims (OGSEarth / LIO MapServer). Unofficial viewing data, not legal title.", "as_of": "2026-09-20", "role": "focus", "color": "#e8b040"}}, {"type": "Feature", "geometry": {"type": "Polygon", "coordinates": [[[-90.7438, 49.225], [-90.7438, 49.2208], [-90.7188, 49.2208], [-90.7188, 49.2458], [-90.7313, 49.2458], [-90.7313, 49.25], [-90.7375, 49.25], [-90.7375, 49.2458], [-90.7438, 49.2458], [-90.7438, 49.225]]]}, "properties": {"company_id": "vr-resources", "jurisdiction": "Ontario", "claim_id": "980783", "claim_name": null, "holder": "(100) VR Resources Ltd", "status": "Active", "recorded_date": "2025-11-03", "anniversary_or_expiry": "2027-09-13", "area_ha": null, "tenure_type": "Multi-cell Mining Claim", "source": "Ontario MLAS operational claims (OGSEarth / LIO MapServer). Unofficial viewing data, not legal title.", "as_of": "2026-09-20", "role": "focus", "color": "#e8b040"}}, {"type": "Feature", "geometry": {"type": "Polygon", "coordinates": [[[-90.75, 49.25], [-90.7313, 49.25], [-90.7313, 49.2458], [-90.7063, 49.2458], [-90.7063, 49.2625], [-90.7438, 49.2625], [-90.7438, 49.2583], [-90.75, 49.2583], [-90.75, 49.2542], [-90.7563, 49.2542], [-90.7563, 49.25], [-90.75, 49.25]]]}, "properties": {"company_id": "vr-resources", "jurisdiction": "Ontario", "claim_id": "980782", "claim_name": null, "holder": "(100) VR Resources Ltd", "status": "Active", "recorded_date": "2025-11-03", "anniversary_or_expiry": "2027-09-13", "area_ha": null, "tenure_type": "Multi-cell Mining Claim", "source": "Ontario MLAS operational claims (OGSEarth / LIO MapServer). Unofficial viewing data, not legal title.", "as_of": "2026-09-20", "role": "focus", "color": "#e8b040"}}, {"type": "Feature", "geometry": {"type": "Polygon", "coordinates": [[[-90.8063, 49.2125], [-90.8063, 49.2167], [-90.8125, 49.2167], [-90.8125, 49.2125], [-90.8063, 49.2125]]]}, "properties": {"company_id": "vr-resources", "jurisdiction": "Ontario", "claim_id": "901666", "claim_name": null, "holder": "(100) VR Resources Ltd", "status": "Active", "recorded_date": "2024-09-13", "anniversary_or_expiry": "2027-09-13", "area_ha": null, "tenure_type": "Single Cell Mining Claim", "source": "Ontario MLAS operational claims (OGSEarth / LIO MapServer). Unofficial viewing data, not legal title.", "as_of": "2026-09-20", "role": "focus", "color": "#e8b040"}}, {"type": "Feature", "geometry": {"type": "Polygon", "coordinates": [[[-90.8125, 49.2125], [-90.8125, 49.2167], [-90.8188, 49.2167], [-90.8188, 49.2125], [-90.8125, 49.2125]]]}, "properties": {"company_id": "vr-resources", "jurisdiction": "Ontario", "claim_id": "901665", "claim_name": null, "holder": "(100) VR Resources Ltd", "status": "Active", "recorded_date": "2024-09-13", "anniversary_or_expiry": "2027-09-13", "area_ha": null, "tenure_type": "Single Cell Mining Claim", "source": "Ontario MLAS operational claims (OGSEarth / LIO MapServer). Unofficial viewing data, not legal title.", "as_of": "2026-09-20", "role": "focus", "color": "#e8b040"}}, {"type": "Feature", "geometry": {"type": "Polygon", "coordinates": [[[-90.8188, 49.2125], [-90.8188, 49.2167], [-90.825, 49.2167], [-90.825, 49.2125], [-90.8188, 49.2125]]]}, "properties": {"company_id": "vr-resources", "jurisdiction": "Ontario", "claim_id": "901664", "claim_name": null, "holder": "(100) VR Resources Ltd", "status": "Active", "recorded_date": "2024-09-13", "anniversary_or_expiry": "2027-09-13", "area_ha": null, "tenure_type": "Single Cell Mining Claim", "source": "Ontario MLAS operational claims (OGSEarth / LIO MapServer). Unofficial viewing data, not legal title.", "as_of": "2026-09-20", "role": "focus", "color": "#e8b040"}}, {"type": "Feature", "geometry": {"type": "Polygon", "coordinates": [[[-91.0, 49.1917], [-91.0, 49.1875], [-90.9688, 49.1875], [-90.9688, 49.1958], [-91.0, 49.1958], [-91.0, 49.1917]]]}, "properties": {"company_id": "vr-resources", "jurisdiction": "Ontario", "claim_id": "881761", "claim_name": null, "holder": "(100) VR Resources Ltd", "status": "Active", "recorded_date": "2024-02-29", "anniversary_or_expiry": "2027-11-04", "area_ha": null, "tenure_type": "Multi-cell Mining Claim", "source": "Ontario MLAS operational claims (OGSEarth / LIO MapServer). Unofficial viewing data, not legal title.", "as_of": "2026-09-20", "role": "focus", "color": "#e8b040"}}, {"type": "Feature", "geometry": {"type": "Polygon", "coordinates": [[[-91.025, 49.1917], [-91.025, 49.1875], [-91.0, 49.1875], [-91.0, 49.2167], [-91.0063, 49.2167], [-91.0063, 49.2125], [-91.025, 49.2125], [-91.025, 49.1917]]]}, "properties": {"company_id": "vr-resources", "jurisdiction": "Ontario", "claim_id": "881760", "claim_name": null, "holder": "(100) VR Resources Ltd", "status": "Active", "recorded_date": "2024-02-29", "anniversary_or_expiry": "2027-11-04", "area_ha": null, "tenure_type": "Multi-cell Mining Claim", "source": "Ontario MLAS operational claims (OGSEarth / LIO MapServer). Unofficial viewing data, not legal title.", "as_of": "2026-09-20", "role": "focus", "color": "#e8b040"}}, {"type": "Feature", "geometry": {"type": "Polygon", "coordinates": [[[-91.0, 49.2], [-91.0, 49.1958], [-90.9688, 49.1958], [-90.9688, 49.2167], [-91.0, 49.2167], [-91.0, 49.2]]]}, "properties": {"company_id": "vr-resources", "jurisdiction": "Ontario", "claim_id": "881759", "claim_name": null, "holder": "(100) VR Resources Ltd", "status": "Active", "recorded_date": "2024-02-29", "anniversary_or_expiry": "2027-11-04", "area_ha": null, "tenure_type": "Multi-cell Mining Claim", "source": "Ontario MLAS operational claims (OGSEarth / LIO MapServer). Unofficial viewing data, not legal title.", "as_of": "2026-09-20", "role": "focus", "color": "#e8b040"}}, {"type": "Feature", "geometry": {"type": "Polygon", "coordinates": [[[-90.9625, 49.1958], [-90.925, 49.1958], [-90.925, 49.2125], [-90.95, 49.2125], [-90.95, 49.2], [-90.9688, 49.2], [-90.9688, 49.1958], [-90.9625, 49.1958]]]}, "properties": {"company_id": "vr-resources", "jurisdiction": "Ontario", "claim_id": "881758", "claim_name": null, "holder": "(100) VR Resources Ltd", "status": "Active", "recorded_date": "2024-02-29", "anniversary_or_expiry": "2027-11-04", "area_ha": null, "tenure_type": "Multi-cell Mining Claim", "source": "Ontario MLAS operational claims (OGSEarth / LIO MapServer). Unofficial viewing data, not legal title.", "as_of": "2026-09-20", "role": "focus", "color": "#e8b040"}}, {"type": "Feature", "geometry": {"type": "Polygon", "coordinates": [[[-90.925, 49.2], [-90.925, 49.1958], [-90.8875, 49.1958], [-90.8875, 49.2], [-90.9, 49.2], [-90.9, 49.2125], [-90.925, 49.2125], [-90.925, 49.2]]]}, "properties": {"company_id": "vr-resources", "jurisdiction": "Ontario", "claim_id": "881757", "claim_name": null, "holder": "(100) VR Resources Ltd", "status": "Active", "recorded_date": "2024-02-29", "anniversary_or_expiry": "2027-11-04", "area_ha": null, "tenure_type": "Multi-cell Mining Claim", "source": "Ontario MLAS operational claims (OGSEarth / LIO MapServer). Unofficial viewing data, not legal title.", "as_of": "2026-09-20", "role": "focus", "color": "#e8b040"}}, {"type": "Feature", "geometry": {"type": "Polygon", "coordinates": [[[-90.8875, 49.1792], [-90.8875, 49.175], [-90.8375, 49.175], [-90.8375, 49.1792], [-90.8313, 49.1792], [-90.8313, 49.1833], [-90.8188, 49.1833], [-90.8188, 49.1875], [-90.8375, 49.1875], [-90.8375, 49.1833], [-90.8438, 49.1833], [-90.8438, 49.1792], [-90.8813, 49.1792], [-90.8813, 49.2], [-90.8875, 49.2], [-90.8875, 49.1792]]]}, "properties": {"company_id": "vr-resources", "jurisdiction": "Ontario", "claim_id": "881756", "claim_name": null, "holder": "(100) VR Resources Ltd", "status": "Active", "recorded_date": "2024-02-29", "anniversary_or_expiry": "2027-11-04", "area_ha": null, "tenure_type": "Multi-cell Mining Claim", "source": "Ontario MLAS operational claims (OGSEarth / LIO MapServer). Unofficial viewing data, not legal title.", "as_of": "2026-09-20", "role": "focus", "color": "#e8b040"}}]}