{"type": "FeatureCollection", "features": [{"type": "Feature", "geometry": {"type": "Polygon", "coordinates": [[[-81.0125, 47.7], [-81.0125, 47.7042], [-81.0188, 47.7042], [-81.0188, 47.7], [-81.0125, 47.7]]]}, "properties": {"company_id": "walker-lane-resources", "jurisdiction": "Ontario", "claim_id": "881812", "claim_name": null, "holder": "(100) Jamieson Scott Walker", "status": "Active", "recorded_date": "2024-03-02", "anniversary_or_expiry": "2027-03-02", "area_ha": null, "tenure_type": "Single Cell Mining Claim", "source": "Ontario MLAS operational claims (OGSEarth / LIO MapServer). Unofficial viewing data, not legal title.", "as_of": "2026-09-20", "role": "focus", "color": "#e8b040"}}, {"type": "Feature", "geometry": {"type": "Polygon", "coordinates": [[[-81.0063, 47.7042], [-81.0063, 47.7083], [-81.0125, 47.7083], [-81.0125, 47.7042], [-81.0063, 47.7042]]]}, "properties": {"company_id": "walker-lane-resources", "jurisdiction": "Ontario", "claim_id": "881813", "claim_name": null, "holder": "(100) Jamieson Scott Walker", "status": "Active", "recorded_date": "2024-03-02", "anniversary_or_expiry": "2027-03-02", "area_ha": null, "tenure_type": "Single Cell Mining Claim", "source": "Ontario MLAS operational claims (OGSEarth / LIO MapServer). Unofficial viewing data, not legal title.", "as_of": "2026-09-20", "role": "focus", "color": "#e8b040"}}, {"type": "Feature", "geometry": {"type": "Polygon", "coordinates": [[[-81.0063, 47.7], [-81.0063, 47.7042], [-81.0125, 47.7042], [-81.0125, 47.7], [-81.0063, 47.7]]]}, "properties": {"company_id": "walker-lane-resources", "jurisdiction": "Ontario", "claim_id": "881814", "claim_name": null, "holder": "(100) Jamieson Scott Walker", "status": "Active", "recorded_date": "2024-03-02", "anniversary_or_expiry": "2027-03-02", "area_ha": null, "tenure_type": "Single Cell Mining Claim", "source": "Ontario MLAS operational claims (OGSEarth / LIO MapServer). Unofficial viewing data, not legal title.", "as_of": "2026-09-20", "role": "focus", "color": "#e8b040"}}, {"type": "Feature", "geometry": {"type": "Polygon", "coordinates": [[[-81.0125, 47.7042], [-81.0125, 47.7083], [-81.0188, 47.7083], [-81.0188, 47.7042], [-81.0125, 47.7042]]]}, "properties": {"company_id": "walker-lane-resources", "jurisdiction": "Ontario", "claim_id": "881815", "claim_name": null, "holder": "(100) Jamieson Scott Walker", "status": "Active", "recorded_date": "2024-03-02", "anniversary_or_expiry": "2027-03-02", "area_ha": null, "tenure_type": "Single Cell Mining Claim", "source": "Ontario MLAS operational claims (OGSEarth / LIO MapServer). Unofficial viewing data, not legal title.", "as_of": "2026-09-20", "role": "focus", "color": "#e8b040"}}, {"type": "Feature", "geometry": {"type": "Polygon", "coordinates": [[[-80.9813, 47.6917], [-80.9813, 47.6958], [-80.9875, 47.6958], [-80.9875, 47.6917], [-80.9813, 47.6917]]]}, "properties": {"company_id": "walker-lane-resources", "jurisdiction": "Ontario", "claim_id": "881823", "claim_name": null, "holder": "(100) Jamieson Scott Walker", "status": "Active", "recorded_date": "2024-03-02", "anniversary_or_expiry": "2027-03-02", "area_ha": null, "tenure_type": "Single Cell Mining Claim", "source": "Ontario MLAS operational claims (OGSEarth / LIO MapServer). Unofficial viewing data, not legal title.", "as_of": "2026-09-20", "role": "focus", "color": "#e8b040"}}, {"type": "Feature", "geometry": {"type": "Polygon", "coordinates": [[[-80.975, 47.6958], [-80.975, 47.7], [-80.9813, 47.7], [-80.9813, 47.6958], [-80.975, 47.6958]]]}, "properties": {"company_id": "walker-lane-resources", "jurisdiction": "Ontario", "claim_id": "881824", "claim_name": null, "holder": "(100) Jamieson Scott Walker", "status": "Active", "recorded_date": "2024-03-02", "anniversary_or_expiry": "2027-03-02", "area_ha": null, "tenure_type": "Single Cell Mining Claim", "source": "Ontario MLAS operational claims (OGSEarth / LIO MapServer). Unofficial viewing data, not legal title.", "as_of": "2026-09-20", "role": "focus", "color": "#e8b040"}}, {"type": "Feature", "geometry": {"type": "Polygon", "coordinates": [[[-80.9813, 47.6958], [-80.9813, 47.7], [-80.9875, 47.7], [-80.9875, 47.6958], [-80.9813, 47.6958]]]}, "properties": {"company_id": "walker-lane-resources", "jurisdiction": "Ontario", "claim_id": "881825", "claim_name": null, "holder": "(100) Jamieson Scott Walker", "status": "Active", "recorded_date": "2024-03-02", "anniversary_or_expiry": "2027-03-02", "area_ha": null, "tenure_type": "Single Cell Mining Claim", "source": "Ontario MLAS operational claims (OGSEarth / LIO MapServer). Unofficial viewing data, not legal title.", "as_of": "2026-09-20", "role": "focus", "color": "#e8b040"}}, {"type": "Feature", "geometry": {"type": "Polygon", "coordinates": [[[-80.975, 47.7], [-80.975, 47.7042], [-80.9813, 47.7042], [-80.9813, 47.7], [-80.975, 47.7]]]}, "properties": {"company_id": "walker-lane-resources", "jurisdiction": "Ontario", "claim_id": "881826", "claim_name": null, "holder": "(100) Jamieson Scott Walker", "status": "Active", "recorded_date": "2024-03-02", "anniversary_or_expiry": "2027-03-02", "area_ha": null, "tenure_type": "Single Cell Mining Claim", "source": "Ontario MLAS operational claims (OGSEarth / LIO MapServer). Unofficial viewing data, not legal title.", "as_of": "2026-09-20", "role": "focus", "color": "#e8b040"}}, {"type": "Feature", "geometry": {"type": "Polygon", "coordinates": [[[-80.9813, 47.6875], [-80.9813, 47.6917], [-80.9875, 47.6917], [-80.9875, 47.6875], [-80.9813, 47.6875]]]}, "properties": {"company_id": "walker-lane-resources", "jurisdiction": "Ontario", "claim_id": "881827", "claim_name": null, "holder": "(100) Jamieson Scott Walker", "status": "Active", "recorded_date": "2024-03-02", "anniversary_or_expiry": "2027-03-02", "area_ha": null, "tenure_type": "Single Cell Mining Claim", "source": "Ontario MLAS operational claims (OGSEarth / LIO MapServer). Unofficial viewing data, not legal title.", "as_of": "2026-09-20", "role": "focus", "color": "#e8b040"}}, {"type": "Feature", "geometry": {"type": "Polygon", "coordinates": [[[-80.9813, 47.7], [-80.9813, 47.7042], [-80.9875, 47.7042], [-80.9875, 47.7], [-80.9813, 47.7]]]}, "properties": {"company_id": "walker-lane-resources", "jurisdiction": "Ontario", "claim_id": "881828", "claim_name": null, "holder": "(100) Jamieson Scott Walker", "status": "Active", "recorded_date": "2024-03-02", "anniversary_or_expiry": "2027-03-02", "area_ha": null, "tenure_type": "Single Cell Mining Claim", "source": "Ontario MLAS operational claims (OGSEarth / LIO MapServer). Unofficial viewing data, not legal title.", "as_of": "2026-09-20", "role": "focus", "color": "#e8b040"}}, {"type": "Feature", "geometry": {"type": "Polygon", "coordinates": [[[-80.975, 47.6917], [-80.975, 47.6958], [-80.9813, 47.6958], [-80.9813, 47.6917], [-80.975, 47.6917]]]}, "properties": {"company_id": "walker-lane-resources", "jurisdiction": "Ontario", "claim_id": "881829", "claim_name": null, "holder": "(100) Jamieson Scott Walker", "status": "Active", "recorded_date": "2024-03-02", "anniversary_or_expiry": "2027-03-02", "area_ha": null, "tenure_type": "Single Cell Mining Claim", "source": "Ontario MLAS operational claims (OGSEarth / LIO MapServer). Unofficial viewing data, not legal title.", "as_of": "2026-09-20", "role": "focus", "color": "#e8b040"}}, {"type": "Feature", "geometry": {"type": "Polygon", "coordinates": [[[-80.975, 47.7083], [-80.975, 47.7125], [-80.9813, 47.7125], [-80.9813, 47.7083], [-80.975, 47.7083]]]}, "properties": {"company_id": "walker-lane-resources", "jurisdiction": "Ontario", "claim_id": "882471", "claim_name": null, "holder": "(100) Jamieson Scott Walker", "status": "Active", "recorded_date": "2024-03-08", "anniversary_or_expiry": "2027-03-08", "area_ha": null, "tenure_type": "Single Cell Mining Claim", "source": "Ontario MLAS operational claims (OGSEarth / LIO MapServer). Unofficial viewing data, not legal title.", "as_of": "2026-09-20", "role": "focus", "color": "#e8b040"}}, {"type": "Feature", "geometry": {"type": "Polygon", "coordinates": [[[-80.9813, 47.7125], [-80.9813, 47.7167], [-80.9875, 47.7167], [-80.9875, 47.7125], [-80.9813, 47.7125]]]}, "properties": {"company_id": "walker-lane-resources", "jurisdiction": "Ontario", "claim_id": "882472", "claim_name": null, "holder": "(100) Jamieson Scott Walker", "status": "Active", "recorded_date": "2024-03-08", "anniversary_or_expiry": "2027-03-08", "area_ha": null, "tenure_type": "Single Cell Mining Claim", "source": "Ontario MLAS operational claims (OGSEarth / LIO MapServer). Unofficial viewing data, not legal title.", "as_of": "2026-09-20", "role": "focus", "color": "#e8b040"}}, {"type": "Feature", "geometry": {"type": "Polygon", "coordinates": [[[-80.9813, 47.7083], [-80.9813, 47.7125], [-80.9875, 47.7125], [-80.9875, 47.7083], [-80.9813, 47.7083]]]}, "properties": {"company_id": "walker-lane-resources", "jurisdiction": "Ontario", "claim_id": "882473", "claim_name": null, "holder": "(100) Jamieson Scott Walker", "status": "Active", "recorded_date": "2024-03-08", "anniversary_or_expiry": "2027-03-08", "area_ha": null, "tenure_type": "Single Cell Mining Claim", "source": "Ontario MLAS operational claims (OGSEarth / LIO MapServer). Unofficial viewing data, not legal title.", "as_of": "2026-09-20", "role": "focus", "color": "#e8b040"}}, {"type": "Feature", "geometry": {"type": "Polygon", "coordinates": [[[-80.9813, 47.7042], [-80.9813, 47.7083], [-80.9875, 47.7083], [-80.9875, 47.7042], [-80.9813, 47.7042]]]}, "properties": {"company_id": "walker-lane-resources", "jurisdiction": "Ontario", "claim_id": "882474", "claim_name": null, "holder": "(100) Jamieson Scott Walker", "status": "Active", "recorded_date": "2024-03-08", "anniversary_or_expiry": "2027-03-08", "area_ha": null, "tenure_type": "Single Cell Mining Claim", "source": "Ontario MLAS operational claims (OGSEarth / LIO MapServer). Unofficial viewing data, not legal title.", "as_of": "2026-09-20", "role": "focus", "color": "#e8b040"}}, {"type": "Feature", "geometry": {"type": "Polygon", "coordinates": [[[-80.975, 47.7042], [-80.975, 47.7083], [-80.9813, 47.7083], [-80.9813, 47.7042], [-80.975, 47.7042]]]}, "properties": {"company_id": "walker-lane-resources", "jurisdiction": "Ontario", "claim_id": "882475", "claim_name": null, "holder": "(100) Jamieson Scott Walker", "status": "Active", "recorded_date": "2024-03-08", "anniversary_or_expiry": "2027-03-08", "area_ha": null, "tenure_type": "Single Cell Mining Claim", "source": "Ontario MLAS operational claims (OGSEarth / LIO MapServer). Unofficial viewing data, not legal title.", "as_of": "2026-09-20", "role": "focus", "color": "#e8b040"}}, {"type": "Feature", "geometry": {"type": "Polygon", "coordinates": [[[-81.0, 47.6958], [-81.0, 47.7], [-81.0063, 47.7], [-81.0063, 47.6958], [-81.0, 47.6958]]]}, "properties": {"company_id": "walker-lane-resources", "jurisdiction": "Ontario", "claim_id": "886914", "claim_name": null, "holder": "(100) Jamieson Scott Walker", "status": "Active", "recorded_date": "2024-04-15", "anniversary_or_expiry": "2027-04-15", "area_ha": null, "tenure_type": "Single Cell Mining Claim", "source": "Ontario MLAS operational claims (OGSEarth / LIO MapServer). Unofficial viewing data, not legal title.", "as_of": "2026-09-20", "role": "focus", "color": "#e8b040"}}, {"type": "Feature", "geometry": {"type": "Polygon", "coordinates": [[[-81.0188, 47.6958], [-81.0188, 47.7], [-81.025, 47.7], [-81.025, 47.6958], [-81.0188, 47.6958]]]}, "properties": {"company_id": "walker-lane-resources", "jurisdiction": "Ontario", "claim_id": "886915", "claim_name": null, "holder": "(100) Jamieson Scott Walker", "status": "Active", "recorded_date": "2024-04-15", "anniversary_or_expiry": "2027-04-15", "area_ha": null, "tenure_type": "Single Cell Mining Claim", "source": "Ontario MLAS operational claims (OGSEarth / LIO MapServer). Unofficial viewing data, not legal title.", "as_of": "2026-09-20", "role": "focus", "color": "#e8b040"}}, {"type": "Feature", "geometry": {"type": "Polygon", "coordinates": [[[-81.0125, 47.6917], [-81.0125, 47.6958], [-81.0188, 47.6958], [-81.0188, 47.6917], [-81.0125, 47.6917]]]}, "properties": {"company_id": "walker-lane-resources", "jurisdiction": "Ontario", "claim_id": "886916", "claim_name": null, "holder": "(100) Jamieson Scott Walker", "status": "Active", "recorded_date": "2024-04-15", "anniversary_or_expiry": "2027-04-15", "area_ha": null, "tenure_type": "Single Cell Mining Claim", "source": "Ontario MLAS operational claims (OGSEarth / LIO MapServer). Unofficial viewing data, not legal title.", "as_of": "2026-09-20", "role": "focus", "color": "#e8b040"}}, {"type": "Feature", "geometry": {"type": "Polygon", "coordinates": [[[-81.0063, 47.6958], [-81.0063, 47.7], [-81.0125, 47.7], [-81.0125, 47.6958], [-81.0063, 47.6958]]]}, "properties": {"company_id": "walker-lane-resources", "jurisdiction": "Ontario", "claim_id": "886917", "claim_name": null, "holder": "(100) Jamieson Scott Walker", "status": "Active", "recorded_date": "2024-04-15", "anniversary_or_expiry": "2027-04-15", "area_ha": null, "tenure_type": "Single Cell Mining Claim", "source": "Ontario MLAS operational claims (OGSEarth / LIO MapServer). Unofficial viewing data, not legal title.", "as_of": "2026-09-20", "role": "focus", "color": "#e8b040"}}, {"type": "Feature", "geometry": {"type": "Polygon", "coordinates": [[[-80.9938, 47.6958], [-80.9938, 47.7], [-81.0, 47.7], [-81.0, 47.6958], [-80.9938, 47.6958]]]}, "properties": {"company_id": "walker-lane-resources", "jurisdiction": "Ontario", "claim_id": "886918", "claim_name": null, "holder": "(100) Jamieson Scott Walker", "status": "Active", "recorded_date": "2024-04-15", "anniversary_or_expiry": "2027-04-15", "area_ha": null, "tenure_type": "Single Cell Mining Claim", "source": "Ontario MLAS operational claims (OGSEarth / LIO MapServer). Unofficial viewing data, not legal title.", "as_of": "2026-09-20", "role": "focus", "color": "#e8b040"}}, {"type": "Feature", "geometry": {"type": "Polygon", "coordinates": [[[-80.9875, 47.6917], [-80.9875, 47.6958], [-80.9938, 47.6958], [-80.9938, 47.6917], [-80.9875, 47.6917]]]}, "properties": {"company_id": "walker-lane-resources", "jurisdiction": "Ontario", "claim_id": "886919", "claim_name": null, "holder": "(100) Jamieson Scott Walker", "status": "Active", "recorded_date": "2024-04-15", "anniversary_or_expiry": "2027-04-15", "area_ha": null, "tenure_type": "Single Cell Mining Claim", "source": "Ontario MLAS operational claims (OGSEarth / LIO MapServer). Unofficial viewing data, not legal title.", "as_of": "2026-09-20", "role": "focus", "color": "#e8b040"}}, {"type": "Feature", "geometry": {"type": "Polygon", "coordinates": [[[-81.0125, 47.6958], [-81.0125, 47.7], [-81.0188, 47.7], [-81.0188, 47.6958], [-81.0125, 47.6958]]]}, "properties": {"company_id": "walker-lane-resources", "jurisdiction": "Ontario", "claim_id": "886920", "claim_name": null, "holder": "(100) Jamieson Scott Walker", "status": "Active", "recorded_date": "2024-04-15", "anniversary_or_expiry": "2027-04-15", "area_ha": null, "tenure_type": "Single Cell Mining Claim", "source": "Ontario MLAS operational claims (OGSEarth / LIO MapServer). Unofficial viewing data, not legal title.", "as_of": "2026-09-20", "role": "focus", "color": "#e8b040"}}, {"type": "Feature", "geometry": {"type": "Polygon", "coordinates": [[[-81.0, 47.6917], [-81.0, 47.6958], [-81.0063, 47.6958], [-81.0063, 47.6917], [-81.0, 47.6917]]]}, "properties": {"company_id": "walker-lane-resources", "jurisdiction": "Ontario", "claim_id": "886921", "claim_name": null, "holder": "(100) Jamieson Scott Walker", "status": "Active", "recorded_date": "2024-04-15", "anniversary_or_expiry": "2027-04-15", "area_ha": null, "tenure_type": "Single Cell Mining Claim", "source": "Ontario MLAS operational claims (OGSEarth / LIO MapServer). Unofficial viewing data, not legal title.", "as_of": "2026-09-20", "role": "focus", "color": "#e8b040"}}, {"type": "Feature", "geometry": {"type": "Polygon", "coordinates": [[[-80.9875, 47.6958], [-80.9875, 47.7], [-80.9938, 47.7], [-80.9938, 47.6958], [-80.9875, 47.6958]]]}, "properties": {"company_id": "walker-lane-resources", "jurisdiction": "Ontario", "claim_id": "886922", "claim_name": null, "holder": "(100) Jamieson Scott Walker", "status": "Active", "recorded_date": "2024-04-15", "anniversary_or_expiry": "2027-04-15", "area_ha": null, "tenure_type": "Single Cell Mining Claim", "source": "Ontario MLAS operational claims (OGSEarth / LIO MapServer). Unofficial viewing data, not legal title.", "as_of": "2026-09-20", "role": "focus", "color": "#e8b040"}}, {"type": "Feature", "geometry": {"type": "Polygon", "coordinates": [[[-81.0188, 47.6917], [-81.0188, 47.6958], [-81.025, 47.6958], [-81.025, 47.6917], [-81.0188, 47.6917]]]}, "properties": {"company_id": "walker-lane-resources", "jurisdiction": "Ontario", "claim_id": "886923", "claim_name": null, "holder": "(100) Jamieson Scott Walker", "status": "Active", "recorded_date": "2024-04-15", "anniversary_or_expiry": "2027-04-15", "area_ha": null, "tenure_type": "Single Cell Mining Claim", "source": "Ontario MLAS operational claims (OGSEarth / LIO MapServer). Unofficial viewing data, not legal title.", "as_of": "2026-09-20", "role": "focus", "color": "#e8b040"}}, {"type": "Feature", "geometry": {"type": "Polygon", "coordinates": [[[-81.0063, 47.6917], [-81.0063, 47.6958], [-81.0125, 47.6958], [-81.0125, 47.6917], [-81.0063, 47.6917]]]}, "properties": {"company_id": "walker-lane-resources", "jurisdiction": "Ontario", "claim_id": "886924", "claim_name": null, "holder": "(100) Jamieson Scott Walker", "status": "Active", "recorded_date": "2024-04-15", "anniversary_or_expiry": "2027-04-15", "area_ha": null, "tenure_type": "Single Cell Mining Claim", "source": "Ontario MLAS operational claims (OGSEarth / LIO MapServer). Unofficial viewing data, not legal title.", "as_of": "2026-09-20", "role": "focus", "color": "#e8b040"}}, {"type": "Feature", "geometry": {"type": "Polygon", "coordinates": [[[-80.9938, 47.6917], [-80.9938, 47.6958], [-81.0, 47.6958], [-81.0, 47.6917], [-80.9938, 47.6917]]]}, "properties": {"company_id": "walker-lane-resources", "jurisdiction": "Ontario", "claim_id": "886925", "claim_name": null, "holder": "(100) Jamieson Scott Walker", "status": "Active", "recorded_date": "2024-04-15", "anniversary_or_expiry": "2027-04-15", "area_ha": null, "tenure_type": "Single Cell Mining Claim", "source": "Ontario MLAS operational claims (OGSEarth / LIO MapServer). Unofficial viewing data, not legal title.", "as_of": "2026-09-20", "role": "focus", "color": "#e8b040"}}, {"type": "Feature", "geometry": {"type": "Polygon", "coordinates": [[[-84.125, 46.825], [-84.125, 46.8292], [-84.1313, 46.8292], [-84.1313, 46.825], [-84.125, 46.825]]]}, "properties": {"company_id": "walker-lane-resources", "jurisdiction": "Ontario", "claim_id": "1035221", "claim_name": null, "holder": "(100) Luke D Walkerley", "status": "Active", "recorded_date": "2026-03-16", "anniversary_or_expiry": "2028-03-16", "area_ha": null, "tenure_type": "Single Cell Mining Claim", "source": "Ontario MLAS operational claims (OGSEarth / LIO MapServer). Unofficial viewing data, not legal title.", "as_of": "2026-09-20", "role": "focus", "color": "#e8b040"}}, {"type": "Feature", "geometry": {"type": "Polygon", "coordinates": [[[-81.0, 47.7042], [-81.0, 47.7083], [-81.0063, 47.7083], [-81.0063, 47.7042], [-81.0, 47.7042]]]}, "properties": {"company_id": "walker-lane-resources", "jurisdiction": "Ontario", "claim_id": "1044577", "claim_name": null, "holder": "(100) Jamieson Scott Walker", "status": "Active", "recorded_date": "2026-04-26", "anniversary_or_expiry": "2028-04-26", "area_ha": null, "tenure_type": "Single Cell Mining Claim", "source": "Ontario MLAS operational claims (OGSEarth / LIO MapServer). Unofficial viewing data, not legal title.", "as_of": "2026-09-20", "role": "focus", "color": "#e8b040"}}, {"type": "Feature", "geometry": {"type": "Polygon", "coordinates": [[[-80.9938, 47.7042], [-80.9938, 47.7083], [-81.0, 47.7083], [-81.0, 47.7042], [-80.9938, 47.7042]]]}, "properties": {"company_id": "walker-lane-resources", "jurisdiction": "Ontario", "claim_id": "1044578", "claim_name": null, "holder": "(100) Jamieson Scott Walker", "status": "Active", "recorded_date": "2026-04-26", "anniversary_or_expiry": "2028-04-26", "area_ha": null, "tenure_type": "Single Cell Mining Claim", "source": "Ontario MLAS operational claims (OGSEarth / LIO MapServer). Unofficial viewing data, not legal title.", "as_of": "2026-09-20", "role": "focus", "color": "#e8b040"}}, {"type": "Feature", "geometry": {"type": "Polygon", "coordinates": [[[-80.9875, 47.7042], [-80.9875, 47.7083], [-80.9938, 47.7083], [-80.9938, 47.7042], [-80.9875, 47.7042]]]}, "properties": {"company_id": "walker-lane-resources", "jurisdiction": "Ontario", "claim_id": "1044579", "claim_name": null, "holder": "(100) Jamieson Scott Walker", "status": "Active", "recorded_date": "2026-04-26", "anniversary_or_expiry": "2028-04-26", "area_ha": null, "tenure_type": "Single Cell Mining Claim", "source": "Ontario MLAS operational claims (OGSEarth / LIO MapServer). Unofficial viewing data, not legal title.", "as_of": "2026-09-20", "role": "focus", "color": "#e8b040"}}, {"type": "Feature", "geometry": {"type": "Polygon", "coordinates": [[[-81.0, 47.7], [-81.0, 47.7042], [-81.0063, 47.7042], [-81.0063, 47.7], [-81.0, 47.7]]]}, "properties": {"company_id": "walker-lane-resources", "jurisdiction": "Ontario", "claim_id": "1044580", "claim_name": null, "holder": "(100) Jamieson Scott Walker", "status": "Active", "recorded_date": "2026-04-26", "anniversary_or_expiry": "2028-04-26", "area_ha": null, "tenure_type": "Single Cell Mining Claim", "source": "Ontario MLAS operational claims (OGSEarth / LIO MapServer). Unofficial viewing data, not legal title.", "as_of": "2026-09-20", "role": "focus", "color": "#e8b040"}}, {"type": "Feature", "geometry": {"type": "Polygon", "coordinates": [[[-80.9938, 47.7], [-80.9938, 47.7042], [-81.0, 47.7042], [-81.0, 47.7], [-80.9938, 47.7]]]}, "properties": {"company_id": "walker-lane-resources", "jurisdiction": "Ontario", "claim_id": "1044581", "claim_name": null, "holder": "(100) Jamieson Scott Walker", "status": "Active", "recorded_date": "2026-04-26", "anniversary_or_expiry": "2028-04-26", "area_ha": null, "tenure_type": "Single Cell Mining Claim", "source": "Ontario MLAS operational claims (OGSEarth / LIO MapServer). Unofficial viewing data, not legal title.", "as_of": "2026-09-20", "role": "focus", "color": "#e8b040"}}, {"type": "Feature", "geometry": {"type": "Polygon", "coordinates": [[[-80.9875, 47.7], [-80.9875, 47.7042], [-80.9938, 47.7042], [-80.9938, 47.7], [-80.9875, 47.7]]]}, "properties": {"company_id": "walker-lane-resources", "jurisdiction": "Ontario", "claim_id": "1044582", "claim_name": null, "holder": "(100) Jamieson Scott Walker", "status": "Active", "recorded_date": "2026-04-26", "anniversary_or_expiry": "2028-04-26", "area_ha": null, "tenure_type": "Single Cell Mining Claim", "source": "Ontario MLAS operational claims (OGSEarth / LIO MapServer). Unofficial viewing data, not legal title.", "as_of": "2026-09-20", "role": "focus", "color": "#e8b040"}}, {"type": "Feature", "geometry": {"type": "Polygon", "coordinates": [[[-80.9938, 47.6833], [-80.9938, 47.6875], [-81.0, 47.6875], [-81.0, 47.6833], [-80.9938, 47.6833]]]}, "properties": {"company_id": "walker-lane-resources", "jurisdiction": "Ontario", "claim_id": "1044923", "claim_name": null, "holder": "(100) Jamieson Scott Walker", "status": "Active", "recorded_date": "2026-04-29", "anniversary_or_expiry": "2028-04-29", "area_ha": null, "tenure_type": "Single Cell Mining Claim", "source": "Ontario MLAS operational claims (OGSEarth / LIO MapServer). Unofficial viewing data, not legal title.", "as_of": "2026-09-20", "role": "focus", "color": "#e8b040"}}, {"type": "Feature", "geometry": {"type": "Polygon", "coordinates": [[[-80.9938, 47.6792], [-80.9938, 47.6833], [-81.0, 47.6833], [-81.0, 47.6792], [-80.9938, 47.6792]]]}, "properties": {"company_id": "walker-lane-resources", "jurisdiction": "Ontario", "claim_id": "1044924", "claim_name": null, "holder": "(100) Jamieson Scott Walker", "status": "Active", "recorded_date": "2026-04-29", "anniversary_or_expiry": "2028-04-29", "area_ha": null, "tenure_type": "Single Cell Mining Claim", "source": "Ontario MLAS operational claims (OGSEarth / LIO MapServer). Unofficial viewing data, not legal title.", "as_of": "2026-09-20", "role": "focus", "color": "#e8b040"}}, {"type": "Feature", "geometry": {"type": "Polygon", "coordinates": [[[-80.9875, 47.6792], [-80.9875, 47.6833], [-80.9938, 47.6833], [-80.9938, 47.6792], [-80.9875, 47.6792]]]}, "properties": {"company_id": "walker-lane-resources", "jurisdiction": "Ontario", "claim_id": "1044925", "claim_name": null, "holder": "(100) Jamieson Scott Walker", "status": "Active", "recorded_date": "2026-04-29", "anniversary_or_expiry": "2028-04-29", "area_ha": null, "tenure_type": "Single Cell Mining Claim", "source": "Ontario MLAS operational claims (OGSEarth / LIO MapServer). Unofficial viewing data, not legal title.", "as_of": "2026-09-20", "role": "focus", "color": "#e8b040"}}, {"type": "Feature", "geometry": {"type": "Polygon", "coordinates": [[[-80.9813, 47.6792], [-80.9813, 47.6833], [-80.9875, 47.6833], [-80.9875, 47.6792], [-80.9813, 47.6792]]]}, "properties": {"company_id": "walker-lane-resources", "jurisdiction": "Ontario", "claim_id": "1044926", "claim_name": null, "holder": "(100) Jamieson Scott Walker", "status": "Active", "recorded_date": "2026-04-29", "anniversary_or_expiry": "2028-04-29", "area_ha": null, "tenure_type": "Single Cell Mining Claim", "source": "Ontario MLAS operational claims (OGSEarth / LIO MapServer). Unofficial viewing data, not legal title.", "as_of": "2026-09-20", "role": "focus", "color": "#e8b040"}}, {"type": "Feature", "geometry": {"type": "Polygon", "coordinates": [[[-80.975, 47.6792], [-80.975, 47.6833], [-80.9813, 47.6833], [-80.9813, 47.6792], [-80.975, 47.6792]]]}, "properties": {"company_id": "walker-lane-resources", "jurisdiction": "Ontario", "claim_id": "1044927", "claim_name": null, "holder": "(100) Jamieson Scott Walker", "status": "Active", "recorded_date": "2026-04-29", "anniversary_or_expiry": "2028-04-29", "area_ha": null, "tenure_type": "Single Cell Mining Claim", "source": "Ontario MLAS operational claims (OGSEarth / LIO MapServer). Unofficial viewing data, not legal title.", "as_of": "2026-09-20", "role": "focus", "color": "#e8b040"}}, {"type": "Feature", "geometry": {"type": "Polygon", "coordinates": [[[-80.9875, 47.6875], [-80.9875, 47.6917], [-80.9938, 47.6917], [-80.9938, 47.6875], [-80.9875, 47.6875]]]}, "properties": {"company_id": "walker-lane-resources", "jurisdiction": "Ontario", "claim_id": "1044944", "claim_name": null, "holder": "(100) Jamieson Scott Walker", "status": "Active", "recorded_date": "2026-04-30", "anniversary_or_expiry": "2028-04-30", "area_ha": null, "tenure_type": "Single Cell Mining Claim", "source": "Ontario MLAS operational claims (OGSEarth / LIO MapServer). Unofficial viewing data, not legal title.", "as_of": "2026-09-20", "role": "focus", "color": "#e8b040"}}, {"type": "Feature", "geometry": {"type": "Polygon", "coordinates": [[[-80.9938, 47.6875], [-80.9938, 47.6917], [-81.0, 47.6917], [-81.0, 47.6875], [-80.9938, 47.6875]]]}, "properties": {"company_id": "walker-lane-resources", "jurisdiction": "Ontario", "claim_id": "1044945", "claim_name": null, "holder": "(100) Jamieson Scott Walker", "status": "Active", "recorded_date": "2026-04-30", "anniversary_or_expiry": "2028-04-30", "area_ha": null, "tenure_type": "Single Cell Mining Claim", "source": "Ontario MLAS operational claims (OGSEarth / LIO MapServer). Unofficial viewing data, not legal title.", "as_of": "2026-09-20", "role": "focus", "color": "#e8b040"}}, {"type": "Feature", "geometry": {"type": "Polygon", "coordinates": [[[-80.975, 47.6875], [-80.975, 47.6917], [-80.9813, 47.6917], [-80.9813, 47.6875], [-80.975, 47.6875]]]}, "properties": {"company_id": "walker-lane-resources", "jurisdiction": "Ontario", "claim_id": "1045848", "claim_name": null, "holder": "(100) Jamieson Scott Walker", "status": "Active", "recorded_date": "2026-05-07", "anniversary_or_expiry": "2028-05-07", "area_ha": null, "tenure_type": "Single Cell Mining Claim", "source": "Ontario MLAS operational claims (OGSEarth / LIO MapServer). Unofficial viewing data, not legal title.", "as_of": "2026-09-20", "role": "focus", "color": "#e8b040"}}, {"type": "Feature", "geometry": {"type": "Polygon", "coordinates": [[[-80.975, 47.6833], [-80.975, 47.6875], [-80.9813, 47.6875], [-80.9813, 47.6833], [-80.975, 47.6833]]]}, "properties": {"company_id": "walker-lane-resources", "jurisdiction": "Ontario", "claim_id": "1045849", "claim_name": null, "holder": "(100) Jamieson Scott Walker", "status": "Active", "recorded_date": "2026-05-07", "anniversary_or_expiry": "2028-05-07", "area_ha": null, "tenure_type": "Single Cell Mining Claim", "source": "Ontario MLAS operational claims (OGSEarth / LIO MapServer). Unofficial viewing data, not legal title.", "as_of": "2026-09-20", "role": "focus", "color": "#e8b040"}}, {"type": "Feature", "geometry": {"type": "Polygon", "coordinates": [[[-80.975, 47.7125], [-80.975, 47.7167], [-80.9813, 47.7167], [-80.9813, 47.7125], [-80.975, 47.7125]]]}, "properties": {"company_id": "walker-lane-resources", "jurisdiction": "Ontario", "claim_id": "1045850", "claim_name": null, "holder": "(100) Jamieson Scott Walker", "status": "Active", "recorded_date": "2026-05-07", "anniversary_or_expiry": "2028-05-07", "area_ha": null, "tenure_type": "Single Cell Mining Claim", "source": "Ontario MLAS operational claims (OGSEarth / LIO MapServer). Unofficial viewing data, not legal title.", "as_of": "2026-09-20", "role": "focus", "color": "#e8b040"}}, {"type": "Feature", "geometry": {"type": "Polygon", "coordinates": [[[-80.9938, 47.7125], [-80.9938, 47.7167], [-81.0, 47.7167], [-81.0, 47.7125], [-80.9938, 47.7125]]]}, "properties": {"company_id": "walker-lane-resources", "jurisdiction": "Ontario", "claim_id": "1050902", "claim_name": null, "holder": "(100) Jamieson Scott Walker", "status": "Active", "recorded_date": "2026-06-09", "anniversary_or_expiry": "2028-06-09", "area_ha": null, "tenure_type": "Single Cell Mining Claim", "source": "Ontario MLAS operational claims (OGSEarth / LIO MapServer). Unofficial viewing data, not legal title.", "as_of": "2026-09-20", "role": "focus", "color": "#e8b040"}}, {"type": "Feature", "geometry": {"type": "Polygon", "coordinates": [[[-80.9875, 47.7125], [-80.9875, 47.7167], [-80.9938, 47.7167], [-80.9938, 47.7125], [-80.9875, 47.7125]]]}, "properties": {"company_id": "walker-lane-resources", "jurisdiction": "Ontario", "claim_id": "1050903", "claim_name": null, "holder": "(100) Jamieson Scott Walker", "status": "Active", "recorded_date": "2026-06-09", "anniversary_or_expiry": "2028-06-09", "area_ha": null, "tenure_type": "Single Cell Mining Claim", "source": "Ontario MLAS operational claims (OGSEarth / LIO MapServer). Unofficial viewing data, not legal title.", "as_of": "2026-09-20", "role": "focus", "color": "#e8b040"}}, {"type": "Feature", "geometry": {"type": "Polygon", "coordinates": [[[-80.9938, 47.7083], [-80.9938, 47.7125], [-81.0, 47.7125], [-81.0, 47.7083], [-80.9938, 47.7083]]]}, "properties": {"company_id": "walker-lane-resources", "jurisdiction": "Ontario", "claim_id": "1050904", "claim_name": null, "holder": "(100) Jamieson Scott Walker", "status": "Active", "recorded_date": "2026-06-09", "anniversary_or_expiry": "2028-06-09", "area_ha": null, "tenure_type": "Single Cell Mining Claim", "source": "Ontario MLAS operational claims (OGSEarth / LIO MapServer). Unofficial viewing data, not legal title.", "as_of": "2026-09-20", "role": "focus", "color": "#e8b040"}}, {"type": "Feature", "geometry": {"type": "Polygon", "coordinates": [[[-80.9875, 47.7083], [-80.9875, 47.7125], [-80.9938, 47.7125], [-80.9938, 47.7083], [-80.9875, 47.7083]]]}, "properties": {"company_id": "walker-lane-resources", "jurisdiction": "Ontario", "claim_id": "1050905", "claim_name": null, "holder": "(100) Jamieson Scott Walker", "status": "Active", "recorded_date": "2026-06-09", "anniversary_or_expiry": "2028-06-09", "area_ha": null, "tenure_type": "Single Cell Mining Claim", "source": "Ontario MLAS operational claims (OGSEarth / LIO MapServer). Unofficial viewing data, not legal title.", "as_of": "2026-09-20", "role": "focus", "color": "#e8b040"}}, {"type": "Feature", "geometry": {"type": "Polygon", "coordinates": [[[-81.0, 47.7125], [-81.0, 47.7167], [-81.0063, 47.7167], [-81.0063, 47.7125], [-81.0, 47.7125]]]}, "properties": {"company_id": "walker-lane-resources", "jurisdiction": "Ontario", "claim_id": "1050906", "claim_name": null, "holder": "(100) Jamieson Scott Walker", "status": "Active", "recorded_date": "2026-06-09", "anniversary_or_expiry": "2028-06-09", "area_ha": null, "tenure_type": "Single Cell Mining Claim", "source": "Ontario MLAS operational claims (OGSEarth / LIO MapServer). Unofficial viewing data, not legal title.", "as_of": "2026-09-20", "role": "focus", "color": "#e8b040"}}, {"type": "Feature", "geometry": {"type": "Polygon", "coordinates": [[[-81.0, 47.7083], [-81.0, 47.7125], [-81.0063, 47.7125], [-81.0063, 47.7083], [-81.0, 47.7083]]]}, "properties": {"company_id": "walker-lane-resources", "jurisdiction": "Ontario", "claim_id": "1050907", "claim_name": null, "holder": "(100) Jamieson Scott Walker", "status": "Active", "recorded_date": "2026-06-09", "anniversary_or_expiry": "2028-06-09", "area_ha": null, "tenure_type": "Single Cell Mining Claim", "source": "Ontario MLAS operational claims (OGSEarth / LIO MapServer). Unofficial viewing data, not legal title.", "as_of": "2026-09-20", "role": "focus", "color": "#e8b040"}}]}