{"type": "FeatureCollection", "features": [{"type": "Feature", "geometry": {"type": "Polygon", "coordinates": [[[-116.0636, 49.3708], [-116.0698, 49.3708], [-116.0698, 49.3666], [-116.0636, 49.3666], [-116.0636, 49.3625], [-116.0573, 49.3625], [-116.0573, 49.3666], [-116.0511, 49.3666], [-116.0511, 49.3708], [-116.0448, 49.3708], [-116.0448, 49.375], [-116.0573, 49.375], [-116.0573, 49.3708], [-116.0636, 49.3708]]]}, "properties": {"company_id": "walker-lane-resources", "jurisdiction": "British Columbia", "claim_id": 522275, "claim_name": null, "holder": "WALKER, SONJA MARIE", "status": "Placer", "recorded_date": "2005-11-14", "anniversary_or_expiry": "2025-05-20", "area_ha": 126.2261, "tenure_type": "Placer", "source": "BC MTA Mineral, Placer and Coal Tenure Spatial View (BCGW). Open Government Licence - British Columbia. Not legal title.", "as_of": "2026-09-20", "role": "focus", "color": "#e8b040"}}]}