{"type": "FeatureCollection", "features": [{"type": "Feature", "geometry": {"type": "Polygon", "coordinates": [[[-121.2036, 50.068], [-121.2036, 50.0725], [-121.2106, 50.0725], [-121.2106, 50.068], [-121.2036, 50.068]]]}, "properties": {"company_id": "westhaven-gold", "jurisdiction": "British Columbia", "claim_id": 403445, "claim_name": "PV 11", "holder": "WESTHAVEN GOLD CORP.", "status": "Mineral", "recorded_date": "2003-06-21", "anniversary_or_expiry": "2027-03-29", "area_ha": 25, "tenure_type": "Mineral", "source": "BC MTA Mineral, Placer and Coal Tenure Spatial View (BCGW). Open Government Licence - British Columbia. Not legal title.", "as_of": "2026-09-20", "role": "focus", "color": "#e8b040"}}, {"type": "Feature", "geometry": {"type": "Polygon", "coordinates": [[[-121.2087, 50.1862], [-121.2087, 50.196], [-121.2297, 50.196], [-121.2297, 50.1691], [-121.212, 50.1691], [-121.212, 50.1862], [-121.2087, 50.1862]]]}, "properties": {"company_id": "westhaven-gold", "jurisdiction": "British Columbia", "claim_id": 410537, "claim_name": "SHAK 1", "holder": "WESTHAVEN GOLD CORP.", "status": "Mineral", "recorded_date": "2004-05-15", "anniversary_or_expiry": "2027-03-29", "area_ha": 450, "tenure_type": "Mineral", "source": "BC MTA Mineral, Placer and Coal Tenure Spatial View (BCGW). Open Government Licence - British Columbia. Not legal title.", "as_of": "2026-09-20", "role": "focus", "color": "#e8b040"}}, {"type": "Feature", "geometry": {"type": "Polygon", "coordinates": [[[-121.231, 50.1691], [-121.2297, 50.1691], [-121.2297, 50.196], [-121.2507, 50.196], [-121.2507, 50.1691], [-121.231, 50.1691]]]}, "properties": {"company_id": "westhaven-gold", "jurisdiction": "British Columbia", "claim_id": 410538, "claim_name": "SHAK 2", "holder": "WESTHAVEN GOLD CORP.", "status": "Mineral", "recorded_date": "2004-05-15", "anniversary_or_expiry": "2027-03-29", "area_ha": 450, "tenure_type": "Mineral", "source": "BC MTA Mineral, Placer and Coal Tenure Spatial View (BCGW). Open Government Licence - British Columbia. Not legal title.", "as_of": "2026-09-20", "role": "focus", "color": "#e8b040"}}, {"type": "Feature", "geometry": {"type": "Polygon", "coordinates": [[[-121.231, 50.1511], [-121.231, 50.1691], [-121.266, 50.1691], [-121.266, 50.1511], [-121.231, 50.1511]]]}, "properties": {"company_id": "westhaven-gold", "jurisdiction": "British Columbia", "claim_id": 410539, "claim_name": "SHAK 3", "holder": "WESTHAVEN GOLD CORP.", "status": "Mineral", "recorded_date": "2004-05-18", "anniversary_or_expiry": "2027-03-29", "area_ha": 500, "tenure_type": "Mineral", "source": "BC MTA Mineral, Placer and Coal Tenure Spatial View (BCGW). Open Government Licence - British Columbia. Not legal title.", "as_of": "2026-09-20", "role": "focus", "color": "#e8b040"}}, {"type": "Feature", "geometry": {"type": "Polygon", "coordinates": [[[-121.231, 50.1511], [-121.266, 50.1511], [-121.266, 50.1421], [-121.231, 50.1421], [-121.231, 50.1511]]]}, "properties": {"company_id": "westhaven-gold", "jurisdiction": "British Columbia", "claim_id": 410540, "claim_name": "SHAK 4", "holder": "WESTHAVEN GOLD CORP.", "status": "Mineral", "recorded_date": "2004-05-18", "anniversary_or_expiry": "2027-03-29", "area_ha": 250, "tenure_type": "Mineral", "source": "BC MTA Mineral, Placer and Coal Tenure Spatial View (BCGW). Open Government Licence - British Columbia. Not legal title.", "as_of": "2026-09-20", "role": "focus", "color": "#e8b040"}}, {"type": "Feature", "geometry": {"type": "Polygon", "coordinates": [[[-121.161, 50.1421], [-121.161, 50.1511], [-121.196, 50.1511], [-121.196, 50.1331], [-121.1611, 50.1331], [-121.161, 50.1421]]]}, "properties": {"company_id": "westhaven-gold", "jurisdiction": "British Columbia", "claim_id": 410556, "claim_name": "NU 7", "holder": "WESTHAVEN GOLD CORP.", "status": "Mineral", "recorded_date": "2004-05-16", "anniversary_or_expiry": "2027-03-29", "area_ha": 500, "tenure_type": "Mineral", "source": "BC MTA Mineral, Placer and Coal Tenure Spatial View (BCGW). Open Government Licence - British Columbia. Not legal title.", "as_of": "2026-09-20", "role": "focus", "color": "#e8b040"}}, {"type": "Feature", "geometry": {"type": "Polygon", "coordinates": [[[-121.2242, 50.1331], [-121.196, 50.1331], [-121.196, 50.1511], [-121.231, 50.1511], [-121.231, 50.1331], [-121.2242, 50.1331]]]}, "properties": {"company_id": "westhaven-gold", "jurisdiction": "British Columbia", "claim_id": 410557, "claim_name": "NU 8", "holder": "WESTHAVEN GOLD CORP.", "status": "Mineral", "recorded_date": "2004-05-16", "anniversary_or_expiry": "2027-03-29", "area_ha": 500, "tenure_type": "Mineral", "source": "BC MTA Mineral, Placer and Coal Tenure Spatial View (BCGW). Open Government Licence - British Columbia. Not legal title.", "as_of": "2026-09-20", "role": "focus", "color": "#e8b040"}}, {"type": "Feature", "geometry": {"type": "Polygon", "coordinates": [[[-121.177, 50.1691], [-121.177, 50.1682], [-121.196, 50.1682], [-121.196, 50.1511], [-121.161, 50.1511], [-121.161, 50.1691], [-121.177, 50.1691]]]}, "properties": {"company_id": "westhaven-gold", "jurisdiction": "British Columbia", "claim_id": 410558, "claim_name": "NU 9", "holder": "WESTHAVEN GOLD CORP.", "status": "Mineral", "recorded_date": "2004-05-16", "anniversary_or_expiry": "2027-03-29", "area_ha": 500, "tenure_type": "Mineral", "source": "BC MTA Mineral, Placer and Coal Tenure Spatial View (BCGW). Open Government Licence - British Columbia. Not legal title.", "as_of": "2026-09-20", "role": "focus", "color": "#e8b040"}}, {"type": "Feature", "geometry": {"type": "Polygon", "coordinates": [[[-121.2297, 50.1691], [-121.231, 50.1691], [-121.231, 50.1511], [-121.196, 50.1511], [-121.196, 50.1682], [-121.212, 50.1682], [-121.212, 50.1691], [-121.2297, 50.1691]]]}, "properties": {"company_id": "westhaven-gold", "jurisdiction": "British Columbia", "claim_id": 410559, "claim_name": "NU 10", "holder": "WESTHAVEN GOLD CORP.", "status": "Mineral", "recorded_date": "2004-05-16", "anniversary_or_expiry": "2027-03-29", "area_ha": 500, "tenure_type": "Mineral", "source": "BC MTA Mineral, Placer and Coal Tenure Spatial View (BCGW). Open Government Licence - British Columbia. Not legal title.", "as_of": "2026-09-20", "role": "focus", "color": "#e8b040"}}, {"type": "Feature", "geometry": {"type": "Polygon", "coordinates": [[[-121.4701, 50.3249], [-121.4701, 50.3166], [-121.4451, 50.3166], [-121.4451, 50.3291], [-121.4701, 50.3291], [-121.4701, 50.3249]]]}, "properties": {"company_id": "westhaven-gold", "jurisdiction": "British Columbia", "claim_id": 503075, "claim_name": "SAMS", "holder": "WESTHAVEN GOLD CORP.", "status": "Mineral", "recorded_date": "2005-01-13", "anniversary_or_expiry": "2033-08-01", "area_ha": 247.56570000000002, "tenure_type": "Mineral", "source": "BC MTA Mineral, Placer and Coal Tenure Spatial View (BCGW). Open Government Licence - British Columbia. Not legal title.", "as_of": "2026-09-20", "role": "focus", "color": "#e8b040"}}, {"type": "Feature", "geometry": {"type": "Polygon", "coordinates": [[[-121.5076, 50.3207], [-121.5138, 50.3207], [-121.5138, 50.3166], [-121.5076, 50.3166], [-121.5076, 50.3207]]]}, "properties": {"company_id": "westhaven-gold", "jurisdiction": "British Columbia", "claim_id": 503078, "claim_name": "SAMS", "holder": "WESTHAVEN GOLD CORP.", "status": "Mineral", "recorded_date": "2005-01-13", "anniversary_or_expiry": "2033-08-01", "area_ha": 20.6319, "tenure_type": "Mineral", "source": "BC MTA Mineral, Placer and Coal Tenure Spatial View (BCGW). Open Government Licence - British Columbia. Not legal title.", "as_of": "2026-09-20", "role": "focus", "color": "#e8b040"}}, {"type": "Feature", "geometry": {"type": "Polygon", "coordinates": [[[-121.5138, 50.3124], [-121.5138, 50.3041], [-121.5076, 50.3041], [-121.5076, 50.3166], [-121.5138, 50.3166], [-121.5138, 50.3124]]]}, "properties": {"company_id": "westhaven-gold", "jurisdiction": "British Columbia", "claim_id": 503082, "claim_name": "SAMS", "holder": "WESTHAVEN GOLD CORP.", "status": "Mineral", "recorded_date": "2005-01-13", "anniversary_or_expiry": "2033-08-01", "area_ha": 61.906200000000005, "tenure_type": "Mineral", "source": "BC MTA Mineral, Placer and Coal Tenure Spatial View (BCGW). Open Government Licence - British Columbia. Not legal title.", "as_of": "2026-09-20", "role": "focus", "color": "#e8b040"}}, {"type": "Feature", "geometry": {"type": "Polygon", "coordinates": [[[-121.1263, 50.1374], [-121.1325, 50.1374], [-121.1325, 50.1332], [-121.1075, 50.1332], [-121.1075, 50.1415], [-121.1013, 50.1415], [-121.1013, 50.1666], [-121.1138, 50.1666], [-121.1138, 50.1374], [-121.1263, 50.1374]]]}, "properties": {"company_id": "westhaven-gold", "jurisdiction": "British Columbia", "claim_id": 506056, "claim_name": "PVE1", "holder": "WESTHAVEN GOLD CORP.", "status": "Mineral", "recorded_date": "2005-02-07", "anniversary_or_expiry": "2027-03-29", "area_ha": 352.02, "tenure_type": "Mineral", "source": "BC MTA Mineral, Placer and Coal Tenure Spatial View (BCGW). Open Government Licence - British Columbia. Not legal title.", "as_of": "2026-09-20", "role": "focus", "color": "#e8b040"}}, {"type": "Feature", "geometry": {"type": "Polygon", "coordinates": [[[-121.1388, 50.129], [-121.1388, 50.1124], [-121.1075, 50.1124], [-121.1075, 50.1332], [-121.1388, 50.1332], [-121.1388, 50.129]]]}, "properties": {"company_id": "westhaven-gold", "jurisdiction": "British Columbia", "claim_id": 506060, "claim_name": "PVE2", "holder": "WESTHAVEN GOLD CORP.", "status": "Mineral", "recorded_date": "2005-02-07", "anniversary_or_expiry": "2027-03-29", "area_ha": 517.9490000000001, "tenure_type": "Mineral", "source": "BC MTA Mineral, Placer and Coal Tenure Spatial View (BCGW). Open Government Licence - British Columbia. Not legal title.", "as_of": "2026-09-20", "role": "focus", "color": "#e8b040"}}, {"type": "Feature", "geometry": {"type": "Polygon", "coordinates": [[[-121.1575, 50.1082], [-121.1575, 50.104], [-121.1075, 50.104], [-121.1075, 50.1124], [-121.1575, 50.1124], [-121.1575, 50.1082]]]}, "properties": {"company_id": "westhaven-gold", "jurisdiction": "British Columbia", "claim_id": 506062, "claim_name": "PVE3", "holder": "WESTHAVEN GOLD CORP.", "status": "Mineral", "recorded_date": "2005-02-07", "anniversary_or_expiry": "2027-03-29", "area_ha": 331.586, "tenure_type": "Mineral", "source": "BC MTA Mineral, Placer and Coal Tenure Spatial View (BCGW). Open Government Licence - British Columbia. Not legal title.", "as_of": "2026-09-20", "role": "focus", "color": "#e8b040"}}, {"type": "Feature", "geometry": {"type": "Polygon", "coordinates": [[[-121.1638, 50.0999], [-121.1638, 50.0624], [-121.1575, 50.0624], [-121.1575, 50.0832], [-121.1513, 50.0832], [-121.1513, 50.0957], [-121.145, 50.0957], [-121.145, 50.104], [-121.1638, 50.104], [-121.1638, 50.0999]]]}, "properties": {"company_id": "westhaven-gold", "jurisdiction": "British Columbia", "claim_id": 506065, "claim_name": "PVE4", "holder": "WESTHAVEN GOLD CORP.", "status": "Mineral", "recorded_date": "2005-02-07", "anniversary_or_expiry": "2027-03-29", "area_ha": 352.451, "tenure_type": "Mineral", "source": "BC MTA Mineral, Placer and Coal Tenure Spatial View (BCGW). Open Government Licence - British Columbia. Not legal title.", "as_of": "2026-09-20", "role": "focus", "color": "#e8b040"}}, {"type": "Feature", "geometry": {"type": "Polygon", "coordinates": [[[-120.9013, 49.8832], [-120.9013, 49.8665], [-120.87, 49.8665], [-120.87, 49.8874], [-120.9013, 49.8874], [-120.9013, 49.8832]]]}, "properties": {"company_id": "westhaven-gold", "jurisdiction": "British Columbia", "claim_id": 521056, "claim_name": "SHOVEL-3", "holder": "WESTHAVEN GOLD CORP.", "status": "Mineral", "recorded_date": "2005-10-12", "anniversary_or_expiry": "2033-05-19", "area_ha": 520.523, "tenure_type": "Mineral", "source": "BC MTA Mineral, Placer and Coal Tenure Spatial View (BCGW). Open Government Licence - British Columbia. Not legal title.", "as_of": "2026-09-20", "role": "focus", "color": "#e8b040"}}, {"type": "Feature", "geometry": {"type": "Polygon", "coordinates": [[[-120.87, 49.8832], [-120.87, 49.8665], [-120.8388, 49.8665], [-120.8388, 49.8874], [-120.87, 49.8874], [-120.87, 49.8832]]]}, "properties": {"company_id": "westhaven-gold", "jurisdiction": "British Columbia", "claim_id": 521057, "claim_name": "SHOVEL-4", "holder": "WESTHAVEN GOLD CORP.", "status": "Mineral", "recorded_date": "2005-10-12", "anniversary_or_expiry": "2033-05-19", "area_ha": 520.523, "tenure_type": "Mineral", "source": "BC MTA Mineral, Placer and Coal Tenure Spatial View (BCGW). Open Government Licence - British Columbia. Not legal title.", "as_of": "2026-09-20", "role": "focus", "color": "#e8b040"}}, {"type": "Feature", "geometry": {"type": "Polygon", "coordinates": [[[-120.8388, 49.904], [-120.8388, 49.8874], [-120.8075, 49.8874], [-120.8075, 49.9082], [-120.8388, 49.9082], [-120.8388, 49.904]]]}, "properties": {"company_id": "westhaven-gold", "jurisdiction": "British Columbia", "claim_id": 521059, "claim_name": "SHOVEL-5", "holder": "WESTHAVEN GOLD CORP.", "status": "Mineral", "recorded_date": "2005-10-12", "anniversary_or_expiry": "2033-05-19", "area_ha": 520.308, "tenure_type": "Mineral", "source": "BC MTA Mineral, Placer and Coal Tenure Spatial View (BCGW). Open Government Licence - British Columbia. Not legal title.", "as_of": "2026-09-20", "role": "focus", "color": "#e8b040"}}, {"type": "Feature", "geometry": {"type": "Polygon", "coordinates": [[[-120.8388, 49.8832], [-120.8388, 49.8665], [-120.8075, 49.8665], [-120.8075, 49.8874], [-120.8388, 49.8874], [-120.8388, 49.8832]]]}, "properties": {"company_id": "westhaven-gold", "jurisdiction": "British Columbia", "claim_id": 521060, "claim_name": "SHOVEL-6", "holder": "WESTHAVEN GOLD CORP.", "status": "Mineral", "recorded_date": "2005-10-12", "anniversary_or_expiry": "2033-05-19", "area_ha": 520.527, "tenure_type": "Mineral", "source": "BC MTA Mineral, Placer and Coal Tenure Spatial View (BCGW). Open Government Licence - British Columbia. Not legal title.", "as_of": "2026-09-20", "role": "focus", "color": "#e8b040"}}, {"type": "Feature", "geometry": {"type": "Polygon", "coordinates": [[[-120.87, 49.8624], [-120.87, 49.8457], [-120.8388, 49.8457], [-120.8388, 49.8665], [-120.87, 49.8665], [-120.87, 49.8624]]]}, "properties": {"company_id": "westhaven-gold", "jurisdiction": "British Columbia", "claim_id": 521061, "claim_name": "SHOVEL-7", "holder": "WESTHAVEN GOLD CORP.", "status": "Mineral", "recorded_date": "2005-10-12", "anniversary_or_expiry": "2033-05-19", "area_ha": 520.744, "tenure_type": "Mineral", "source": "BC MTA Mineral, Placer and Coal Tenure Spatial View (BCGW). Open Government Licence - British Columbia. Not legal title.", "as_of": "2026-09-20", "role": "focus", "color": "#e8b040"}}, {"type": "Feature", "geometry": {"type": "Polygon", "coordinates": [[[-120.8388, 49.8624], [-120.8388, 49.8457], [-120.8075, 49.8457], [-120.8075, 49.8665], [-120.8388, 49.8665], [-120.8388, 49.8624]]]}, "properties": {"company_id": "westhaven-gold", "jurisdiction": "British Columbia", "claim_id": 521062, "claim_name": "SHOVEL-8", "holder": "WESTHAVEN GOLD CORP.", "status": "Mineral", "recorded_date": "2005-10-12", "anniversary_or_expiry": "2033-05-19", "area_ha": 520.746, "tenure_type": "Mineral", "source": "BC MTA Mineral, Placer and Coal Tenure Spatial View (BCGW). Open Government Licence - British Columbia. Not legal title.", "as_of": "2026-09-20", "role": "focus", "color": "#e8b040"}}, {"type": "Feature", "geometry": {"type": "Polygon", "coordinates": [[[-120.87, 49.8415], [-120.87, 49.8249], [-120.8388, 49.8249], [-120.8388, 49.8457], [-120.87, 49.8457], [-120.87, 49.8415]]]}, "properties": {"company_id": "westhaven-gold", "jurisdiction": "British Columbia", "claim_id": 521063, "claim_name": "SHOVEL-9", "holder": "WESTHAVEN GOLD CORP.", "status": "Mineral", "recorded_date": "2005-10-12", "anniversary_or_expiry": "2033-05-19", "area_ha": 520.967, "tenure_type": "Mineral", "source": "BC MTA Mineral, Placer and Coal Tenure Spatial View (BCGW). Open Government Licence - British Columbia. Not legal title.", "as_of": "2026-09-20", "role": "focus", "color": "#e8b040"}}, {"type": "Feature", "geometry": {"type": "Polygon", "coordinates": [[[-120.8388, 49.8415], [-120.8388, 49.8249], [-120.8075, 49.8249], [-120.8075, 49.8457], [-120.8388, 49.8457], [-120.8388, 49.8415]]]}, "properties": {"company_id": "westhaven-gold", "jurisdiction": "British Columbia", "claim_id": 521064, "claim_name": "SHOVEL-10", "holder": "WESTHAVEN GOLD CORP.", "status": "Mineral", "recorded_date": "2005-10-12", "anniversary_or_expiry": "2033-05-19", "area_ha": 520.9680000000001, "tenure_type": "Mineral", "source": "BC MTA Mineral, Placer and Coal Tenure Spatial View (BCGW). Open Government Licence - British Columbia. Not legal title.", "as_of": "2026-09-20", "role": "focus", "color": "#e8b040"}}, {"type": "Feature", "geometry": {"type": "Polygon", "coordinates": [[[-120.8075, 49.8832], [-120.8075, 49.8665], [-120.7763, 49.8665], [-120.7763, 49.8874], [-120.8075, 49.8874], [-120.8075, 49.8832]]]}, "properties": {"company_id": "westhaven-gold", "jurisdiction": "British Columbia", "claim_id": 521065, "claim_name": "SHOVEL-11", "holder": "WESTHAVEN GOLD CORP.", "status": "Mineral", "recorded_date": "2005-10-12", "anniversary_or_expiry": "2033-05-19", "area_ha": 520.527, "tenure_type": "Mineral", "source": "BC MTA Mineral, Placer and Coal Tenure Spatial View (BCGW). Open Government Licence - British Columbia. Not legal title.", "as_of": "2026-09-20", "role": "focus", "color": "#e8b040"}}, {"type": "Feature", "geometry": {"type": "Polygon", "coordinates": [[[-120.8075, 49.8624], [-120.8075, 49.8457], [-120.7763, 49.8457], [-120.7763, 49.8665], [-120.8075, 49.8665], [-120.8075, 49.8624]]]}, "properties": {"company_id": "westhaven-gold", "jurisdiction": "British Columbia", "claim_id": 521066, "claim_name": "SHOVEL-12", "holder": "WESTHAVEN GOLD CORP.", "status": "Mineral", "recorded_date": "2005-10-12", "anniversary_or_expiry": "2033-05-19", "area_ha": 520.746, "tenure_type": "Mineral", "source": "BC MTA Mineral, Placer and Coal Tenure Spatial View (BCGW). Open Government Licence - British Columbia. Not legal title.", "as_of": "2026-09-20", "role": "focus", "color": "#e8b040"}}, {"type": "Feature", "geometry": {"type": "Polygon", "coordinates": [[[-120.9013, 49.8624], [-120.9013, 49.8457], [-120.87, 49.8457], [-120.87, 49.8665], [-120.9013, 49.8665], [-120.9013, 49.8624]]]}, "properties": {"company_id": "westhaven-gold", "jurisdiction": "British Columbia", "claim_id": 521067, "claim_name": "SHOVEL-13", "holder": "WESTHAVEN GOLD CORP.", "status": "Mineral", "recorded_date": "2005-10-12", "anniversary_or_expiry": "2033-05-19", "area_ha": 520.744, "tenure_type": "Mineral", "source": "BC MTA Mineral, Placer and Coal Tenure Spatial View (BCGW). Open Government Licence - British Columbia. Not legal title.", "as_of": "2026-09-20", "role": "focus", "color": "#e8b040"}}, {"type": "Feature", "geometry": {"type": "Polygon", "coordinates": [[[-120.8075, 49.904], [-120.8075, 49.8874], [-120.7763, 49.8874], [-120.7763, 49.9082], [-120.8075, 49.9082], [-120.8075, 49.904]]]}, "properties": {"company_id": "westhaven-gold", "jurisdiction": "British Columbia", "claim_id": 521068, "claim_name": "SHOVEL-14", "holder": "WESTHAVEN GOLD CORP.", "status": "Mineral", "recorded_date": "2005-10-12", "anniversary_or_expiry": "2033-05-19", "area_ha": 520.308, "tenure_type": "Mineral", "source": "BC MTA Mineral, Placer and Coal Tenure Spatial View (BCGW). Open Government Licence - British Columbia. Not legal title.", "as_of": "2026-09-20", "role": "focus", "color": "#e8b040"}}, {"type": "Feature", "geometry": {"type": "Polygon", "coordinates": [[[-120.8075, 49.8415], [-120.8075, 49.8249], [-120.7763, 49.8249], [-120.7763, 49.8457], [-120.8075, 49.8457], [-120.8075, 49.8415]]]}, "properties": {"company_id": "westhaven-gold", "jurisdiction": "British Columbia", "claim_id": 521069, "claim_name": "SHOVEL-15", "holder": "WESTHAVEN GOLD CORP.", "status": "Mineral", "recorded_date": "2005-10-12", "anniversary_or_expiry": "2033-05-19", "area_ha": 520.967, "tenure_type": "Mineral", "source": "BC MTA Mineral, Placer and Coal Tenure Spatial View (BCGW). Open Government Licence - British Columbia. Not legal title.", "as_of": "2026-09-20", "role": "focus", "color": "#e8b040"}}, {"type": "Feature", "geometry": {"type": "Polygon", "coordinates": [[[-120.7763, 49.8582], [-120.7763, 49.8249], [-120.7513, 49.8249], [-120.7513, 49.8415], [-120.7575, 49.8415], [-120.7575, 49.8457], [-120.7638, 49.8457], [-120.7638, 49.854], [-120.77, 49.854], [-120.77, 49.8624], [-120.7763, 49.8624], [-120.7763, 49.8582]]]}, "properties": {"company_id": "westhaven-gold", "jurisdiction": "British Columbia", "claim_id": 521070, "claim_name": "SHOVEL-16", "holder": "WESTHAVEN GOLD CORP.", "status": "Mineral", "recorded_date": "2005-10-12", "anniversary_or_expiry": "2033-05-19", "area_ha": 520.927, "tenure_type": "Mineral", "source": "BC MTA Mineral, Placer and Coal Tenure Spatial View (BCGW). Open Government Licence - British Columbia. Not legal title.", "as_of": "2026-09-20", "role": "focus", "color": "#e8b040"}}, {"type": "Feature", "geometry": {"type": "Polygon", "coordinates": [[[-121.5201, 50.3791], [-121.5201, 50.3457], [-121.4763, 50.3457], [-121.4763, 50.3624], [-121.4638, 50.3624], [-121.4638, 50.3749], [-121.4701, 50.3749], [-121.4701, 50.3791], [-121.4951, 50.3791], [-121.4951, 50.3832], [-121.5201, 50.3832], [-121.5201, 50.3791]]]}, "properties": {"company_id": "westhaven-gold", "jurisdiction": "British Columbia", "claim_id": 515980, "claim_name": null, "holder": "WESTHAVEN GOLD CORP.", "status": "Mineral", "recorded_date": "2005-07-04", "anniversary_or_expiry": "2033-08-01", "area_ha": 1381.0851, "tenure_type": "Mineral", "source": "BC MTA Mineral, Placer and Coal Tenure Spatial View (BCGW). Open Government Licence - British Columbia. Not legal title.", "as_of": "2026-09-20", "role": "focus", "color": "#e8b040"}}, {"type": "Feature", "geometry": {"type": "Polygon", "coordinates": [[[-121.5326, 50.3499], [-121.5326, 50.3374], [-121.5201, 50.3374], [-121.5201, 50.3541], [-121.5326, 50.3541], [-121.5326, 50.3499]]]}, "properties": {"company_id": "westhaven-gold", "jurisdiction": "British Columbia", "claim_id": 516061, "claim_name": null, "holder": "WESTHAVEN GOLD CORP.", "status": "Mineral", "recorded_date": "2005-07-05", "anniversary_or_expiry": "2033-08-01", "area_ha": 164.9641, "tenure_type": "Mineral", "source": "BC MTA Mineral, Placer and Coal Tenure Spatial View (BCGW). Open Government Licence - British Columbia. Not legal title.", "as_of": "2026-09-20", "role": "focus", "color": "#e8b040"}}, {"type": "Feature", "geometry": {"type": "Polygon", "coordinates": [[[-121.4638, 50.3707], [-121.4638, 50.3499], [-121.4513, 50.3499], [-121.4513, 50.3666], [-121.4576, 50.3666], [-121.4576, 50.3749], [-121.4638, 50.3749], [-121.4638, 50.3707]]]}, "properties": {"company_id": "westhaven-gold", "jurisdiction": "British Columbia", "claim_id": 516062, "claim_name": null, "holder": "WESTHAVEN GOLD CORP.", "status": "Mineral", "recorded_date": "2005-07-05", "anniversary_or_expiry": "2033-08-01", "area_ha": 206.1468, "tenure_type": "Mineral", "source": "BC MTA Mineral, Placer and Coal Tenure Spatial View (BCGW). Open Government Licence - British Columbia. Not legal title.", "as_of": "2026-09-20", "role": "focus", "color": "#e8b040"}}, {"type": "Feature", "geometry": {"type": "Polygon", "coordinates": [[[-121.2263, 50.0915], [-121.2263, 50.0749], [-121.22, 50.0749], [-121.22, 50.0707], [-121.2075, 50.0707], [-121.2075, 50.0665], [-121.2013, 50.0665], [-121.2013, 50.0624], [-121.1638, 50.0624], [-121.1638, 50.0874], [-121.195, 50.0874], [-121.195, 50.0957], [-121.2263, 50.0957], [-121.2263, 50.0915]]]}, "properties": {"company_id": "westhaven-gold", "jurisdiction": "British Columbia", "claim_id": 516440, "claim_name": null, "holder": "WESTHAVEN GOLD CORP.", "status": "Mineral", "recorded_date": "2005-07-08", "anniversary_or_expiry": "2027-03-29", "area_ha": 1285.5990000000002, "tenure_type": "Mineral", "source": "BC MTA Mineral, Placer and Coal Tenure Spatial View (BCGW). Open Government Licence - British Columbia. Not legal title.", "as_of": "2026-09-20", "role": "focus", "color": "#e8b040"}}, {"type": "Feature", "geometry": {"type": "Polygon", "coordinates": [[[-121.2388, 50.0957], [-121.2388, 50.0707], [-121.22, 50.0707], [-121.22, 50.0749], [-121.2263, 50.0749], [-121.2263, 50.0957], [-121.195, 50.0957], [-121.195, 50.0999], [-121.2388, 50.0999], [-121.2388, 50.0957]]]}, "properties": {"company_id": "westhaven-gold", "jurisdiction": "British Columbia", "claim_id": 516457, "claim_name": null, "holder": "WESTHAVEN GOLD CORP.", "status": "Mineral", "recorded_date": "2005-07-08", "anniversary_or_expiry": "2027-03-29", "area_ha": 414.629, "tenure_type": "Mineral", "source": "BC MTA Mineral, Placer and Coal Tenure Spatial View (BCGW). Open Government Licence - British Columbia. Not legal title.", "as_of": "2026-09-20", "role": "focus", "color": "#e8b040"}}, {"type": "Feature", "geometry": {"type": "Polygon", "coordinates": [[[-121.195, 50.0915], [-121.195, 50.0874], [-121.1638, 50.0874], [-121.1638, 50.0957], [-121.195, 50.0957], [-121.195, 50.0915]]]}, "properties": {"company_id": "westhaven-gold", "jurisdiction": "British Columbia", "claim_id": 516470, "claim_name": null, "holder": "WESTHAVEN GOLD CORP.", "status": "Mineral", "recorded_date": "2005-07-08", "anniversary_or_expiry": "2027-03-29", "area_ha": 207.3, "tenure_type": "Mineral", "source": "BC MTA Mineral, Placer and Coal Tenure Spatial View (BCGW). Open Government Licence - British Columbia. Not legal title.", "as_of": "2026-09-20", "role": "focus", "color": "#e8b040"}}, {"type": "Feature", "geometry": {"type": "Polygon", "coordinates": [[[-121.1638, 50.1666], [-121.1638, 50.1124], [-121.1388, 50.1124], [-121.1388, 50.1332], [-121.1325, 50.1332], [-121.1325, 50.1374], [-121.1138, 50.1374], [-121.1138, 50.1666], [-121.1388, 50.1666], [-121.1388, 50.1707], [-121.1575, 50.1707], [-121.1638, 50.1707], [-121.1638, 50.1666]]]}, "properties": {"company_id": "westhaven-gold", "jurisdiction": "British Columbia", "claim_id": 516550, "claim_name": null, "holder": "WESTHAVEN GOLD CORP.", "status": "Mineral", "recorded_date": "2005-07-10", "anniversary_or_expiry": "2027-03-29", "area_ha": 1760.222, "tenure_type": "Mineral", "source": "BC MTA Mineral, Placer and Coal Tenure Spatial View (BCGW). Open Government Licence - British Columbia. Not legal title.", "as_of": "2026-09-20", "role": "focus", "color": "#e8b040"}}, {"type": "Feature", "geometry": {"type": "Polygon", "coordinates": [[[-121.195, 50.129], [-121.195, 50.0957], [-121.1638, 50.0957], [-121.1638, 50.104], [-121.1575, 50.104], [-121.1575, 50.1124], [-121.1638, 50.1124], [-121.1638, 50.1332], [-121.195, 50.1332], [-121.195, 50.129]]]}, "properties": {"company_id": "westhaven-gold", "jurisdiction": "British Columbia", "claim_id": 516552, "claim_name": null, "holder": "WESTHAVEN GOLD CORP.", "status": "Mineral", "recorded_date": "2005-07-10", "anniversary_or_expiry": "2027-03-29", "area_ha": 973.869, "tenure_type": "Mineral", "source": "BC MTA Mineral, Placer and Coal Tenure Spatial View (BCGW). Open Government Licence - British Columbia. Not legal title.", "as_of": "2026-09-20", "role": "focus", "color": "#e8b040"}}, {"type": "Feature", "geometry": {"type": "Polygon", "coordinates": [[[-121.2325, 50.129], [-121.2325, 50.0999], [-121.195, 50.0999], [-121.195, 50.1332], [-121.2325, 50.1332], [-121.2325, 50.129]]]}, "properties": {"company_id": "westhaven-gold", "jurisdiction": "British Columbia", "claim_id": 516673, "claim_name": null, "holder": "WESTHAVEN GOLD CORP.", "status": "Mineral", "recorded_date": "2005-07-11", "anniversary_or_expiry": "2027-03-29", "area_ha": 994.5350000000001, "tenure_type": "Mineral", "source": "BC MTA Mineral, Placer and Coal Tenure Spatial View (BCGW). Open Government Licence - British Columbia. Not legal title.", "as_of": "2026-09-20", "role": "focus", "color": "#e8b040"}}, {"type": "Feature", "geometry": {"type": "Polygon", "coordinates": [[[-121.1325, 50.1707], [-121.1388, 50.1707], [-121.1388, 50.1666], [-121.1263, 50.1666], [-121.1263, 50.1707], [-121.1325, 50.1707]]]}, "properties": {"company_id": "westhaven-gold", "jurisdiction": "British Columbia", "claim_id": 516813, "claim_name": "PVE5", "holder": "WESTHAVEN GOLD CORP.", "status": "Mineral", "recorded_date": "2005-07-11", "anniversary_or_expiry": "2027-03-29", "area_ha": 41.394000000000005, "tenure_type": "Mineral", "source": "BC MTA Mineral, Placer and Coal Tenure Spatial View (BCGW). Open Government Licence - British Columbia. Not legal title.", "as_of": "2026-09-20", "role": "focus", "color": "#e8b040"}}, {"type": "Feature", "geometry": {"type": "Polygon", "coordinates": [[[-120.9013, 49.904], [-120.9013, 49.8874], [-120.87, 49.8874], [-120.87, 49.9082], [-120.9013, 49.9082], [-120.9013, 49.904]]]}, "properties": {"company_id": "westhaven-gold", "jurisdiction": "British Columbia", "claim_id": 521054, "claim_name": "SHOVEL-1", "holder": "WESTHAVEN GOLD CORP.", "status": "Mineral", "recorded_date": "2005-10-12", "anniversary_or_expiry": "2033-05-19", "area_ha": 520.302, "tenure_type": "Mineral", "source": "BC MTA Mineral, Placer and Coal Tenure Spatial View (BCGW). Open Government Licence - British Columbia. Not legal title.", "as_of": "2026-09-20", "role": "focus", "color": "#e8b040"}}, {"type": "Feature", "geometry": {"type": "Polygon", "coordinates": [[[-120.87, 49.904], [-120.87, 49.8874], [-120.8388, 49.8874], [-120.8388, 49.9082], [-120.87, 49.9082], [-120.87, 49.904]]]}, "properties": {"company_id": "westhaven-gold", "jurisdiction": "British Columbia", "claim_id": 521055, "claim_name": "SHOVEL-2", "holder": "WESTHAVEN GOLD CORP.", "status": "Mineral", "recorded_date": "2005-10-12", "anniversary_or_expiry": "2033-05-19", "area_ha": 520.302, "tenure_type": "Mineral", "source": "BC MTA Mineral, Placer and Coal Tenure Spatial View (BCGW). Open Government Licence - British Columbia. Not legal title.", "as_of": "2026-09-20", "role": "focus", "color": "#e8b040"}}, {"type": "Feature", "geometry": {"type": "Polygon", "coordinates": [[[-121.1638, 50.1707], [-121.17, 50.1707], [-121.17, 50.1666], [-121.1638, 50.1666], [-121.1638, 50.1707]]]}, "properties": {"company_id": "westhaven-gold", "jurisdiction": "British Columbia", "claim_id": 517426, "claim_name": "PVE6", "holder": "WESTHAVEN GOLD CORP.", "status": "Mineral", "recorded_date": "2005-07-12", "anniversary_or_expiry": "2027-03-29", "area_ha": 20.697000000000003, "tenure_type": "Mineral", "source": "BC MTA Mineral, Placer and Coal Tenure Spatial View (BCGW). Open Government Licence - British Columbia. Not legal title.", "as_of": "2026-09-20", "role": "focus", "color": "#e8b040"}}, {"type": "Feature", "geometry": {"type": "Polygon", "coordinates": [[[-121.5076, 50.3207], [-121.5076, 50.3166], [-121.4701, 50.3166], [-121.4701, 50.3291], [-121.4826, 50.3291], [-121.4826, 50.3332], [-121.4888, 50.3332], [-121.4888, 50.3249], [-121.5076, 50.3249], [-121.5076, 50.3207]]]}, "properties": {"company_id": "westhaven-gold", "jurisdiction": "British Columbia", "claim_id": 503076, "claim_name": "SAMS", "holder": "WESTHAVEN GOLD CORP.", "status": "Mineral", "recorded_date": "2005-01-13", "anniversary_or_expiry": "2033-08-01", "area_ha": 330.08910000000003, "tenure_type": "Mineral", "source": "BC MTA Mineral, Placer and Coal Tenure Spatial View (BCGW). Open Government Licence - British Columbia. Not legal title.", "as_of": "2026-09-20", "role": "focus", "color": "#e8b040"}}, {"type": "Feature", "geometry": {"type": "Polygon", "coordinates": [[[-121.5076, 50.3124], [-121.5076, 50.3041], [-121.5013, 50.3041], [-121.5013, 50.3166], [-121.5076, 50.3166], [-121.5076, 50.3124]]]}, "properties": {"company_id": "westhaven-gold", "jurisdiction": "British Columbia", "claim_id": 503083, "claim_name": "SAMS", "holder": "WESTHAVEN GOLD CORP.", "status": "Mineral", "recorded_date": "2005-01-13", "anniversary_or_expiry": "2033-08-01", "area_ha": 61.906200000000005, "tenure_type": "Mineral", "source": "BC MTA Mineral, Placer and Coal Tenure Spatial View (BCGW). Open Government Licence - British Columbia. Not legal title.", "as_of": "2026-09-20", "role": "focus", "color": "#e8b040"}}]}