{"type": "FeatureCollection", "features": [{"type": "Feature", "geometry": {"type": "Polygon", "coordinates": [[[-122.041, 52.9902], [-122.0405, 52.9917], [-122.0548, 52.9935], [-122.0563, 52.9891], [-122.0423, 52.9874], [-122.0426, 52.9881], [-122.041, 52.9902]]]}, "properties": {"company_id": "white-gold", "jurisdiction": "British Columbia", "claim_id": 264181, "claim_name": "FALL", "holder": "WHITE, DONALD ARTHUR", "status": "Placer", "recorded_date": "5933088000", "anniversary_or_expiry": "2025-12-31", "area_ha": 50, "tenure_type": "Placer", "source": "BC MTA Mineral, Placer and Coal Tenure Spatial View (BCGW). Open Government Licence - British Columbia. Not legal title.", "as_of": "2026-09-20", "role": "focus", "color": "#e8b040"}}]}